store_name,store_number,address,address2,city,state,zip_code,country,phone_number,latitude,longitude,store_hours,other_fields,coming_soon
Alameda-Webster,,1901 Webster Ave.,,Alameda,CA,94501,United States,(510) 254-3857,,,Thursday 11am - 12pm,,0
Alameda,,1365 Park Street,,Alameda,CA,94501,United States,(510) 473-0136,,,Thursday 11am - 12pm,,0
Alamo,,"215 Alamo Plaza, Suite E",,Alamo,CA,94507,United States,(925) 791-6163,,,Saturday 10am - 11am,,0
Belmont,,1200 El Camino Real,,Belmont,CA,94002,United States,(650) 593-3053,,,Wednesday 2pm - 3pm,,0
Berkeley-4th Street,,1776 4th Street,,Berkeley,CA,94710,United States,(510) 525-3207,,,Saturday 1pm - 2pm,,0
Berkeley-College Ave,,3200 College Avenue,,Berkeley,CA,94705,United States,(510) 899-6740,,,Saturday 10am - 11am,,0
Berkeley-Domingo Ave,,2916 Domingo Avenue,,Berkeley,CA,94705,United States,(510) 843-1434,,,Saturday 12pm - 1pm,,0
Berkeley-Downtown,,2255 Shattuck Avenue,,Berkeley,CA,94704,United States,(510) 225-0451,,,Thursday 2pm - 3pm,,0
Berkeley-Solano Ave,,1825 Solano Avenue,,Berkeley,CA,94707,United States,(510) 526-9607,,,Saturday 11am - 12pm,,0
Berkeley-Telegraph,,2501 Telegraph Avenue,,Berkeley,CA,94704,United States,(510) 225-7700,,,Friday 12pm - 1pm,,0
Berkeley-Vine Street,,2124 Vine Street,,Berkeley,CA,94709,United States,(510) 841-0564,,,Thursday 1pm - 2pm,,0
Beverly Hills,,258 South Beverly Drive,,Beverly Hills,CA,90212,United States,(310) 248-3664,,,Friday 10am - 11am,,0
Brentwood-Lone Tree,,"5411 Lone Tree Way, Suite L-130",,Brentwood,CA,94513,United States,(925) 513-4102,,,Sunday 12pm - 1pm,,0
Burlingame,,1309 Burlingame Avenue,,Burlingame,CA,94010,United States,(650) 548-0494,,,Saturday 11am - 12pm,,0
Capitola,,"819 Bay Avenue, Suite A",,Capitola,CA,95010,United States,(831) 316-5040,,,Saturday 10am - 11am,,0
Carlsbad-Bressi Ranch,,"2641 Gateway Road, Suite 103",,Carlsbad,CA,92009,United States,(760) 448-1835,,,Saturday 11am - 12pm,,0
Castro Valley,,20439 Redwood Road,,Castro Valley,CA,94546,United States,(510) 537-0181,,,Wednesday 2pm - 3pm,,0
Chico,,145 Main Street,,Chico,CA,95928,United States,(530) 894-6716,,,Friday 3pm - 4pm,,0
Concord-Clayton Valley,,"5458 Ygnacio Valley Road, Suite 10",,Concord,CA,94521,United States,(925) 673-5225,,,Saturday 10am - 11am,,0
Concord-Downtown,,2072 Salvio Street,,Concord,CA,94520,United States,(925) 405-3650,,,Saturday 11:30am - 12:30am,,0
Concord-Treat & Oak Grove,,"785 Oak Grove Road, Suite I",,Concord,CA,94518,United States,(925) 849- 0030,,,Saturday 11am - 12pm,,0
Corte Madera,,77 Casa Buena Dr,,Corte Madera,CA,94925,United States,(415) 306-9340,,,Saturday 12pm - 1pm,,0
Costa Mesa,,424 East 17th Street,,Costa Mesa,CA,92627,United States,(949) 335-0670,,,Tuesday 2pm - 3pm,,0
Cotati,,7764 Old Redwood Hwy,,Cotati,CA,94931,United States,(707) 796-7080,,,Saturday 12pm - 1pm,,0
Cupertino,,"20807 Stevens Creek Boulevard, Suite 200",,Cupertino,CA,95014,United States,(408) 213-1870,,,Saturday 10am - 11am,,0
Cupertino-Homestead,,22350 Homestead Road,,Cupertino,CA,95014,United States,(408) 636-1850,,,Saturday 1pm - 2pm,,0
Danville,,435 Railroad Avenue,,Danville,CA,94526,United States,(925) 314-0990,,,Friday 10am - 11am,,0
Davis,,"1411 West Covell Boulevard, #114 B",,Davis,CA,95616,United States,(530) 750-5085,,,Friday 1pm - 2pm,,0
Davis-Downtown,,231 E Street,,Davis,CA,95616,United States,(530) 747-2064,,,Saturday 11am - 12pm,,0
Dublin,,"4620 Tassajara Road, Suite C",,Dublin,CA,94568,United States,(925) 404-0095,,,Tuesday 10am - 11am,,0
El Cerrito,,9895 San Pablo Avenue,,El Cerrito,CA,94530,United States,(510) 225-2080,,,Friday 1pm - 2pm,,0
El Dorado Hills,,"1004 White Rock Road, Suite 100",,El Dorado Hills,CA,95762,United States,(916) 934-0423,,,Thursday 10am - 11am,,0
El Segundo,,"820 S. Sepulveda,Suite A100",,El Segundo,CA,90245,United States,(424)367-3977,,,Thursday 10am - 11am,,0
Elk Grove,,"8234 Laguna Boulevard, Suite 100",,Elk Grove,CA,95758,United States,(916) 683-7191,,,Wednesday 12pm - 1pm,,0
Emeryville,,"5959 Shellmound Street, Suite 85",,Emeryville,CA,94608,United States,(510) 844-0850,,,Saturday 1pm - 2pm,,0
Fair Oaks,,8909 Madison Avenue Suite 400,,Fair Oaks,CA,95628,United States,(916) 844-3050,,,Saturday 11am - 12pm,,0
Fairfield,,"1380 Holiday Lane, Suite A",,Fairfield,CA,94534,United States,(707) 399-8606,,,Saturday 12pm - 1pm,,0
Folsom,,"1290 East Bidwell Street, Suite 110",,Folsom,CA,95630,United States,(916) 817-4527,,,Saturday 11am - 12pm,,0
Fremont,,2780 Mowry Avenue,,Fremont,CA,94538,United States,(510) 857-9000,,,Saturday 12pm - 1pm,,0
Granite Bay,,"5550 Douglas Boulevard, Suite D-110",,Granite Bay,CA,95746,United States,(916) 783-3113,,,Friday 10am - 11am,,0
Greenbrae,,276 Bon Air Center,,Greenbrae,CA,94904,United States,(415) 461-2695,,,Saturday 11am - 12pm,,0
Half Moon Bay,,142 San Mateo Road,,Half Moon Bay,CA,94019,United States,(650) 726-1261,,,Saturday 1pm - 2pm,,0
Hayward,,878 B Street,,Hayward,CA,94541,United States,510-300-3380,,,Saturday 11am - 12pm,,0
Huntington Beach,,"7821 Edinger Avenue, Building B3, Suite 138",,Huntington Beach,CA,92647,United States,(714) 230-8001,,,Saturday 12pm - 1pm,,0
Irvine-Crossroads,,"3972 Barranca Pkwy, Suite F-2",,Irvine,CA,92606,United States,(949) 333-6884,,,Saturday 11am - 12pm,,0
Irvine-Orchard Hills,,3927 Portola Parkway,,Irvine,CA,92620,United States,(714) 689-9028,,,Saturday 12pm - 1pm,,0
Irvine-UC Irvine,,4213 Campus Dr. Suite P-166A,,Irvine,CA,92612,United States,(949) 419-1458,,,Saturday 1pm - 2pm,,0
La Jolla,,"8843 Villa La Jolla Drive, Suite #C202",,La Jolla,CA,92037,United States,(858) 678-0806,,,Tuesday 12:30pm - 1:30pm,,0
Lafayette,,"3518 Mount Diablo Boulevard, #E",,Lafayette,CA,94549,United States,(925) 299-0735,,,Wednesday 1pm - 2pm,,0
Laguna Niguel,,"32371 Golden Lantern, Bldg 6, Suite H",,Laguna Niguel,CA,92677,United States,(949) 325-0540,,,Saturday 1pm - 2pm,,0
Aliso Village,,23904 Aliso Creek Road,,Laguna Niguel,CA,92677,United States,(949) 860-7801,,,Saturday 1pm - 2pm,,0
Lake Forest,,"23700 El Toro Road, Suite B",,Lake Forest,CA,92630,United States,(949) 420-3500,,,Saturday 12pm - 1pm,,0
Livermore,,152 South Livermore Avenue,,Livermore,CA,94550,United States,(925) 579-5011,,,Saturday 11am - 12pm,,0
Long Beach-Belmont Shore,,5246 East Second Street,,Long Beach,CA,90803,United States,(562) 433-7306,,,Wednesday 5pm - 6pm,,0
Los Altos-El Camino,,4598 El Camino Real,,Los Altos,CA,94022,United States,(650) 469-0035,,,Saturday 12pm - 1pm,,0
Los Altos,,367 State Street,,Los Altos,CA,94022,United States,(650) 941-6722,,,Friday 11am - 12pm,,0
Los Angeles-1854 Westwood Blvd.,,1854 Westwood Boulevard,,Los Angeles,CA,90025,United States,(310) 954-8558,,,Saturday 11am - 12pm,,0
Los Angeles-3rd & Fairfax,,"175 South Fairfax Avenue, Unit D",,Los Angeles,CA,90036,United States,(323) 648-4980,,,Saturday 1pm - 2pm,,0
Los Angeles-Brentwood,,11750 San Vicente Boulevard,,Los Angeles,CA,90049,United States,(310) 979-7892,,,Friday 1pm - 2pm,,0
Los Angeles-Larchmont,,124 North Larchmont Boulevard,,Los Angeles,CA,90004,United States,(323) 978-1003,,,Saturday 11am - 12pm,,0
Los Angeles-Westwood Village,,1154 Westwood Boulevard,,Los Angeles,CA,90024,United States,(310) 954-8191,,,Wednesday 11am - 12pm,,0
Los Gatos,,798-1 Blossom Hill Road,,Los Gatos,CA,95032,United States,(408) 358-6311,,,Saturday 10am - 11am,,0
Manhattan Beach,,328 Manhattan Beach Boulevard,,Manhattan Beach,CA,90266,United States,(310) 379-1896,,,Sunday 12pm - 1pm,,0
Marina Del Rey,,4706 Lincoln Boulevard,,Marina Del Rey,CA,90292,United States,(310) 823-1335,,,Thursday 6pm - 7pm,,0
Menlo Park-El Camino,,"515 El Camino Real, Suite 100",,Menlo Park,CA,94025,United States,(650) 543-0784,,,Saturday 12pm - 1pm,,0
Menlo Park,,899 Santa Cruz Avenue,,Menlo Park,CA,94025,United States,(650) 325-8989,,,Saturday 12pm - 1pm,,0
Mill Valley,,88 Throckmorton Avenue,,Mill Valley,CA,94941,United States,(415) 381-8227,,,Friday 2pm - 3pm,,0
Millbrae,,401 Broadway,,Millbrae,CA,94030,United States,(650) 648-0231,,,Saturday 11am - 12pm,,0
Milpitas,,543 East Calaveras Boulevard,,Milpitas,CA,95035,United States,(408) 416-0700,,,Saturday 11am - 12pm,,0
Monterey,,560 Munras Suite 10,,Monterey,CA,93940,United States,(831) 641-9029,,,Saturday 11am - 12pm,,0
Morgan Hill,,"755 Cochrane Road, Suite 100",,Morgan Hill,CA,95037,United States,(408) 776-1364,,,Saturday 10am - 11am,,0
Mountain View,,695 W El Camino Real,,Mountain View,CA,94040,United States,(650) 605-0003,,,Monday 11am - 12pm,,0
Napa,,3678 Bel Aire Plaza,,Napa,CA,94558,United States,(707) 254-7690,,,Saturday 11am - 12pm,,0
Newport Beach-Corona Del Mar,,894 Avocado Avenue,,Newport Beach,CA,92660,United States,(949) 640-6377,,,Saturday 11am - 12pm,,0
Novato,,7320 Redwood Boulevard,,Novato,CA,94945,United States,(415) 897-4920,,,Saturday 11am - 12pm,,0
Novato-Novato Hamilton,,5800 Nave Dr. Suite M,,Novato,CA,94949,United States,(415) 475-4121,,,Saturday 10am - 11am,,0
Oakland-Dimond District,,3401 Fruitvale Avenue,,Oakland,CA,94602,United States,(510) 842-0203,,,Saturday 11am - 12pm,,0
Oakland-Downtown,,1111 Broadway,,Oakland,CA,94607,United States,(510) 844-0061,,,Thursday 1pm - 2pm,,0
Oakland-Lake Shore Ave,,3258 Lakeshore Avenue,,Oakland,CA,94610,United States,(510) 832-6761,,,Saturday 1pm - 2pm,,0
Oakland-Montclair,,2066 Antioch Court,,Oakland,CA,94611,United States,(510) 339-6075,,,Sunday 12pm - 1pm,,0
Oakland-Piedmont Ave,,4050 Piedmont Avenue,,Oakland,CA,94611,United States,(510) 655-3228,,,Saturdays 11am - 12pm,,0
Oakland-Temescal,,5095 Telegraph Avenue Suite #1,,Oakland,CA,94609,United States,(510) 899-6230,,,Friday 12pm - 1pm,,0
Orinda,,63 Moraga Way,,Orinda,CA,94563,United States,(925) 258-9328,,,Saturday 11am - 12pm,,0
Palo Alto,,153 Homer Avenue,,Palo Alto,CA,94301,United States,(650) 325-2091,,,Monday 10am - 11am,,0
Palo Alto-Charleston,,3904 Middlefield Road,,Palo Alto,CA,94303,United States,(650) 433-0500,,,Saturday 12pm - 1pm,,0
Palo Alto-Downtown,,436 University Avenue,,Palo Alto,CA,94301,United States,(650) 319-0367,,,Thursday 1pm - 2pm,,0
Palo Alto-Town & Country,,77 Town & Country,,Palo Alto,CA,94301,United States,(650) 328-4771,,,Saturday 1pm - 2pm,,0
Pasadena,,605 South Lake Avenue,,Pasadena,CA,91106,United States,(626) 795-7413,,,Saturday 12pm - 1pm,,0
Pasadena-Hastings Ranch,,3571-A East Foothill Boulevard,,Pasadena,CA,91107,United States,(626) 351-6822,,,Saturday 11am - 12pm,,0
Petaluma,,"5 Petaluma Boulevard South, Suite A",,Petaluma,CA,94952,United States,(707) 782-0401,,,Saturday 11am - 12pm,,0
Petaluma-Washington Square,,351 South McDowell Boulevard,,Petaluma,CA,94954,United States,(707) 773-3347,,,Thursday 10am - 11am,,0
Pinole,,2712 Pinole Valley Road,,Pinole,CA,94564,United States,(510) 669-9815,,,Friday 10am - 11am,,0
Pleasant Hill,,"65 Crescent Drive, Suite A",,Pleasant Hill,CA,94523,United States,(925) 969-1604,,,Saturday 11am - 12pm,,0
Pleasanton,,5765 Valley Avenue Suite 100,,Pleasanton,CA,94566,United States,(925) 401-0018,,,Tuesday 3pm - 4pm,,0
Pleasanton-Main Street,,"349 Main Street, Suite 110",,Pleasanton,CA,94566,United States,(925) 474- 9301,,,Tuesday 3pm - 4pm,,0
Redondo Beach,,1418 South Pacific Coast Hwy,,Redondo Beach,CA,90277,United States,(310) 792-3800,,,Saturday 10:30am - 11:30 am,,0
Redwood City,,2600 Broadway,,Redwood City,CA,94063,United States,(650) 362-1000,,,Saturday 12pm - 1pm,,0
Roseville-Rocklin,,"731 Pleasant Grove Boulevard, Suite 185",,Roseville,CA,95678,United States,(916) 771-4391,,,Thursday 10am - 11am,,0
Roseville-The Fountains,,"1198 Roseville Parkway, Suite 175",,Roseville,CA,95678,United States,(916) 677-4946,,,Saturday 11am - 12pm,,0
Sacramento-20th & J,,"1050 20th Street, Suite 190",,Sacramento,CA,95811,United States,(916) 266-7660,,,Saturday 11am - 12pm,,0
Sacramento-37th & J,,3711 J Street Suite A,,Sacramento,CA,95816,United States,(916) 266-7670,,,Saturday 11am - 12pm,,0
Sacramento-Alhambra,,3100 Folsom Suite 100,,Sacramento,CA,95816,United States,(916) 379-8740,,,Saturday 11am - 12pm,,0
Sacramento-Lyon Village,,"2580 Fair Oaks Boulevard, Suite 2",,Sacramento,CA,95825,United States,(916) 485-7887,,,Saturday 11am - 12pm,,0
Sacramento-Arden Way,,1749 Arden Way,,Sacramento,CA,95825,United States,(916) 641-3359,,,Saturday 11am - 12pm,,0
Sacramento-R Street,,1800 - 19th Street,,Sacramento,CA,95814,United States,(916) 266-2400,,,Sunday 10am - 11am,,0
San Anselmo,,896 Sir Francis Drake Boulevard,,San Anselmo,CA,94960,United States,(415) 306-0310,,,Friday 11am - 12pm,,0
San Carlos,,"677 Laurel, Suite B",,San Carlos,CA,94070,United States,(650) 517-5890,,,Sunday 11am - 12pm,,0
San Clemente,,"801 Avenida Talega, Shop 2A, 101",,San Clemente,CA,92673,United States,(949) 325-0487,,,Saturday 10am - 11am,,0
San Diego-Encinitas,,"119 North El Camino Real, Suite G",,Encinitas,CA,92024,United States,(760) 274-1280,,,Saturday 11am - 12pm,,0
San Diego-Hillcrest,,"350 University Avenue, Suite D",,San Diego,CA,92103,United States,(619) 296-5995,,,Saturday 10am - 11am,,0
San Diego-Point Loma,,"955 Catalina Boulevard, Suite 103",,San Diego,CA,92106,United States,(619) 858-0157,,,Saturday 10am - 11am,,0
San Diego-Torrey Highlands,,"7845 Highland Village Pl, Suite C105",,San Diego,CA,92129,United States,(858) 434-0001,,,Saturday 10am - 11am,,0
San Diego-Rancho Bernardo,,11922 Bernardo Plaza Drive,,San Diego,CA,92128,United States,(858) 683-8298,,,Saturday 10am - 11am,,0
San Francisco-773 Market,,773 Market Street,,San Francisco,CA,94102,United States,(628) 220-3250,,,Friday 10am - 11am,,0
San Francisco-Rincon,,121 Spear Street,,San Francisco,CA,94105,United States,(628) 220-3250,,,Friday 10am - 11am,,0
San Francisco-1 California,,1 California,,San Francisco,CA,94111,United States,(415) 593-8960,,,Friday 10am - 11am,,0
San Francisco-1400 Van Ness,,1400 Van Ness Avenue,,San Francisco,CA,94109,United States,(415) 230-7822,,,Thursday 10am - 11am,,0
San Francisco-16th & Geary,,5201 Geary Boulevard,,San Francisco,CA,94118,United States,(415) 592-2200,,,Sunday 1pm - 2pm,,0
San Francisco-1st & Howard,,405 Howard,,San Francisco,CA,94105,United States,(415) 593-8920,,,Thursday 1pm - 2pm,,0
San Francisco-3rd & Misson,,692 Mission Street,,San Francisco,CA,94105,United States,(415) 593-8945,,,Thursday 2pm - 3pm,,0
San Francisco-450 Sansome,,450 Sansome Suite 1,,San Francisco,CA,94111,United States,(415) 321-5280,,,Thursday 1pm - 2pm,,0
San Francisco-4th & Harrison,,370 Fourth Street,,San Francisco,CA,94107,United States,(415) 230-3091,,,Wednesday 11am - 12pm,,0
San Francisco-595 Market,,595 Market  Street,,San Francisco,CA,94105,United States,(415) 655-2640,,,Thursday 10am - 11am,,0
San Francisco-9th & Bryant,,"555 9th Street, Suite B5",,San Francisco,CA,94103,United States,(415) 593-0430,,,Saturday 2pm - 3pm,,0
San Francisco-Bush/Battery/Market,,22 Battery Street,,San Francisco,CA,94111,United States,(415) 981-4550,,,Thursday 1pm - 2pm,,0
San Francisco-Cole,,919 Cole Street,,San Francisco,CA,94117,United States,(415) 213-1991,,,Saturday 1pm - 2pm,,0
San Francisco-Chestnut Street,,2080 Chestnut Street,,San Francisco,CA,94123,United States,(415) 635-2393,,,Saturday 12pm - 1pm,,0
San Francisco-Embarcardero,,"Two Embarcadero Center, Suite R2113",,San Francisco,CA,94111,United States,(415) 869-1744,,,Friday 1pm - 2pm,,0
San Francisco-Fell & Broderick,,310 Broderick Street,,San Francisco,CA,94117,United States,(415) 593-8830,,,Saturday 11pm - 1pm,,0
San Francisco-Ferry Building,,"1 Ferry Building, Shop 43",,San Francisco,CA,94111,United States,(415) 593-3831,,,Friday 1pm - 2pm,,0
San Francisco-Fillmore,,2197 Fillmore Street,,San Francisco,CA,94115,United States,(415) 563-9930,,,Saturday 11am - 12pm,,0
San Francisco-Laurel Village,,3419 California Street,,San Francisco,CA,94118,United States,(415) 221-8506,,,Saturday 12pm - 1pm,,0
San Francisco-Market Street,,2257 Market Street,,San Francisco,CA,94114,United States,(415) 626-6416,,,Friday 11am - 12pm,,0
San Francisco-Mission Street,,595 Mission Street,,San Francisco,CA,94105,United States,(415) 495-4323,,,Wednesday 12pm - 1pm,,0
San Francisco-Opera Plaza,,601 Van Ness,,San Francisco,CA,94102,United States,(415) 593-2661,,,Thursday 1pm - 2pm,,0
San Francisco-Polk Street,,2139 C Polk Street,,San Francisco,CA,94109,United States,(415) 474-1871,,,Saturday 12pm - 1pm,,0
San Francisco-Potrero,,"2300 16th Street, Suite 240",,San Francisco,CA,94103,United States,(415) 565-6713,,,Saturday 1pm - 2pm,,0
San Francisco-Russ Bldg,,217 Montgomery Street,,San Francisco,CA,94104,United States,(415) 421-8420,,,Thursday 10am - 11am,,0
San Francisco-Sloat,,1509 Sloat Boulevard,,San Francisco,CA,94132,United States,(415) 213-8791,,,Saturday 11:30am - 12:30pm,,0
San Francisco-Stonestown Peet’s,,3251 20th Ave.,,San Francisco,CA,94132,United States,(415) 213-8380,,,Saturday 11am - 12pm,,0
San Francisco-West Portal,,54 West Portal Avenue,,San Francisco,CA,94127,United States,(415) 731-0375,,,Saturday 11am - 12pm,,0
San Francisco-155 Montgomery,,"155 Montgomery Street, Suite 161",,San Francisco,CA,94104,United States,(415) 576-8810,,,Saturday 11am - 12pm,,0
San Francisco-1400 Mission,,"1400 Mission Street, Suite 130",,San Francisco,CA,94102,United States,(415) 230-3091,,,Saturday 11am - 12pm,,0
San Jose-Samsung,,"3655 North 1st, Suite 101",,San Jose,CA,95134,United States,(408) 618-0001,,,Saturday 11am - 12pm,,0
San Jose-Blossom Hill,,"1110 Blossom Hill Road, Suite 20",,San Jose,CA,95118,United States,(408) 256-4584,,,Saturday 11am - 12pm,,0
San Jose-Camden Park,,2035 Camden Avenue,,San Jose,CA,95124,United States,(408) 371-9088,,,Saturday 11am - 12pm,,0
San Jose-El Paseo,,1330 El Paseo De Saratoga,,San Jose,CA,95130,United States,(408) 871-0907,,,Saturday 12pm - 1pm,,0
San Jose-Rose Garden,,1295 The Alameda,,San Jose,CA,95126,United States,(408) 213-7285,,,Sunday 11am - 12pm,,0
San Jose-Santana Row,,"377 Santana Row, Suite # 1130",,San Jose,CA,95128,United States,(408) 213-1071,,,Saturday 12pm - 1pm,,0
San Jose-Willow Glen,,"1140 Lincoln Avenue, Suite C",,San Jose,CA,95125,United States,(408) 975-9281,,,Saturday 11am - 12pm,,0
San Jose-Brokaw,,"1088 E. Brokaw Road, Suite 80",,San Jose,CA,95131,United States,(408) 975-9281,,,Saturday 11am - 12pm,,0
San Luis Obispo,,"1075 Court Street, Suite 110",,San Luis Obispo,CA,93401,United States,(805) 597-9478,,,Friday 11am - 12pm,,0
San Leandro,,1500 East 14th Street,,San Leandro,CA,94577,United States,(510) 564-7072,,,Friday 11am - 12pm,,0
San Mateo-Bay Meadows,,1020 Park Place,,San Mateo,CA,94403,United States,(650) 403-0110,,,Saturday 11am - 12pm,,0
San Mateo,,255 East 3rd Avenue,,San Mateo,CA,94401,United States,(650) 403-1591,,,Sunday 10am - 11am,,0
San Rafael,,402 Third Street,,San Rafael,CA,94901,United States,(415) 306-0261,,,Thursday 12pm - 1pm,,0
San Rafael-Northgate Mall,,"5800 Northgate Mall, Suite 146",,San Rafael,CA,94903,United States,(415) 526-0550,,,Saturday 3pm - 4pm,,0
San Ramon-Bollinger Canyon,,"11000 Bollinger Canyon Road, Suite A",,San Ramon,CA,94582,United States,(925) 964-9195,,,Saturday 1pm - 2pm,,0
San Ramon-Crow Canyon,,"3121 Crow Canyon Place,, Suite C",,San Ramon,CA,94583,United States,(925) 901-1005,,,Wednesday 1pm - 2pm,,0
San Ramon,,166 Sunset Drive,,San Ramon,CA,94583,United States,(925) 866-6628,,,Tuesday 2pm - 3pm,,0
Santa Barbara,,"3905 State Street, R2",,Santa Barbara,CA,93105,United States,(805) 687-9952,,,Saturday 12pm - 1pm,,0
Santa Barbara-Downtown,,1131 State Street,,Santa Barbara,CA,93101,United States,(760) 902-7789,,,Saturday 2pm - 3pm,,0
Santa Clara,,3932 Rivermark Plaza,,Santa Clara,CA,95054,United States,(408) 213-0810,,,Thursday 10am - 11am,,0
Santa Clara on El Camino Real,,"2002 El Camino Real, Suite 20",,Santa Clara,CA,95050,United States,(408) 831-7517,,,Thursday 10am - 11am,,0
Santa Clarita,,27047 McBean Parkway,,Santa Clarita,CA,91355,United States,(661) 259-8345,,,Thursday 2pm - 3pm,,0
Santa Cruz,,1409 Pacific Avenue,,Santa Cruz,CA,95060,United States,(831) 457-8170,,,Saturday 1pm - 2pm,,0
Santa Monica-Edgemar,,2439 Main Street,,Santa Monica,CA,90405,United States,(310) 399-8117,,,Saturday 12pm - 1pm,,0
Santa Monica-Montana Ave,,1401 Montana Avenue,,Santa Monica,CA,90403,United States,(310) 394-8555,,,Saturday 11am - 12pm,,0
Santa Rosa-Downtown,,"650 Fourth Street, Suite 100",,Santa Rosa,CA,95404,United States,(707) 545-5757,,,Thursday 3pm - 4pm,,0
Santa Rosa-North,,2500 Mendocino Avenue,,Santa Rosa,CA,95403,United States,(707) 568-3464,,,Saturday 11am - 12pm,,0
Saratoga,,12148 Saratoga-Sunnyvale Road,,Saratoga,CA,95070,United States,(408) 213-0433,,,Saturday 11am - 12pm,,0
Scotts Valley,,"214 Mt. Hermon Road, Suite E",,Scotts Valley,CA,95066,United States,(831) 430-9293,,,Saturday 10am - 11am,,0
Seal Beach,,12203 Seal Beach Boulevard,,Seal Beach,CA,90740,United States,(562) 546-0007,,,Saturday 11am - 12pm,,0
Solana Beach,,125 Lomas Santa Fe Drive,,Solana Beach,Ca,92075,United States,(858) 436-8747,,,Saturday 10am - 11am,,0
Sonoma,,591 Broadway,,Sonoma,CA,95476,United States,(707) 931-7740,,,Saturday 11am - 12pm,,0
South San Francisco,,102 Grand Avenue,,South San Francisco,CA,94080,United States,(650) 636-8600,,,Saturday 11am - 12pm,,0
Stockton-Stonecreek,,5765 Pacific Avenue Suite C-125,,Stockton,CA,95207,United States,(209) 474-7297,,,Friday 11am - 12pm,,0
Studio City,,"12215 Ventura Boulevard, #101",,Studio City,CA,91604,United States,(818) 487-1970,,,Saturday 12pm - 1pm,,0
Sunnyvale,,144 West El Camino Real,,Sunnyvale,CA,94087,United States,(408) 636-0545,,,Saturday 2pm - 3pm,,0
Tarzana,,18973 Ventura Boulevard,,Tarzana,CA,91356,United States,(818) 401-0263,,,Sunday 11am - 12pm,,0
Thousand Oaks,,"595 Moorpark Road, Suite B",,Thousand Oaks,CA,91360,United States,(805) 497-8366,,,Saturday 3pm - 4pm,,0
Tiburon,,"1 Blackfield Drive, Suite A",,Tiburon,CA,94920,United States,(415) 384-3900,,,Sunday 2pm - 3pm,,0
Torrance,,2649 Pacific Coast Hwy,,Torrance,CA,90505,United States,(310) 626-8008,,,Thursday 5pm - 6pm,,0
Seattle-Green Lake,,6850 East Green Lake Way North,,Seattle,WA,98115,United States,(206) 267-1440,,,Saturday 10am - 11am,,0
Redmond-Redmond Way,,17887 Redmond Way Suite 130,,Redmond,WA,98052,United States,(425) 968-6125,,,Saturday 11am - 12pm,,0
Vancouver-Salmon Creek,,"13307 Northeast Hwy 99, Suite 115",,Vancouver,WA,98686,United States,(360) 576-9052,,,Sunday 11:00am - 12:00pm,,0
Vancouver,,"16501 Southeast Mill Plain Boulevard, Suite 100",,Vancouver,WA,98684,United States,(360) 944-6585,,,Saturday 12pm - 1pm,,0
1701 Pennsylvania Avenue,,1701 Pennsylvania Avenue NW,,Washington,D.C.,20006,United States,(202) 436-9271,,,Sunday 10am - 11am,,0
17th & L,,1101 17th Street NW,,Washington,D.C.,20036,United States,(202) 480-2003,,,Sunday 10am - 11am,,0
13th & G,,601 13th Street NW,,Washington,D.C.,20005,United States,(202) 499-6483,,,Sunday 10am - 11am,,0
11th & E,,435 11th Street NW,,Washington,D.C.,20004,United States,(202) 400-3258,,,Sunday 10am - 11am,,0
15th & M,,1156 15th Street NW,,Washington,D.C.,20005,United States,(202) 568-6644,,,Sunday 10am - 11am,,0
14th & U,,1829 14th St NW,,Washington,D.C.,20009,United States,(202) 899-2980,,,Sunday 10am - 11am,,0
Georgetown,,3299 M Street,,Washington,D.C.,20007,United States,(202) 496-7877,,,Sunday 10am - 11am,,0
George Washington University,,"2121 H Street, NW, #131",,Washington,D.C.,20052,United States,,,,Sunday 10am - 11am,,0
