store_name,store_number,address,address2,city,state,zip_code,country,phone_number,latitude,longitude,store_hours,other_fields,coming_soon
Chicago IL Mattress Store Logan Square,,3302 N Milwaukee ,,Chicago,IL,60641,United States,(773) 717-5422,,,Mon-Sat 10am-8pm; Sun 12pm-6pm,,0
Chicago IL Mattress Store Lincoln Square,,2401 W Lawrence,,Chicago,IL,60625,United States,(773) 358-1948,,,Mon-Sat 10am-8pm; Sun 12pm-6pm,,0
Chicago IL Mattress Store Lincoln Park,,2029 N. Clybourn Ave,,Chicago,IL,60614,United States,(773) 435-9465,,,Mon-Sat 10am-8pm; Sun 12pm-6pm,,0
Chicago IL Mattress Store LincolnPark,,1747 N Sheffield,,Chicago,IL,60614,United States,(773) 245-0474,,,Mon-Sat 10am-8pm; Sun 12pm-6pm,,0
Chicago IL Mattress Store Bucktown,,2581 N Elston,,Chicago,IL,60647,United States,(773) 904-2155,,,Mon-Sat 10am-8pm; Sun 12pm-6pm,,0
Chicago IL Mattress Store Chatham,,1521 E 87th Street,,Chicago,IL,60619,United States,(773) 530-3745,,,Mon-Sat 10am-8pm; Sun 12pm-6pm,,0
Chicago IL Mattress Store Lakeview,,3145 N Halsted,,Chicago,IL,60657,United States,(773) 770-6754,,,Mon-Sat 10am-8pm; Sun 12pm-6pm,,0
Bourbonnais IL Mattress Store,,1569 N State Rt 50,,Bourbonnais,IL,60914,United States,(815) 507-0037,,,Mon-Sat 10am-8pm; Sun 12pm-6pm,,0
Calumet City IL Mattress Store,,1330 S. Torrence,,Calumet City,IL,60409,United States,(708) 782-5671,,,Mon-Sat 10am-8pm; Sun 12pm-6pm,,0
Calumet City IL Mattress Store,,1875 159st,,Calumet City,IL,60409,United States,(708) 808-4058,,,Mon-Sat 10am-8pm; Sun 12pm-6pm,,0
Batavia IL Mattress Store,,205 N Randall Rd,,Batavia,IL,60510,United States,(630) 313-4849,,,Mon-Sat 10am-8pm; Sun 12pm-6pm,,0
Bloomingdale IL Mattress Store,,348 W. Army Trail Road,,Bloomingdale,IL,60108,United States,(630) 626-4628,,,Mon-Sat 10am-8pm; Sun 12pm-6pm,,0
Aurora IL Mattress Store,,740 N Route 59,,Aurora,IL,60505,United States,(630) 701-7178,,,Mon-Sat 10am-8pm; Sun 12pm-6pm,,0
Aurora IL Mattress Store,,1276 N. Lake St.,,Aurora,IL,60506,United States,(630) 870-1213,,,Mon-Sat 10am-8pm; Sun 12pm-6pm,,0
Aurora IL Mattress Store,,4300 New York St,,Aurora,IL,60504,United States,(630) 518-4243,,,Mon-Sat 10am-8pm; Sun 12pm-6pm,,0
Winter Springs FL Mattress Store,,5285 Red Bug Lake Road,,Winter Springs,FL,32708,United States,(407) 278-7370,,,,,0
Arlington Heights IL Mattress Store,,980 E. Northwest Highway,,Arlington Heights,IL,60004,United States,(847) 979-4924,,,Mon-Sat 10am-8pm; Sun 12pm-6pm,,0
Wilmington NC Clearance Mattress Store,,5309 Carolina Beach Road,,Wilmington,NC,28412,United States,(910) 799-5559,,,,,0
West Melbourne FL Mattress Store,,1719 W New Haven Ave,,West Melbourne,FL,32904,United States,(321) 608-4340,,,,,0
West Melbourne FL Mattress Store,,4185 W New Haven Ave,,West Melbourne,FL,32904,United States,(321) 336-7333,,,,,0
Vero Beach FL Mattress Store,,701 21st Street,,Vero Beach,FL,32960,United States,(772) 360-4059,,,,,0
Viera FL Mattress Store,,7201 Shoppes Drive,,Melbourne,FL,32940,United States,(321) 757-2976,,,,,0
Valparaiso IN Mattress Store,,2310 LaPorte ave,,Valparaiso,IN,46383,United States,(219) 576-6884,,,,,0
Tinley Park IL Mattress Store,,16005 Harlem Av,,Tinley Park,IL,60477,United States,(708) 336-3752,,,,,0
Summerfield FL Mattress Store,,10915 SE 174th Place Road,,Summerfield,FL,34491,United States,(352) 653-3311,,,,,0
St. Cloud FL Mattress Store,,1201 E Irlo Bronson Memorial Highway,,St. Cloud,FL,34771,United States,(407) 279-3775,,,,,0
Vernon Hills IL Mattress Store,,701 N Milwaukee,,Vernon Hills,IL,60061,United States,(847) 327-0390,,,,,0
Skokie IL Mattress Store,,4835 W Dempster,,Skokie,IL,60077,United States,(847) 213-9282,,,,,0
Sebastian FL Mattress Store,,1919 U.S. Highway 1,,Sebastian,FL,32958,United States,(772) 646-4497,,,,,0
Schererville IN Mattress Store,,25 US Route 41,,Schererville ,IN,46375,United States,(219) 488-2681,,,,,0
Schererville IN Mattress Store,,1519 US Route 41,,Schererville,IN,46375,United States,(219) 595-3171,,,,,0
Schaumburg IL Mattress Store,,62-64  E Golf Rd,,Schaumburg,IL,60173,United States,(847) 278-2078,,,,,0
Sanford FL Mattress Store,,1651 Rinehart Road,,Sanford,FL,32771,United States,(407) 279-3760,,,,,0
Round Lake IL Mattress Store,,254 E Rollins Rd,,Round Lake,IL,60073,United States,(847) 665-0842,,,,,0
Rockledge FL Mattress Store,,1954 S. Rockledge Blvd (US Highway 1),,Rockledge,FL,32955,United States,(321) 252-1698,,,,,0
Port Orange FL Mattress Store,,3817 S. Nova Road,,Port Orange,FL,32129,United States,(386) 957-5177,,,,,0
Portage IN Mattress Store,,6204 US Highway 6,,Portage,IN,46368,United States,(219) 728-4723,,,,,0
Oswego IL Mattress Store,,2326 Route 34,,Oswego,IL,60543,United States,(630) 608-6696,,,,,0
Orlando FL Mattress Store,,4303 E Colonial Dr.,,Orlando,FL,32803,United States,(407) 378-3871,,,,,0
Orland Park IL Mattress Store,,14724 S. LaGrange Rd. ,,Orland Park,IL,60462,United States,(708) 590-4185,,,,,0
Oak Park IL Mattress Store,,1149  Garfield,,Oak Park,IL,60304,United States,(708) 628-5158,,,Mon-Sat 10am-8pm; Sun 12pm-6pm,,0
Oak Lawn IL Mattress Store,,4803 W 95 st,,Oak lawn,IL,60453,United States,(708) 568-0948,,,Mon-Sat 10am-8pm; Sun 12pm-6pm,,0
Norridge IL Mattress Store,,7235 W Forest Preserve Drive,,Norridge,IL,60706,United States,(708) 965-8896,,,Mon-Sat 10am-8pm; Sun 12pm-6pm,,0
New Smyrna Beach FL Mattress Store,,1853 SR 44,,New Smyrna Beach,FL,32168,United States,(386) 957-1715,,,Mon-Sat 10am-8pm; Sun 12pm-6pm,,0
New Lenox IL Mattress Store,,515 E Lincoln Highway,,New Lenox,IL,60451,United States,(815) 600-8121,,,Mon-Sat 10am-8pm; Sun 12pm-6pm,,0
Morton Grove IL Mattress Store,,7130 W Dempster,,Morton Grove,IL,60053,United States,(847) 213-9123,,,Mon-Sat 10am-8pm; Sun 12pm-6pm,,0
Michigan City IN Mattress Store,,5510 Franklin St,,Michigan City,IN,46360,United States,(219) 230-3565,,,Mon-Sat 10am-8pm; Sun 12pm-6pm,,0
Merritt Island FL Mattress Store,,150 E Merritt Island Causeway,,Merritt Island,FL,32953,United States,(352) 360-7576,,,,,0
Merrillville IN Mattress Store,,1825 E 80th Street,,Merrillville,IN,46410,United States,(219) 472-4044,,,Mon-Sat 10am-8pm; Sun 12pm-6pm,,0
Melrose Park IL Mattress Store,,1360 Winston Plaza,,Melrose Park ,IL,60160,United States,(708) 384-8767,,,Mon-Sat 10am-8pm; Sun 12pm-6pm,,0
Leesburg FL Mattress Store,,8319 County Road 44 Leg A,,Leesburg,FL,34788,United States,(352) 350-7949,,,,,0
Kildeer IL Mattress Store,,20505 N. Rand Road,,KIldeer,IL,60047,United States,(847) 550-3731,,,,,0
Joliet IL Mattress Store,,2641 Plainfield,,Joliet,IL,60435,United States,(815) 768-4011,,,Mon-Sat 10am-8pm; Sun 12pm-6pm,,0
Jensen Beach FL Mattress Store,,1970 Northwest Federal Highway,,Stuart,FL,34994,United States,(772) 919-8204,,,Mon-Sat 10am-8pm; Sun 12pm-6pm,,0
Homewood IL Mattress Store,,17960 S Halsted,,Homewood,IL,60430,United States,(708) 794-0609,,,Mon-Sat 10am-8pm; Sun 12pm-6pm,,0
Hodgkins IL Mattress Store,,9430 Joliet Road,,Hodgkins,IL,60525,United States,(708) 218-9989,,,Mon-Sat 10am-8pm; Sun 12pm-6pm,,0
Hillside IL Mattress Store,,4004 W Roosevelt Rd.,,Hillside,IL,60162,United States,(708) 384-6036,,,Mon-Sat 10am-8pm; Sun 12pm-6pm,,0
Highland Park IL Mattress Store,,171 Skokie Valley Road,,Highland Park,IL,60035,United States,(847) 681-3994,,,Mon-Sat 10am-8pm; Sun 12pm-6pm,,0
Gurnee IL Mattress Store,,6931 Grand Avenue,,Gurnee,IL,60031,United States,(847) 693-4171,,,Mon-Sat 10am-8pm; Sun 12pm-6pm,,0
Geneva IL Mattress Store,,614 Commons Drive,,Geneva,IL,60134,United States,(630) 313-4865,,,Mon-Sat 10am-8pm; Sun 12pm-6pm,,0
Elgin IL Mattress Store,,2415 Bowes Road,,Elgin,IL,60123,United States,(847) 423-8288,,,Mon-Sat 10am-8pm; Sun 12pm-6pm,,0
Deerfield IL Mattress Store,,711 Waukegan Road,,Deerfield,IL,60015,United States,(847) 282-4306,,,Mon-Sat 10am-8pm; Sun 12pm-6pm,,0
Darien IL Mattress Store,,7531 Lemont Road,,Darien,IL,60561,United States,(630) 427-4780,,,Mon-Sat 10am-8pm; Sun 12pm-6pm,,0
Cocoa FL Mattress Store,,3708 N. US Highway 1,,Cocoa,FL,32926,United States,(321) 806-2399,,,,,0
Clermont FL Mattress Store,,2575 E Highway 50,,Clermont,FL,34711,United States,(352) 432-0705,,,Mon-Sat 10am-8pm; Sun 12pm-6pm,,0
Chicago IL South Loop Mattress Store,,3 E. Roosevelt Road,,Chicago,IL,60605,United States,(312) 300-6971,,,Mon-Sat 10am-8pm; Sun 12pm-6pm,,0
Chicago IL Mattress Store Uptown,,4422 N. Broadway,,Chicago,IL,60640,United States,(773) 717-5515,,,Mon-Sat 10am-8pm; Sun 12pm-6pm,,0
Arlington Heights IL Mattress Store ,,1970 N Arlington Heights Road,,Arlington Heights,IL,60004,United States,(847) 305-3057,,,Mon-Sat 10am-8pm; Sun 12pm-6pm,,0
Altamonte Springs FL Mattress Store,,620 E. Altamonte Drive,,Altamonte Springs,FL,32701,United States,(407) 641-0021,,,Mon-Sat 10am-8pm; Sun 12pm-6pm,,0
Altamonte Springs FL Mattress Store,,150 S State Road 434,,Altamonte Springs,FL,32714,United States,(407) 374-0773,,,Mon-Sat 10am-8pm; Sun 12pm-6pm,,0
