store_name,store_number,address,address2,city,state,zip_code,country,phone_number,latitude,longitude,store_hours,other_fields,coming_soon
Shadow Lake,,7549 Towne Center Pkwy ,,Papillion ,NE,68046,United States,(402) 884-7377,,,Sun: 7:00 am - 8:00 pm; Mon: 5:00 am - 11:00 pm; Tue: 5:00 am - 11:00 pm; Wed: 5:00 am - 11:00 pm; Thu: 5:00 am - 11:00 pm; Fri: 5:00 am - 9:00 pm; Sat: 7:00 am - 8:00 pm; ,,0
Cass,,7777 Cass St ,,Omaha ,NE,68114,United States,(402) 343-0486,,,Sun: Open 24 hours; Mon: Open 24 hours; Tue: Open 24 hours; Wed: Open 24 hours; Thu: Open 24 hours; Fri: Open 24 hours; Sat: Open 24 hours; ,,0
Aksarben,,2110 South 67th Street ,,Omaha ,NE,68106,United States,402-763-1400,,,Sun: 7:00 am - 8:00 pm; Mon: 5:00 am - 11:00 pm; Tue: 5:00 am - 11:00 pm; Wed: 5:00 am - 11:00 pm; Thu: 5:00 am - 11:00 pm; Fri: 5:00 am - 9:00 pm; Sat: 7:00 am - 8:00 pm; ,,0
Tara Plaza,,845 Tara Plaza ,,Papillion ,NE,68046,United States,(402) 331-7333,,,Sun: Open 24 hours; Mon: Open 24 hours; Tue: Open 24 hours; Wed: Open 24 hours; Thu: Open 24 hours; Fri: Open 24 hours; Sat: Open 24 hours; ,,0
144th & F,,4007 S 145th Plaza ,,Omaha ,NE,68137,United States,(402) 895-5550,,,Sun: Open 24 hours; Mon: Open 24 hours; Tue: Open 24 hours; Wed: Open 24 hours; Thu: Open 24 hours; Fri: Open 24 hours; Sat: Open 24 hours; ,,0
Sprague,,14651 Sprague St. ,,Omaha ,NE,68116,United States,(402) 201-2933,,,Sun: 7:00 am - 9:00 pm; Mon: 4:00 am - 11:00 pm; Tue: 4:00 am - 11:00 pm; Wed: 4:00 am - 11:00 pm; Thu: 4:00 am - 11:00 pm; Fri: 4:00 am - 9:00 pm; Sat: 7:00 am - 9:00 pm; ,,0
Pine Lake,,1801 Pine Lake Road ,,Lincoln ,NE,68512,United States,402-805-4179,,,Sun: 7:00 am - 8:00 pm; Mon: 5:00 am - 11:00 pm; Tue: 5:00 am - 11:00 pm; Wed: 5:00 am - 11:00 pm; Thu: 5:00 am - 11:00 pm; Fri: 5:00 am - 9:00 pm; Sat: 7:00 am - 8:00 pm; ,,0
O Street,,6140 O Street ,,Lincoln ,NE,68505,United States,402-466-3191,,,Sun: 7:00 am - 8:00 pm; Mon: 5:00 am - 11:00 pm; Tue: 5:00 am - 11:00 pm; Wed: 5:00 am - 11:00 pm; Thu: 5:00 am - 11:00 pm; Fri: 5:00 am - 9:00 pm; Sat: 7:00 am - 8:00 pm; ,,0
Springfield South,,1249 East Battlefield ,,Springfield ,MO,65804,United States,(417) 883-6105,,,Sun: Opens at 7:00 am; Mon: Open 24 hours; Tue: Open 24 hours; Wed: Open 24 hours; Thu: Open 24 hours; Fri: Open until 9:00 pm; Sat: 7:00 am - 9:00 pm; ,,0
Springfield North,,1828 North Glenstone ,,Springfield ,MO,65803,United States,(417) 865-1500,,,Sun: 8:00 am - 7:00 pm; Mon: 5:00 am - 11:00 pm; Tue: 5:00 am - 11:00 pm; Wed: 5:00 am - 11:00 pm; Thu: 5:00 am - 11:00 pm; Fri: 5:00 am - 9:00 pm; Sat: 7:00 am - 7:00 pm; ,,0
St. Joseph,,3107 N. Belt Hwy ,,St. Joseph ,MO,64506,United States,(816) 233-0261,,,Sun: 8:00 am - 7:00 pm; Mon: 5:00 am - 11:00 pm; Tue: 5:00 am - 11:00 pm; Wed: 5:00 am - 11:00 pm; Thu: 5:00 am - 11:00 pm; Fri: 5:00 am - 9:00 pm; Sat: 7:00 am - 7:00 pm; ,,0
Manhattan,,3011 Anderson Ave ,,Manhattan ,Ks,66502,United States,(785) 320-5430,,,Sun: Opens at 7:00 am; Mon: Open 24 hours; Tue: Open 24 hours; Wed: Open 24 hours; Thu: Open 24 hours; Fri: Open until 9:00 pm; Sat: 7:00 am - 9:00 pm; ,,0
Topeka Southwest,,2909 SW 37th St ,,Topeka ,KS,66614,United States,(785) 266-8000,,,Sun: 9:00 am - 7:00 pm; Mon: 4:30 am - 11:00 pm; Tue: 4:30 am - 11:00 pm; Wed: 4:30 am - 11:00 pm; Thu: 4:30 am - 11:00 pm; Fri: 4:30 am - 10:00 pm; Sat: 7:00 am - 8:00 pm; ,,0
Topeka North,,2020 NW Topeka Blvd # 200 ,,Topeka ,KS,66608,United States,(785) 232-3133,,,Sun: 9:00 am - 6:00 pm; Mon: 4:30 am - 10:30 pm; Tue: 4:30 am - 10:30 pm; Wed: 4:30 am - 10:30 pm; Thu: 4:30 am - 10:30 pm; Fri: 4:30 am - 10:00 pm; Sat: 7:00 am - 8:00 pm; ,,0
Topeka Southeast,,2061 SE 29th St ,,Topeka ,KS,66605,United States,(785) 267-2132,,,Sun: 9:00 am - 6:00 pm; Mon: 4:30 am - 10:30 pm; Tue: 4:30 am - 10:30 pm; Wed: 4:30 am - 10:30 pm; Thu: 4:30 am - 10:30 pm; Fri: 4:30 am - 10:00 pm; Sat: 7:00 am - 8:00 pm; ,,0
McPherson,,601 N. Main ,,McPherson ,KS,67460,United States,(620) 245-0900,,,Sun: 8:00 am - 7:00 pm; Mon: 5:00 am - 11:00 pm; Tue: 5:00 am - 11:00 pm; Wed: 5:00 am - 11:00 pm; Thu: 5:00 am - 11:00 pm; Fri: 5:00 am - 9:00 pm; Sat: 7:00 am - 7:00 pm; ,,0
Broken Arrow,,2360 W Kenosha St ,,Broken Arrow ,OK,74012,United States,918-251-9711,,,Sun: 7:00 am - 8:00 pm; Mon: 5:00 am - 11:00 pm; Tue: 5:00 am - 11:00 pm; Wed: 5:00 am - 11:00 pm; Thu: 5:00 am - 11:00 pm; Fri: 5:00 am - 9:00 pm; Sat: 6:00 am - 9:00 pm; ,,0
Westroads,,1212 North 102nd Street ,,Omaha ,NE,68114,United States,(402) 706-4109,,,Sun: 7:00 am - 9:00 pm; Mon: 4:00 am - 11:00 pm; Tue: 4:00 am - 11:00 pm; Wed: 4:00 am - 11:00 pm; Thu: 4:00 am - 11:00 pm; Fri: 4:00 am - 9:00 pm; Sat: 7:00 am - 9:00 pm; ,,0
Woodland Hills,,6612 S. Memorial Drive ,,Tulsa ,OK,74133,United States,918-459-2626,,,Sun: 7:00 am - 10:00 pm; Mon: Opens at 4:00 am; Tue: Open 24 hours; Wed: Open 24 hours; Thu: Open 24 hours; Fri: Open until 9:00 pm; Sat: 6:00 am - 10:00 pm; ,,0
Leavenworth,,2924 S 4th St ,,Leavenworth ,KS,66048,United States,(913) 651-3400,,,Sun: 8:00 am - 7:00 pm; Mon: 5:00 am - 11:00 pm; Tue: 5:00 am - 11:00 pm; Wed: 5:00 am - 11:00 pm; Thu: 5:00 am - 11:00 pm; Fri: 5:00 am - 9:00 pm; Sat: 7:00 am - 7:00 pm; ,,0
Lawrence North,,3201 Mesa Way ,,Lawrence ,KS,66049,United States,(785) 842-4966,,,Sun: 8:00 am - 7:00 pm; Mon: 5:00 am - 11:00 pm; Tue: 5:00 am - 11:00 pm; Wed: 5:00 am - 11:00 pm; Thu: 5:00 am - 11:00 pm; Fri: 5:00 am - 9:00 pm; Sat: 7:00 am - 7:00 pm; ,,0
Lawrence South,,5200 Clinton Pkwy ,,Lawrence ,KS,66047,United States,(785) 749-6762,,,Sun: 8:00 am - 7:00 pm; Mon: 5:00 am - 11:00 pm; Tue: 5:00 am - 11:00 pm; Wed: 5:00 am - 11:00 pm; Thu: 5:00 am - 11:00 pm; Fri: 5:00 am - 9:00 pm; Sat: 7:00 am - 7:00 pm; ,,0
Salina,,1830 S. Ninth Street ,,Salina ,KS,67401,United States,(785) 823-3330,,,Sun: 8:00 am - 7:00 pm; Mon: 5:00 am - 11:00 pm; Tue: 5:00 am - 11:00 pm; Wed: 5:00 am - 11:00 pm; Thu: 5:00 am - 11:00 pm; Fri: 5:00 am - 9:00 pm; Sat: 7:00 am - 7:00 pm; ,,0
Emporia,,1007 Commercial St ,,Emporia ,KS,66801,United States,(620) 343-6034,,,Sun: 8:00 am - 7:00 pm; Mon: 5:00 am - 11:00 pm; Tue: 5:00 am - 11:00 pm; Wed: 5:00 am - 11:00 pm; Thu: 5:00 am - 11:00 pm; Fri: 5:00 am - 9:00 pm; Sat: 7:00 am - 7:00 pm; ,,0
Hutchinson,,412 E. 30th St. ,,Hutchinson ,KS,67502,United States,(620) 663-9090,,,Sun: 8:00 am - 7:00 pm; Mon: 5:00 am - 11:00 pm; Tue: 5:00 am - 11:00 pm; Wed: 5:00 am - 11:00 pm; Thu: 5:00 am - 11:00 pm; Fri: 5:00 am - 9:00 pm; Sat: 7:00 am - 7:00 pm; ,,0
Ridgeview,,17800 W. 106th Street ,,Olathe ,KS,66061,United States,(913) 808-3025,,,Sun: 6:00 am - 8:00 pm; Mon: 5:00 am - 10:00 pm; Tue: 5:00 am - 10:00 pm; Wed: 5:00 am - 10:00 pm; Thu: 5:00 am - 10:00 pm; Fri: 5:00 am - 10:00 pm; Sat: 6:00 am - 8:00 pm; ,,0
Olathe,,13370 S. Blackfoot Drive ,,Olathe ,KS,66062,United States,(913) 829-4503,,,Sun: Open 24 hours; Mon: Open 24 hours; Tue: Open 24 hours; Wed: Open 24 hours; Thu: Open 24 hours; Fri: Open 24 hours; Sat: Open 24 hours; ,,0
Shawnee,,11311 W. Shawnee Mission Pkwy ,,Shawnee ,KS,66203,United States,(913) 248-0724,,,Sun: Open 24 hours; Mon: Open 24 hours; Tue: Open 24 hours; Wed: Open 24 hours; Thu: Open 24 hours; Fri: Open 24 hours; Sat: Open 24 hours; ,,0
Boardwalk,,8628 North Boardwalk Ave ,,Kansas City ,MO,64154,United States,(816) 214-5466,,,Sun: 7:00 am - 8:00 pm; Mon: 5:00 am - 11:00 pm; Tue: 5:00 am - 11:00 pm; Wed: 5:00 am - 11:00 pm; Thu: 5:00 am - 11:00 pm; Fri: 5:00 am - 10:00 pm; Sat: 7:00 am - 8:00 pm; ,,0
Liberty,,8260 N Ditzler Ave ,,Kansas City ,MO,64158,United States,(816) 407-9344,,,Sun: 7:00 am - 8:00 pm; Mon: 4:30 am - 11:00 pm; Tue: 4:30 am - 11:00 pm; Wed: 4:30 am - 11:00 pm; Thu: 4:30 am - 11:00 pm; Fri: 4:30 am - 9:00 pm; Sat: 7:00 am - 8:00 pm; ,,0
Ward Parkway,,8600 Ward Pkwy Ste 7 ,,Kansas City ,MO,64114,United States,(816) 490-4223,,,Sun: Open 24 hours; Mon: Open 24 hours; Tue: Open 24 hours; Wed: Open 24 hours; Thu: Open 24 hours; Fri: Open 24 hours; Sat: Open 24 hours; ,,0
Independence,,3850 South Crackerneck Rd ,,Independence ,MO,64055,United States,(816) 478-2440,,,Sun: Open 24 hours; Mon: Open 24 hours; Tue: Open 24 hours; Wed: Open 24 hours; Thu: Open 24 hours; Fri: Open 24 hours; Sat: Open 24 hours; ,,0
Lee's Summit West,,178 NW Oldham Parkway ,,Lee's Summit ,MO,64081,United States,(816) 272-5204,,,Sun: 7:00 am - 8:00 pm; Mon: 5:00 am - 11:00 pm; Tue: 5:00 am - 11:00 pm; Wed: 5:00 am - 11:00 pm; Thu: 5:00 am - 11:00 pm; Fri: 5:00 am - 10:00 pm; Sat: 7:00 am - 8:00 pm; ,,0
Metcalf Super Sport,,12075 Metcalf Avenue ,,Overland Park ,KS,66213,United States,(913) 338-2442,,,Sun: Open 24 hours; Mon: Open 24 hours; Tue: Open 24 hours; Wed: Open 24 hours; Thu: Open 24 hours; Fri: Open 24 hours; Sat: Open 24 hours; ,,0
Lee's Summit,,900 NE Deerbrook Street ,,Lee's Summit ,MO,64086,United States,(816) 600-3213,,,Sun: Open 24 hours; Mon: Open 24 hours; Tue: Open 24 hours; Wed: Open 24 hours; Thu: Open 24 hours; Fri: Open 24 hours; Sat: Open 24 hours; ,,0
Overland Park,,6700 W 110th St ,,Overland Park ,KS,66211,United States,(913) 491-4116,,,Sun: 8:00 am - 8:00 pm; Mon: 5:00 am - 11:00 pm; Tue: 5:00 am - 11:00 pm; Wed: 5:00 am - 11:00 pm; Thu: 5:00 am - 11:00 pm; Fri: 5:00 am - 9:00 pm; Sat: 7:00 am - 8:00 pm; ,,0
Ice Center,,505 West Maple ,,Wichita ,KS,67213,United States,(316) 263-1950,,,Sun: 8:00 am - 11:00 pm; Mon: 5:00 am - 11:00 pm; Tue: 5:00 am - 11:00 pm; Wed: 5:00 am - 11:00 pm; Thu: 5:00 am - 11:00 pm; Fri: 5:00 am - 12:00 am; Sat: 7:00 am - 12:00 am; ,,0
Rock Road,,1551 N. Rock Rd ,,Wichita ,KS,67206,United States,(316) 634-0094,,,Sun: 8:00 am - 7:00 pm; Mon: 5:00 am - 11:00 pm; Tue: 5:00 am - 11:00 pm; Wed: 5:00 am - 11:00 pm; Thu: 5:00 am - 11:00 pm; Fri: 5:00 am - 9:00 pm; Sat: 7:00 am - 7:00 pm; ,,0
West Central,,854 N. Socora ,,Wichita ,KS,67212,United States,(316) 721-6600,,,Sun: Opens at 7:00 am; Mon: Open 24 hours; Tue: Open 24 hours; Wed: Open 24 hours; Thu: Open 24 hours; Fri: Open until 9:00 pm; Sat: 7:00 am - 9:00 pm; ,,0
East Central,,6100 E. Central ,,Wichita ,KS,67208,United States,(316) 681-3010,,,Sun: 8:00 am - 7:00 pm; Mon: 5:00 am - 11:00 pm; Tue: 5:00 am - 11:00 pm; Wed: 5:00 am - 11:00 pm; Thu: 5:00 am - 11:00 pm; Fri: 5:00 am - 9:00 pm; Sat: 7:00 am - 7:00 pm; ,,0
West 13th,,3725 W. 13th St. N ,,Wichita ,KS,67203,United States,(316) 945-8331,,,Sun: 8:00 am - 7:00 pm; Mon: 5:00 am - 11:00 pm; Tue: 5:00 am - 11:00 pm; Wed: 5:00 am - 11:00 pm; Thu: 5:00 am - 11:00 pm; Fri: 5:00 am - 9:00 pm; Sat: 7:00 am - 7:00 pm; ,,0
