store_name,store_number,address,address2,city,state,zip_code,country,phone_number,latitude,longitude,store_hours,other_fields,coming_soon
Mobile,,770 Schillinger Road South,,Mobile,AL,36695,United States,251-634-0999,,,Sun-Thurs11:00am - 9:30pmFri-Sat 11:00am - 10:00pm,,0
Merritt Island,,310 N. Courtenay Parkway,,Merritt Island,FL,32953,United States,321-449-9102,,,Sun-Thurs11:00am - 9:30pmFri-Sat 11:00am - 10:00pm,,0
Melbourne,,150 Sheriff Drive,,Melbourne,FL,32940,United States,321-242-4600,,,Sun-Thurs11:00am - 9:30pmFri-Sat 11:00am - 10:00pm,,0
Marianna,,2250 Highway 71,,Marianna,FL,32448,United States,850-526-7274,,,Sun-Thurs10:30am - 9:30pmFri-Sat 10:30am - 10:00pm,,0
Lynn Haven,,2240 S. Highway 77,,Lynn Haven,FL,32444,United States,850-763-5114,,,Sun-Thurs11:00am - 9:00pmFri-Sat 11:00am - 9:00pm,,0
Largo,,2250 Seminole Blvd.,,Largo,FL,33778,United States,727-501-9000,,,Sun-Thurs11:00am - 9:30 pmFri-Sat 11:00am - 10:00pm,,0
Lakeland - South,,5910 S. Florida Ave.,,Lakeland,FL,33813,United States,863-646-2990,,,Sun-Thurs11:00am - 9:00pmFri-Sat 11:00am - 9:30pm,,0
Lakeland - North,,3611 U.S. Hwy 98 North,,Lakeland,FL,33809,United States,863-853-8283,,,Sun-Thurs11:00am - 9:30pmFri-Sat 11:00am - 10:00pm,,0
Lake City,,3177 West US Hwy 90,,Lake City,FL,32055,United States,386-752-1117,,,Sun-Thurs11:00am - 9:30pmFri-Sat 11:00am - 10:00pm,,0
Jax - University,,5097 University Blvd.,,Jacksonville,FL,32216,United States,904-737-4906,,,Sun-Thurs11:00am - 9:30pmFri-Sat 11:00am - 10:00pm,,0
Jax - Lane Ave.,,1923 South Lane Avenue,,Jacksonville,FL,32210,United States,904-786-0081,,,Sun-Thurs11:00am - 9:30pmFri-Sat 11:00am - 10:00pm,,0
Jax - San Jose,,12485 San Jose Blvd.,,Jacksonville,FL,32223,United States,904-288-7928,,,Sun-Thurs11:00am - 9:30pmFri-Sat 11:00am - 10:00pm,,0
Concord,,7820 Lyles Lane,,Concord,NC,28027,United States,704-979-0073,,,Sun-Thurs11:00am - 9:00pmFri-Sat 11:00am - 9:30pm,,0
Mooresville,,328 West Plaza Drive,,Mooresville,NC,28117,United States,704-662-0761,,,Sun-Thurs11:00am - 9:00pmFri-Sat 11:00am - 9:30pm,,0
Charlotte - Tyvola,,440 Tyvola Road,,Charlotte,NC,28217,United States,704-523-1053,,,Sun-Thurs11:00am - 9:00pmFri-Sat 11:00am - 9:30pm,,0
Charlotte - Pineville Matthews,,3351-300 Pineville Matthews Road,,Charlotte,NC,28226,United States,704-910-3038,,,Sun-Thurs11:00am - 9:00pmFri-Sat 11:00am - 9:30pm,,0
Jax - Harts Road,,10840 Harts Road,,Jacksonville,FL,32218,United States,904-751-4225,,,Sun-Thurs11:00am - 9:00pmFri-Sat 11:00am - 10:00pm,,0
"Brandon, MS",,1374 West Government St.,,Brandon,MS,39042,United States,601-825-7675,,,Sun-Thurs11:00am - 9:00pmFri-Sat 11:00am - 9:30pm,,0
Jax - Blanding,,4434 Blanding Blvd.,,Jacksonville,FL,32210,United States,904-777-0730,,,Sun-Thurs11:00am - 9:30pmFri-Sat 11:00am - 10:00pm,,0
Jax - Atlantic,,12719 Atlantic Blvd.,,Jacksonville,FL,32225,United States,904-220-9499,,,Sun-Thurs11:00am - 9:30pmFri-Sat 11:00am - 10:00pm,,0
Rock Hill,,2781 Cherry Rd,,Rock Hill,SC,29730,United States,803-324-7984,,,Sun-Thurs11:00am - 9:00pmFri-Sat 11:00am - 9:30pm,,0
Somerset,,70 Sonny's Way,,Somerset,KY,42501,United States,606-678-0198,,,Sun-Thurs11:00am - 9:30pmFri-Sat 11:00am - 9:30pm,,0
Baton Rouge,,12475 Florida Blvd.,,Baton Rouge,LA,70815,United States,225-272-5028,,,Sun-Thurs11:00am - 9:00pmFri-Sat 11:00am - 10:00pm,,0
Richmond,,1001 Center Drive,,Richmond,KY,40475,United States,859-624-4499,,,Sun-Thurs10:45am - 9:35pmFri-Sat 10:45am - 10:05pm,,0
Corbin,,200 Hwy. 770,,Corbin,KY,40701,United States,606-526-0000,,,Sun-Thurs11:00am - 9:00pmFri-Sat 11:00am - 10:00pm,,0
Nicholasville,,109 North Plaza Drive,,Nicholasville,KY,40356,United States,859-887-0021,,,Sun-Thurs11:00am - 9:00pmFri-Sat 11:00am - 10:00pm,,0
Valdosta,,1701 Norman Dr.,,Valdosta,GA,31601,United States,229-241-8090,,,Sun-Thurs10:45am - 9:35pmFri-Sat 10:45am - 10:05pm,,0
Warner Robins,,811 Russell Parkway,,Warner Robins,GA,31088,United States,478-929-3333,,,Sun-Thurs11:00am - 9:35pmFri-Sat 11:00am - 10:05pm,,0
Thomasville,,14293 U.S. Hwy 19 South,,Thomasville,GA,31792,United States,229-558-9000,,,Sun-Thurs11:00am - 9:00pmFri-Sat 11:00am - 10:00pm,,0
Rome,,2103 Shorter Ave.,,Rome,GA,30165,United States,706-234-1441,,,Sun-Thurs11:00am - 9:00pmFri-Sat 11:00am - 10:00pm,,0
Perry,,1001 St.Patrick's Drive,,Perry,GA,31069,United States,478-218-2100,,,Sun-Thurs11:00am - 9:00pmFri-Sat 11:00am - 10:00pm,,0
Marietta,,160 Cobb Parkway,,Marietta,GA,30060,United States,770-428-1534,,,Sun-Thurs11:00am - 9:00pmFri-Sat 11:00am - 10:00pm,,0
Lawrenceville,,660 Duluth Highway,,Lawrenceville,GA,30045,United States,770-822-3330,,,Sun-Thurs11:00am - 9:00pmFri-Sat 11:00am - 10:00pm,,0
Kingsland,,1380 E. Boone Ave,,Kingsland,GA,31548,United States,912-673-7262,,,Sun-Thurs11:00am - 9:00pmFri-Sat 11:00am - 9:30pm,,0
Jonesboro,,641 Mount Zion Road,,Jonesboro,GA,30236,United States,770-968-0052,,,Sun-Thurs11:00am - 9:00pmFri-Sat 11:00am - 10:00pm,,0
Flowery Branch,,3445 Mundy Mill Rd.,,Flowery Branch,GA,30542,United States,770-287-1622,,,Sun-Thurs11:00am - 9:00pmFri-Sat 11:00am - 10:00pm,,0
Dublin,,2201 Veterans Blvd.,,Dublin,GA,31021,United States,478-275-7180,,,Sun-Thurs11:00am - 9:00pmFri-Sat 11:00am - 10:00pm,,0
Conyers,,"1870 Highway 20, South",,Conyers,GA,30013,United States,770-860-0099,,,Sun-Thurs11:00am - 9:00pmFri-Sat 11:00am - 10:00pm,,0
Commerce,,30975 Hwy. 441 S.,,Commerce,GA,30529,United States,706-335-4741,,,Sun-Thurs11:00am - 9:00pmFri-Sat 11:00am - 10:00pm,,0
Buford,,1905 Buford Mill Drive,,Buford,GA,30519,United States,770-831-5002,,,Sun-Thurs11:00am - 9:00pmFri-Sat 11:00am - 10:00pm,,0
Brunswick,,5328 New Jesup Hwy.,,Brunswick,GA,31525,United States,912-264-9184,,,Sun-Thurs11:00am - 9:00pmFri-Sat 11:00am - 9:30pm,,0
Athens,,3755 Atlanta Hwy,,Athens,GA,30606,United States,706-546-0385,,,Sun-Thurs11:00am - 9:00pmFri-Sat 11:00am - 10:00pm,,0
Albany,,1900 N. Slappey Blvd.,,Albany,GA,31701,United States,229-883-7427,,,Sun-Thurs10:45am - 9:00pmFri-Sat 10:45am - 10:00pm,,0
Zephyrhills,,6606 Gall Blvd.,,Zephyrhills,FL,33542,United States,813-782-4272,,,Sun-Thurs11:00am - 9:00pmFri-Sat 11:00am - 10:00pm,,0
Winter Park,,3390 University Blvd.,,Winter Park,FL,32792,United States,407-671-2002,,,Sun-Thurs10:45am - 9:35pmFri-Sat 10:45am - 10:05pm,,0
Winter Haven,,4600 Recker Highway,,Winter Haven,FL,33880,United States,863-293-4744,,,Sun-Thurs10:45am - 9:35pmFri-Sat 10:45am - 10:05pm,,0
Wesley Chapel,,5324 Bruce B. Downs Blvd.,,Wesley Chapel,FL,33543,United States,813-994-8989,,,Sun-Thurs11:00am - 9:00pmFri-Sat 11:00am - 10:05pm,,0
Villages,,1128 Canal Street,,The Villages,FL,32162,United States,352-430-1461,,,Sun-Thurs11:00am - 9:00pmFri-Sat 11:00am - 9:00pm,,0
Vero Beach,,5001 - 20th Street,,Vero Beach,FL,32966,United States,772-770-4190,,,Mon-Thurs11:00am - 9:30pmFri-Sat 11:00am - 10:00pmSun 11:00am - 9:00pm,,0
Venice,,406 North Venice By-Pass,,Venice,FL,34285,United States,941-484-1327,,,Sun-Thurs10:45am - 9:30pmFri-Sat 10:45am - 10:00pm,,0
Titusville,,2900 Cheney Highway,,Titusville,FL,32780,United States,321-385-2665,,,Sun-Thurs11:00am - 9:30pmFri-Sat 11:00am - 10:00pm,,0
Tampa - Brandon,,10010 Adamo Drive,,Tampa,FL,33619,United States,813-621-8784,,,Sun-Thurs11:00am - 9:30pmFri-Sat 11:00am - 10:00pm,,0
Tampa - 15412 N. Dale Mabry,,15412 N. Dale Mabry,,Tampa,FL,33618,United States,813-960-3595,,,Sun-Thurs11:00am - 9:00pmFri-Sat 11:00am - 10:00pm,,0
Tallahassee - Timberlane,,1460 Timberlane Rd.,,Tallahassee,FL,32312,United States,850-906-9996,,,Sun-Thurs11:00am - 9:30pmFri-Sat 11:00am - 10:00pm,,0
Tallahassee - Monroe,,2707 N. Monroe Street,,Tallahassee,FL,32303,United States,850-385-2167,,,Sun-Thurs10:45am - 9:30pmFri-Sat 10:45am - 10:00pm,,0
Tallahassee - Dick Wilson,,3101 Dick Wilson Boulevard,,Tallahassee,FL,32301,United States,850-878-1185,,,Sun-Thurs10:45am - 9:30pmFri-Sat 10:45am - 10:00pm,,0
Sun City Center,,724 Cypress Village Blvd.,,Sun,City,Center,United States,813-642-0907,,,Sun-Thurs11:00am - 9:00pmFri-Sat 11:00am - 10:00pm,,0
Stuart,,1961 S. US Highway 1,,Stuart,FL,34994,United States,772-283-4150,,,Sun-Thurs11:00am - 9:00pmFri-Sat 11:00am - 9:30pm,,0
Starke,,230 South Temple Ave.,,Starke,FL,32091,United States,904-964-8840,,,Sun-Thurs11:00am - 9:00pmFri-Sat 11:00am - 9:00pm,,0
St. Petersburg,,3650 Tyrone Boulevard,,St. Petersburg,FL,33710,United States,727-341-2990,,,Sun-Thurs11:00am - 9:00pmFri-Sat 11:00am - 9:30pm,,0
St. Cloud,,4475 13th Street,,St. Cloud,FL,34769,United States,407-892-2285,,,Sun-Thurs10:35am - 9:35pmFri-Sat 10:45am - 10:05pm,,0
St. Augustine - US1,,1720 US 1 South,,St. Augustine,FL,32084,United States,904-824-3220,,,Sun-Thurs10:45am - 9:05pmFri-Sat 10:45am - 9:35pm,,0
St. Augustine - SR 16,,2720 S.R. 16,,St. Augustine,FL,32092,United States,904-824-3315,,,Sun-Thurs10:45am - 9:05pmFri-Sat 10:45am - 9:35pm,,0
Spring Hill,,4731 Commercial Way,,Spring Hill,FL,34606,United States,352-597-3322,,,Sun-Thurs11:00am - 9:00pmFri-Sat 11:00am - 9:30pm,,0
Sebring,,751 U.S. 27 South,,Sebring,FL,33870,United States,863-382-3820,,,Sun-Thurs11:00am - 9:00pmFri-Sat 11:00am - 9:30pm,,0
Sarasota,,3926 South Tamiami Trail,,Sarasota,FL,34231,United States,941-364-5833,,,Sun-Thurs10:45am - 9:30pmFri-Sat 10:45am - 10:00pm,,0
Port Orange,,1515 Dunlawton Avenue,,Port Orange,FL,32129,United States,386-492-8820,,,Sun-Thurs11:00am - 9:35pmFri-Sat 11:00am - 10:05pm,,0
Sanford,,3506 Orlando Drive,,Sanford,FL,32773,United States,407-321-9295,,,Sun-Thurs10:45am - 9:35pmFri-Sat 10:45am - 10:05pm,,0
Port Charlotte,,1152 Tamiami Trail,,Port Charlotte,FL,33954,United States,941-613-1114,,,Sun-Thurs10:45am - 9:30pmFri-Sat 10:45am - 10:30pm,,0
Plant City,,1102 Goldfinch Blvd.,,Plant City,FL,33565,United States,813-757-3118,,,Sun-Thurs11:00am - 9:30pmFri-Sat 11:00am - 10:00pm,,0
Pinellas Park,,4385 Park Blvd.,,Pinellas Park,FL,33781,United States,727-546-8300,,,Sun-Thurs11:00am - 9:00pmFri-Sat 11:00am - 10:00pm,,0
Pensacola - Navy Blvd,,630 N. Navy Blvd,,Pensacola,FL,32507,United States,850-456-2000,,,Sun-Thurs11:00am - 9:35pmFri-Sat 11:00am - 10:05pm,,0
Pensacola - Chellie Rd.,,8313 Chellie Road,,Pensacola,FL,32526,United States,850-944-6633,,,Sun-Thurs11:00am - 9:30pmFri-Sat 11:00am - 10:00pm,,0
Pensacola - 9th Avenue,,6702 North 9th Avenue,,Pensacola,FL,32504,United States,850-476-7618,,,Sun-Thurs11:00am - 9:30pmFri-Sat 11:00am - 10:00pm,,0
Panama City Beach,,11341 Panama City Bch Pky,,Panama,City,Beach,United States,850-230-4742,,,Sun-Thurs11:00am - 9:00pmFri-Sat 11:00am - 9:00pm,,0
Palm Harbor,,30503 US Hwy 19 N,,Palm Harbor,FL,34684,United States,727-785-5585,,,Sun-Thurs11:00am - 9:30pmFri-Sat 11:00am - 10:00pm,,0
Palm Coast,,25 Cypress Edge Drive,,Palm Coast,FL,32137,United States,386-446-5700,,,Sun-Thurs11:00am - 9:30pmFri-Sat 11:00am - 10:00pm,,0
Palm Bay,,1020 Malabar Road S. E.,,Palm Bay,FL,32907,United States,321-953-3997,,,Sun-Thurs11:00am - 9:30pmFri-Sat 11:00am - 10:00pm,,0
Palatka,,425 N State Road 19,,Palatka,FL,32177,United States,386-328-4655,,,Sun-Thurs11:00am - 9:00pmFri-Sat 11:00am - 9:30pm,,0
Oviedo,,7460 Dover Garden Lane,,Oviedo,FL,32765,United States,407-971-1131,,,Sun-Thurs10:45am - 9:35pmFri-Sat 10:45am - 10:05pm,,0
Orlando - OBT,,7423 S. OBT,,Orlando,FL,32809,United States,407-859-7197,,,Sun-Thurs10:45am - 9:00pmFri-Sat 10:45am - 10:00pm,,0
Orlando - Lee Vista,,7055 S. Semoran Boulevard,,Orlando,FL,32822,United States,407-992-8818,,,Sun-Thurs10:45am - 9:35pmFri-Sat 10:45am - 10:05pm,,0
Orange Park,,1976 Kingsley Avenue,,Orange Park,FL,32073,United States,904-272-4606,,,Sun-Thurs11:00am - 9:30pmFri-Sat 11:00am - 10:00pm,,0
Orlando - Alafaya,,310 S. Alafaya Trail,,Orlando,FL,32825,United States,407-482-0888,,,Sun-Thurs10:45am - 9:35pmFri-Sat 10:45am - 10:05pm,,0
Orange City,,1024 Saxon Blvd.,,Orange City,FL,32763,United States,386-775-9900,,,Sun-Thurs11:00am - 9:35pmFri-Sat 11:00am - 10:05pm,,0
Ocala - Silver Spgs.,,4102 E. Silver Sprgs Blvd.,,Ocala,FL,34470,United States,352-236-1012,,,Sun-Thurs11:00am - 9:30pmFri-Sat 11:00am - 10:00pm,,0
Ocala - County Rd 484,,1794 S.W. County Rd. 484,,Ocala,FL,34473,United States,352-245-5595,,,Sun-Thurs11:00am - 9:30pmFri-Sat 11:00am - 10:00pm,,0
Ocala - College Road,,1845 SW College Road,,Ocala,FL,34474,United States,352-629-2663,,,Sun-Thurs11:00am - 9:30pmFri-Sat 11:00am - 10:00pm,,0
New Port Richey,,5130 Little Rd.,,New,Port,Richey,United States,727-375-9555,,,Sun-Thurs11:00am - 9:30pmFri-Sat 11:00am - 10:00pm,,0
Inverness,,750 W. Main St.,,Inverness,FL,34450,United States,352-341-2686,,,Sun-Thurs11:00am - 9:30pmFri-Sat 11:00am - 10:00pm,,0
Haines City,,35620 US Hwy 27,,Haines City,FL,33844,United States,863-422-1117,,,Sun-Thurs10:45am - 9:35pmFri-Sat 10:45am - 10:05pm,,0
Greenacres,,6120 Lake Worth Road,,Greenacres,FL,33463,United States,561-693-0112,,,Sun-Thurs11:00am - 10:00pmFri-Sat 11:00am - 10:00pm,,0
Gainesville - Waldo Road,,2700 N. Waldo Road,,Gainesville,FL,32609,United States,352-378-7881,,,Sun-Thurs10:45am - 9:35pmFri-Sat 10:45am - 10:05pm,,0
Gainesville - Archer Road,,3635 SW Archer Road,,Gainesville,FL,32608,United States,352-375-6667,,,Sun-Thurs10:45am - 9:35pmFri-Sat 10:45am - 10:05pm,,0
Ft. Walton Beach,,925 North Beal Parkway,,Ft.,Walton,Beach,United States,850-314-0717,,,Sun-Thurs11:00am - 9:30pmFri-Sat 11:00am - 9:30pm,,0
Gainesville - 39th Avenue,,9213 N.W. 39th Avenue,,Gainesville,FL,32606,United States,352-381-7333,,,Sun-Thurs10:45am - 9:35pmFri-Sat 10:45am - 10:05pm,,0
Ft. Pierce,,3120 South US 1,,Ft. Pierce,FL,34982,United States,772-468-9086,,,Sun-Thurs11:00am - 9:00pmFri-Sat 11:00am - 9:30pm,,0
Ft. Myers - Winkler,,5980 Winkler Road,,Ft. Myers,FL,33919,United States,239-481-0090,,,Sun-Thurs11:00am - 9:00pmFri-Sat 11:00am - 9:00pm,,0
Florida City,,33505 S. Dixie Highway,,Florida City,FL,33034,United States,305-245-8585,,,Sun-Thurs11:00am - 10:00pmFri-Sat 11:00am - 10:00pm,,0
Eustis,,15800 HWY 441,,Eustis,FL,32726,United States,352-589-6888,,,Sun-Thurs10:45am - 9:35pmFri-Sat 10:45am - 10:05pm,,0
Deland,,1500 N. Woodland Boulevard,,Deland,FL,32720,United States,386-279-0166,,,Sun-Thurs11:00am - 9:30pmFri-Sat 11:00am - 10:00pm,,0
Clewiston,,1030 W. Sugarland Highway,,Clewiston,FL,33440,United States,863-983-4171,,,Sun-Thurs11:00am - 9:00pmFri-Sat 11:00am - 9:30pm,,0
Clermont,,1500 East Highway 50,,Clermont,FL,34711,United States,352-243-6422,,,Sun-Thurs10:45am - 9:35pmFri-Sat 10:45am - 10:05pm,,0
Cape Coral,,738 SW Pine Island Road,,Cape Coral,FL,33991,United States,239-458-0954,,,Sun-Thurs11:00am - 9:00pmFri-Sat 11:00am - 10:00pm,,0
Callaway,,532 Tyndall Parkway,,Callaway,FL,32404,United States,850-215-7427,,,Sun-Thurs11:00am - 9:00pmFri-Sat 11:00am - 9:00pm,,0
Bushnell,,2684 West County Road 48,,Bushnell,FL,33513,United States,352-569-0200,,,Sun-Thurs11:00am - 9:30pmFri-Sat 11:00am - 10:00pm,,0
Bradenton - East,,"631-67th Street, Circle East",,Bradenton,FL,34208,United States,941-746-6166,,,Sun-Thurs10:45am - 9:30pmFri-Sat 10:00am - 10:00pm,,0
Belleview,,5209 SE Abshier Blvd.,,Belleview,FL,34420,United States,352-347-5400,,,Sun-Thurs11:00am - 9:30pmFri-Sat 11:00am - 10:00pm,,0
Bartow,,595 N. Broadway Ave.,,Bartow,FL,33830,United States,863-534-1429,,,Sun-Thurs10:45am - 9:30pmFri-Sat 10:45am - 9:30pm,,0
Apopka,,2210 E. Semoran Blvd.,,Apopka,FL,32703,United States,407-814-8888,,,Sun-Thurs10:45am - 9:35pmFri-Sat 10:45am - 10:05pm,,0
Alachua,,15935 NW U.S. Highway 441,,Alachua,FL,32615,United States,386-462-3180,,,Sun-Thurs11:00am - 9:30pmFri-Sat 11:00am - 10:00pm,,0
