store_name,store_number,address,address2,city,state,zip_code,country,phone_number,latitude,longitude,store_hours,other_fields,coming_soon
Place Vertu,,3131 Cote Vertu,,St-Laurent,QC,H4R 1Y8,Canada,514-333-0264,45.4981498,-73.7051605,-73.7051605,,0
Galeries St-Laurent,,2065 boul Marcel-Laurin,,St-Laurent,QC,H4R 1K4,Canada,514-332-7400,45.5183257,-73.7010965,-73.7010965,,0
Cavendish Mall,,5800 boul. Cavendish,,Cote-St-Luc,QC,H4W 2T5,Canada,514-482-0350,45.4758768,-73.6660792,-73.6660792,,0
Decarie Square,,6900 Boul. Decarie,,Cote Saint-Luc,QC,H3X 2T8,Canada,514-904-0031,45.4909521,-73.6506788,-73.6506788,,0
Plaza Cote-des-Neiges,,6700 Cote-des-Neiges,,Montréal,QC,H3S 2B2,Canada,514-344-0991,45.5023311,-73.6378368,-73.6378368,,0
Les Galeries Normandie,,2798 de Salaberry,,Montréal,QC,H3M 1L3,Canada,514-331-4372,45.5364716,-73.7014805,-73.7014805,,0
Centre Cote St-Luc,,7017 Chemin Cote St-Luc,,Cote-St-Luc,QC,H4V 1J2,Canada,514-487-9656,45.4659284,-73.653525,-73.653525,,0
,,5858 Cote-des-Neiges,,Montreal,QC,H3S 1Z1,Canada,514-904-0721,45.4995227,-73.6300231,-73.6300231,,0
Marché Central,,1035 rue du Marché Central,,Montréal,QC,H4N 1J8,Canada,514-387-3910,45.534279,-73.657858,-73.657858,,0
,,4964 Chemin Queen Mary,,Montreal,QC,H3W 1X2,Canada,,45.486258,-73.6268923,-73.6268923,,0
Centre Commercial Wilderton,,2715 Ave. Van Horne,,Montréal,QC,H3S 1P6,Canada,514-733-1022,45.5088269,-73.6247118,-73.6247118,,0
,,6495 Somerled Ave,,Montréal,QC,H4V 1S6,Canada,514-487-6145,45.4681439,-73.6382836,-73.6382836,,0
,,5716-34 rue Sherbrooke O,,Montréal,QC,H4A 1W8,Canada,514-904-1447,45.4703209,-73.6155809,-73.6155809,,0
Place Cartier,,301 boul. Cartier,,Laval,QC,H7N 2J1,Canada,450-663-1748,45.5569567,-73.6985402,-73.6985402,,0
Les Galeries Lachine,,2962 Ch. Remembrance,,Lachine,QC,H8S 1X8,Canada,514-634-5505,45.4376329,-73.6903839,-73.6903839,,0
,,8114 rue St-Denis,,Montréal,QC,H2P 2G6,Canada,514-383-0241,45.542494,-73.629633,-73.629633,,0
Centre St-Martin,,965 boul. Curé Labelle,,Laval,QC,H7V 2V7,Canada,450-978-0674,45.5427167,-73.7488292,-73.7488292,,0
,,6235 Boul. des Laurentides,,Laval,QC,H7H 2V3,Canada,,45.553678,-73.7267771,-73.7267771,,0
,,5632 Avenue du Parc,,Montréal,QC,H2V 4H1,Canada,514-273-8054,45.5227102,-73.6037042,-73.6037042,,0
Les Jardins Dorval,,330 Ave Dorval,,Dorval,QC,H9S 3H7,Canada,514-556-3032,45.4444412,-73.7410132,-73.7410132,,0
,,7017 Rue Saint-Hubert,,Montreal,QC,H2S 2N1,Canada,514-277-0343,45.5397405,-73.6111385,-73.6111385,,0
Centre Laval,,1600 Le Corbusier,,Laval,QC,H7S 1Y9,Canada,450-682-6565,45.5634888,-73.7307602,-73.7307602,,0
Pl. Alexis Nihon-Niveau Métro,,1500 Ave Atwater,,Montréal,QC,H3Z 1X5,Canada,514-906-0761,45.4889878,-73.5859141,-73.5859141,,0
Carrefour Angrignon,,7077 boul. Newman,,LaSalle,QC,H8N 1X2,Canada,514-365-2935,45.4470800,-73.6127970,-73.6127970,,0
,,1780 Rue Fleury est,,Montreal,QC,H2C 1T4,Canada,514-904-0411,45.5674212,-73.6536374,-73.6536374,,0
Gateway North Plaza,,1403 Central Ave.,,Prince Albert,SK,S6V 7J4,Canada,1-306-922-1031,53.1995686,-105.7542558,-105.7542558,,0
Cornerstone Prince Albert,,801 15th Street,,Prince Albert,SK,S6V 0C7,Canada,1-306-763-5520,53.1992867,-105.7750235,-105.7750235,,0
Centennial Plaza,,4802 39th Street,,St-Paul,AB,T0A 3A2,Canada,,53.9911164,-111.2953051,-111.2953051,,0
Harbour Centre,,555 Hastings Street West,,Vancouver,BC,V6B 4N4,Canada,1-604-646-0437,49.2846088,-123.1122151,-123.1122151,,0
The Bay Parkade,,668 Seymour St,,Vancouver,BC,V6B 3K4,Canada,1-604-662-7543,49.2822244,-123.1165041,-123.1165041,,0
Denman Place Mall,,1779 Comox Street,,Vancouver,BC,V6G 1P5,Canada,1-604-629-0133,49.2884432,-123.1390122,-123.1390122,,0
City Square,,150-555 12th Avenue West,,Vancouver,BC,V5Z 3X7,Canada,,49.2608741,-123.1163726,-123.1163726,,0
,,1345 Marine Drive,,North-Vancouver,BC,V7P 3E5,Canada,1-604-980-0152,49.3238031,-123.1120481,-123.1120481,,0
Park Royal,,1110-2002 Park Royal South,,West Vancouver,BC,V7T 1A1,Canada,,49.3253527,-123.1374396,-123.1374396,,0
,,1341 Main Street,,North Vancouver,BC,V7J 1C4,Canada,1-604-924ood Park,AB,T8A 2G4,Canada,1-780-449-2428,53.5197979,-113.3177577,-113.3177577,,
North Town Centre,,9450 137 Ave NW,,Edmonton,AB,T5E 6C2,Canada,1-780-456-1801,53.5996951,-113.4885061,-113.4885061,,
Albany Market Square,,12940 167th Avenue N.W.,,Edmonton,AB,T6V 1J6,Canada,,53.6287413,-113.5480816,-113.5480816,,
Capilano Mall,,140-5055 101 Avenue N.W,,Edmonton,AB,T6A 0G7,Canada,,53.541189,-113.4277728,-113.4277728,,
Harbour Centre,,555 Hastings Street West,,Vancouver,BC,V6B 4N4,Canada,1-604-646-0437,49.2846088,-123.1122151,-123.1122151,,
The Bay Parkade,,668 Seymour St,,Vancouver,BC,V6B 3K4,Canada,1-604-662-7543,49.2822244,-123.1165041,-123.1165041,,
Denman Place Mall,,1779 Comox Street,,Vancouver,BC,V6G 1P5,Canada,1-604-629-0133,49.2884432,-123.1390122,-123.1390122,,
City Square,,150-555 12th Avenue West,,Vancouver,BC,V5Z 3X7,Canada,,49.2608741,-123.1163726,-123.1163726,,
Park Royal,,1110-2002 Park Royal South,,West Vancouver,BC,V7T 1A1,Canada,,49.3253527,-123.1374396,-123.1374396,,
Station Square,,6200 McKay Avenue,,Burnaby,BC,V5H 4L7,Canada,,49.2271318,-123.0045487,-123.0045487,,
Lansdowne Park Shopping Centre,,5300 No. 3 Road,,Richmond,BC,V6X 2X9,Canada,1-604-248-0164,49.1759957,-123.1364975,-123.1364975,,
Terra Nova Village,,3671 Westminster Hwy,,Richmond,BC,V7C 5V2,Canada,,49.1703283,-123.1830347,-123.1830347,,
Royal City Centre,,610 6th St.,,New Westminster,BC,V3L 3C2,Canada,1-604-528-3587,49.2137872,-122.9211732,-122.9211732,,
Burquitlam Plaza,,552 Clarke Road,,Coquitlam,BC,V3J 3X5,Canada,1-604-931-1850,49.2614689,-122.8900347,-122.8900347,,
Scott Town Plaza,,9530 120th Street,,Surrey,BC,V3V 4C1,Canada,,49.1762316,-122.8900917,-122.8900917,,
Kennedy Heights Centre,,8661 120th Street,,Delta,BC,V4C 6R4,Canada,1-604-543-9526,49.1607479,-122.8904597,-122.8904597,,
Trenant Park,,5261B-5265 Ladner Trunk Road,,Delta,BC,V4K 1W4,Canada,,49.0902441,-123.0766127,-123.0766127,,
Delta Shoppers,,8195 120th Street,,Delta,BC,V4C 6P7,Canada,,49.1516507,-122.891891,-122.891891,,
2751 Central City Shopping Centre,,10153 King George Blvd,,Surrey,BC,V3T 2W1,Canada,1-604-584-4017,49.1862246,-122.8464406,-122.8464406,,
Whalley-Toys R Us,,10232 Whalley Blvd,,Surrey,BC,V3T 4H2,Canada,1-604-634-1018,49.1878839,-122.8432289,-122.8432289,,
Coquitlam Centre Mall,,2850-2929 Barnet Highway,,Coquitlam,BC,V3B 5R5,Canada,1-604-464-2833,49.2775585,-122.8030965,-122.8030965,,
Scottsdale Centre,,7065 120th Street,,Delta,BC,V4E 2A9,Canada,1-604-635-0136,49.1325504,-122.8905567,-122.8905567,,
Le Centre de Victoriaville,,445 boul Jutras est,,Victoriaville,QC,G6P 7H4,Canada,1-819-758-5601,46.0569811,-71.9432888,-71.9432888,,
Grande Place des Bois Francs,,1111 boul. Jutras est,,Victoriaville,QC,G6S 1C1,Canada,1-819-357-5172,46.0586386,-71.9203671,-71.9203671,,
Carrefour des Forges,,1940 Boul. Saint-Joseph,,Drummondville,QC,J2B 1R2,Canada,1-819-475-1397,45.8774122,-72.4868122,-72.4868122,,
Les Promenades Drummondville,,755 boul Réné-Levesque,,Drummondville,QC,J2C 6Y7,Canada,1-819-850-1807,45.8994483,-72.5176509,-72.5176509,,
Galeries Nicolet,,200-2000 Blvd Fréchette,,Nicolet,QC,J3T 1M9,Canada,,46.2401664,-72.5979507,-72.5979507,,
Le Carrefour du Cap,,165 boul. Ste-Madeleine,,Trois-Rivières,QC,G8T 3L7,Canada,1-819-374-2623,46.3658537,-72.5105954,-72.5105954,,
Centre Super Carnaval,,610 boul du St-Maurice,,Trois-Rivières,QC,G9A 3P6,Canada,1-819-697-3575,46.3531026,-72.5444717,-72.5444717,,
Centre Maxi,,6045 boul Jean XXIII,,Trois-Rivières,QC,G8Z 4N8,Canada,1-819-376-0991,46.3311907,-72.5943113,-72.5943113,,
Les Galeries du Cap,,300 rue Barkoff,,Trois-Rivières,QC,G8T 2A3,Canada,1-819-379-6972,46.3727105,-72.5592036,-72.5592036,,
Centre Commercial les Rivières,,4375 boul des Forges,,Trois-Rivières,QC,G8Y 5N9,Canada,1-819-693-7177,46.3582224,-72.5887275,-72.5887275,,
Galeries Laurier,,170 Boul.Laurier Est,,Laurier Station,QC,G0S 1N0,Canada,1-418-728-9036,46.5426061,-71.6288275,-71.6288275,,
Les Galeries D';Acton,,1530 boul. Acton,,Acton Vale,QC,J0H 1A0,Canada,1-450-546-4522,45.6442822,-72.5750612,-72.5750612,,
Place Donnacona,,325 rue de l';Eglise,,Donnacona,QC,G3M 2A2,Canada,1-418-285-0015,46.6806408,-71.7297144,-71.7297144,,
Galeries Quatre Saisons,,930 13th Ave. N,,Sherbrooke,QC,J1E 3J7,Canada,1-819-346-4392,45.4223831,-71.8721633,-71.8721633,,
Place Fleurimont,,166 Chemin Duplessis,,Sherbrooke,QC,J1E 3C7,Canada,1-819-348-0725,45.4116499,-71.8518204,-71.8518204,,
Carrefour de L';Estrie,,3050 boul Portland,,Sherbrooke,QC,J1L 1K1,Canada,1-819-346-9450,45.4032110,-71.9529710,-71.9529710,,
Centre Commerciale Louiseville,,550 boul. St-Laurent Est,,Louiseville,QC,J5V 2R5,Canada,1-819-228-8932,46.2570902,-72.9262984,-72.9262984,,
Place Belvédère,,500 Belvédère sud,,Sherbrooke,QC,J1H 4B5,Canada,1-819-566-8030,45.3958474,-71.896083,-71.896083,,
Marche Des Chutes,,2675 105ieme Avenue,,Shawinigan,QC,G9P 1P8,Canada,1-819-536-5575,46.5246990,-72.7539790,-72.7539790,,
PLACE 4640,,4640 boul. Bourque,,Sherbrooke,QC,J1N 2A8,Canada,1-819-820-9624,45.3751685,-71.9816663,-71.9816663,,
Selkirk Crossing,,1030 Manitoba Ave.,,Selkirk,MB,R1A 4M2,Canada,1-204-785-1551,50.1518799,-96.8883117,-96.8883117,,
Boardwalk Shopping Centre,,1421 Henderson Hwy.,,Winnipeg,MB,R2G 1N3,Canada,1-204-339-4746,49.9451542,-97.0863263,-97.0863263,,
Garden City Shopping Centre,,2305 McPhillips St,,Winnipeg,MB,R2V 3E1,Canada,1-204-334-7750,49.9525869,-97.1481446,-97.1481446,,
West Kildonan Shopping Mall,,1650 Main Street,,Winnipeg,MB,R2V 1Y9,Canada,,49.9335611,-97.1206128,-97.1206128,,
Regent Park Shopping Centre,,701 Regent Avenue West,,Winnipeg,MB,R2C 1S3,Canada,1-204-222-3912,49.8951823,-97.0209773,-97.0209773,,
Maples Garden Market,,1269 Jefferson Ave,,Winnipeg,MB,R2P 1S7,Canada,1-204-632-9289,49.9525984,-97.1707434,-97.1707434,,
North Gate Centre,,1399 McPhillips St (Un 1260),,Winnipeg,MB,R2V 3C4,Canada,1-204-334-0266,49.9413111,-97.1579568,-97.1579568,,
Kildonan Place,,1555 Regent Ave. West,,Winnipeg,MB,R2C 4J2,Canada,1-204-654-9857,49.8982140,-97.0613770,-97.0613770,,
Kildonan Crossing,,1560 Regent Avenue West,,Winnipeg,MB,R2C 3B4,Canada,,49.8954439,-97.0614538,-97.0614538,,
Southdale Mall,,35 Lakewood Blvd.,,Winnipeg,MB,R2J 2M8,Canada,1-204-253-0979,49.8537999,-97.0784982,-97.0784982,,
Madison Square,,1596 Ness Avenue,,Winnipeg,MB,R3J 3W6,Canada,,49.8831901,-97.2032537,-97.2032537,,
Grant Park Festival,,1170 Taylor Avenue,,Winnipeg,MB,R3M 3Z4,Canada,1-204-477-5681,49.8544462,-97.1636149,-97.1636149,,
Nova Place,,680 St. Anne';s Rd,,Winnipeg,MB,R2N 3M6,Canada,1-204-255-5518,49.8270980,-97.0851251,-97.0851251,,
Moray Plaza,,2393 Ness Ave.,,Winnipeg,MB,R3J 1A5,Canada,1-204-888-9706,49.8859733,-97.2656951,-97.2656951,,
Pembina Crossing,,1910 Pembina Hwy.,,Winnipeg,MB,R3T 4S5,Canada,1-204-275-6468,49.8230654,-97.1487983,-97.1487983,,
Courts of St-James,,1-2727 Portage Avenue,,Winnipeg,MB,R3J 0R2,Canada,,49.8785415,-97.2727498,-97.2727498,,
Seasons of Toxedo Mall,,550 Sterling Lyon Parkway,,Winnipeg,MB,R3P 1E9,Canada,1-204-475-5214,49.8417072,-97.2086763,-97.2086763,,
Parkway Mall,,212 McAllister Drive,,SAINT JOHN,NB,E2J 2S5,Canada,1-506-634-8696,45.3105821,-66.0170267,-66.0170267,,
Quispamsis Town Centre,,175 Hampton Road,,Quispamsis,NB,E2E 4Y7,Canada,1-506-847-9357,45.4040363,-65.9714192,-65.9714192,,
Landsdowne Place,,87 Landsdowne Avenue,,Saint John,NB,E2K 3A1,Canada,1-506-642-8831,45.2827593,-66.0770563,-66.0770563,,
Main & Western Street Plaza,,286 Main St,,Sussex,NB,E4E 1R6,Canada,1-506-432-6905,45.7241976,-65.5225630,-65.5225630,,
Oromocto Mall,,1198 Onondaga St.,,Oromocto,NB,E2V 1B8,Canada,1-506-357-7767,45.8528227,-66.4738634,-66.4738634,,
Evangeline Mall,,87 Warwick St,,Digby,NS,B0V 1A0,Canada,1-902-245-1936,44.6164197,-65.7637627,-65.7637627,,
K-Mart Plaza,,1065 Central Ave.,,Greenwood,NS,B0P 1N0,Canada,1-902-765-6036,44.9686213,-64.9391053,-64.9391053,,
Empire Plaza,,1033 Prospect Street,,Fredericton,NB,E3B 3B9,Canada,1-506-452-8102,45.9428144,-66.6703301,-66.6703301,,
King Place Mall,,440 King Place,,Fredericton,NB,E3B 5H8,Canada,,45.9615259,-66.6431648,-66.6431648,,
Village Centre,,528 Smythe Street,,Fredericton,NB,E3B 3E6,Canada,1-506-450-8009,45.9564551,-66.6580027,-66.6580027,,
Smart Centres,,125 Two Nations Crossing,,Fredericton,NB,E3A 0T3,Canada,,45.9880848,-66.6309459,-66.6309459,,
Nashwaaksis Plaza,,102 Main Street,,Fredericton,NB,E3A 9N6,Canada,1-506-458-1890,45.9806370,-66.6582800,-66.6582800,,
Charlotte Mall,,210 King St,,St. Stephen,NB,E3L 2E3,Canada,1-506-465-8908,45.2034090,-67.2728390,-67.2728390,,
New Minas Court,,9049 Commercial Street,,New Minas,NS,B4N 5A4,Canada,1-902-681-2513,45.0676833,-64.4563668,-64.4563668,,
Coverdale Plaza,,424 Coverdale Road,,Riverview,NB,E1B 3J9,Canada,1-506-860-7117,46.0653553,-64.8000028,-64.8000028,,
Mapleton Plaza,,80 Mapleton Road,,Moncton,NB,E1C 7W8,Canada,1-506-859-9211,46.1078876,-64.8227923,-64.8227923,,
Wheeler Park Power Centre,,121 Trinity Drive,,Moncton,NB,E1G 2J7,Canada,,46.1163839,-64.8296739,-64.8296739,,
Superstore Mall,,105 Main Street,,Moncton,NB,E1C 1B8,Canada,1-506-852-3620,46.0928847,-64.7636893,-64.7636893,,
Sobeys Elmwood,,72 Filles de Jesus Ave,,Moncton,NB,E1A 9G6,Canada,,46.1219903,-64.7693859,-64.7693859,,
Village on Dieppe,,5070 Principale Ave. East,,Dieppe,NB,E1A 9P7,Canada,,46.0939684,-64.7029554,-64.7029554,,
Amherst Town Square,,147 South Albion St.,,Amherst,NS,B4H 2X2,Canada,1-902-667-0652,45.8159551,-64.2043510,-64.2043510,,
Fort Edward Mall,,50 Empire Lane,,Windsor,NS,B0N 2T0,Canada,1-902-798-8184,44.9927173,-64.1261937,-64.1261937,,
Centre d';Achat Domaine,,3235 Ave de Granby,,Montréal,QC,H1N 2Z7,Canada,514-257-9657,45.5816964,-73.5413759,-73.5413759,,
Place Versailles,,7275 rue Sherbrooke Est,,Montréal,QC,H1N 1E9,Canada,514-354-4370,45.5906399,-73.5394184,-73.5394184,,
Carrefour Langelier,,7373 boul Langelier,,Montréal,QC,H1S 1V7,Canada,514-255-1988,45.5922578,-73.5707235,-73.5707235,,
Les Halles d';Anjou,,7500 Les Galeries d';Anjou,,Anjou,QC,H1M 3M4,Canada,514-353-2823,45.5990935,-73.5689010,-73.5689010,,
Centre Le Boulevard,,4254-A est boul Jean-Talon,,Montréal,QC,H1S 1J7,Canada,514-728-0869,45.5685889,-73.5895212,-73.5895212,,
Place Viau,,7600 Boul. Viau,,Saint-Leonard,QC,H1S 2P3,Canada,,45.5745144,-73.5913311,-73.5913311,,
Marché Bellemare,,2650 boul Rosemont,,Montréal,QC,H1Y 1L2,Canada,514-664-5852,45.5484012,-73.5843607,-73.5843607,,
Place Longueuil,,825 rue St-Laurent Ouest,,Longueuil,QC,J4K 2V1,Canada,450-646-3775,45.5289403,-73.5130985,-73.5130985,,
Centre Jacques Cartier,,1401 Chemin Chambly,,Longueuil,QC,J4J 3X6,Canada,450-646-2355,45.5311503,-73.4857661,-73.4857661,,
Plaza Rolland Therrien,,1955 Boul. Rolland Therrien,,Longueuil,QC,J4N 1E5,Canada,,45.5376144,-73.4720375,-73.4720375,,
Faubourg Lacordaire,,9484 Boul. Lacordaire,,Saint-Leonard,QC,H1R 0C4,Canada,,45.6006386,-73.6134389,-73.6134389,,
Centre L';Agora Duplessis,,7747 Maurice-Duplessis,,Montréal,QC,H1E 1M5,Canada,514-643-4980,45.6285734,-73.5933842,-73.5933842,,
Promenade de Montarville,,1001 boul de Montarville,,Boucherville,QC,J4B 6P5,Canada,450-449-5899,45.5910798,-73.4359665,-73.4359665,,
Les Condominiums Saint-Michel,,8962 Boul. Saint- Michel,,Montreal,QC,H1Z 3G4,Canada,514-387-7141,45.5710468,-73.6262148,-73.6262148,,
Starrs Road Plaza,,130 Starr';s Road,,Yarmouth,NS,B5A 4E5,Canada,1-902-749-0373,43.8405611,-66.0969599,-66.0969599,,
Bridgewater Mall,,441 Lahave Street,,Bridgewater,NS,B4V 3A2,Canada,1-902-543-3303,44.3778280,-64.5158390,-64.5158390,,
Bayers Lake Centre,,209 Chain Lake Drive,,Halifax,NS,B3S 1C9,Canada,1-902-450-0877,44.6519888,-63.6764003,-63.6764003,,
Hemlock Square,,55 Peakview Way,,Halifax,NS,B3M 0G2,Canada,1-902-832-0612,44.6794660,-63.6712759,-63.6712759,,
South Centre,,16 Dentith Rd.,,Halifax,NS,B3R 2H9,Canada,1-902-479-2465,44.6133197,-63.6184183,-63.6184183,,
Mill Cove Plaza,,961 Bedford Highway,,Bedford,NS,B4A 1A9,Canada,1-709-944-6800,44.7160379,-63.6764136,-63.6764136,,
Downsview Plaza,,720 Sackville Drive,,Lower Sackville,NS,B4E 3A4,Canada,1-902-864-4396,44.7736414,-63.6928046,-63.6928046,,
Bedford Place Mall,,1658 Bedford Highway,,Bedford,NS,B4A 2X9,Canada,1-902-835-9675,44.7357027,-63.6551175,-63.6551175,,
Young Kempt Centre,,6061 Young Street,,Halifax,NS,B3K 2A3,Canada,1-902-442-0308,44.6591620,-63.6030209,-63.6030209,,
Scotia Square Mall,,5201 Duke St,,Halifax,NS,B3J 1N9,Canada,1-902-442-0252,44.6492172,-63.5751085,-63.5751085,,
Bedford Commons Plaza,,85 Damascus Rd,,Bedford,NS,B4A 0C2,Canada,1-902-835-8915,44.7507330,-63.6391481,-63.6391481,,
Dartmouth Shopping Centre,,118 Wyse Road,,Dartmouth,NS,B3A 1N7,Canada,1-902-463-8812,44.6717141,-63.5779540,-63.5779540,,
Dartmouth Crossing,,100 Gale Terrace,,Dartmouth,NS,B3B 0B7,Canada,,44.6974601,-63.5651149,-63.5651149,,
Promenade Place du Parc,,3575 Ave. du Parc,,Montréal,QC,H2X 3P9,Canada,514-843-6265,45.5103334,-73.5750222,-73.5750222,,
Place Montreal Trust,,1500 McGill College,,Montréal,QC,H3A 3J5,Canada,514-287-7490,45.5023402,-73.5723526,-73.5723526,,
Complexe Desjardins,,Niveau Place,,Montréal,QC,H5B 1B8,Canada,514-289-8593,45.5074006,-73.5640941,-73.5640941,,
Promenades de la Cathedrale,,625 Ste-Catherine O,,Montréal,QC,H3B 1B7,Canada,514-906-0445,45.5033603,-73.5694191,-73.5694191,,
Le Faubourg Ste-Catherine,,1616 Ste-Catherine O,,Montréal,QC,H3H 1L7,Canada,514-904-2814,45.493982,-73.5787514,-73.5787514,,
District Griffin,,220 Rue Shannon,,Montreal,QC,H3C 2G7,Canada,,45.4944575,-73.5584705,-73.5584705,,
Woodstock Plaza,,337 Connel Road,,Woodstock,NB,E7M 1L3,Canada,1-506-325-2511,46.1661449,-67.5959317,-67.5959317,,
Grand Falls Shopping Centre,,180 Madawaska Rd,,Grand Falls,NB,E3Y 1A7,Canada,1-506-473-6031,47.0540936,-67.7448162,-67.7448162,,
Miramichi Power Centre,,100 Douglastown Blvd.,,Miramichi,NB,E1V 0A3,Canada,1-506-778-0808,47.0345207,-65.4893962,-65.4893962,,
Complexe Angrignon,,6811 Blvd. Newman,,Lasalle,QC,H8N 3E4,Canada,,45.4489213,-73.6083417,-73.6083417,,
Marche Newman,,7798 Boul. Newman,,Lasalle,QC,H8N 1X8,Canada,514-365-7304,45.4371388,-73.6245998,-73.6245998,,
Place Newman,,2101 rue Dollard,,Lasalle,QC,H8N 1S2,Canada,514-366-4076,45.4310212,-73.6351797,-73.6351797,,
Place du Commerce,,100-1855 Route des Rivières,,Lévis,QC,G7A 4X8,Canada,1-418-831-5346,46.7096018,-71.2900809,-71.2900809,,
Centre St-Etienne,,3100 Route Lagueux,,Levis,QC,G6J 1J9,Canada,,46.6604993,-71.3250295,-71.3250295,,
Les Promenades du Sud,,940 Chemin du Sault,,Levis,QC,G6W 5M6,Canada,1-418-839-8609,46.7298055,-71.2713375,-71.2713375,,
Place des Quatre Bourgeois,,999 Ave. de Bourgogne,,Québec,QC,G1W 4S6,Canada,1-418-263-0155,46.7653294,-71.3112902,-71.3112902,,
Promenades Saint-Jean,,798 Ave. Taniata,,Levis,QC,G6Z 2C9,Canada,,46.7303302,-71.2068731,-71.2068731,,
Place Laurier,,2700 boul. Laurier,,Québec,QC,G1V 2L8,Canada,1-418-659-5976,46.7703103,-71.2855154,-71.2855154,,
Cap Rouge,,811 Route Jean-Gauvin,,Quebec,QC,G1X 4V9,Canada,,46.7642722,-71.3687281,-71.3687281,,
La Pyramide,,2360 Chemin Sainte-Foy,,Quebec,QC,G1V 4H2,Canada,,46.7866769,-71.2820322,-71.2820322,,
Complexe Ste-Foy,,1270 boul Duplessis,,Québec,QC,G2G 2B5,Canada,1-418-263-1116,46.786713,-71.35505,-71.35505,,
Carrefour Saint-Sacrement,,1275 Boul. Charest Ouest,,Quebec,QC,G1N 2C9,Canada,1-418-266-2166,46.7993360,-71.2561758,-71.2561758,,
Place Duberger,,2300 Boul.Pere-Lelievre,,Quebec,QC,G1P 2X5,Canada,,46.8122147,-71.2991418,-71.2991418,,
Carrefour Notre-Dame,,1866 Rue Notre-Dame,,L';Ancienne-Lorette,QC,G2E 3C8,Canada,1-418-871-4509,46.8089309,-71.3682009,-71.3682009,,
Carrefour Les Saules,,5150 Boulevard De L';Ormiere,,Québec,QC,G1P 4B2,Canada,1-418-872-0351,46.8198609,-71.3308406,-71.3308406,,
Carrefour Wilfrid-Halle,,5475-D Rue Wilfrid-Halle,,Levis,QC,G6V 9J1,Canada,,46.783803,-71.1638849,-71.1638849,,
Place Fleur de Lys,,550 boul Wilfrid-Hamel,,Québec,QC,G1M 2S6,Canada,1-418-529-9600,46.8208806,-71.2521854,-71.2521854,,
Les Galeries Chagnon,,1200 boul. Alphonse Desjardins,,Lévis,QC,G6V 6Y8,Canada,1-418-833-5782,46.7963975,-71.1711047,-71.1711047,,
Carrefour Neufchatel,,4605 Boulevard de l';Auvergne,,Neufchatel,QC,G2C 1H7,Canada,1-418-843-8300,46.8247906,-71.3564707,-71.3564707,,
Les Galeries de la Capitale,,5401 boul des Galeries,,Québec,QC,G2K 1N4,Canada,1-418-628-5579,46.8311593,-71.2990936,-71.2990936,,
Place L';Ormière,,9550 boul. L';Ormière,,Québec,QC,G2B 3Z6,Canada,1-418-845-2966,46.837156,-71.3560925,-71.3560925,,
Les Galeries Charlesbourg,,4250 1e Ave.,,Québec,QC,G1H 2S5,Canada,1-418-628-9052,46.8434388,-71.2475349,-71.2475349,,
Centre Madawaska,,11 Centre Madawaska Blvd,,Saint-Basile,NB,E7C 1R7,Canada,1-506-735-5366,47.3655671,-68.2665735,-68.2665735,,
Victoria Street Plaza,,787 Victoria Street,,Edmundston,NB,E3V 3T3,Canada,1-506-735-8270,47.3936267,-68.3440378,-68.3440378,,
Sugarloaf Mall,,312 Val d';Amour Rd.,,Atholville,NB,E3N 4E2,Canada,1-506-753-7349,47.9935033,-66.7019307,-66.7019307,,
Campbellton City Centre,,157 Water St.,,Campbellton,NB,E3N 3L4,Canada,1-506-753-2769,48.0064856,-66.6760929,-66.6760929,,
St. Anne Street Plaza,,930 rue St. Anne,,Bathurst,NB,E2A 6X2,Canada,1-506-548-4011,47.6269231,-65.6812664,-65.6812664,,
Galerie Témis,,633 rue Commerciale North,,Temiscouata-sur-le Lac,QC,G0L 1E0,Canada,1-418-854-1031,47.674173,-68.871188,-68.871188,,
Place Bathurst Mall,,1300 St. Peter';s Ave.,,Bathurst,NB,E2A 3A6,Canada,1-506-546-4571,47.6391725,-65.6793736,-65.6793736,,
Keele Street Centre,,3715 Keele St.,,North York,ON,M3J 1N1,Canada,,43.7557521,-79.4883898,-79.4883898,,
Riocan Market Place,,2181 Steeles Ave W,,Toronto,ON,M3J 3N2,Canada,1-416-645-0326,43.7855095,-79.4768795,-79.4768795,,
York Gate Mall,,1 Yorkgate Blvd,,Toronto,ON,M3N 3A1,Canada,1-416-661-8794,43.7569215,-79.5201468,-79.5201468,,
Coulter';s Mill Marketplace,,1450 Clark Ave. W.,,Thornhill,ON,L4J 7R5,Canada,1-905-532-0387,43.7989598,-79.4668318,-79.4668318,,
Finchurst Plaza,,4915 Bathurst St.,,North York,ON,M2R 1X9,Canada,,43.772967,-79.442463,-79.442463,,
Cedarcroft,,5990 Bathurst Street,,Toronto,ON,M2R 1Z1,Canada,,43.7847891,-79.4458279,-79.4458279,,
Main Exchange Plaza,,B-4 800 Steeles Avenue West,,Vaughan,ON,L4J 7L2,Canada,1-905-695-0160,43.7922629,-79.4473231,-79.4473231,,
Colossus Centre-Block-G,,7601 Weston Rd,,Vaughan,ON,L4L 9J9,Canada,1-289-371-3046,43.7862848,-79.5466861,-79.5466861,,
North York Sheridan Mall,,1620-1624 Wilson Avenue,,North York,ON,M3L 1B2,Canada,,43.7206305,-79.5103853,-79.5103853,,
Steeles Square,,180 Steeles Avenue West,,Vaughan,ON,L4J 2L1,Canada,,43.7967106,-79.4263161,-79.4263161,,
Centerpoint Mall,,6464 Yonge Street,,North York,ON,M2M 3X4,Canada,,43.7956849,-79.4222835,-79.4222835,,
Empress Walk,,5095 Yonge Street,,Toronto,ON,M2N 6Z4,Canada,1-416-225-1933,43.7682681,-79.4125297,-79.4125297,,
Sheppard Centre,,4841 Yonge St,,Toronto,ON,M2N 5X2,Canada,1-416-644-0028,43.7620346,-79.4109507,-79.4109507,,
Lawrence Square,,700 Lawrence Ave W.,,Toronto,ON,M6A 3B4,Canada,1-416-640-5722,43.7157439,-79.4466370,-79.4466370,,
Vaughan Mills Circle,,3255 Rutherford,,Vaughan,ON,L4K 5Y5,Canada,1-905-738-1393,43.8286958,-79.5411292,-79.5411292,,
Rexdale Mall,,2257 Islington,,Etobicoke,ON,M9W 3W6,Canada,1-416-640-1564,43.7154401,-79.5551898,-79.5551898,,
Finch Albion Centre,,1620 Albion Road,,Etobicoke,ON,M9V 4B4,Canada,1-416-742-7972,43.7414917,-79.5907640,-79.5907640,,
Royal York Plaza,,1500 Royal York Road,,Toronto,ON,M9P 3B6,Canada,1-416-244-1262,43.6918950,-79.5310706,-79.5310706,,
Woodbridge Town Centre,,5731 Hwy 7,,Woodbridge,ON,L4L 4Y9,Canada,1-905-264-0994,43.7738988,-79.6122481,-79.6122481,,
Mackenzie Glen,,2810 MajorMackenzie Dr W,,Maple,ON,L6A 3L2,Canada,1-613-842-0384,43.8514953,-79.5347577,-79.5347577,,
Les Promenades de Sorel,,450 boul Poliquin,,Sorel-Tracy,QC,J3P 7R5,Canada,1-450-743-4012,46.0405947,-73.0844072,-73.0844072,,
Place Sorel,,250 boul. Fiset,,Sorel-Tracy,QC,J3P 3P7,Canada,1-450-730-0849,46.0399285,-73.0990490,-73.0990490,,
Carrefour Berthierville,,830 Ave. Gilles-Villeneuve,,Berthierville,QC,J0K 1A0,Canada,1-450-836-1009,46.0834569,-73.1843480,-73.1843480,,
Marche Lavaltrie,,89 Chemin de Lavaltrie,,Lavaltrie,QC,J5T 2H5,Canada,1-450-586-6890,45.8934123,-73.2955474,-73.2955474,,
Galerie Joliette,,1075 boul. Firestone,,Joliette,QC,J6E 6X6,Canada,1-450-759-9185,46.0339308,-73.4279346,-73.4279346,,
Place Marquis,,790 Montee de Saint-Sulpice,,L';Assomption,QC,J5W 0M6,Canada,,45.8344341,-73.4107227,-73.4107227,,
Centre Commerciale,,1124 boul Iberville,,Repentigny,QC,J5Y 3M6,Canada,450-657-4793,45.7775759,-73.4178677,-73.4178677,,
Galeries Rive-Nord,,100 boul. Brien,,Repentigny,QC,J6A 5N4,Canada,450-581-0067,45.7444924,-73.4550385,-73.4550385,,
Galeries Saint-Hyacinthe,,3200 Boul.Laframboise,,Saint-Hyacinthe,QC,J2S 4Z5,Canada,450-773-8273,45.6369278,-72.9677045,-72.9677045,,
Centre d';Achat St-Hyacinthe,,2225 boul. Casavant,,St-Hyacinthe,QC,J2S 7E5,Canada,1-450-261-9159,45.6342664,-72.9672098,-72.9672098,,
Carrefour Charlemagne,,50 Rue Emile-Despins,,Charlemagne,QC,J5Z 3L6,Canada,,45.7207989,-73.4924676,-73.4924676,,
Les Galeries Varennes,,2020 boul. Réné-Gaultier,,Varennes,QC,J3X 1N9,Canada,450-652-6529,45.6777809,-73.4355932,-73.4355932,,
Terrasses Mascouche,,1100 Montée Masson,,Mascouche,QC,J7K 2L8,Canada,450-474-5930,45.7478063,-73.6070895,-73.6070895,,
North Bay Mall,,300 Lakeshore Drive,,North Bay,ON,P1A 3V2,Canada,1-705-476-0000,46.2825334,-79.4489060,-79.4489060,,
Northgate Square,,1500 Fisher Street,,North Bay,ON,P1B 2H3,Canada,1-705-840-1027,46.3132147,-79.4418874,-79.4418874,,
Algonquin Square,,975 McKeown Ave,,North Bay,ON,P1B 9P2,Canada,1-705-494-9771,46.3326577,-79.4727864,-79.4727864,,
Huntsville Place Mall,,B03-70 King William Street,,Huntsville,ON,P1H 2A5,Canada,1-705-789-3831,45.3261984,-79.2189001,-79.2189001,,
Silver Hills Centre,,1299 Marcus Drive,,Sudbury,ON,P3B 4K6,Canada,1-705-560-3103,46.5009182,-80.9465648,-80.9465648,,
New Sudbury Centre,,1349 Lasalle Rd.,,Sudbury,ON,P3A 1Z2,Canada,1-705-524-0396,46.5220101,-80.9471218,-80.9471218,,
Southridge Mall,,1933 Regent St.,,Sudbury,ON,P3E 5R2,Canada,1-705-522-0094,46.4512776,-81.0029162,-81.0029162,,
Rainbow Centre,,40 Elm Street,,Sudbury,ON,P3C 1S8,Canada,,46.49405,-80.9927602,-80.9927602,,
Smart Centres Sudbury South,,2412 Long Lake Road,,Sudbury,ON,P3E 0C5,Canada,1-705-523-5574,46.4422799,-81.0054967,-81.0054967,,
Timiskaming Square,,RR #2 Hwy 11B & 65 East,,New Liskeard,ON,P0J 1P0,Canada,1-705-647-4109,47.5226082,-79.6745308,-79.6745308,,
Bracebridge Plaza,,500 Highway #118 West,,Bracebridge,ON,P1L 1T3,Canada,1-705-645-8599,45.0118055,-79.3174788,-79.3174788,,
Huronia Mall,,9225 County Road 93,,Midland,ON,L4R 4K4,Canada,1-705-527-9338,44.7380495,-79.9103739,-79.9103739,,
Espanola Mall,,800 Centre Street,,Espanola,ON,P5E 1J3,Canada,1-705-869-1585,46.2482222,-81.7569050,-81.7569050,,
Fittons West Centre,,425 West St N.,,Orillia,ON,L3V 7R2,Canada,1-705-326-4138,44.6227661,-79.4342687,-79.4342687,,
Westend Mall,,1200 Pembroke St.,,Pembroke,ON,K8A 7T1,Canada,1-613-732-1556,45.8320238,-77.1454165,-77.1454165,,
Pembroke Mall,,1100 Pembroke St. East,,Pembroke,ON,K8A 6Y7,Canada,1-613-735-7238,45.8311301,-77.1420576,-77.1420576,,
Orillia Centre,,165 Murphy Rd,,Orillia,ON,L3V 0B5,Canada,1-705-326-3307,44.6145190,-79.4495132,-79.4495132,,
Riverbend Plaza,,1263 Mosley St,,Wasaga Beach,ON,L9Z 2Y7,Canada,1-705-429-4210,44.4902598,-80.0508582,-80.0508582,,
Meaford Plaza,,206497 Highway 26 East,,Meaford,ON,N4L 1W7,Canada,1-519-538-2970,44.5915004,-80.5727093,-80.5727093,,
Plaza Paspébiac,,113A Gérard D. Lévesque Ouest,,Paspébiac,QC,G0C 2K0,Canada,1-418-752-3151,48.0272179,-65.2612728,-65.2612728,,
Carrefour Baie des Chaleurs,,122 boul. Perron Ouest,,New Richmond,QC,G0C 2B0,Canada,1-418-392-6410,48.1613475,-65.8580374,-65.8580374,,
Place St-Pierre,,445 St. Pierre Blvd. W.,,Caraquet,NB,E1W 1B2,Canada,1-506-727-3227,47.7770033,-64.9908938,-64.9908938,,
Centre Le Rond Point,,1-3409 rue Principale,,Tracadie-Sheila,NB,E1X 1C7,Canada,1-506-393-6486,47.5214766,-64.9107261,-64.9107261,,
Place du Havre,,500 rue Daigneault,,Chandler,QC,G0C 1K0,Canada,1-418-689-7182,48.3511684,-64.6702264,-64.6702264,,
Place Lebourg,,193 Irving Blvd.,,Bouctouche,NB,E4S 3K4,Canada,1-506-743-6727,46.4639686,-64.7344292,-64.7344292,,
Carrefour Centre Ville,,114 St-Benoit Ouest,,Amqui,QC,G5J 2E7,Canada,1-418-629-4491,48.4655957,-67.4325664,-67.4325664,,
Place Jacques Cartier,,167 Rue de la Reine,,Gaspé,QC,G4X 2W6,Canada,1-418-368-5811,48.8286515,-64.4847131,-64.4847131,,
Place Jean Coutu,,20 Blvd Ste-Anne Ouest,,Ste-Anne-des-Monts,QC,G4V 1P6,Canada,1-418-763-7354,49.1255871,-66.4870746,-66.4870746,,
Promenade du St-Laurent,,597 du Phare est,,Matane,QC,G4W 4L6,Canada,1-418-562-7026,48.8523077,-67.5087227,-67.5087227,,
University Plaza,,449 University Ave,,Charlottetown,PE,C1A 8K3,Canada,1-902-628-1142,46.2495868,-63.1371773,-63.1371773,,
Charlottetown Mall,,670 University Ave,,Charlottetown,PE,C1E 1H6,Canada,1-902-368-8446,46.2648479,-63.1471508,-63.1471508,,
Antigonish Mall,,133 Church St.,,Antigonish,NS,B2G 2E3,Canada,1-902-863-5237,45.6163251,-61.9858907,-61.9858907,,
Granville Street Plaza,,454 Granville St,,Summerside,PE,C1N 4K7,Canada,1-902-432-3480,46.4117056,-63.7821765,-63.7821765,,
Truro Mall,,245 Robie Street,,Truro,NS,B2N 5N6,Canada,1-902-893-7789,45.3694132,-63.3033439,-63.3033439,,
Port Hawkesbury Centre,,47 Paint St.,,Port Hawkesbury,NS,B9A 3J9,Canada,1-902-625-3486,45.6182445,-61.3350141,-61.3350141,,
Elmsdale Shopping Centre,,269 Highway 214,,Elmsdale,NS,B2S 1K1,Canada,,44.9759913,-63.5074079,-63.5074079,,
Cole Harbour Shopping Centre,,4 Forest Hills Parkway,,Dartmouth,NS,B2W 5G7,Canada,,44.6738659,-63.491578,-63.491578,,
Ridley Square Plaza,,111 4th Avenue,,St. Catharines,ON,L2S 3P4,Canada,1-905-346-1153,43.1567255,-79.2606517,-79.2606517,,
Glenridge Plaza,,224 Glenridge Ave (Un 12),,St. Catharines,ON,L2T 3J9,Canada,1-905-688-6955,43.1416311,-79.2394857,-79.2394857,,
Pendale Plaza,,210 Glendale Avenue,,St-Catharines,ON,L2T 3Y6,Canada,1-905-685-3556,43.1323781,-79.2260923,-79.2260923,,
Pen Centre Shopping Plaza,,221 Glendale Ave,,St. Catharines,ON,L2T 2K9,Canada,1-905-346-0175,43.1330145,-79.2251055,-79.2251055,,
Lincoln Valucentre,,525 Welland Avenue,,St. Catharines,ON,L2M 6P3,Canada,1-905-682-0157,43.1699933,-79.2282447,-79.2282447,,
Fairview Mall,,285 Geneva Street,,St Catharines,ON,L2N 2G1,Canada,1-905-935-4450,43.1781740,-79.2448140,-79.2448140,,
East Fonthill,,130 Highway 20 East,,Fonthill,ON,L0S 1E0,Canada,,43.0486774,-79.276736,-79.276736,,
Niagara Falls Plaza,,6777 Morrison Street,,Niagara Falls,ON,L2E 6Z8,Canada,1-905-371-3207,43.1043112,-79.1059931,-79.1059931,,
Oakwood Place Shopping Centre,,7841 Oakwood Drive,,Niagara Falls,ON,L2E 6S5,Canada,1-905-358-2740,43.0723655,-79.1179256,-79.1179256,,
Niagara Square,,7555 Montrose Road,,Niagara Falls,ON,L2H 2E9,Canada,1-905-357-1283,43.0656117,-79.1230831,-79.1230831,,
Seaway Mall,,800 Niagara Street North,,Welland,ON,L3C 5Z4,Canada,1-905-735-9768,43.0152362,-79.2475104,-79.2475104,,
Battlefield Plaza,,6240 Lundy';s Lane,,Niagara Falls,ON,L2G 1T6,Canada,1-905-358-8508,43.0893828,-79.0982063,-79.0982063,,
Northtown Plaza,,325 Thorold Road,,Welland,ON,L3C 3W4,Canada,,43.002881,-79.2719986,-79.2719986,,
Lincoln Centre,,390 Lincoln St.,,Welland,ON,L3B 4N4,Canada,1-905-788-2768,42.9841041,-79.2389959,-79.2389959,,
Grimsby Shopping Centre,,150 Main Street East,,Grimsby,ON,L3M 1P1,Canada,1-905-309-7069,43.1883131,-79.5451296,-79.5451296,,
Port Colborne Mall,,287 West Side Road,,Port Colborne,ON,L3K 5L2,Canada,1-905-834-8257,42.9056323,-79.2651504,-79.2651504,,
West Side Place,,51 West Side Road,,Port Colborne,ON,L3K 5Y7,Canada,1-905-834-7922,42.8956877,-79.2663574,-79.2663574,,
International Gateway Centre,,450 Garrison Road,,Fort Erie,ON,L2A 1N2,Canada,1-905-994-7962,42.9054595,-78.9312933,-78.9312933,,
Fiesta Mall,,102 Highway 8,,Stoney Creek,ON,L8G 4H3,Canada,,43.2239718,-79.7469683,-79.7469683,,
Eastgate Square,,75 Centennial Parkway North,,Hamilton,ON,L8E 2P2,Canada,,43.2319736,-79.7631085,-79.7631085,,
Rymal Corners,,2257 Rymal Road East,,Stoney Creek,ON,L8J 2V8,Canada,,43.1741098,-79.7805236,-79.7805236,,
M9V 4B4,Canada,1-416-742-7972,43.7414917,-79.5907640,-79.5907640,,0
,,2388 Dufferin Street,,Toronto,ON,M6E 3S6,Canada,1-416-782-2963,43.6963808,-79.4508063,-79.4508063,,0
Royal York Plaza,,1500 Royal York Road,,Toronto,ON,M9P 3B6,Canada,1-416-244-1262,43.6918950,-79.5310706,-79.5310706,,0
Woodbridge Town Centre,,5731 Hwy 7,,Woodbridge,ON,L4L 4Y9,Canada,1-905-264-0994,43.7738988,-79.6122481,-79.6122481,,0
Mackenzie Glen,,2810 MajorMackenzie Dr W,,Maple,ON,L6A 3L2,Canada,1-613-842-0384,43.8514953,-79.5347577,-79.5347577,,0
Les Promenades de Sorel,,450 boul Poliquin,,Sorel-Tracy,QC,J3P 7R5,Canada,1-450-743-4012,46.0405947,-73.0844072,-73.0844072,,0
Place Sorel,,250 boul. Fiset,,Sorel-Tracy,QC,J3P 3P7,Canada,1-450-730-0849,46.0399285,-73.0990490,-73.0990490,,0
Carrefour Berthierville,,830 Ave. Gilles-Villeneuve,,Berthierville,QC,J0K 1A0,Canada,1-450-836-1009,46.0834569,-73.1843480,-73.1843480,,0
Marche Lavaltrie,,89 Chemin de Lavaltrie,,Lavaltrie,QC,J5T 2H5,Canada,1-450-586-6890,45.8934123,-73.2955474,-73.2955474,,0
Galerie Joliette,,1075 boul. Firestone,,Joliette,QC,J6E 6X6,Canada,1-450-759-9185,46.0339308,-73.4279346,-73.4279346,,0
,,44 Place Bourget,,Joliette,QC,J6E 5E7,Canada,1-450-759-9588,46.0251557,-73.4406517,-73.4406517,,0
Place Marquis,,790 Montee de Saint-Sulpice,,L';Assomption,QC,J5W 0M6,Canada,,45.8344341,-73.4107227,-73.4107227,,0
Centre Commerciale,,1124 boul Iberville,,Repentigny,QC,J5Y 3M6,Canada,450-657-4793,45.7775759,-73.4178677,-73.4178677,,0
Galeries Rive-Nord,,100 boul. Brien,,Repentigny,QC,J6A 5N4,Canada,450-581-0067,45.7444924,-73.4550385,-73.4550385,,0
Galeries Saint-Hyacinthe,,3200 Boul.Laframboise,,Saint-Hyacinthe,QC,J2S 4Z5,Canada,450-773-8273,45.6369278,-72.9677045,-72.9677045,,0
Centre d';Achat St-Hyacinthe,,2225 boul. Casavant,,St-Hyacinthe,QC,J2S 7E5,Canada,1-450-261-9159,45.6342664,-72.9672098,-72.9672098,,0
Carrefour Charlemagne,,50 Rue Emile-Despins,,Charlemagne,QC,J5Z 3L6,Canada,,45.7207989,-73.4924676,-73.4924676,,0
,,5400 Blvd. Laurier Ouest,,St-Hyacinthe,QC,J2S 3V7,Canada,,45.6054417,-72.9789043,-72.9789043,,0
Les Galeries Varennes,,2020 boul. Réné-Gaultier,,Varennes,QC,J3X 1N9,Canada,450-652-6529,45.6777809,-73.4355932,-73.4355932,,0
,,3593 rue Queen,,Rawdon,QC,J0K 1S0,Canada,450-834-3862,46.0412546,-73.7054156,-73.7054156,,0
,,262 Montée des Pionniers,,Terrebonne,QC,J6V 1S6,Canada,450-581-4746,45.7107903,-73.5120967,-73.5120967,,0
,,4445 boul. Gene-H.-Kruger,,Trois-Rivières,QC,G9A 4N3,Canada,1-819-840-8754,46.3237379,-72.5626725,-72.5626725,,0
Terrasses Mascouche,,1100 Montée Masson,,Mascouche,QC,J7K 2L8,Canada,450-474-5930,45.7478063,-73.6070895,-73.6070895,,0
North Bay Mall,,300 Lakeshore Drive,,North Bay,ON,P1A 3V2,Canada,1-705-476-0000,46.2825334,-79.4489060,-79.4489060,,0
Northgate Square,,1500 Fisher Street,,North Bay,ON,P1B 2H3,Canada,1-705-840-1027,46.3132147,-79.4418874,-79.4418874,,0
Algonquin Square,,975 McKeown Ave,,North Bay,ON,P1B 9P2,Canada,1-705-494-9771,46.3326577,-79.4727864,-79.4727864,,0
Huntsville Place Mall,,B03-70 King William Street,,Huntsville,ON,P1H 2A5,Canada,1-705-789-3831,45.3261984,-79.2189001,-79.2189001,,0
,,1 Pine Drive,,Parry Sound,ON,P2A 2C3,Canada,1-705-746-6823,45.3450830,-80.0110199,-80.0110199,,0
Silver Hills Centre,,1299 Marcus Drive,,Sudbury,ON,P3B 4K6,Canada,1-705-560-3103,46.5009182,-80.9465648,-80.9465648,,0
New Sudbury Centre,,1349 Lasalle Rd.,,Sudbury,ON,P3A 1Z2,Canada,1-705-524-0396,46.5220101,-80.9471218,-80.9471218,,0
,,747 Notre Dame Ave.,,Sudbury,ON,P3A 2T2,Canada,1-705-524-6398,46.5101631,-80.9866688,-80.9866688,,0
Southridge Mall,,1933 Regent St.,,Sudbury,ON,P3E 5R2,Canada,1-705-522-0094,46.4512776,-81.0029162,-81.0029162,,0
Rainbow Centre,,40 Elm Street,,Sudbury,ON,P3C 1S8,Canada,,46.49405,-80.9927602,-80.9927602,,0
Smart Centres Sudbury South,,2412 Long Lake Road,,Sudbury,ON,P3E 0C5,Canada,1-705-523-5574,46.4422799,-81.0054967,-81.0054967,,0
,,3021 Highway 69 North,,Val Caron,ON,P3N 1R8,Canada,1-705-897-0329,46.6116900,-81.0074840,-81.0074840,,0
,,3744 Route 144,,Chelmsford,ON,P0M 1L0,Canada,,46.5686755,-81.1848731,-81.1848731,,0
Timiskaming Square,,RR #2 Hwy 11B & 65 East,,New Liskeard,ON,P0J 1P0,Canada,1-705-647-4109,47.5226082,-79.6745308,-79.6745308,,0
Bracebridge Plaza,,500 Highway #118 West,,Bracebridge,ON,P1L 1T3,Canada,1-705-645-8599,45.0118055,-79.3174788,-79.3174788,,0
,,225 Edward St.,,Gravenhurst,ON,P1P 1K8,Canada,1-705-684-9765,44.9084067,-79.3720428,-79.3720428,,0
Huronia Mall,,9225 County Road 93,,Midland,ON,L4R 4K4,Canada,1-705-527-9338,44.7380495,-79.9103739,-79.9103739,,0
Espanola Mall,,800 Centre Street,,Espanola,ON,P5E 1J3,Canada,1-705-869-1585,46.2482222,-81.7569050,-81.7569050,,0
Fittons West Centre,,425 West St N.,,Orillia,ON,L3V 7R2,Canada,1-705-326-4138,44.6227661,-79.4342687,-79.4342687,,0
Westend Mall,,1200 Pembroke St.,,Pembroke,ON,K8A 7T1,Canada,1-613-732-1556,45.8320238,-77.1454165,-77.1454165,,0
Pembroke Mall,,1100 Pembroke St. East,,Pembroke,ON,K8A 6Y7,Canada,1-613-735-7238,45.8311301,-77.1420576,-77.1420576,,0
Orillia Centre,,165 Murphy Rd,,Orillia,ON,L3V 0B5,Canada,1-705-326-3307,44.6145190,-79.4495132,-79.4495132,,0
,,187 Memorial Avenue,,Orillia,ON,L3V 5X7,Canada,1-705-327-2659,44.5978574,-79.4242940,-79.4242940,,0
Riverbend Plaza,,1263 Mosley St,,Wasaga Beach,ON,L9Z 2Y7,Canada,1-705-429-4210,44.4902598,-80.0508582,-80.0508582,,0
Meaford Plaza,,206497 Highway 26 East,,Meaford,ON,N4L 1W7,Canada,1-519-538-2970,44.5915004,-80.5727093,-80.5727093,,0
University Plaza,,449 University Ave,,Charlottetown,PE,C1A 8K3,Canada,1-902-628-1142,46.2495868,-63.1371773,-63.1371773,,0
Charlottetown Mall,,670 University Ave,,Charlottetown,PE,C1E 1H6,Canada,1-902-368-8446,46.2648479,-63.1471508,-63.1471508,,0
,,660 Westville Road,,New Glasgow,NS,B2H 5E5,Canada,1-902-752-0123,45.5781950,-62.6654882,-62.6654882,,0
Antigonish Mall,,133 Church St.,,Antigonish,NS,B2G 2E3,Canada,1-902-863-5237,45.6163251,-61.9858907,-61.9858907,,0
Granville Street Plaza,,454 Granville St,,Summerside,PE,C1N 4K7,Canada,1-902-432-3480,46.4117056,-63.7821765,-63.7821765,,0
Truro Mall,,245 Robie Street,,Truro,NS,B2N 5N6,Canada,1-902-893-7789,45.3694132,-63.3033439,-63.3033439,,0
,,164 Wade Road,,Truro,NS,B2N 0C7,Canada,1-902-895-4516,45.3563279,-63.3076253,-63.3076253,,0
Port Hawkesbury Centre,,47 Paint St.,,Port Hawkesbury,NS,B9A 3J9,Canada,1-902-625-3486,45.6182445,-61.3350141,-61.3350141,,0
,,11 Victoria Street,,Shediac,NB,E4P 8T6,Canada,1-506-533-9419,46.2191340,-64.5416686,-64.5416686,,0
Elmsdale Shopping Centre,,269 Highway 214,,Elmsdale,NS,B2S 1K1,Canada,,44.9759913,-63.5074079,-63.5074079,,0
Place Lebourg,,193 Irving Blvd.,,Bouctouche,NB,E4S 3K4,Canada,1-506-743-6727,46.4639686,-64.7344292,-64.7344292,,0
Cole Harbour Shopping Centre,,4 Forest Hills Parkway,,Dartmouth,NS,B2W 5G7,Canada,,44.6738659,-63.491578,-63.491578,,0
,,50 Tacoma Drive,,Dartmouth,NS,B2W 3E5,Canada,1-902-434-5499,44.6808404,-63.5379670,-63.5379670,,0
Ridley Square Plaza,,111 4th Avenue,,St. Catharines,ON,L2S 3P4,Canada,1-905-346-1153,43.1567255,-79.2606517,-79.2606517,,0
Glenridge Plaza,,224 Glenridge Ave (Un 12),,St. Catharines,ON,L2T 3J9,Canada,1-905-688-6955,43.1416311,-79.2394857,-79.2394857,,0
,,360 Ontario Street,,St Catharines,ON,L2R 5L8,Canada,1-905-682-0826,43.1721315,-79.2651616,-79.2651616,,0
Pendale Plaza,,210 Glendale Avenue,,St-Catharines,ON,L2T 3Y6,Canada,1-905-685-3556,43.1323781,-79.2260923,-79.2260923,,0
Pen Centre Shopping Plaza,,221 Glendale Ave,,St. Catharines,ON,L2T 2K9,Canada,1-905-346-0175,43.1330145,-79.2251055,-79.2251055,,0
Lincoln Valucentre,,525 Welland Avenue,,St. Catharines,ON,L2M 6P3,Canada,1-905-682-0157,43.1699933,-79.2282447,-79.2282447,,0
Fairview Mall,,285 Geneva Street,,St Catharines,ON,L2N 2G1,Canada,1-905-935-4450,43.1781740,-79.2448140,-79.2448140,,0
East Fonthill,,130 Highway 20 East,,Fonthill,ON,L0S 1E0,Canada,,43.0486774,-79.276736,-79.276736,,0
,,7190 Morrison St,,Niagara Falls,ON,L2E 7K5,Canada,1-905-358-7541,43.1015782,-79.1166258,-79.1166258,,0
Niagara Falls Plaza,,6777 Morrison Street,,Niagara Falls,ON,L2E 6Z8,Canada,1-905-371-3207,43.1043112,-79.1059931,-79.1059931,,0
Oakwood Place Shopping Centre,,7841 Oakwood Drive,,Niagara Falls,ON,L2E 6S5,Canada,1-905-358-2740,43.0723655,-79.1179256,-79.1179256,,0
Niagara Square,,7555 Montrose Road,,Niagara Falls,ON,L2H 2E9,Canada,1-905-357-1283,43.0656117,-79.1230831,-79.1230831,,0
Seaway Mall,,800 Niagara Street North,,Welland,ON,L3C 5Z4,Canada,1-905-735-9768,43.0152362,-79.2475104,-79.2475104,,0
Battlefield Plaza,,6240 Lundy';s Lane,,Niagara Falls,ON,L2G 1T6,Canada,1-905-358-8508,43.0893828,-79.0982063,-79.0982063,,0
Northtown Plaza,,325 Thorold Road,,Welland,ON,L3C 3W4,Canada,,43.002881,-79.2719986,-79.2719986,,0
,,5175 Victoria Ave,,Niagara Falls,ON,L2E 4E4,Canada,1-905-353-8658,43.0995084,-79.0730102,-79.0730102,,0
Lincoln Centre,,390 Lincoln St.,,Welland,ON,L3B 4N4,Canada,1-905-788-2768,42.9841041,-79.2389959,-79.2389959,,0
Grimsby Shopping Centre,,150 Main Street East,,Grimsby,ON,L3M 1P1,Canada,1-905-309-7069,43.1883131,-79.5451296,-79.5451296,,0
Port Colborne Mall,,287 West Side Road,,Port Colborne,ON,L3K 5L2,Canada,1-905-834-8257,42.9056323,-79.2651504,-79.2651504,,0
West Side Place,,51 West Side Road,,Port Colborne,ON,L3K 5Y7,Canada,1-905-834-7922,42.8956877,-79.2663574,-79.2663574,,0
International Gateway Centre,,450 Garrison Road,,Fort Erie,ON,L2A 1N2,Canada,1-905-994-7962,42.9054595,-78.9312933,-78.9312933,,0
,,180 Queen Street,,Dunnville,ON,N1A 1H7,Canada,1-905-701-5852,42.9023972,-79.6174754,-79.6174754,,0
Fiesta Mall,,102 Highway 8,,Stoney Creek,ON,L8G 4H3,Canada,,43.2239718,-79.7469683,-79.7469683,,0
Eastgate Square,,75 Centennial Parkway North,,Hamilton,ON,L8E 2P2,Canada,,43.2319736,-79.7631085,-79.7631085,,0
Rymal Corners,,2257 Rymal Road East,,Stoney Creek,ON,L8J 2V8,Canada,,43.1741098,-79.7805236,-79.7805236,,0
Plaza Paspébiac,,113A Gérard D. Lévesque Ouest,,Paspébiac,QC,G0C 2K0,Canada,1-418-752-3151,48.0272179,-65.2612728,-65.2612728,,0
Carrefour Baie des Chaleurs,,122 boul. Perron Ouest,,New Richmond,QC,G0C 2B0,Canada,1-418-392-6410,48.1613475,-65.8580374,-65.8580374,,0
Place St-Pierre,,445 St. Pierre Blvd. W.,,Caraquet,NB,E1W 1B2,Canada,1-506-727-3227,47.7770033,-64.9908938,-64.9908938,,0
,,13 Rue Du Portage,,Caraquet,NB,E1W 1A8,Canada,,47.7923319,-64.9377265,-64.9377265,,0
Centre Le Rond Point,,1-3409 rue Principale,,Tracadie-Sheila,NB,E1X 1C7,Canada,1-506-393-6486,47.5214766,-64.9107261,-64.9107261,,0
Place du Havre,,500 rue Daigneault,,Chandler,QC,G0C 1K0,Canada,1-418-689-7182,48.3511684,-64.6702264,-64.6702264,,0
Carrefour Centre Ville,,114 St-Benoit Ouest,,Amqui,QC,G5J 2E7,Canada,1-418-629-4491,48.4655957,-67.4325664,-67.4325664,,0
Place Jacques Cartier,,167 Rue de la Reine,,Gaspé,QC,G4X 2W6,Canada,1-418-368-5811,48.8286515,-64.4847131,-64.4847131,,0
Place Jean Coutu,,20 Blvd Ste-Anne Ouest,,Ste-Anne-des-Monts,QC,G4V 1P6,Canada,1-418-763-7354,49.1255871,-66.4870746,-66.4870746,,0
,,11 Victoria Street,,Shediac,NB,E4P 8T6,Canada,1-506-533-9419,46.2191340,-64.5416686,-64.5416686,,0
Promenade du St-Laurent,,597 du Phare est,,Matane,QC,G4W 4L6,Canada,1-418-562-7026,48.8523077,-67.5087227,-67.5087227,,0
,,2 Hardy Ave.,,Grand Falls-Windsor,NL,A2A 2P9,Canada,1-709-489-9030,48.9535949,-55.6217775,-55.6217775,,0
Gander Shopping Mall,,132 Bennett Dr.,,Gander,NL,A1V 2H2,Canada,1-709-256-3501,48.9519720,-54.6058391,-54.6058391,,0
Valley Mall,,1 Mt Bernard Ave,,Corner Brook,NL,A2H 6Y5,Canada,1-709-634-0364,48.9503852,-57.9496308,-57.9496308,,0
Marystown Plaza,,7 Mall St,,Marystown,NL,A0E 2M0,Canada,1-709-279-3400,47.1626591,-55.1533881,-55.1533881,,0
Random Square Mall,,69 Manitoba Dr.,,Clarenville,NL,A5A 1K3,Canada,1-709-466-0297,48.1643209,-53.9805502,-53.9805502,,0
,,94 Main St,,Stephenville,NL,A2N 1J3,Canada,1-709-643-3778,48.5486255,-58.5794264,-58.5794264,,0
Plaza Carbonear,,99 Powell Drive,,Carbonear,NL,A1Y 1A5,Canada,1-709-596-8625,47.7260011,-53.2376294,-53.2376294,,0
Bay Roberts Mall,,153 Conception Bay Hwy,,Bay Roberts,NL,A0A 1G0,Canada,1-709-786-8587,47.5929001,-53.2817196,-53.2817196,,0
Villa Nova Plaza,,130 Conception Bay Hwy,,Conception Bay South,NL,A1W 3A6,Canada,1-709-834-5177,47.5180599,-52.9577106,-52.9577106,,0
Kenmount Walmart Centre,,75 Kelsey Dr,,St. John';s,NL,A1B 0C7,Canada,1-709-726-1202,47.5573986,-52.7813216,-52.7813216,,0
Avalon Mall,,29 O';Leary Ave,,St. John';s,NL,A1B 2C8,Canada,1-709-738-4564,47.5625182,-52.7555920,-52.7555920,,0
Stavenger Mall,,30 White Rose Drive,,St John';s,NL,A1A 0H5,Canada,1-709-576-2600,47.6190337,-52.7207145,-52.7207145,,0
Village Mall,,430 Topsail Rd,,St. John';s,NL,A1E 4N1,Canada,1-709-747-4300,47.5336308,-52.7491458,-52.7491458,,0
Sterling Mall,,3 Sterling Road,,Glace Bay,NS,B1A 3X2,Canada,1-902-849-3067,46.2012984,-59.9582242,-59.9582242,,0
Welton Street Plaza,,421 Grand Lake Road,,Sydney,NS,B1P 5T1,Canada,1-902-564-6043,46.1456938,-60.1601303,-60.1601303,,0
North Sydney Mall,,116 King Street,,North Sydney,NS,B2A 3R7,Canada,1-902-794-7959,46.2153540,-60.2649450,-60.2649450,,0
Keltic Plaza,,7 Keltic Drive,,Sydney,NS,B1S 1P4,Canada,1-902-539-0473,46.1113295,-60.2253042,-60.2253042,,0
,,747 Notre Dame Ave.,,Sudbury,ON,P3A 2T2,Canada,1-705-524-6398,46.5101631,-80.9866688,-80.9866688,,0
,,3021 Highway 69 North,,Val Caron,ON,P3N 1R8,Canada,1-705-897-0329,46.6116900,-81.0074840,-81.0074840,,0
,,3744 Route 144,,Chelmsford,ON,P0M 1L0,Canada,,46.5686755,-81.1848731,-81.1848731,,0
,,1 Pine Drive,,Parry Sound,ON,P2A 2C3,Canada,1-705-746-6823,45.3450830,-80.0110199,-80.0110199,,0
,,1979 16th Street E.,,Owen Sound,ON,N4K 5N3,Canada,1-519-372-1230,44.5751561,-80.9130259,-80.9130259,,0
Galaxie Centre,,1020 Tenth St. West,,Owen Sound,ON,N4K 5S1,Canada,1-519-372-0912,44.5697258,-80.9264406,-80.9264406,,0
,,225 Edward St.,,Gravenhurst,ON,P1P 1K8,Canada,1-705-684-9765,44.9084067,-79.3720428,-79.3720428,,0
Blue Mountain Mall,,5-55 Mountain Rd,,Collingwood,ON,L9Y 4M2,Canada,1-705-445-5893,44.5012447,-80.2431606,-80.2431606,,0
,,365 - 371 Goderich St.,,Port Elgin,ON,N0H 2C1,Canada,1-519-832-2223,44.4304972,-81.3933905,-81.3933905,,0
Darling Bldg,,96 Spadina Ave,,Toronto,ON,M5V 2J6,Canada,1-416-640-0540,43.6463867,-79.3956722,-79.3956722,,0
,,149 Sherbourne Street,,Toronto,ON,M5A 2R5,Canada,1-416-363-9194,43.6557531,-79.3699096,-79.3699096,,0
,,590 King Street West,,Toronto,ON,M5V 1M3,Canada,1-416-640-0227,43.6446396,-79.3996196,-79.3996196,,0
,,226 Front Street East,,Toronto,ON,M5A 1T8,Canada,1-416-640-0102,43.6511556,-79.3645785,-79.3645785,,0
College Park,,777 Bay St,,Toronto,ON,M5G 2C8,Canada,1-416-593-9566,43.6606231,-79.3845115,-79.3845115,,0
Yonge & Wellesley,,543 Yonge Street,,Toronto,ON,M4Y 1Y5,Canada,,43.6643583,-79.3840676,-79.3840676,,0
,,425 Parliament Street,,Toronto,ON,M5A 3A1,Canada,1-416-944-0536,43.662705,-79.3671563,-79.3671563,,0
,,730 Yonge Street,,Toronto,ON,M4Y 2B7,Canada,1-416-924-1064,43.6687869,-79.3861823,-79.3861823,,0
Hudson';s Bay Centre,,2 Bloor Street East,,Toronto,ON,M4W 1A8,Canada,,43.6705716,-79.3866601,-79.3866601,,0
,,512 Bloor St. West,,Toronto,ON,M5S 1Y3,Canada,1-416-531-2255,43.6653497,-79.4106041,-79.4106041,,0
,,772 Queen Street East,,Toronto,ON,M4M 1H4,Canada,,43.6595219,-79.3476295,-79.3476295,,0
,,1220 Dundas Street West,,Toronto,ON,M6J 1X5,Canada,1-416-588-7511,43.6494143,-79.4231381,-79.4231381,,0
,,1337 Queen Street West,,Toronto,ON,M6K 1L8,Canada,1-416-531-4809,43.6410923,-79.4340818,-79.4340818,,0
Dufferin Mall,,900 Dufferin St.,,Toronto,ON,M6H 4B1,Canada,1-416-538-2558,43.6568994,-79.4355343,-79.4355343,,0
,,685 Danforth Ave,,Toronto,ON,M4J 1L2,Canada,,43.6790234,-79.3441714,-79.3441714,,0
Saint Clair Place,,21 Vaughan Road,,Toronto,ON,M6G 2N2,Canada,1-416-653-2984,43.6819016,-79.4184721,-79.4184721,,0
,,800 Lansdowne Ave.,,Toronto,ON,M6H 4K3,Canada,1-416-649-0023,43.6652235,-79.4459654,-79.4459654,,0
The Crossways Mall,,2340 Dundas St West,,Toronto,ON,M6P 4A9,Canada,1-416-533-3359,43.6564698,-79.4524541,-79.4524541,,0
,,293 Coxwell Ave,,Toronto,ON,M4L 3B5,Canada,1-416-645-0226,43.6739548,-79.3197073,-79.3197073,,0
,,1531 Bayview Ave.,,Toronto,ON,M4G 3B5,Canada,1-416-932-6897,43.7047510,-79.3746454,-79.3746454,,0
,,2064 Danforth Ave,,Toronto,ON,M4C 1J6,Canada,1-416-421-9112,43.6855721,-79.3132455,-79.3132455,,0
The Junction,,2890 Dundas Street West,,Toronto,ON,M6P 1Y8,Canada,1-416-769-7516,43.6654148,-79.4657819,-79.4657819,,0
East York Town Centre,,45 Overlea Blvd.,,Toronto,ON,M4H 1C3,Canada,1-416-425-2830,43.7052823,-79.3459868,-79.3459868,,0
The Stockyards,,30 Weston Road,,Toronto,ON,M6N 0A7,Canada,,43.6740709,-79.4692861,-79.4692861,,0
,,11 Victoria Street,,Shediac,NB,E4P 8T6,Canada,1-506-533-9419,46.2191340,-64.5416686,-64.5416686,,0
,,13 Rue Du Portage,,Caraquet,NB,E1W 1A8,Canada,,47.7923319,-64.9377265,-64.9377265,,0
Scarborough Town Centre,,300 Borough Drive,,Scarborough,ON,M1P 4P5,Canada,1-416-290-6274,43.7773751,-79.2586697,-79.2586697,,0
Markham Corners Plaza,,5097 Sheppard Ave E,,Scarborough,ON,M1S 4N8,Canada,1-416-640-0827,43.7933855,-79.2409748,-79.2409748,,0
Chartwell Shopping Centre,,175 Commander blvd.,,Scarborough,ON,M1S 3M7,Canada,1-416-292-1106,43.7976038,-79.2697808,-79.2697808,,0
Kennedy Commons,,35 William Kitchen Road,,Scarborough,ON,M1P 5B7,Canada,,43.7741566,-79.2829223,-79.2829223,,0
Cedarbrae Mall,,3495 Lawrence Ave. East,,Scarborough,ON,M1H 1B3,Canada,1-416-439-7630,43.7591508,-79.2283693,-79.2283693,,0
Cedar Heights Shopping Centre,,651 Markham Road,,Scarborough,ON,M1H 2A4,Canada,1-416-439-5851,43.7606221,-79.2256176,-79.2256176,,0
,,3809 Sheppard Ave.,,Toronto,ON,M1T 3L5,Canada,1-416-609-1089,43.7820089,-79.2925448,-79.2925448,,0
Woodside Square,,1571 Sandhurst Circle,,Scarborough,ON,M1V 1V2,Canada,1-416-297-8138,43.8091063,-79.2709839,-79.2709839,,0
,,880 Tenth Street,,Hanover,ON,N4N 1S3,Canada,1-416-335-9097,43.8109589,-79.2358710,-79.2358710,,0
Centenary Plaza,,2900 Ellesmere Road,,Scarborough,ON,M1E 4B8,Canada,1-416-283-3091,43.7832060,-79.2024801,-79.2024801,,0
White Shield Plaza,,2300 Lawrence Ave. East,,Scarborough,ON,M1P 2R2,Canada,1-416-751-2919,43.7509726,-79.2762254,-79.2762254,,0
Warden Sheppard Plaza,,3311 Sheppard Avenue East,,Scarborough,ON,M1T 3K2,Canada,,43.7784105,-79.308976,-79.308976,,0
Markington Square,,3227 Eglinton ave east,,Toronto,ON,M1J 3M5,Canada,1-416-267-7068,43.7437904,-79.2152454,-79.2152454,,0
,,2480 Eglinton Avenue East,,Scarborough,ON,M1K 2R4,Canada,1-416-264-0759,43.7343046,-79.2594502,-79.2594502,,0
Morningside Mall,,4525 Kingston Road,,Toronto,ON,M1E 2P1,Canada,1-416-645-2041,43.7714133,-79.1859492,-79.1859492,,0
Bridlewood Mall,,2900 Warden ave.,,Scarborough,ON,M1W 2S8,Canada,,43.7982064,-79.3182882,-79.3182882,,0
,,680 Kennedy Road,,Toronto,ON,M1K 2B5,Canada,1-416-261-9685,43.7270801,-79.2657709,-79.2657709,,0
Cliffcrest Plaza,,2975 Kingston Road,,Scarborough,ON,M1M 1P1,Canada,1-416-265-1443,43.7252885,-79.2320871,-79.2320871,,0
Parkwood Village,,1277 York Mills Road,,North York,ON,M3A 1Z5,Canada,,43.760648,-79.3258039,-79.3258039,,0
Victoria Terrace,,1448 Lawrence Ave E. Un 22,,Toronto,ON,M4A 2S8,Canada,1-416-750-0616,43.7415535,-79.3143582,-79.3143582,,0
Eglinton Town Centre,,24 Lebovic Avenue,,Scarborough,ON,M1L 4V9,Canada,1-416-288-1984,43.7248940,-79.2919460,-79.2919460,,0
Eglinton Square,,1 Eglinton Square,,Toronto,ON,M1L 2K1,Canada,1-416-640-0160,43.7238765,-79.3014251,-79.3014251,,0
Village of Abbey Lane,,91 Rylander blvd,,Scarborough,ON,M1B 5M5,Canada,,43.7967834,-79.1524816,-79.1524816,,0
Peanut Plaza,,3030 Don Mills Rd.,,Toronto,ON,M2J 3C1,Canada,1-416-642-5991,43.7858805,-79.3510979,-79.3510979,,0
,,8802 100th Street,,Fort Saskatchewan,AB,T8L 4R2,Canada,1-780-992-2269,53.6993107,-113.2069255,-113.2069255,,0
Manning Town Centre,,15720 37th Street NW,,Edmonton,AB,T5Y 0S5,Canada,,53.6105857,-113.3956599,-113.3956599,,0
Emerald Hills Centre,,5000 Emerald Drive,,Sherwood Park,AB,T8H 0P5,Canada,1-780-416-1802,53.5671053,-113.2803213,-113.2803213,,0
Clareview Town Centre,,4278 137 Ave. NW,,Edmonton,AB,T5Y 2W7,Canada,1-780-456-1810,53.5975281,-113.4074742,-113.4074742,,0
Londonderry Mall,,137th Ave & 66th St,,Edmonton,AB,T5C 3C8,Canada,1-780-476-9009,53.5995924,-113.4430686,-113.4430686,,0
Namao Centre South,,15811 97th Street N.W,,Edmonton,AB,T5X 0C7,Canada,1-780-406-1914,53.6384794,-113.4920513,-113.4920513,,0
Baseline Village,,100 Broadview Drive,,Sherwood Park,AB,T8H 0T5,Canada,1-780-400-1830,53.5446114,-113.3137087,-113.3137087,,0
,,11807 48th Street Northwest,,Edmonton,AB,T5W 2Y4,Canada,1-780-477-2145,53.570603,-113.4153013,-113.4153013,,0
North Town Centre,,9450 137 Ave NW,,Edmonton,AB,T5E 6C2,Canada,1-780-456-1801,53.5996951,-113.4885061,-113.4885061,,0
Sherwood Centre,,1020 Sherwood Dr,,Sherwood Park,AB,T8A 2G4,Canada,1-780-449-2428,53.5197979,-113.3177577,-113.3177577,,0
Albany Market Square,,12940 167th Avenue N.W.,,Edmonton,AB,T6V 1J6,Canada,,53.6287413,-113.5480816,-113.5480816,,0
Capilano Mall,,140-5055 101 Avenue N.W,,Edmonton,AB,T6A 0G7,Canada,,53.541189,-113.4277728,-113.4277728,,0
Park Plaza,,11810-103 Street North West,,Edmonton,AB,T5G 2J2,Canada,,53.5704336,-113.4974166,-113.4974166,,0
Kensington Crossing Centre,,12546 137th Ave. NW,,Edmonton,AB,T5L 4Y5,Canada,,53.6006069,-113.539027,-113.539027,,0
Edmonton City Centre West,,C-001- 10200 102 Ave. NW,,Edmonton,AB,T5J 4B7,Canada,1-780-701-0305,53.5430870,-113.4955123,-113.4955123,,0
Bonnie Doon Shopping Centre,,8330 82 Ave Northwest,,Edmonton,AB,T6C 0Y6,Canada,1-780-440-1864,53.5180945,-113.4568124,-113.4568124,,0
Oliver Square,,11426 104 AVE NW,,Edmonton,AB,T5K 2S5,Canada,,53.5463238,-113.5199034,-113.5199034,,0
Inglewood Towne Centre,,11 Bellerose Drive,,St-Albert,AB,T8N 5C9,Canada,,53.6458313,-113.6241,-113.6241,,0
Village Landing,,140 St. Albert Rd.,,St. Albert,AB,T8N 7C8,Canada,1-780-419-6602,53.6202572,-113.6117086,-113.6117086,,0
Westmount Centre,,111th Ave & Groat Road,,Edmonton,AB,T5M 3L7,Canada,1-780-701-0045,53.5588544,-113.5515370,-113.5515370,,0
Rio-Can Meadows,,2008 38th Ave. NW,,Edmonton,AB,T6T 0B9,Canada,1-780-440-3512,53.4772174,-113.3731487,-113.3731487,,0
Old Strathcona Centre,,10455 80th Ave. NW,,Edmonton,AB,T6E 1V1,Canada,1-780-434-8171,53.5161278,-113.4996030,-113.4996030,,0
Southgate Centre,,5015 111 St. NW,,Edmonton,AB,T6H 4M6,Canada,1-780-432-3155,53.4871188,-113.5164340,-113.5164340,,0
Mayfield Common,,350 Mayfield Common NW,,Edmonton,AB,T5P 4B3,Canada,1-780-486-2256,53.5433420,-113.6126660,-113.6126660,,0
Millwoods Town Centre,,2331 66th St. NW,,Edmonton,AB,T6K 4B5,Canada,1-780-461-9966,53.4545329,-113.4344388,-113.4344388,,0
Galeries de la Chaudière,,1116 boul Vachon Nord,,Ste-Marie,QC,G6E 1N7,Canada,1-418-387-8121,46.4547144,-71.0360805,-71.0360805,,0
Carrefour St-Georges,,8585 boul. Lacroix,,St-Georges,QC,G5Y 5L6,Canada,1-418-227-1068,46.1318252,-70.6987891,-70.6987891,,0
,,51 Rte President-Kennedy,,Levis,QC,G6V 6C7,Canada,,46.7944738,-71.1751823,-71.1751823,,0
,,224 boul Frontenac Ouest,,Thetford Mines,QC,G6G 6N7,Canada,1-418-335-9107,46.1012894,-71.3164296,-71.3164296,,0
,,141 rue Caron,,Lévis,QC,G6V 3G5,Canada,1-418-835-5589,46.8175354,-71.1443373,-71.1443373,,0
Place Centre Ville,,11400 1e Avenue,,St-Georges,QC,G5Y 5S4,Canada,1-418-227-2855,46.0983942,-70.6515214,-70.6515214,,0
,,245 rue Soumande,,Québec,QC,G1M 3H6,Canada,1-418-263-0170,46.8177691,-71.2527723,-71.2527723,,0
,,1515 Ave Saint-Jean_Baptiste,,Quebec,QC,G2E 5E2,Canada,,46.8019264,-71.3296226,-71.3296226,,0
,,1041 Boul.Pierre-Bertrand,,Quebec,QC,G1M 2E8,Canada,1-418-527-1716,46.8280319,-71.2763656,-71.2763656,,0
La Canardière,,2485 boul St-Anne,,Québec,QC,G1J 1Y4,Canada,1-418-666-4348,46.8446488,-71.2170718,-71.2170718,,0
,,278 Route 138,,St-Augustin-de-Desmaures,QC,G3A 2C5,Canada,1-418-870-1624,46.7446400,-71.4547301,-71.4547301,,0
Carlingwood Shopping Centre,,2121 Carling Ave.,,Ottawa,ON,K2A 1H2,Canada,1-613-761-6790,45.3738580,-75.7620740,-75.7620740,,0
,,1050 Somerset Street West,,Ottawa,ON,K1Y 3C5,Canada,1-613-688-0192,45.4068255,-75.7193101,-75.7193101,,0
Merivale Place,,1651 Merivale Rd,,Nepean,ON,K2G 3K2,Canada,1-613-288-2431,45.3503294,-75.7330018,-75.7330018,,0
,,375 Chemin d';Aylmer,,Gatineau,QC,J9H 1A5,Canada,1-819-682-3621,45.4076451,-75.7855579,-75.7855579,,0
Galeries de Buckingham,,999 rue Dollard,,Gatineau,QC,J8L 3E6,Canada,1-819-281-2730,45.4288164,-75.7142118,-75.7142118,,0
,,255 Elgin St,,Ottawa,ON,K2P 1L8,Canada,1-613-288-0046,45.4183060,-75.6907068,-75.6907068,,0
,,183 Rideau Street,,Ottawa,ON,K1N 5X8,Canada,1-613-288-1364,45.4275205,-75.6891026,-75.6891026,,0
Plateau des Grives,,247 Boul. Des Grives,,Gatineau,QC,J9A 0C7,Canada,1-819-775-3287,45.4358280,-75.7811442,-75.7811442,,0
Hunt Club,,228 Hunt Club Road,,Ottawa,ON,K1V 1C1,Canada,1-613-247-2138,45.3349488,-75.6918777,-75.6918777,,0
,,2946 Baseline Road,,Ottawa,ON,K2H 8T5,Canada,1-613-828-7435,45.3356307,-75.8002090,-75.8002090,,0
Galeries Aylmer,,181 Rue Principale,,Gatineau,QC,J9H 6A6,Canada,,45.3955311,-75.8355432,-75.8355432,,0
Herongate Mall,,1670 Heron Road,,Ottawa,ON,K1V 0C2,Canada,,45.3798483,-75.6445603,-75.6445603,,0
Ottawa Trainyards,,500 Terminal Ave.,,Ottawa,ON,K1G 0Z3,Canada,1-613-562-1002,45.4148122,-75.6469338,-75.6469338,,0
Southgate Shopping Centre,,2515 Bank Street,,Ottawa,ON,K1V 0Y4,Canada,1-613-249-8613,45.3549154,-75.6451086,-75.6451086,,0
St Laurent Shopping Centre,,1200 St Laurent Blvd,,Ottawa,ON,K1K 3B8,Canada,1-613-288-0172,45.4205093,-75.6413009,-75.6413009,,0
Smart Centre,,41 boul De la Gappe,,Gatineau,QC,J8T 0B5,Canada,1-819-246-3395,45.4645878,-75.7189744,-75.7189744,,0
Les Promenades Gatineau,,1100 Boul. Maloney Ouest,,Gatineau,QC,J8T 6G3,Canada,1-819-568-4123,45.4664587,-75.7059169,-75.7059169,,0
Donald Plaza,,1239 Donald St.,,Ottawa,ON,K1J 8W3,Canada,1-613-842-0712,45.4290014,-75.6369529,-75.6369529,,0
Montreal Square,,594 Montreal Road,,Ottawa,ON,K1K 0T9,Canada,1-613-288-0113,45.4419249,-75.6435230,-75.6435230,,0
The Robertson Centre,,22-2150 Robertson Rd,,Nepean,ON,K2H 9S1,Canada,1-613-288-2449,45.3193954,-75.8368933,-75.8368933,,0
Gloucester Centre,,163-1980 Ogilvie Rd,,Gloucester,ON,K1J 9L3,Canada,,45.4325406,-75.6103352,-75.6103352,,0
Place Nelligan,,1134 Boul. Saint-Rene Ouest,,Gatineau,QC,J8T 8A5,Canada,1-819-243-8094,45.4884647,-75.7024179,-75.7024179,,0
Barrhaven Town Centre,,3777 Strandherd Drive,,Nepean,ON,K2J 4B1,Canada,1-613-823-2519,45.2745220,-75.7373910,-75.7373910,,0
Carrefour du Versant Ouest,,1500 Boulevard Greber,,Gatineau,QC,J8R 0E1,Canada,1-819-243-7979,45.5033191,-75.6789020,-75.6789020,,0
Place Vaudreuil,,51 boul Cité des Jeunes,,Vaudreuil-Dorion,QC,J7V 8C1,Canada,450-510-9682,45.4059562,-74.0345277,-74.0345277,,0
,,3040 Boul. de la Gare,,Vaudreuil-Dorion,QC,J7V 0H1,Canada,1-450-510-1603,45.4003504,-74.0522791,-74.0522791,,0
Carrefour Dorion,,393 boul. Harwood,,Vaudreuil-Dorion,QC,J7V 7W1,Canada,450-455-7827,45.3787047,-74.0208605,-74.0208605,,0
Faubourg de l';Ile,,101 boul. Cardinal-Léger,,Pincourt,QC,J7V 3Y3,Canada,514-453-6607,45.3845204,-73.9952438,-73.9952438,,0
Galeries Don-Quichotte,,80 Boul. Don-Quichotte,,L';Ile Perrot,QC,J7V 6L7,Canada,,45.3886529,-73.9630659,-73.9630659,,0
,,4870 boul St-Charles,,Pierrefonds,QC,H9H 3E2,Canada,514-620-4054,45.4668291,-73.8742954,-73.8742954,,0
Centre St-Charles,,2989 boul. St-Charles,,Kirkland,QC,H9H 3B5,Canada,514-428-5895,45.4487534,-73.8549344,-73.8549344,,0
Berry Field Shopping Centre,,2116 boul Monseigneur-Langlois,,Salaberry-de-Valleyfield,QC,J6S 5R1,Canada,1-450-377-8824,45.2717866,-74.1175767,-74.1175767,,0
Plaza Pierrefonds,,14840 boul Pierrefonds,,Pierrefonds,QC,H9H 4Y6,Canada,514-696-3484,45.4839368,-73.8596763,-73.8596763,,0
Plaza Beauharnois,,520 Blvd. Cadieux,,Beauharnois,QC,J6N 2G2,Canada,,45.3030279,-73.8718369,-73.8718369,,0
Centre Valleyfield,,76 Rue Dufferin,,Salaberry-de -Valleyfield,QC,J6S 1Y2,Canada,450-377-3036,45.2627166,-74.1286546,-74.1286546,,0
,,4269 Boul. St-Jean,,Dollard-des-Ormeaux,QC,H9G 2R4,Canada,,45.4792116,-73.840805,-73.840805,,0
Promenade Deux-Montagnes,,2801-A boul. des Promenades,,Ste-Marthe-sur-le-Lac,QC,J0N 1P0,Canada,450-623-4992,45.5403734,-73.9226758,-73.9226758,,0
Centre Terrarium,,187-B boul Hymus,,Pointe-Claire,QC,H9R 1E9,Canada,514-459-0167,45.4612386,-73.8179345,-73.8179345,,0
,,11780 boul de Salaberry,,Dollard-des-Ormeaux,QC,H9B 2R8,Canada,514-684-0978,45.4844332,-73.8052701,-73.8052701,,0
,,11829 boul de Pierrefonds,,Pierrefonds,QC,H9A 1A1,Canada,514-683-1772,45.5055364,-73.8227571,-73.8227571,,0
Galeries des Sources,,3237 boul. des Sources,,Dollard-des-Ormeaux,QC,H9B 1Z6,Canada,514-683-7711,45.4830606,-73.7957630,-73.7957630,,0
,,367 Arthur-Sauvé,,St-Eustache,QC,J7P 2B1,Canada,450-491-1226,45.5623226,-73.9010852,-73.9010852,,0
,,458 Ch. de la Grande-Ligne,,Rigaud,QC,J0P 1P0,Canada,450-451-1249,45.4799920,-74.2766001,-74.2766001,,0
Centre 25e,,136 25e Avenue,,St-Eustache,QC,J7P 2V2,Canada,450-623-4338,45.5707186,-73.8701642,-73.8701642,,0
Mega Centre,,908 Autoroute Chomedey,,Laval,QC,H7X 3S9,Canada,450-689-4772,45.5382702,-73.7921172,-73.7921172,,0
,,305 Rue St-Joseph,,Ste-Martine,QC,J0S 1V0,Canada,,45.2558237,-73.7967113,-73.7967113,,0
Centre Commercial Chateauguay,,200 boul. d';Anjou,,Châteauguay,QC,J6K 1C5,Canada,450-698-1867,45.3584025,-73.7246594,-73.7246594,,0
,,110 Rue Queen,,Sherbrooke,QC,J1M 1J6,Canada,1-819-326-7625,45.3672325,-71.8559155,-71.8559155,,0
Terrasses Rock Forest,,4857 Boul. Bourque,,Sherbrooke,QC,J1N 1E8,Canada,1-819-348-1206,45.3706843,-71.9894551,-71.9894551,,0
Mega Centre Notre Dame,,1062 Voie de Desserte Chomedey Ouest,,Laval,QC,H7X 4C9,Canada,1-819-847-2043,45.2759184,-72.1323158,-72.1323158,,0
Plaza Sherbrooke,,1532 Rue Sherbrooke,,Magog,QC,J1X 2T3,Canada,,45.2755466,-72.1328454,-72.1328454,,0
Galeries Canton,,335 Rue Child,,Coaticook,QC,J1A 2B5,Canada,1-819-849-0401,45.1363068,-71.8054284,-71.8054284,,0
,,551 1ere Avenue,,Asbestos,QC,J1T 3Y3,Canada,,45.7701069,-71.9262167,-71.9262167,,0
,,5303 rue Foster,,Waterloo,QC,J0E 2N0,Canada,1-450-539-2055,45.3459762,-72.5169608,-72.5169608,,0
Plaza Granby,,360 St-Jacques,,Granby,QC,J2G 3N4,Canada,1-450-777-7566,45.3991841,-72.7349673,-72.7349673,,0
Les Galeries de Granby,,40 rue Evangeline,,Granby,QC,J2G 8K1,Canada,1-450-372-9444,45.4122167,-72.7488275,-72.7488275,,0
Domaine du Parc,,175 rue Principale,,Cowansville,QC,J2K 3L9,Canada,1-450-263-7310,45.2079754,-72.7457236,-72.7457236,,0
,,1599 Rue du Sud,,Cowansville,QC,J2K 2Z4,Canada,,45.1912031,-72.7532988,-72.7532988,,0
,,5325 Rue Papineau,,Lac Megantic,QC,G6B 0C8,Canada,1-819-582-5111,45.5766833,-70.8839311,-70.8839311,,0
,,224 boul Frontenac Ouest,,Thetford Mines,QC,G6G 6N7,Canada,1-418-335-9107,46.1012894,-71.3164296,-71.3164296,,0
,,440 rue Meigs,,Farnham,QC,J2N 2C8,Canada,1-450-293-7205,45.2829359,-72.9792315,-72.9792315,,0
Plaza d';Alma,,500 ouest rue Sacré-Coeur,,Alma,QC,G8B 1M1,Canada,1-418-662-4975,48.5493107,-71.6496436,-71.6496436,,0
Carrefour Alma,,705 Ave. du Pont nord,,Alma,QC,G8B 6T5,Canada,1-418-480-3149,48.5619136,-71.6423123,-71.6423123,,0
Galeries Lac St-Jean,,1055 Avenue du Pont,,Alma,QC,G8B 2V7,Canada,,48.5344304,-71.6484611,-71.6484611,,0
Place Centre-Ville,,3880 Boulevard Harvey,,Jonquière,QC,G7X 8R6,Canada,1-418-547-8617,48.4139617,-71.2518006,-71.2518006,,0
Galeries Jonquière,,3460 boul St-François,,Jonquière,QC,G7X 8L3,Canada,1-418-695-6945,48.413818,-71.2251645,-71.2251645,,0
Faubourg Sagamie,,2655 boul du Royaume,,Jonquière,QC,G7S 4S9,Canada,1-418-548-2960,48.4029543,-71.170109,-71.170109,,0
Carrefour Jeannois,,1221 boulevard Marcotte,,Roberval,QC,G8H 3B8,Canada,1-418-275-7793,48.5243773,-72.2338710,-72.2338710,,0
Place de la Colline,,697 boul. Ste-Genevieve,,Chicoutimi,QC,G7G 4Z4,Canada,1-418-543-2965,48.4448176,-71.0804991,-71.0804991,,0
,,68 est rue Racine,,Chicoutimi,QC,G7H 1P6,Canada,1-418-543-7375,48.4278758,-71.0663681,-71.0663681,,0
Place du Saguenay,,1324 boul Talbot,,Chicoutimi,QC,G7H 4B8,Canada,1-418-549-6634,48.4030723,-71.0599039,-71.0599039,,0
,,392 rue des Saguenéens,,Chicoutimi,QC,G7H 5S5,Canada,1-418-543-4092,48.4025996,-71.0594342,-71.0594342,,0
Promenades du Boulevard,,1271 boul Wallberg,,Dolbeau-Mistassini,QC,G8L 1H3,Canada,1-418-276-9400,48.8779122,-72.2279972,-72.2279972,,0
Carrefour St-Félicien,,1200 boul. St-Félicien,,St-Félicien,QC,G8K 2N6,Canada,1-418-679-5553,48.6533036,-72.4580759,-72.4580759,,0
Galerie de la Baie,,2100 rue Bagot,,La Baie,QC,G7B 3Z3,Canada,1-418-544-8026,48.3357932,-70.8937447,-70.8937447,,0
Centre Commercial Le Village,,2 Chemin de l';Equerre,,Baie-St-Paul,QC,G3Z 2Y5,Canada,1-418-240-3125,47.4492521,-70.5204275,-70.5204275,,0
,,1200 boul Ducharme,,La Tuque,QC,G9X 3Z9,Canada,1-819-676-8084,47.4178748,-72.7850111,-72.7850111,,0
Place Charlevoix,,375 boul. de Comporte,,La Malbaie,QC,G5A 1H9,Canada,1-418-665-2320,47.6465403,-70.1494311,-70.1494311,,0
Centre Rivière-du-Loup,,298 boul. Theriault,,Rivière-du-Loup,QC,G5R 4C2,Canada,1-418-868-0207,47.8245925,-69.5482516,-69.5482516,,0
Le Centre Ste-Anne-de-Beaupré,,10516 boul Ste-Anne,,Ste-Anne-de-Beaupré,QC,G0A 3C0,Canada,1-418-827-5130,47.0272108,-70.9151844,-70.9151844,,0
Galeries La Pocatière,,161 Route 230 Ouest,,La Pocatière,QC,G0R 1Z0,Canada,1-418-856-2835,47.3596116,-70.0545691,-70.0545691,,0
Carrefour Haute St-Charles,,891 Rue Jacques - Bedard,,Quebec,QC,G2N 1E1,Canada,,46.9090495,-71.3489048,-71.3489048,,0
Place Cote Joyeuse,,333 Cote Joyeuse,,St-Raymond,QC,G3L 4A8,Canada,1-418-337-2485,46.8827135,-71.8322445,-71.8322445,,0
,,15020 Boul. Henri-Bourassa,,Quebec,QC,G1G 3Z3,Canada,,46.8816739,-71.287392,-71.287392,,0
,,1147 boul Pie-XI N,,Val-Bélair,QC,G3K 2P8,Canada,1-418-840-1428,46.8567171,-71.4218416,-71.4218416,,0
Carrefour Charlesbourg,,8500 Henri-Bourassa,,Québec,QC,G1G 5X1,Canada,1-418-622-5925,46.8666916,-71.2699484,-71.2699484,,0
Sobeys Plaza,,1383 Wilson Rd. North,,Oshawa,ON,L1K 2Z5,Canada,1-905-443-0179,43.9386606,-78.8585978,-78.8585978,,0
Five Points Plaza,,G3-1189 Ritson Road North,,Oshawa,ON,L1G 8B9,Canada,1-905-432-9094,43.9316556,-78.8675888,-78.8675888,,0
Brooklin Town Centre,,5969 Baldwin St S.,,Whitby,ON,L1M 2J7,Canada,1-905-655-6848,43.9524502,-78.9621442,-78.9621442,,0
Taunton Gardens,,340 Taunton Road East,,Whitby,ON,L1R 0H4,Canada,1-905-655-8089,43.9188127,-78.9419533,-78.9419533,,0
Oshawa Gateway,,200 Ritson Road North,,Oshawa,ON,L1G 0B2,Canada,,43.9045934,-78.8586256,-78.8586256,,0
The East Mall,,600 King Street East,,Oshawa,ON,L1H 1G6,Canada,1-905-443-0135,43.9035484,-78.8415198,-78.8415198,,0
,,564 King Street East,,Oshawa,ON,L1H 1G5,Canada,1-905-725-7308,43.9023599,-78.8431012,-78.8431012,,0
Midtown Mall,,200 John Street West,,Oshawa,ON,L1J 2B4,Canada,1-905-443-0120,43.8948000,-78.8683390,-78.8683390,,0
Brock & Taunton Centre,,3920 Brock St,,Whitby,ON,L1R 3E1,Canada,1-905-665-3156,43.9136796,-78.9570822,-78.9570822,,0
Oshawa Shopping Centre,,419 King St. W.,,Oshawa,ON,L1J 2K5,Canada,1-905-723-2987,43.8923570,-78.8800280,-78.8800280,,0
Kingsway Shopping Plaza,,1300 King St. East,,Oshawa,ON,L1H 8J4,Canada,1-905-723-9487,43.9072311,-78.8151081,-78.8151081,,0
Kendalwood Park Plaza,,1801 Dundas St. East,,Whitby,ON,L1N 7C5,Canada,1-905-434-8082,43.8881727,-78.9052505,-78.9052505,,0
Thickson Place,,70 Thickson Rd South,,Whitby,ON,L1N 7T2,Canada,1-905-666-1033,43.8839698,-78.9118612,-78.9118612,,0
,,580 Laval Drive,,Oshawa,ON,L1J 0B5,Canada,,43.8803209,-78.8795745,-78.8795745,,0
Lake Vista Square,,199 Wentworth Street W,,Oshawa,ON,L1J 6P4,Canada,,43.8700806,-78.8511818,-78.8511818,,0
Queen';s Common,,910 Dundas St.West,,Whitby,ON,L1P 1P7,Canada,1-905-668-3837,43.8754631,-78.9618082,-78.9618082,,0
Scugog Shopping Centre,,1535 Highway 7A,,Port Perry,ON,L9L 1B5,Canada,1-905-985-0404,44.0856293,-78.9858576,-78.9858576,,0
West Bowmanville Shopping Centre,,1995 Green Road,,Bowmanville,ON,L1C 0K5,Canada,1-905-697-8366,43.9064522,-78.7108516,-78.7108516,,0
Durham Centre,,280 Kingston Rd E,,Ajax,ON,L1Z 1G1,Canada,1-289-372-3066,43.8644394,-79.0118226,-79.0118226,,0
Meadow Ridge Plaza,,1937 Ravenscroft Road,,Ajax,ON,L1T 0K4,Canada,1-905-426-9552,43.8698989,-79.051436,-79.051436,,0
Westney Heights Plaza,,15 Westney Road North,,Ajax,ON,L1T 1P5,Canada,1-905-683-8362,43.8592774,-79.0408265,-79.0408265,,0
Harwood Plaza,,314 Harwood Ave S.,,Ajax,ON,L1S 2J1,Canada,1-905-683-1515,43.8452310,-79.0189945,-79.0189945,,0
Bowmanville Mall,,243 King Street East,,Bowmanville,ON,L1C 3X1,Canada,1-905-697-5818,43.9116267,-78.6746102,-78.6746102,,0
,,4-1899 Brock Rd,,Pickering,ON,L1V 4H7,Canada,,43.8455676,-79.0728433,-79.0728433,,0
Pickering Town Centre,,1355 Kingston Road,,Pickering,ON,L1V 1B8,Canada,1-905-420-0974,43.8372600,-79.0884185,-79.0884185,,0
Les Galeries Montmagny,,101 ouest boul Taché,,Montmagny,QC,G5V 3T8,Canada,1-418-248-2902,46.9810293,-70.5698857,-70.5698857,,0
Place Orleans,,1094 Boul. des Chutes,,Quebec,QC,G1E 2G1,Canada,1-418-666-5925,46.8697953,-71.1759149,-71.1759149,,0
,,749 rue Clemenceau,,Beauport,QC,G1C 7T9,Canada,1-418-661-6722,46.8707154,-71.2020240,-71.2020240,,0
Les Promenades Beauport,,3333 rue du Carrefour,,Québec,QC,G1C 5R9,Canada,1-418-667-8690,46.8605273,-71.21739,-71.21739,,0
,,141 rue Caron,,Lévis,QC,G6V 3G5,Canada,1-418-835-5589,46.8175354,-71.1443373,-71.1443373,,0
,,15020 Boul. Henri-Bourassa,,Quebec,QC,G1G 3Z3,Canada,,46.8816739,-71.287392,-71.287392,,0
,,51 Rte President-Kennedy,,Levis,QC,G6V 6C7,Canada,,46.7944738,-71.1751823,-71.1751823,,0
,,245 rue Soumande,,Québec,QC,G1M 3H6,Canada,1-418-263-0170,46.8177691,-71.2527723,-71.2527723,,0
,,1041 Boul.Pierre-Bertrand,,Quebec,QC,G1M 2E8,Canada,1-418-527-1716,46.8280319,-71.2763656,-71.2763656,,0
Centre Neufchatel,,2222 boul. Bastien,,Québec,QC,G2B 1B6,Canada,1-418-843-9522,46.858368,-71.3372108,-71.3372108,,0
,,280 Rue Racine,,Quebec,QC,G2B 1E6,Canada,,46.8516925,-71.3598909,-71.3598909,,0
Rymal Road Plaza,,905 Rymal Road East,,Hamilton,ON,L8W 3M2,Canada,,43.1925714,-79.8529864,-79.8529864,,0
South Hamilton Square,,1550 Upper James St.,,Hamilton,ON,L9B 2L6,Canada,1-905-387-6462,43.2052579,-79.8947739,-79.8947739,,0
Upper James Square,,1508 Upper James St.,,Hamilton,ON,L9B 1K3,Canada,1-905-387-7432,43.2067765,-79.8913032,-79.8913032,,0
Ancaster Plaza,,46 Wilson Street West,,Ancaster,ON,L9G 1N2,Canada,1-905-304-1935,43.2171501,-79.9882560,-79.9882560,,0
The Danway Centre,,998 Upper Wentworth Street,,Hamilton,ON,L9A 4V8,Canada,1-905-388-9265,43.2175034,-79.8647387,-79.8647387,,0
Meadowland Square,,1015 Golf Links Road,,Ancaster,ON,L9K 1L6,Canada,1-905-304-6259,43.2285310,-79.9413650,-79.9413650,,0
Westcliffe Mall,,640 Mohawk Rd West,,Hamilton,ON,L9C 1X6,Canada,1-905-575-0816,43.2331952,-79.9115504,-79.9115504,,0
Gage Square,,601 Upper Gage,,Hamilton,ON,L8V 4J7,Canada,,43.2275491,-79.8382332,-79.8382332,,0
Mountain Plaza Mall,,661 Upper James St,,Hamilton,ON,L9C 5R8,Canada,1-905-383-1804,43.2370533,-79.8772574,-79.8772574,,0
,,157 Main Street East,,Hamilton,ON,L8N 1H1,Canada,1-905-972-9357,43.253608,-79.8626457,-79.8626457,,0
Jackson Square,,2 King Street West,,Hamilton,ON,L8P 1A1,Canada,1-905-667-0335,43.2567712,-79.8690888,-79.8690888,,0
Town Centre Plaza,,90 Main Street,,Dundas,ON,L9H 2R1,Canada,1-905-627-8485,43.2627880,-79.9518251,-79.9518251,,0
Queenston Mall,,700 Queenston Rd,,Hamilton,ON,L8G 1A3,Canada,1-905-561-0052,43.2294657,-79.7716347,-79.7716347,,0
Stadium Mall,,869 Barton Street East,,Hamilton,ON,L8L 3B4,Canada,1-905-667-0100,43.2548190,-79.8269547,-79.8269547,,0
Centre Mall,,1267 Barton St East,,Hamilton,ON,L8H 2V4,Canada,1-905-667-0720,43.2492758,-79.8062690,-79.8062690,,0
Flamborough Power Centre,,50 Horseshoe Cr. RR2,,Waterdown,ON,L0R 2H2,Canada,1-905-690-4839,43.3159608,-79.9163806,-79.9163806,,0
Market Square,,50 Market St. S.,,Brantford,ON,N3S 2E3,Canada,1-226-250-3026,43.1376020,-80.2633880,-80.2633880,,0
Brantford Plaza,,410 Fairview Drive,,Brantford,ON,N3R 2X8,Canada,1-519-758-8826,43.1723804,-80.2479505,-80.2479505,,0
,,108 Colborne Street West,,Brantford,ON,N3T 1K7,Canada,,43.1333437,-80.2745618,-80.2745618,,0
King George Square,,185 King George Rd,,Brantford,ON,N3R 7R9,Canada,1-226-250-3025,43.1739409,-80.2782086,-80.2782086,,0
Maple Mews Plaza,,1235 Fairview St,,Burlington,ON,L7S 2H9,Canada,1-289-288-0187,43.3310703,-79.8196233,-79.8196233,,0
Windsor Crossings Plaza,,1555 Talbot Rd.,,Windsor,ON,N9H 2N2,Canada,1-519-967-8210,42.2422401,-83.0145262,-83.0145262,,0
Gateway Plaza,,3214 Dougall Ave.,,Windsor,ON,N9E 1S6,Canada,1-519-972-4661,42.2685573,-83.0109685,-83.0109685,,0
Devonshire Mall,,3100 Howard Ave,,Windsor,ON,N8X 3Y8,Canada,1-519-946-0129,42.2728646,-83.0044550,-83.0044550,,0
Walker Commons,,4115 Walker Rd Bldg 4,,Windsor,ON,N8W 3T6,Canada,1-519-972-2947,42.2607697,-82.9687173,-82.9687173,,0
University Mall,,2700 Tecumseh Road West,,Windsor,ON,N9B 3P9,Canada,1-519-985-6780,42.2905024,-83.0588158,-83.0588158,,0
PLAZA 300,,300 Tecumseh Rd E.,,Windsor,ON,N8X 5E8,Canada,1-519-973-9158,42.2980338,-83.0204862,-83.02rket at Collingwood,,6655 178th St NW,,Edmonton,AB,T5T 4J5,Canada,1-780-486-7714,53.5010361,-113.6286174,-113.6286174,,
West Edmonton Mall,,8882 170th St. Un M102,,Edmonton,AB,T5T 4J2,Canada,1-780-483-5902,53.5241571,-113.6155149,-113.6155149,,
Lewis Estates,,1268 Webber Greens Dr N.W.,,Edmonton,AB,T5T 7C5,Canada,,53.5236598,-113.6681874,-113.6681874,,
Sunrise Towne Square,,187 Highway 16A,,Spruce Grove,AB,T7X 4P9,Canada,1-780-960-8455,53.5414145,-113.9273033,-113.9273033,,
Place d';Embrun,,767 Notre-Dame St.,,Embrun,ON,K0A 1W1,Canada,1-613-443-2648,45.2675049,-75.3013534,-75.3013534,,
Centre Casselman,,98 Lafleche blvd.,,Casselman,ON,K0A 1M0,Canada,1-613-764-3258,45.3063818,-75.0824344,-75.0824344,,
Kemptville Colonnade,,371 Ryans Well Way Suite 100,,Kemptville,ON,K0G 1J0,Canada,1-613-258-3470,45.0163884,-75.6459470,-75.6459470,,
Shoppers World Danforth,,3003 Danforth Avenue,,Toronto,ON,M4C 1M9,Canada,1-416-691-7607,43.6908418,-79.2900836,-79.2900836,,
Les Galeries Trois-Pistoles,,634 rue Richard,,Trois-Pistoles,QC,G0L 4K0,Canada,1-888-924-5559,48.1217702,-69.1643039,-69.1643039,,
Tamarack Centre,,1500 Cranbrook St N,,Cranbrook,BC,V1C 3S8,Canada,1-250-489-8055,49.5288891,-115.7485493,-115.7485493,,
Columbia Plaza,,1502 Columbia Ave,,Castlegar,BC,V1N 4G5,Canada,1-250-365-0852,49.3063739,-117.6585787,-117.6585787,,
Waneta Plaza,,8100 Highway 3 B,,Trail,BC,V1R 4N7,Canada,1-250-368-4761,49.0978784,-117.6725296,-117.6725296,,
Medicine Tree Mall,,1103 18th Street South East,,High River,AB,T1V 2A9,Canada,,50.5727526,-113.8421703,-113.8421703,,
Southbank Centre,,105 Southbank Blvd,,Okotoks,AB,T1S 0G1,Canada,1-403-938-1266,50.7048895,-113.9487838,-113.9487838,,
The Quarry,,40 Quarry Street East,,Cochrane,AB,T4C 0W6,Canada,,51.1846128,-114.4720658,-114.4720658,,
Milton Common Shopping Centre,,B-10-1-890 Main Street East,,Milton,ON,L9T 0J4,Canada,1-905-636-7995,43.5280120,-79.8669291,-79.8669291,,
Murrayville Square,,22259 48th Avenue,,Langley,BC,V3A 3Z7,Canada,1-604-629-0028,49.0896917,-122.6073055,-122.6073055,,
Aldergrove Centre Mall,,3100 272nd St.,,Aldergrove,BC,V4W 3N7,Canada,1-604-607-0653,49.0603865,-122.4705973,-122.4705973,,
Meadow Fair Mall,,31940 South Fraser Way,,Abbotsford,BC,V2T 1V6,Canada,1-604-855-5167,49.0489441,-122.3391665,-122.3391665,,
South Fraser Way S.C.,,32465 South Fraser Way,,Abbotsford,BC,V2T 1X4,Canada,1-604-504-0039,49.0515721,-122.3246472,-122.3246472,,
Sierra Springs,,2781 Main Street SW,,Airdrie,AB,T4B 3S6,Canada,1-587-775-1703,51.2662533,-114.0069693,-114.0069693,,
Towerlane Mall,,505 Main St SW,,Airdrie,AB,T4B 3K3,Canada,1-403-945-0778,51.2878635,-114.0134409,-114.0134409,,
-384-7244,52.1285293,-106.7596683,-106.7596683,,0
,,520 Central St.,,Warman,SK,S0K 4S0,Canada,1-306-955-9663,52.3184812,-106.5818345,-106.5818345,,0
Frontier Mall,,11407 B Railway Ave East,,North Battleford,SK,S9A 3G8,Canada,1-306-445-5944,52.7579493,-108.2728734,-108.2728734,,0
Town ';n'; Country Mall,,1235 Main Street North,,Moose Jaw,SK,S6H 6M4,Canada,1-306-693-1714,50.4106532,-105.5344893,-105.5344893,,0
Wheatland Mall,,1150 Central Ave N,,Swift Current,SK,S9H 4C8,Canada,1-306-773-6906,50.3025057,-107.7951762,-107.7951762,,0
Smart Centres Regina North,,4105 Rochdale Blvd,,Regina,SK,S4X 4P7,Canada,1-306-522-2091,50.4965648,-104.6394468,-104.6394468,,0
Normanview Crossing,,348 McCarthy Blvd. North,,Regina,SK,S4R 7M2,Canada,1-306-924-1932,50.4823205,-104.6640929,-104.6640929,,0
Regent Park,,3765 Sherwood Drive,,Regina,SK,S4R 4A8,Canada,1-306-546-2492,50.4755205,-104.6346260,-104.6346260,,0
Northgate Mall,,489 Albert St N,,Regina,SK,S4R 3C3,Canada,1-306-525-0454,50.4831911,-104.6180249,-104.6180249,,0
Carling Corner Shopping Centre,,921 A. Albert Street,,Regina,SK,S4R 2P6,Canada,,50.4637214,-104.6180282,-104.6180282,,0
Centennial Mall,,1230 H Broad Street,,Regina,SK,S4R 1Y3,Canada,1-306-569-9722,50.4597669,-104.6065193,-104.6065193,,0
Cornwall Centre,,2102 11th Avenue,,Regina,SK,S4P 3Y6,Canada,1-306-522-9982,50.4503983,-104.6108296,-104.6108296,,0
Grasslands,,4825 Gordon Rd,,Regina,SK,S4W 0B7,Canada,,50.4053738,-104.6392803,-104.6392803,,0
,,2327 Victoria Ave. East,,Regina,SK,S4N 1K5,Canada,1-306-546-2725,50.4471918,-104.5404612,-104.5404612,,0
Gordon Place,,4602 Albert Street,,Regina,SK,S4S 6B4,Canada,1-306-586-8929,50.4057851,-104.6190021,-104.6190021,,0
Cornerstone,,4213 70 Ave,,Lloydminster,AB,T9V 2X2,Canada,,53.2759571,-110.04712,-110.04712,,0
,,275 Broadway St. East,,Yorkton,SK,S3N 3G7,Canada,1-306-782-1385,51.2102096,-102.4805525,-102.4805525,,0
,,127 1st Street,,Weyburn,SK,S4H 0T3,Canada,1-306-842-1314,49.6627564,-103.8564484,-103.8564484,,0
Uxbridge Shopping Plaza,,4 Banff Road,,Uxbridge,ON,L9P 1S9,Canada,1-905-862-2598,44.0940508,-79.1306178,-79.1306178,,0
,,1070 Hoover Park Dr,,Stouffville,ON,L4A 0K2,Canada,1-905-642-1135,43.9625959,-79.2541972,-79.2541972,,0
404 Town Centre,,12-1111 Davis Drive,,Newmarket,ON,L3Y 8X2,Canada,1-905-898-0244,44.0662712,-79.4298801,-79.4298801,,0
Wismer Commons,,1220 Castlemore ave.,,Markham,ON,L6E 0H7,Canada,1-905-294-9430,43.9022552,-79.2746651,-79.2746651,,0
Markham Plaza,,9275 Markham Rd.,,Markham,ON,L6E 1A1,Canada,1-905-471-8270,43.8960680,-79.2651130,-79.2651130,,0
Aurora Gateway Centre,,52 First Commerce Dr.,,Aurora,ON,L4G 0H5,Canada,1-905-727-7253,44.0123816,-79.4179412,-79.4179412,,0
Box Grove Centre,,72 Copper Creek Dr.,,Markham,ON,L6B 0P2,Canada,1-905-209-7300,43.8658916,-79.2289257,-79.2289257,,0
Sherwood Plaza,,5694 Highway #7,,Markham,ON,L3P 1B4,Canada,1-905-294-3657,43.8707629,-79.2701347,-79.2701347,,0
,,4-1899 Brock Rd,,Pickering,ON,L1V 4H7,Canada,,43.8455676,-79.0728433,-79.0728433,,0
Newmarket Plaza,,130 Davis Dr.,,Newmarket,ON,L3Y 2N1,Canada,1-905-836-7350,44.0548884,-79.4748468,-79.4748468,,0
Woodland Hills,,17940 Yonge St.,,Newmarket,ON,L3Y 8S4,Canada,1-905-895-0980,44.0673002,-79.4835329,-79.4835329,,0
,,77 Marr Road,,Rothesay,NB,E2E 3J9,Canada,,45.3901212,-65.9682755,-65.9682755,,0
,,30 Plaza Ave,,Saint John,NB,E2M 0C3,Canada,1-506-674-1687,45.2483627,-66.1018893,-66.1018893,,0
,,5 Trinity Ave,,Fredericton,NB,E3C 0B7,Canada,1-506-472-9742,45.9312969,-66.6615878,-66.6615878,,0
,,11 Victoria Street,,Shediac,NB,E4P 8T6,Canada,1-506-533-9419,46.2191340,-64.5416686,-64.5416686,,0
Trafalgar Square,,125 Cross Avenue,,Oakville,ON,L6J 2W8,Canada,1-289-291-0114,43.4545090,-79.6859147,-79.6859147,,0
Oakville Town Centre,,290 North Service Rd West,,Oakville,ON,L6M 2S2,Canada,1-905-337-8104,43.4404062,-79.7101476,-79.7101476,,0
Rio Centre,,478 Dundas St. West,,Oakville,ON,L6H 6Y3,Canada,,43.4653883,-79.7427147,-79.7427147,,0
Riocan Burloak,,3465 Wyecroft Rd,,Oakville,ON,L6L 0B6,Canada,1-905-827-1373,43.3975395,-79.7465810,-79.7465810,,0
Appleby Mall,,5111 New Street,,Burlington,ON,L7L 1V2,Canada,1-905-681-5532,43.3692117,-79.7532377,-79.7532377,,0
Southdown Rd Plaza,,1375 Southdown Rd,,Mississauga,ON,L5J 2Z1,Canada,1-289-373-3059,43.5187007,-79.6401970,-79.6401970,,0
Clarkson Village,,1865 Lakeshore Rd. West,,Mississauga,ON,L5J 4P1,Canada,1-905-855-9469,43.5147316,-79.6258675,-79.6258675,,0
Deer Run Shopping Centre,,14-4040 Creditview Rd.,,Mississauga,ON,L5J 4A1,Canada,,43.5131808,-79.6181883,-79.6181883,,0
Erinwood Shopping Centre,,2400 Dundas St. West,,Mississauga,ON,L5K 1R8,Canada,1-905-403-8565,43.5289003,-79.6748538,-79.6748538,,0
Appleby Crossing,,2435 Appleby Line,,Burlington,ON,L7L 0B6,Canada,1-289-313-0050,43.4056311,-79.8065142,-79.8065142,,0
South Common Mall,,2150 Burnhamthorpe Rd W,,Mississauga,ON,L5L 3A2,Canada,1-905-412-3001,43.5458192,-79.6837375,-79.6837375,,0
Westdale Mall,,1151 Dundas St W,,Mississauga,ON,L5C 1C6,Canada,1-905-361-1337,43.5569579,-79.6435755,-79.6435755,,0
Erin Mills Town Plaza,,2670 Erin Centre Blvd,,Mississauga,ON,L5M 5P5,Canada,1-905-607-2902,43.5601246,-79.7146298,-79.7146298,,0
Burlington Mall,,777 Guelph Line,,Burlington,ON,L7R 3N2,Canada,1-905-632-2349,43.3453912,-79.7947958,-79.7947958,,0
Burlington Supercentre,,2025 Guelph Line,,Burlington,ON,L7P 4M8,Canada,1-289-288-0050,43.3655569,-79.8231642,-79.8231642,,0
Credit Landing Shopping Centre,,228 Lakeshore Road West,,Mississauga,ON,L5H 1G6,Canada,1-905-274-5716,43.5462789,-79.5916985,-79.5916985,,0
Brant Plaza,,601 Brant St.,,Burlington,ON,L7R 2G6,Canada,1-905-639-1710,43.3295006,-79.8029184,-79.8029184,,0
Brant Centre,,1200 Brant Street,,Burlington,ON,L7P 5C6,Canada,1-905-331-1696,43.3423201,-79.8237311,-79.8237311,,0
Upper Brant Plaza,,2201 Brant Street,,Burlington,ON,L7P 3N8,Canada,1-905-336-9375,43.3571162,-79.8430145,-79.8430145,,0
,,93 Dundas Street East,,Mississauga,ON,L5A 1W7,Canada,1-905-281-9895,43.5819695,-79.6145460,-79.6145460,,0
Battleford Square,,6435 Erin Mills Pky,,Mississauga,ON,L5N 4H4,Canada,1-905-363-0367,43.5879546,-79.7418736,-79.7418736,,0
Cavenshore Shopping Centre,,585 Lakeshore Road East,,Mississauga,ON,L5G 1H9,Canada,1-905-271-0689,43.5678871,-79.5683188,-79.5683188,,0
Milton Mall,,75 Nipissing Rd,,Milton,ON,L9T 1R3,Canada,1-905-875-9895,43.5187457,-79.8730580,-79.8730580,,0
Square One Shopping Centre,,100 City Centre Drive,,Mississauga,ON,L5B 1M7,Canada,1-905-279-2543,43.5930411,-79.6427970,-79.6427970,,0
Kings Cross Building,,7488 King George Blvd,,Surrey,BC,V3W 0H9,Canada,1-604-635-0425,49.1388065,-122.8455231,-122.8455231,,0
Guilford Town Centre,,1256-10355 152 Street,,Surrey,BC,V3R 7C1,Canada,,49.1895105,-122.8049076,-122.8049076,,0
,,5665 Kingsway,,Burnaby,BC,V5H 2G4,Canada,1-604-437-5784,49.2227533,-122.9810295,-122.9810295,,0
Boardwalk Plaza,,10155 153rd Street,,Surrey,BC,V3R 9V8,Canada,1-604-580-3798,49.1871094,-122.7981545,-122.7981545,,0
Fleetwood Village,,15950 Fraser Hwy,,Surrey,BC,V4N 0X8,Canada,,49.1578711,-122.7806108,-122.7806108,,0
,,1301 Lougheed Hwy,,Coquitlam,BC,V3K 6P9,Canada,,49.2355449,-122.8562409,-122.8562409,,0
Clover Square Mall,,17780 56th Avenue,,Surrey,BC,V3S 1C7,Canada,1-604-574-2155,49.1041333,-122.7299369,-122.7299369,,0
,,2201 Kingsway,,Vancouver,BC,V5N 2T6,Canada,1-604-430-1508,49.2436315,-123.0613413,-123.0613413,,0
Peninsula Village,,15355 24th Ave,,Surrey,BC,V4A 2H9,Canada,1-604-531-7957,49.0457440,-122.7972774,-122.7972774,,0
,,9751 Bridgeport Rd,,Richmond,BC,V6X 1S3,Canada,1-604-233-1045,49.1920966,-123.1160495,-123.1160495,,0
Semiahmoo Mall,,1711- 152 ST.,,Surrey,BC,V4A 4N3,Canada,,49.0329799,-122.8013914,-122.8013914,,0
,,1971 Lougheed Hwy,,Port Coquitlam,BC,V3B 1A6,Canada,,49.2645962,-122.7693289,-122.7693289,,0
Fremont Village,,2180 Hawkins Street,,Port Coquitlam,BC,V3B 0G6,Canada,1-604-552-3467,49.2537064,-122.7384045,-122.7384045,,0
Le Quartier Laval,,640 boul Le Corbusier,,Laval,QC,H7N 0A9,Canada,450-688-7990,45.5668824,-73.7344787,-73.7344787,,0
,,2595 boul. Daniel-Johnson,,Laval,QC,H7T 1S8,Canada,450-978-5376,45.5703220,-73.7584688,-73.7584688,,0
,,1710 boul. des Laurentides,,Laval,QC,H7M 2Y4,Canada,450-967-7304,45.5824344,-73.706348,-73.706348,,0
,,6235 Boul. des Laurentides,,Laval,QC,H7H 2V3,Canada,,45.553678,-73.7267771,-73.7267771,,0
,,2077 boul. des Laurentides,,Laval,QC,H7M 4M2,Canada,450-967-7929,45.6073524,-73.7330562,-73.7330562,,0
Terrasse Fabreville,,444 boul Curé Labelle,,Laval,QC,H7P 4W7,Canada,450-625-6242,45.5786832,-73.7864996,-73.7864996,,0
,,5845 boul. Robert Bourassa,,Laval,QC,H7E 0A4,Canada,450-661-4038,45.6131256,-73.6967470,-73.6967470,,0
Mail Duvernay,,3100 boul. de la Concorde,,Laval,QC,H7E 2B8,Canada,450-664-0989,45.5931850,-73.6663770,-73.6663770,,0
,,1780 Rue Fleury est,,Montreal,QC,H2C 1T4,Canada,514-904-0411,45.5674212,-73.6536374,-73.6536374,,0
Centre Quatre Coins,,201 Boul CuréLabelle,,Rosemere,QC,J7A 2H3,Canada,450-433-9283,45.6237245,-73.8047272,-73.8047272,,0
Place de la Concorde,,4396 Blvd de la Concorde Est,,Laval,QC,H7C 2R4,Canada,,45.6027913,-73.6478265,-73.6478265,,0
Centre Commercial Forest,,10539 boul Pie IX,,Montréal-Nord,QC,H1H 4A3,Canada,514-904-1443,45.5877496,-73.6339182,-73.6339182,,0
,,377 Chemin de la Grande Coté,,Boisbriand,QC,J7G 1A9,Canada,450-979-2574,45.607095,-73.83423,-73.83423,,0
Place Rosemere,,55 Blvd. Bouthillier,,Rosemere,QC,J7A 4S7,Canada,,45.6287058,-73.8230934,-73.8230934,,0
,,8114 rue St-Denis,,Montréal,QC,H2P 2G6,Canada,514-383-0241,45.542494,-73.629633,-73.629633,,0
,,5610 boul. Henri-Bourassa est,,Montréal-Nord,QC,H1G 2T2,Canada,514-323-7511,45.6061919,-73.6212416,-73.6212416,,0
,,2 Hardy Ave.,,Grand Falls-Windsor,NL,A2A 2P9,Canada,1-709-489-9030,48.9535949,-55.6217775,-55.6217775,,0
,,94 Main St,,Stephenville,NL,A2N 1J3,Canada,1-709-643-3778,48.5486255,-58.5794264,-58.5794264,,0
,,911 Southdale road west,,London,ON,N6P 0B3,Canada,1-519-652-5388,42.9366774,-81.3147429,-81.3147429,,0
,,141 Dundas Street,,London,ON,N6A 1G3,Canada,1-519-679-4162,42.9834678,-81.2503208,-81.2503208,,0
,,1990 Dundas Street,,London,ON,N5V 3Z1,Canada,1-519-659-5924,43.0063990,-81.1702646,-81.1702646,,0
,,110 Oxford Street,,Ingersoll,ON,N5C 2V5,Canada,1-519-425-4103,43.0387958,-80.8843180,-80.8843180,,0
,,588 Queen Street East,,St. Marys,ON,N4X 1B5,Canada,,43.2611965,-81.1256635,-81.1256635,,0
Norfolk Mall,,400 Simcoe St.,,Tillsonburg,ON,N4G 4X1,Canada,1-519-688-6517,42.8537835,-80.6916091,-80.6916091,,0
,,415 Norwich Ave,,Woodstock,ON,N4S 3W4,Canada,1-519-539-4545,43.1183552,-80.7387461,-80.7387461,,0
,,333 Main St South,,Exeter,ON,N0M 1S6,Canada,1-519-235-4628,43.3474662,-81.4806673,-81.4806673,,0
,,1054 Centre Street,,Vaughan,ON,L4J 8E5,Canada,1-905-695-0289,43.8090435,-79.4592182,-79.4592182,,0
Eagles Landing Shopping Mall,,1400 Maj. Mackenzie Dr. #B-1,,Vaughan,ON,L6A 4H6,Canada,1-905-417-5514,43.8614598,-79.4863606,-79.4863606,,0
South Hill Shopping Centre,,9325 Yonge St,,Richmond Hill,ON,L4C 0A8,Canada,1-905-883-7916,43.8537063,-79.4330613,-79.4330613,,0
Bayview Lane Plaza,,8190 Bayview Ave,,Thornhill,ON,L3T 2S2,Canada,1-905-695-1001,43.8314672,-79.4044164,-79.4044164,,0
,,1591 Wilson Ave,,Toronto,ON,M3L 1A5,Canada,1-416-645-0408,43.7206737,-79.5099257,-79.5099257,,0
,,20 Orfus Road,,Toronto,ON,M6A 1L6,Canada,1-416-782-1273,43.720164,-79.4573029,-79.4573029,,0
Allancourt Plaza,,606 Major Mackenzie Dr E,,Richmond Hill,ON,L4C 1J9,Canada,1-905-883-3859,43.8756424,-79.4173055,-79.4173055,,0
Venator Building,,232 8th Avenue SW,,Calgary,AB,T2P 1B5,Canada,1-403-263-2056,51.0457506,-114.0671599,-114.0671599,,0
Forest Lawn Shopping Centre,,1919 31st St. SE,,Calgary,AB,T2B 0S8,Canada,1-403-444-1075,51.0361846,-113.9894666,-113.9894666,,0
Heritage Town Centre,,52 Heritage Gate SE,,Calgary,AB,T2H 3A7,Canada,1-403-252-0789,50.9883876,-114.0442857,-114.0442857,,0
Northgate Village,,565 36 Street NE,,Calgary,AB,T2A 6K3,Canada,1-403-204-3542,51.0564196,-113.9850254,-113.9850254,,0
Marlborough Mall,,3800 Memorial Dr. NE,,Calgary,AB,T2A 2K2,Canada,1-403-537-0338,51.0527540,-113.9774226,-113.9774226,,0
,,24-7400 Macleod Trail S.E.,,Calgary,AB,T2H 0L9,Canada,,50.9869712,-114.0708237,-114.0708237,,0
,,5017 17th Avenue S.E,,Calgary,AB,T2A 0V5,Canada,,51.0378357,-113.9628277,-113.9628277,,0
Sunridge,,3320 20 ave NE,,Calgary,AB,T1Y 6E8,Canada,1-403-280-3505,51.0707848,-113.9879479,-113.9879479,,0
Transcanada Mall,,156-1440 52nd Street NE,,Calgary,AB,T2A 4T8,Canada,,51.0626536,-113.9576218,-113.9576218,,0
Macleod Plaza,,180 94th Ave. SE,,Calgary,AB,T2J 3G8,Canada,1-403-444-1217,50.9686989,-114.0694091,-114.0694091,,0
Horizon Heights Plaza,,3508 32nd Ave. NE,,Calgary,AB,T1Y 6J2,Canada,1-403-537-0218,51.0815734,-113.9845771,-113.9845771,,0
Madigan Plaza,,6060 Memorial Drive NE,,Calgary,AB,T2A 5Z5,Canada,1-403-235-3234,51.0524596,-113.9419762,-113.9419762,,0
The Market at Quarry Park,,163 Quarry Park Boulevard SE,,Calgary,AB,T2C 5E1,Canada,1-403-290-1837,50.9635096,-114.0105785,-114.0105785,,0
Westbrook Mall,,1600-1610 37th Street SW,,Calgary,AB,T3C 3P1,Canada,1-403-246-6219,51.0395851,-114.1399725,-114.1399725,,0
Temple Crossing Plaza,,5401 Temple Drive NE,,Calgary,AB,T1Y 3R7,Canada,1-403-280-9972,51.0849840,-113.9570004,-113.9570004,,0
Monterey Square,,2220 68th Street N.E,,Calgary,AB,T1Y 6T2,Canada,,51.0693667,-113.9338176,-113.9338176,,0
Deerfoot Mall,,901 64th AVE. N.E,,Calgary,AB,T2E 7P4,Canada,,51.1105202,-114.0441926,-114.0441926,,0
Deer Valley Centre,,54-1221 Canyon Meadows Drive,,Calgary,AB,T2J 6G2,Canada,1-403-288-5919,50.9312527,-114.0302036,-114.0302036,,0
Beddington Co-op Ce4,49.8819707,-119.4668975,-119.4668975,,
Kelowna Crossing,,215-2469 Highway 97 North,,Kelowna,BC,V1X 4J2,Canada,1-250-860-7928,49.8879824,-119.4225566,-119.4225566,,
Westfield Crossing,,2200 Saskatchewan Ave. West,,Portage la Prairie,MB,R1N 0P3,Canada,1-204-856-0440,49.9712148,-98.3180005,-98.3180005,,
Clearspring Mall,,178 PTH 12 North,,Steinbach,MB,R5G 1T7,Canada,1-204-326-1396,49.5175153,-96.6914828,-96.6914828,,
County Fair Plaza,,1020 Dawson Road,,Thunder Bay,ON,P7B 1K6,Canada,,48.4511563,-89.2523407,-89.2523407,,
Thunder Bay Centre,,369 Main St,,Thunder Bay,ON,P7B 5L6,Canada,1-807-343-0504,48.4064592,-89.2399468,-89.2399468,,
Northwood Park Plaza,,425 Edward St N,,Thunder Bay,ON,P7C 4P7,Canada,1-807-475-4941,48.3936772,-89.2779595,-89.2779595,,
Arthur Street Market Place,,1101 Arthur St W,,Thunder Bay,ON,P7E 5S2,Canada,1-807-475-0504,48.3808339,-89.3060366,-89.3060366,,
Centennial Square,,800 Victoria Ave East,,Thunder Bay,ON,P7C 0A2,Canada,1-807-622-0504,48.3841425,-89.2499454,-89.2499454,,
Les Halles de la Mauricie,,1532 41e rue,,Shawinigan,QC,G9N 7Y9,Canada,1-819-539-1076,46.5662943,-72.7339130,-72.7339130,,
Brookdale Centre,,960 Brookdale Avenue,,Cornwall,ON,K6J 4P5,Canada,,45.023943,-74.7510666,-74.7510666,,
Cornwall Square,,1 Water Street East,,Cornwall,ON,K6H 6M2,Canada,1-613-930-2464,45.0298587,-74.7556865,-74.7556865,,
Les Galeries Ormstown,,4 Rue Bridge,,Ormstown,QC,J0S 1K0,Canada,,45.1210454,-73.9893436,-73.9893436,,
Hawkesbury Centre,,279 rue Régent,,Hawkesbury,ON,K6A 1G1,Canada,1-613-632-0270,45.6088189,-74.608418,-74.608418,,
Carrefour Argenteuil,,505 Bethany,,Lachute,QC,J8H 4A6,Canada,450-562-4030,45.6373004,-74.3270375,-74.3270375,,
Angus Plaza,,17 King Street,,Angus,ON,L0M 1B2,Canada,1-705-424-3000,44.3196978,-79.8854883,-79.8854883,,
Alliston Mills,,36 Young Street,,Alliston,ON,L9R 1P8,Canada,1-705-434-2049,44.1483517,-79.8822451,-79.8822451,,
Riocan Center,,32-1095 Maple Ave,,Milton,ON,L9T 0A5,Canada,1-905-693-8988,43.5371461,-79.8720658,-79.8720658,,
Whitehorse Plaza,,454 Norfolk Street South,,Simcoe,ON,N3Y 2X3,Canada,,42.8217177,-80.2984956,-80.2984956,,
Kingslake Plaza,,1201 Division St,,Kingston,ON,K7K 6X4,Canada,1-613-542-3046,44.2653848,-76.4984085,-76.4984085,,
JSM Business Centre,,1011 Princess St,,Kingston,ON,K7L 1H3,Canada,1-613-544-7070,44.2455231,-76.5171102,-76.5171102,,
Frontenac Mall,,1300 Bath Road,,Kingston,ON,K7M 4X4,Canada,1-613-547-0401,44.2397711,-76.5473353,-76.5473353,,
Rio-Can Centre,,690 Gardiners Rd.,,Kingston,ON,K7M 3X9,Canada,1-613-384-5680,44.2477086,-76.5664018,-76.5664018,,
Bay View Mall,,470 Dundas Street east,,Belleville,ON,K8N 1G1,Canada,,44.1683859,-77.3532386,-77.3532386,,
Wal-Mart Centre,,264 Millennium Parkway,,Belleville,ON,K8N 4Z5,Canada,1-613-967-8508,44.1962978,-77.3983741,-77.3983741,,
Trenton Town Centre,,266 Dundas St. East,,Trenton,ON,K8V 5Z9,Canada,1-613-392-5538,44.1047383,-77.5583061,-77.5583061,,
Promenades Ste-Adèle,,555 boul de Ste-Adele,,Ste-Adèle,QC,J8B 1A7,Canada,1-450-229-5837,45.9483091,-74.1263105,-74.1263105,,
Northumberland Mall,,1111 Elgin Street West,,Cobourg,ON,K9A 5H7,Canada,1-905-372-1224,43.9722048,-78.1948017,-78.1948017,,
Willowcreek Plaza,,400 Lansdowne Street East,,Peterborough,ON,K9L 0B2,Canada,1-705-741-3356,44.2919587,-78.2899913,-78.2899913,,
Port Hope Plaza,,135 Peter Street,,Port Hope,ON,L1A 1C5,Canada,1-905-885-8374,43.9499927,-78.2830053,-78.2830053,,
Market Plaza,,81 George Street. N,,Peterborough,ON,K9J 3G3,Canada,,44.2964572,-78.3211226,-78.3211226,,
Lansdowne Place,,645 Lansdowne St.,,Peterborough,ON,K9J 7Y5,Canada,,44.2830007,-78.3319796,-78.3319796,,
Parkway Centre,,880 The Parkway,,Peterborough,ON,K9J 8S5,Canada,1-705-749-2935,44.2875156,-78.3472449,-78.3472449,,
Mapleridge Plaza,,1840 Lansdowne Street West,,Peterborough,ON,K9K 2M9,Canada,,44.275429,-78.3741095,-78.3741095,,
5683777,-79.5683777,,0
Shoppers World Brampton,,499 Main Street South,,Brampton,ON,L6Y 1N7,Canada,1-905-866-6948,43.6672195,-79.7350770,-79.7350770,,0
,,93 Dundas Street East,,Mississauga,ON,L5A 1W7,Cana8469920,-80.2916910,-80.2916910,,
45460,-79.6145460,,0
Bramalea City Centre,,25 Peel Centre Drive,,Brampton,ON,L6T 3R5,Canada,1-905-458-1662,43.7141653,-79.7247738,-79.7247738,,0
,,30 Plaza Ave,,Saint John,NB,E2M 0C3,Canada,1-506-674-1687,45.2483627,-66.1018893,-66.1018893,,0
,,77 Marr Road,,Rothesay,NB,E2E 3J9,Canada,,45.3901212,-65.9682755,-65.9682755,,0
,,5 Trinity Ave,,Fredericton,NB,E3C 0B7,Canada,1-506-472-9742,45.9312969,-66.6615878,-66.6615878,,0
Place Greenfield Park,,3374 boul. Taschereau,,Greenfield Park,QC,J4V 2H7,Canada,450-466-3672,45.4932374,-73.4791844,-73.4791844,,0
Place Desormeaux,,2877 Chemin Chambly,,Longueuil,QC,J4L 1M8,Canada,450-646-7684,45.5209770,-73.4614350,-73.4614350,,0
Carre St-Lambert,,299 Boul. Sir Wilfred Laurier,,St-Lambert,QC,J4R 2V7,Canada,1-450-466-3720,45.4934738,-73.5029175,-73.5029175,,0
,,5615 Grande-Allee,,Brossard,QC,J4Z 3G3,Canada,,45.474884,-73.444708,-73.444708,,0
Place Portobello,,7250 boul. Tashereau,,Brossard,QC,J4W 1M9,Canada,450-672-1840,45.4621358,-73.4655615,-73.4655615,,0
Carrefour St-Hubert,,5924 boul Cousineau,,St-Hubert,QC,J3Y 7R9,Canada,450-443-7307,45.4959254,-73.4103601,-73.4103601,,0
Carrefour Brossard,,7485 Blvd Grande-Allee,,Brossard,QC,J4Z 0E3,Canada,,45.4586461,-73.4190266,-73.4190266,,0
,,9550 boul Leduc,,Brossard,QC,J4Y 0B3,Canada,450-656-1728,45.4425744,-73.4358954,-73.4358954,,0
,,1211 boul. St-Bruno,,St-Bruno-de-Montarville,QC,J3V 6P4,Canada,450-441-0239,45.5042528,-73.3832038,-73.3832038,,0
,,911 rue Ste-Catherine Est,,Montréal,QC,H2L 2E5,Canada,514-849-2786,45.5166508,-73.5580163,-73.5580163,,0
,,486 Sainte-Catherine Ouest,,Montreal,QC,H3B 1A6,Canada,,45.5044145,-73.5680472,-73.5680472,,0
,,3510 est rue Ontario,,Montréal,QC,H1W 1R2,Canada,514-529-8933,45.5439037,-73.5444922,-73.5444922,,0
,,3912 rue Ontario Est,,Montréal,QC,H1W 1S6,Canada,514-527-2075,45.5484151,-73.5421532,-73.5421532,,0
,,4041 rue Wellington,,Verdun,QC,H4G 1V6,Canada,514-762-5459,45.4632730,-73.5670841,-73.5670841,,0
,,3817 boul. St-Laurent,,Montréal,QC,H2W 1X9,Canada,514-845-4159,45.5156759,-73.576207,-73.576207,,0
,,1934 ouest Ste-Catherine,,Montréal,QC,H3H 1M4,Canada,514-935-2646,45.4922785,-73.5808318,-73.5808318,,0
,,375 Chemin d';Aylmer,,Gatineau,QC,J9H 1A5,Canada,1-819-682-3621,45.4076451,-75.7855579,-75.7855579,,0
,,183 Rideau Street,,Ottawa,ON,K1N 5X8,Canada,1-613-288-1364,45.4275205,-75.6891026,-75.6891026,,0
,,1050 Somerset Street West,,Ottawa,ON,K1Y 3C5,Canada,1-613-688-0192,45.4068255,-75.7193101,-75.7193101,,0
,,255 Elgin St,,Ottawa,ON,K2P 1L8,Canada,1-613-288-0046,45.4183060,-75.6907068,-75.6907068,,0
,,1320 Boul. La Verendrye Est,,Gatineau,QC,J8P 0A9,Canada,,45.5008985,-75.6474025,-75.6474025,,0
,,2946 Baseline Road,,Ottawa,ON,K2H 8T5,Canada,1-613-828-7435,45.3356307,-75.8002090,-75.8002090,,0
Blackburn Shoppes,,2640 Innes Road,,Ottawa,ON,K1B 4Z5,Canada,1-613-590-0703,45.4321064,-75.5635006,-75.5635006,,0
,,5 Trinity Ave,,Fredericton,NB,E3C 0B7,Canada,1-506-472-9742,45.9312969,-66.6615878,-66.6615878,,0
,,77 Marr Road,,Rothesay,NB,E2E 3J9,Canada,,45.3901212,-65.9682755,-65.9682755,,0
,,30 Plaza Ave,,Saint John,NB,E2M 0C3,Canada,1-506-674-1687,45.2483627,-66.1018893,-66.1018893,,0
,,11 Victoria Street,,Shediac,NB,E4P 8T6,Canada,1-506-533-9419,46.2191340,-64.5416686,-64.5416686,,0
,,660 Westville Road,,New Glasgow,NS,B2H 5E5,Canada,1-902-752-0123,45.5781950,-62.6654882,-62.6654882,,0
,,164 Wade Road,,Truro,NS,B2N 0C7,Canada,1-902-895-4516,45.3563279,-63.3076253,-63.3076253,,0
,,11 Victoria Street,,Shediac,NB,E4P 8T6,Canada,1-506-533-9419,46.2191340,-64.5416686,-64.5416686,,0
,,1074 St. Mary';s Road,,Winnipeg,MB,R2M 3T3,Canada,1-204-237-7752,49.8363776,-97.1130406,-97.1130406,,0
,,1589 Kenaston Blvd,,Winnipeg,MB,R3P 2N3,Canada,,49.8264375,-97.2046005,-97.2046005,,0
,,230 Osborne Avenue,,Winnipeg,MB,R3L 1Z5,Canada,1-204-284-7466,49.8754849,-97.1427337,-97.1427337,,0
,,259 Marion Street,,Winnipeg,MB,R2H 0T8,Canada,1-204-231-5038,49.8817085,-97.1161418,-97.1161418,,0
,,295 Portage Avenue,,Winnipeg,MB,R3B 2B4,Canada,1-204-949-1525,49.8939263,-97.1430907,-97.1430907,,0
,,1300 Ellice Ave,,Winnipeg,MB,R3G 0E9,Canada,1-204-774-0536,49.8927556,-97.1919917,-97.1919917,,0
,,1100 Concordia Ave.,,Winnipeg,MB,R2K 4B8,Canada,1-204-661-2915,49.9120891,-97.0642509,-97.0642509,,0
,,1114 Main Street,,Winnipeg,MB,R2W 3S2,Canada,1-204-582-3411,49.9173296,-97.1311755,-97.1311755,,0
,,2360 Main Street,,Winnipeg,MB,R2V 4H7,Canada,,49.9536793,-97.1004701,-97.1004701,,0
,,410 Main Street East,,Kingsville,ON,N9Y 0C1,Canada,,42.0381611,-82.7238297,-82.7238297,,0
,,5415 Tecumseh Rd E,,Windsor,ON,N8T 1C5,Canada,1-519-974-2096,42.3091853,-82.9583346,-82.9583346,,0
,,1484 Ottawa St,,Windsor,ON,N8X 2G1,Canada,,42.3106637,-83.0102581,-83.0102581,,0
,,10 Queen St South,,Tilbury,ON,N0P 2L0,Canada,1-519-682-2966,42.2587159,-82.4322110,-82.4322110,,0
,,1279 University Avenue West,,Windsor,ON,N9A 5T2,Canada,1-519-253-9489,42.3131590,-83.0544299,-83.0544299,,0
,,835 Queen Street,,Chatham,ON,N7M 2K5,Canada,1-519-351-8833,42.3875113,-82.1658245,-82.1658245,,0
,,419 Lyndock St,,Corunna,ON,N0N 1G0,Canada,1-519-862-3757,42.886451,-82.4533937,-82.4533937,,0
,,367 Arthur-Sauvé,,St-Eustache,QC,J7P 2B1,Canada,450-491-1226,45.5623226,-73.9010852,-73.9010852,,0
,,377 Chemin de la Grande Coté,,Boisbriand,QC,J7G 1A9,Canada,450-979-2574,45.607095,-73.83423,-73.83423,,0
Le Faubourg,,2615 rue d';Annemasse,,Boisbriand,QC,J7H 0A5,Canada,450-971-4505,45.6210560,-73.8497240,-73.8497240,,0
Plaza Ste-Therese,,300 Rue Sicard,,Ste-Therese,QC,J7E 3X5,Canada,1-450-419-3720,45.6426239,-73.8588009,-73.8588009,,0
,,11829 boul de Pierrefonds,,Pierrefonds,QC,H9A 1A1,Canada,514-683-1772,45.5055364,-73.8227571,-73.8227571,,0
,,2595 boul. Daniel-Johnson,,Laval,QC,H7T 1S8,Canada,450-978-5376,45.5703220,-73.7584688,-73.7584688,,0
,,4269 Boul. St-Jean,,Dollard-des-Ormeaux,QC,H9G 2R4,Canada,,45.4792116,-73.840805,-73.840805,,0
,,11780 boul de Salaberry,,Dollard-des-Ormeaux,QC,H9B 2R8,Canada,514-684-0978,45.4844332,-73.8052701,-73.8052701,,0
,,2077 boul. des Laurentides,,Laval,QC,H7M 4M2,Canada,450-967-7929,45.6073524,-73.7330562,-73.7330562,,0
,,6235 Boul. des Laurentides,,Laval,QC,H7H 2V3,Canada,,45.553678,-73.7267771,-73.7267771,,0
,,4870 boul St-Charles,,Pierrefonds,QC,H9H 3E2,Canada,514-620-4054,45.4668291,-73.8742954,-73.8742954,,0
Carrefour de la Seigneurie,,9 est de la Seigneurie,,Blainville,QC,J7C 4G6,Canada,450-437-6951,45.6898007,-73.8934157,-73.8934157,,0
,,1710 boul. des Laurentides,,Laval,QC,H7M 2Y4,Canada,450-967-7304,45.5824344,-73.706348,-73.706348,,0
Woodlawn Centre,,49 Woodlawn Rd. W,,Guelph,ON,N1H 1G8,Canada,1-519-837-8614,43.5624002,-80.2810989,-80.2810989,,0
Bullfrog Mall,,380 Eramosa Road,,Guelph,ON,N1E 6R2,Canada,1-226-251-3062,43.5622471,-80.2486755,-80.2486755,,0
Hanlon Park,,218-222 Silvercreek Pky N,,Guelph,ON,N1H 8E8,Canada,1-519-827-0795,43.5436394,-80.2855093,-80.2855093,,0
,,315 Arthur Street South,,Elmira,ON,N3B 3L5,Canada,,43.5859883,-80.5619603,-80.5619603,,0
Stone Road Mall,,435 Stone Road West,,Guelph,ON,N1G 2X6,Canada,1-519-837-3678,43.5163427,-80.2385963,-80.2385963,,0
Stone Square Plaza,,370 Stone Road West,,Guelph,ON,N1G 4V9,Canada,1-519-767-0156,43.5158004,-80.2390799,-80.2390799,,0
Hartsland Market Square,,160 Kortright Road West,,Guelph,ON,N1G 4W2,Canada,1-519-821-0162,43.5131323,-80.2179271,-80.2179271,,0
,,330 Farmer';s Market Rd,,Waterloo,ON,N2V 0A5,Canada,1-519-746-3474,43.5098485,-80.5531370,-80.5531370,,0
Pergola Commons,,101 Clair Road East,,Guelph,ON,N1L 0J7,Canada,1-519-767-9037,43.5007051,-80.1885437,-80.1885437,,0
Frederick Mall,,385 Frederick Street,,Kitchener,ON,N2H 2P2,Canada,1-519-579-1104,43.4561120,-80.4730940,-80.4730940,,0
,,53-61 King Street East,,Kitchener,ON,N2G 2K4,Canada,,43.4491635,-80.4884505,-80.4884505,,0
HiWay Centre,,1375 Weber Street East,,Kitchener,ON,N2A 3Y7,Canada,1-519-340-3019,43.4330522,-80.4402878,-80.4402878,,0
Westside Market Village,,215 Centennial Rd,,Orangeville,ON,L9W 5K9,Canada,1-519-940-9595,43.9048386,-80.1153208,-80.1153208,,0
,,525 Highland Road West,,Kitchener,ON,N2M 5K1,Canada,,43.4351729,-80.5151489,-80.5151489,,0
Glasgow Heights Plaza,,851 Fisher-Hallman Road,,Kitchener,ON,N2M 5N8,Canada,1-519-571-7409,43.4440905,-80.5447131,-80.5447131,,0
,,655 Fairway Rd. South,,Kitchener,ON,N2C 1X4,Canada,1-519-894-9442,43.4194945,-80.4518956,-80.4518956,,0
,,42 Pinebush Rd,,Cambridge,ON,N1R 8K5,Canada,1-519-629-0254,43.4087562,-80.3243423,-80.3243423,,0
,,700 Westmount Rd. East,,Kitchener,ON,N2E 2V9,Canada,1-519-581-1215,43.4195969,-80.5016818,-80.5016818,,0
The Boardwalk,,295 Boardwalk,,Waterloo,ON,N2T 0A6,Canada,1-519-745-3261,43.4385028,-80.5632884,-80.5632884,,0
Orangeville Heritage Mall,,50 Fourth Ave,,Orangeville,ON,L9W 4P1,Canada,1-519-938-8403,43.9262370,-80.0943860,-80.0943860,,0
,,551 Hespeler Road,,Cambridge,ON,N1R 6J3,Canada,1-519-621-7443,43.4017913,-80.3259441,-80.3259441,,0
Sunrise Shopping Centre,,1400 Ottawa Street,,Kitchener,ON,N2E 4E2,Canada,,43.4165906,-80.5127415,-80.5127415,,0
Cambridge Centre,,355 Hespeler road,,Cambridge,ON,N1R 6B3,Canada,,43.3937513,-80.321042,-80.321042,,0
Delta Centre,,1 Hespeler Road,,Cambridge,ON,N1R 8L4,Canada,1-519-620-8312,43.3761686,-80.3185575,-80.3185575,,0
Halton Hills Shopping Plaza,,235 Guelph Street,,Georgetown,ON,L7G 4A8,Canada,1-905-873-4719,43.6499677,-79.8972335,-79.8972335,,0
,,183 Rideau Street,,Ottawa,ON,K1N 5X8,Canada,1-613-288-1364,45.4275205,-75.6891026,-75.6891026,,0
,,255 Elgin St,,Ottawa,ON,K2P 1L8,Canada,1-613-288-0046,45.4183060,-75.6907068,-75.6907068,,0
,,1320 Boul. La Verendrye Est,,Gatineau,QC,J8P 0A9,Canada,,45.5008985,-75.6474025,-75.6474025,,0
,,1050 Somerset Street West,,Ottawa,ON,K1Y 3C5,Canada,1-613-688-0192,45.4068255,-75.7193101,-75.7193101,,0
Convent Glen,,6505 Jeanne d';Arc Blvd North,,Orleans,ON,K1C 2R1,Canada,,45.479123,-75.536652,-75.536652,,0
Orleans Gardens Shopping Centre,,1615 Orleans Blvd,,Ottawa,ON,K1C 7E2,Canada,1-613-824-1132,45.4609703,-75.5238957,-75.5238957,,0
Place d';Orleans Shopping Centre,,110 Place d';Orleans Dr.,,Orleans,ON,K1C 2L9,Canada,1-613-824-8568,45.4808226,-75.5142099,-75.5142099,,0
Innes Shopping Centre,,2020 Mer Bleue Rd.,,Orleans,ON,K4A 0G2,Canada,1-613-841-5955,45.4548548,-75.5040933,-75.5040933,,0
,,375 Chemin d';Aylmer,,Gatineau,QC,J9H 1A5,Canada,1-819-682-3621,45.4076451,-75.7855579,-75.7855579,,0
Orleans Central,,1777 Tenth Line Road,,Ottawa,ON,K1E 3X2,Canada,1-613-834-2584,45.4760209,-75.4968474,-75.4968474,,0
,,278 Route 138,,St-Augustin-de-Desmaures,QC,G3A 2C5,Canada,1-418-870-1624,46.7446400,-71.4547301,-71.4547301,,0
,,1147 boul Pie-XI N,,Val-Bélair,QC,G3K 2P8,Canada,1-418-840-1428,46.8567171,-71.4218416,-71.4218416,,0
,,1515 Ave Saint-Jean_Baptiste,,Quebec,QC,G2E 5E2,Canada,,46.8019264,-71.3296226,-71.3296226,,0
,,280 Rue Racine,,Quebec,QC,G2B 1E6,Canada,,46.8516925,-71.3598909,-71.3598909,,0
,,1041 Boul.Pierre-Bertrand,,Quebec,QC,G1M 2E8,Canada,1-418-527-1716,46.8280319,-71.2763656,-71.2763656,,0
,,1301 Lougheed Hwy,,Coquitlam,BC,V3K 6P9,Canada,,49.2355449,-122.8562409,-122.8562409,,0
,,5665 Kingsway,,Burnaby,BC,V5H 2G4,Canada,1-604-437-5784,49.2227533,-122.9810295,-122.9810295,,0
Langley Crossing Shopping Centre,,6339 200th Street,,Langley,BC,V2Y 1A2,Canada,1-604-532-9272,49.1182298,-122.6712692,-122.6712692,,0
City Centre Square,,307-20300 Fraser Hwy,,Langley,BC,V3A 4E6,Canada,,49.1049846,-122.659884,-122.659884,,0
,,1971 Lougheed Hwy,,Port Coquitlam,BC,V3B 1A6,Canada,,49.2645962,-122.7693289,-122.7693289,,0
Westgate Centre,,20398 Dewdney Rd #130-140-150,,Maple Ridge,BC,V2X 3E3,Canada,1-604-460-8765,49.2212782,-122.6552781,-122.6552781,,0
,,224 boul Frontenac Ouest,,Thetford Mines,QC,G6G 6N7,Canada,1-418-335-9107,46.1012894,-71.3164296,-71.3164296,,0
,,1803 St. Calixte,,Plessisville,QC,G6L 1R4,Canada,1-819-362-6496,46.2200098,-71.77049,-71.77049,,0
,,645 14ieme Avenue,,La Guadeloupe,QC,G0M 1G0,Canada,,45.9646202,-70.9394262,-70.9394262,,0
,,551 1ere Avenue,,Asbestos,QC,J1T 3Y3,Canada,,45.7701069,-71.9262167,-71.9262167,,0
,,5325 Rue Papineau,,Lac Megantic,QC,G6B 0C8,Canada,1-819-582-5111,45.5766833,-70.8839311,-70.8839311,,0
,,278 Route 138,,St-Augustin-de-Desmaures,QC,G3A 2C5,Canada,1-418-870-1624,46.7446400,-71.4547301,-71.4547301,,0
,,1515 Ave Saint-Jean_Baptiste,,Quebec,QC,G2E 5E2,Canada,,46.8019264,-71.3296226,-71.3296226,,0
Wetaskiwin Mall,,3725 56th Street,,Wetaskiwin,AB,T9A 2V6,Canada,1-780-352-6524,52.9559308,-113.3900775,-113.3900775,,0
Cornerstone Camrose,,7300 48th Ave,,Camrose,AB,T4V 4W2,Canada,1-780-672-6571,53.0180298,-112.8622927,-112.8622927,,0
Leduc Common,,5309 Discovery Way,,Leduc,AB,T9E 8N4,Canada,1-780-986-9666,53.2672714,-113.5681758,-113.5681758,,0
,,6102 50th Street,,Leduc,AB,T9E 7L2,Canada,1-780-986-1529,53.2745844,-113.5494307,-113.5494307,,0
,,100A-5700 50th Street,,Beaumont,AB,T4X 1M8,Canada,,53.3572401,-113.4153533,-113.4153533,,0
South Common,,1961 98th St. North West,,Edmonton,AB,T6N 1L5,Canada,1-780-701-0138,53.4495784,-113.4844364,-113.4844364,,0
Currents of Windermere,,6280 Currents Drive NW,,Edmonton,AB,T6W 0L8,Canada,1-780-481-8599,53.4355725,-113.5992911,-113.5992911,,0
,,5260 - 45 Street,,Lacombe,AB,T4L 2A1,Canada,1-403-786-1046,52.4683147,-113.7231902,-113.7231902,,0
The Market at Collingwood,,6655 178th St NW,,Edmonton,AB,T5T 4J5,Canada,1-780-486-7714,53.5010361,-113.6286174,-113.6286174,,0
West Edmonton Mall,,8882 170th St. Un M102,,Edmonton,AB,T5T 4J2,Canada,1-780-483-5902,53.5241571,-113.6155149,-113.6155149,,0
Lewis Estates,,1268 Webber Greens Dr N.W.,,Edmonton,AB,T5T 7C5,Canada,,53.5236598,-113.6681874,-113.6681874,,0
,,11807 48th Street Northwest,,Edmonton,AB,T5W 2Y4,Canada,1-780-477-2145,53.570603,-113.4153013,-113.4153013,,0
,,4269 Boul. St-Jean,,Dollard-des-Ormeaux,QC,H9G 2R4,Canada,,45.4792116,-73.840805,-73.840805,,0
,,11780 boul de Salaberry,,Dollard-des-Ormeaux,QC,H9B 2R8,Canada,514-684-0978,45.4844332,-73.8052701,-73.8052701,,0
,,4870 boul St-Charles,,Pierrefonds,QC,H9H 3E2,Canada,514-620-4054,45.4668291,-73.8742954,-73.8742954,,0
,,11829 boul de Pierrefonds,,Pierrefonds,QC,H9A 1A1,Canada,514-683-1772,45.5055364,-73.8227571,-73.8227571,,0
,,367 Arthur-Sauvé,,St-Eustache,QC,J7P 2B1,Canada,450-491-1226,45.5623226,-73.9010852,-73.9010852,,0
,,2595 boul. Daniel-Johnson,,Laval,QC,H7T 1S8,Canada,450-978-5376,45.5703220,-73.7584688,-73.7584688,,0
,,6235 Boul. des Laurentides,,Laval,QC,H7H 2V3,Canada,,45.553678,-73.7267771,-73.7267771,,0
,,1971 Lougheed Hwy,,Port Coquitlam,BC,V3B 1A6,Canada,,49.2645962,-122.7693289,-122.7693289,,0
,,1301 Lougheed Hwy,,Coquitlam,BC,V3K 6P9,Canada,,49.2355449,-122.8562409,-122.8562409,,0
,,1341 Main Street,,North Vancouver,BC,V7J 1C4,Canada,1-604-924-5061,49.3062906,-123.0368766,-123.0368766,,0
,,5665 Kingsway,,Burnaby,BC,V5H 2G4,Canada,1-604-437-5784,49.2227533,-122.9810295,-122.9810295,,0
,,2201 Kingsway,,Vancouver,BC,V5N 2T6,Canada,1-604-430-1508,49.2436315,-123.0613413,-123.0613413,,0
,,1345 Marine Drive,,North-Vancouver,BC,V7P 3E5,Canada,1-604-980-0152,49.3238031,-123.1120481,-123.1120481,,0
Sierra Springs,,2781 Main Street SW,,Airdrie,AB,T4B 3S6,Canada,1-587-775-1703,51.2662533,-114.0069693,-114.0069693,,0
,,5017 17th Avenue S.E,,Calgary,AB,T2A 0V5,Canada,,51.0378357,-113.9628277,-113.9628277,,0
Towerlane Mall,,505 Main St SW,,Airdrie,AB,T4B 3K3,Canada,1-403-945-0778,51.2878635,-114.0134409,-114.0134409,,0
,,24-7400 Macleod Trail S.E.,,Calgary,AB,T2H 0L9,Canada,,50.9869712,-114.0708237,-114.0708237,,0
,,8802 100th Street,,Fort Saskatchewan,AB,T8L 4R2,Canada,1-780-992-2269,53.6993107,-113.2069255,-113.2069255,,0
Sunrise Towne Square,,187 Highway 16A,,Spruce Grove,AB,T7X 4P9,Canada,1-780-960-8455,53.5414145,-113.9273033,-113.9273033,,0
,,11807 48th Street Northwest,,Edmonton,AB,T5W 2Y4,Canada,1-780-477-2145,53.570603,-113.4153013,-113.4153013,,0
Place d';Embrun,,767 Notre-Dame St.,,Embrun,ON,K0A 1W1,Canada,1-613-443-2648,45.2675049,-75.3013534,-75.3013534,,0
Centre Casselman,,98 Lafleche blvd.,,Casselman,ON,K0A 1M0,Canada,1-613-764-3258,45.3063818,-75.0824344,-75.0824344,,0
,,3000 Richelieu St,,Clarence-Rockland,ON,K4K 0B5,Canada,1-613-446-0778,45.5340362,-75.3044499,-75.3044499,,0
,,255 Elgin St,,Ottawa,ON,K2P 1L8,Canada,1-613-288-0046,45.4183060,-75.6907068,-75.6907068,,0
,,183 Rideau Street,,Ottawa,ON,K1N 5X8,Canada,1-613-288-1364,45.4275205,-75.6891026,-75.6891026,,0
Kemptville Colonnade,,371 Ryans Well Way Suite 100,,Kemptville,ON,K0G 1J0,Canada,1-613-258-3470,45.0163884,-75.6459470,-75.6459470,,0
,,1050 Somerset Street West,,Ottawa,ON,K1Y 3C5,Canada,1-613-688-0192,45.4068255,-75.7193101,-75.7193101,,0
,,730 Yonge Street,,Toronto,ON,M4Y 2B7,Canada,1-416-924-1064,43.6687869,-79.3861823,-79.3861823,,0
,,425 Parliament Street,,Toronto,ON,M5A 3A1,Canada,1-416-944-0536,43.662705,-79.3671563,-79.3671563,,0
,,685 Danforth Ave,,Toronto,ON,M4J 1L2,Canada,,43.6790234,-79.3441714,-79.3441714,,0
,,1531 Bayview Ave.,,Toronto,ON,M4G 3B5,Canada,1-416-932-6897,43.7047510,-79.3746454,-79.3746454,,0
,,149 Sherbourne Street,,Toronto,ON,M5A 2R5,Canada,1-416-363-9194,43.6557531,-79.3699096,-79.3699096,,0
,,772 Queen Street East,,Toronto,ON,M4M 1H4,Canada,,43.6595219,-79.3476295,-79.3476295,,0
,,226 Front Street East,,Toronto,ON,M5A 1T8,Canada,1-416-640-0102,43.6511556,-79.3645785,-79.3645785,,0
,,512 Bloor St. West,,Toronto,ON,M5S 1Y3,Canada,1-416-531-2255,43.6653497,-79.4106041,-79.4106041,,0
,,293 Coxwell Ave,,Toronto,ON,M4L 3B5,Canada,1-416-645-0226,43.6739548,-79.3197073,-79.3197073,,0
,,590 King Street West,,Toronto,ON,M5V 1M3,Canada,1-416-640-0227,43.6446396,-79.3996196,-79.3996196,,0
,,2064 Danforth Ave,,Toronto,ON,M4C 1J6,Canada,1-416-421-9112,43.6855721,-79.3132455,-79.3132455,,0
,,1220 Dundas Street West,,Toronto,ON,M6J 1X5,Canada,1-416-588-7511,43.6494143,-79.4231381,-79.4231381,,0
,,800 Lansdowne Ave.,,Toronto,ON,M6H 4K3,Canada,1-416-649-0023,43.6652235,-79.4459654,-79.4459654,,0
,,2388 Dufferin Street,,Toronto,ON,M6E 3S6,Canada,1-416-782-2963,43.6963808,-79.4508063,-79.4508063,,0
Shoppers World Danforth,,3003 Danforth Avenue,,Toronto,ON,M4C 1M9,Canada,1-416-691-7607,43.6908418,-79.2900836,-79.2900836,,0
,,1337 Queen Street West,,Toronto,ON,M6K 1L8,Canada,1-416-531-4809,43.6410923,-79.4340818,-79.4340818,,0
,,392 rue des Saguenéens,,Chicoutimi,QC,G7H 5S5,Canada,1-418-543-4092,48.4025996,-71.0594342,-71.0594342,,0
,,68 est rue Racine,,Chicoutimi,QC,G7H 1P6,Canada,1-418-543-7375,48.4278758,-71.0663681,-71.0663681,,0
Les Galeries Trois-Pistoles,,634 rue Richard,,Trois-Pistoles,QC,G0L 4K0,Canada,1-888-924-5559,48.1217702,-69.1643039,-69.1643039,,0
,,15020 Boul. Henri-Bourassa,,Quebec,QC,G1G 3Z3,Canada,,46.8816739,-71.287392,-71.287392,,0
,,749 rue Clemenceau,,Beauport,QC,G1C 7T9,Canada,1-418-661-6722,46.8707154,-71.2020240,-71.2020240,,0
Tamarack Centre,,1500 Cranbrook St N,,Cranbrook,BC,V1C 3S8,Canada,1-250-489-8055,49.5288891,-115.7485493,-115.7485493,,0
Columbia Plaza,,1502 Columbia Ave,,Castlegar,BC,V1N 4G5,Canada,1-250-365-0852,49.3063739,-117.6585787,-117.6585787,,0
Waneta Plaza,,8100 Highway 3 B,,Trail,BC,V1R 4N7,Canada,1-250-368-4761,49.0978784,-117.6725296,-117.6725296,,0
Medicine Tree Mall,,1103 18th Street South East,,High River,AB,T1V 2A9,Canada,,50.5727526,-113.8421703,-113.8421703,,0
Southbank Centre,,105 Southbank Blvd,,Okotoks,AB,T1S 0G1,Canada,1-403-938-1266,50.7048895,-113.9487838,-113.9487838,,0
The Quarry,,40 Quarry Street East,,Cochrane,AB,T4C 0W6,Canada,,51.1846128,-114.4720658,-114.4720658,,0
,,24-7400 Macleod Trail S.E.,,Calgary,AB,T2H 0L9,Canada,,50.9869712,-114.0708237,-114.0708237,,0
,,5017 17th Avenue S.E,,Calgary,AB,T2A 0V5,Canada,,51.0378357,-113.9628277,-113.9628277,,0
,,9751 Bridgeport Rd,,Richmond,BC,V6X 1S3,Canada,1-604-233-1045,49.1920966,-123.1160495,-123.1160495,,0
,,1450 Marine Drive SW,,Vancouver,BC,V6P 5Z9,Canada,1-604-261-0619,49.2045466,-123.1394970,-123.1394970,,0
,,2201 Kingsway,,Vancouver,BC,V5N 2T6,Canada,1-604-430-1508,49.2436315,-123.0613413,-123.0613413,,0
,,5665 Kingsway,,Burnaby,BC,V5H 2G4,Canada,1-604-437-5784,49.2227533,-122.9810295,-122.9810295,,0
,,1341 Main Street,,North Vancouver,BC,V7J 1C4,Canada,1-604-924-5061,49.3062906,-123.0368766,-123.0368766,,0
,,1345 Marine Drive,,North-Vancouver,BC,V7P 3E5,Canada,1-604-980-0152,49.3238031,-123.1120481,-123.1120481,,0
,,1301 Lougheed Hwy,,Coquitlam,BC,V3K 6P9,Canada,,49.2355449,-122.8562409,-122.8562409,,0
Milton Common Shopping Centre,,B-10-1-890 Main Street East,,Milton,ON,L9T 0J4,Canada,1-905-636-7995,43.5280120,-79.8669291,-79.8669291,,0
,,22565 Lougheed Hwy,,Maple Ridge,BC,V2X 2V2,Canada,1-604-467-0463,49.2171258,-122.5969061,-122.5969061,,0
Murrayville Square,,22259 48th Avenue,,Langley,BC,V3A 3Z7,Canada,1-604-629-0028,49.0896917,-122.6073055,-122.6073055,,0
Aldergrove Centre Mall,,3100 272nd St.,,Aldergrove,BC,V4W 3N7,Canada,1-604-607-0653,49.0603865,-122.4705973,-122.4705973,,0
,,1971 Lougheed Hwy,,Port Coquitlam,BC,V3B 1A6,Canada,,49.2645962,-122.7693289,-122.7693289,,0
,,31956 Lougheed Hwy,,Mission,BC,V2V 0C6,Canada,1-604-826-6731,49.1331627,-122.339831,-122.339831,,0
,,1301 Lougheed Hwy,,Coquitlam,BC,V3K 6P9,Canada,,49.2355449,-122.8562409,-122.8562409,,0
Meadow Fair Mall,,31940 South Fraser Way,,Abbotsford,BC,V2T 1V6,Canada,1-604-855-5167,49.0489441,-122.3391665,-122.3391665,,0
South Fraser Way S.C.,,32465 South Fraser Way,,Abbotsford,BC,V2T 1X4,Canada,1-604-504-0039,49.0515721,-122.3246472,-122.3246472,,0
,,2836 rue Masson,,Montréal,QC,H1Y 1W7,Canada,514-524-4232,45.5474051,-73.57516,-73.57516,,0
,,2635 rue Bélanger,,Montréal,QC,H1Y 1A5,Canada,514-727-9700,45.5542,-73.597243,-73.597243,,0
,,3912 rue Ontario Est,,Montréal,QC,H1W 1S6,Canada,514-527-2075,45.5484151,-73.5421532,-73.5421532,,0
,,3510 est rue Ontario,,Montréal,QC,H1W 1R2,Canada,514-529-8933,45.5439037,-73.5444922,-73.5444922,,0
,,1665 est avenue Mont-Royal,,Montréal,QC,H2J 1Z6,Canada,514-598-7519,45.5325125,-73.5752469,-73.5752469,,0
,,7017 Rue Saint-Hubert,,Montreal,QC,H2S 2N1,Canada,514-277-0343,45.5397405,-73.6111385,-73.6111385,,0
,,8520 Boul. Lacordaire,,Saint-Leonard,QC,H1R 2A5,Canada,,45.5886136,-73.5980189,-73.5980189,,0
,,911 rue Ste-Catherine Est,,Montréal,QC,H2L 2E5,Canada,514-849-2786,45.5166508,-73.5580163,-73.5580163,,0
,,5632 Avenue du Parc,,Montréal,QC,H2V 4H1,Canada,514-273-8054,45.5227102,-73.6037042,-73.6037042,,0
,,3817 boul. St-Laurent,,Montréal,QC,H2W 1X9,Canada,514-845-4159,45.5156759,-73.576207,-73.576207,,0
,,8114 rue St-Denis,,Montréal,QC,H2P 2G6,Canada,514-383-0241,45.542494,-73.629633,-73.629633,,0
,,6560 boul. Joseph Renaud,,Anjou,QC,H1K 3V4,Canada,514-352-3150,45.6052125,-73.552515,-73.552515,,0
,,30 Plaza Ave,,Saint John,NB,E2M 0C3,Canada,1-506-674-1687,45.2483627,-66.1018893,-66.1018893,,0
,,77 Marr Road,,Rothesay,NB,E2E 3J9,Canada,,45.3901212,-65.9682755,-65.9682755,,0
,,3650 Hammonds Plains rd,,Upper Tantallon,NS,B3Z 4R3,Canada,,44.7038934,-63.8581074,-63.8581074,,0
,,11780 boul de Salaberry,,Dollard-des-Ormeaux,QC,H9B 2R8,Canada,514-684-0978,45.4844332,-73.8052701,-73.8052701,,0
,,11829 boul de Pierrefonds,,Pierrefonds,QC,H9A 1A1,Canada,514-683-1772,45.5055364,-73.8227571,-73.8227571,,0
,,4269 Boul. St-Jean,,Dollard-des-Ormeaux,QC,H9G 2R4,Canada,,45.4792116,-73.840805,-73.840805,,0
,,6235 Boul. des Laurentides,,Laval,QC,H7H 2V3,Canada,,45.553678,-73.7267771,-73.7267771,,0
,,6495 Somerled Ave,,Montréal,QC,H4V 1S6,Canada,514-487-6145,45.4681439,-73.6382836,-73.6382836,,0
,,5858 Cote-des-Neiges,,Montreal,QC,H3S 1Z1,Canada,514-904-0721,45.4995227,-73.6300231,-73.6300231,,0
,,1990 Dundas Street,,London,ON,N5V 3Z1,Canada,1-519-659-5924,43.0063990,-81.1702646,-81.1702646,,0
,,141 Dundas Street,,London,ON,N6A 1G3,Canada,1-519-679-4162,42.9834678,-81.2503208,-81.2503208,,0
,,911 Southdale road west,,London,ON,N6P 0B3,Canada,1-519-652-5388,42.9366774,-81.3147429,-81.3147429,,0
,,110 Oxford Street,,Ingersoll,ON,N5C 2V5,Canada,1-519-425-4103,43.0387958,-80.8843180,-80.8843180,,0
,,588 Queen Street East,,St. Marys,ON,N4X 1B5,Canada,,43.2611965,-81.1256635,-81.1256635,,0
,,415 Norwich Ave,,Woodstock,ON,N4S 3W4,Canada,1-519-539-4545,43.1183552,-80.7387461,-80.7387461,,0
Maple Park Mall,,2222 Maple Drive,,Quesnel,BC,V2J 5B7,Canada,1-250-747-3057,52.9645825,-122.4453175,-122.4453175,,0
Boitanio Mall,,850 Oliver St,,Williams Lake,BC,V2G 3W1,Canada,1-250-392-9566,52.1282773,-122.1372854,-122.1372854,,0
Prosperity Ridge Shopping Centre,,1185 Prosperity Way,,Williams Lake,BC,V2G 0A6,Canada,1-250-392-6752,52.1142054,-122.1255109,-122.1255109,,0
,,5999 Southridge Ave.,,Prince George,BC,V2N 6Z4,Canada,,53.8620868,-122.7837355,-122.7837355,,0
Pine Centre,,3055 Massey Drive,,Prince George,BC,V2N 2S9,Canada,1-250-562-6150,53.9003945,-122.7775806,-122.7775806,,0
Spruceland Shopping Centre,,777 Central St West,,Prince George,BC,V2M 3C6,Canada,1-250-562-3528,53.9192485,-122.7822073,-122.7822073,,0
Westsyde Shopping Centre,,15-3435 Westsyde Road,,Kamloops,BC,V2B 7H1,Canada,,50.7714324,-120.3425955,-120.3425955,,0
Fortune Shopping Centre,,750 Fortune Drive,,Kamloops,BC,V2B 2L2,Canada,1-250-376-2584,50.7002202,-120.3612797,-120.3612797,,0
Lansdowne Village,,450 Lansdowne St,,Kamloops,BC,V2C 1Y3,Canada,1-250-372-0810,50.6766740,-120.3270538,-120.3270538,,0
Parkwest Mall,,900 Carmichael Lane,,Hinton,AB,T7V 1Y6,Canada,1-780-865-2235,53.3884610,-117.6266340,-117.6266340,,0
,,2780 Forksdale Avenue,,Merritt,BC,V1K 1P8,Canada,,50.1218728,-120.7637997,-120.7637997,,0
Dawson Mall,,11000 8th Street,,Dawson Creek,BC,V1G 4K6,Canada,1-250-782-3504,55.7506696,-120.2246713,-120.2246713,,0
Centre 100 Plaza,,11012 100 street,,Grande Prairie,AB,T8V 2N1,Canada,1-587-259-1049,55.1805003,-118.7951468,-118.7951468,,0
Prairie Mall,,11801 100 ST,,Grande Prairie,AB,T8V 3Y2,Canada,1-587-259-2207,55.1877954,-118.793796,-118.793796,,0
City View Shopping Centre,,1801 Princeton Kamloops,,Kamloops,BC,V2E 2J7,Canada,1-250-374-9872,50.0320427,-120.6273493,-120.6273493,,0
Garibaldi Village Shopping Centre,,40198 Glenalder Place,,Squamish,BC,V8B 0G2,Canada,1-604-898-1935,49.7373126,-123.1332416,-123.1332416,,0
Vernon Square Center,,4400 - 32 Street,,Vernon,BC,V1T 9H2,Canada,1-250-260-1365,50.2820132,-119.2773114,-119.2773114,,0
Polson Place Mall,,2306 Highway #6,,Vernon,BC,V1T 7E3,Canada,1-250-541-0079,50.258005,-119.2673575,-119.2673575,,0
Powell River Town Centre,,4730 Joyce Avenue,,Powell River,BC,V8A 3B6,Canada,1-604-485-5926,49.8439517,-124.5206991,-124.5206991,,0
Totem Mall,,9600 93 Ave,,Fort St. John,BC,V1J 5Z2,Canada,1-250-261-5384,56.2391016,-120.8436445,-120.8436445,,0
Campbell River Common,,1350 Ironwood St,,Campbell River,BC,V9W 5T5,Canada,1-250-286-6461,50.0281298,-125.2548564,-125.2548564,,0
Okanagan Lake Shopping Centre,,525 Highway 97 South,,Kelowna,BC,V1Z 4C9,Canada,1-250-769-0286,49.878571,-119.5386825,-119.5386825,,0
Bearing Road West Kelowna,,700-2330 Highway 97 South,,West Kelowna,BC,V4T 2P4,Canada,,49.8478373,-119.6001911,-119.6001911,,0
,,2013 Lawrence Ave West,,Toronto,ON,M9N 0A3,Canada,1-416-246-9839,43.7005080,-79.5144753,-79.5144753,,0
,,1591 Wilson Ave,,Toronto,ON,M3L 1A5,Canada,1-416-645-0408,43.7206737,-79.5099257,-79.5099257,,0
,,1475 Dundas Street East,,Mississauga,ON,L4X 1L3,Canada,1-905-624-0032,43.6112929,-79.5816206,-79.5816206,,0
,,1000 Islington Avenue,,Toronto,ON,M8Z 4P8,Canada,1-416-503-4173,43.6308114,-79.5177408,-79.5177408,,0
,,2561 St Clair Ave W,,Toronto,ON,M6N 4Z5,Canada,1-416-645-0336,43.6686587,-79.4849920,-79.4849920,,0
410 & 7th Shopping Centre,,150 West Dr.,,Brampton,ON,L6T 4P9,Canada,1-905-457-5245,43.7057790,-79.7355510,-79.7355510,,0
,,7070 St Barbara,,Mississauga,ON,L5W 0E6,Canada,1-905-362-1261,43.6413068,-79.7161123,-79.7161123,,0
,,1341 Main Street,,North Vancouver,BC,V7J 1C4,Canada,1-604-924-5061,49.3062906,-123.0368766,-123.0368766,,0
,,2201 Kingsway,,Vancouver,BC,V5N 2T6,Canada,1-604-430-1508,49.2436315,-123.0613413,-123.0613413,,0
,,1345 Marine Drive,,North-Vancouver,BC,V7P 3E5,Canada,1-604-980-0152,49.3238031,-123.1120481,-123.1120481,,0
,,5665 Kingsway,,Burnaby,BC,V5H 2G4,Canada,1-604-437-5784,49.2227533,-122.9810295,-122.9810295,,0
,,1450 Marine Drive SW,,Vancouver,BC,V6P 5Z9,Canada,1-604-261-0619,49.2045466,-123.1394970,-123.1394970,,0
,,9751 Bridgeport Rd,,Richmond,BC,V6X 1S3,Canada,1-604-233-1045,49.1920966,-123.1160495,-123.1160495,,0
,,1301 Lougheed Hwy,,Coquitlam,BC,V3K 6P9,Canada,,49.2355449,-122.8562409,-122.8562409,,0
,,1971 Lougheed Hwy,,Port Coquitlam,BC,V3B 1A6,Canada,,49.2645962,-122.7693289,-122.7693289,,0
Cottonwood Corners Shopping Centre,,45585 Luckakuck Way,,Chilliwack,BC,V2R 1A1,Canada,1-604-858-7981,49.1408558,-121.9622845,-121.9622845,,0
,,34252 Marshall Rd,,Abbotsford,BC,V2S 1L9,Canada,1-604-852-3580,49.0381370,-122.2753657,-122.2753657,,0
,,33710 Essendene Ave,,Abbotsford,BC,V2S 2G9,Canada,,49.0488341,-122.2913746,-122.2913746,,0
,,31956 Lougheed Hwy,,Mission,BC,V2V 0C6,Canada,1-604-826-6731,49.1331627,-122.339831,-122.339831,,0
,,22565 Lougheed Hwy,,Maple Ridge,BC,V2X 2V2,Canada,1-604-467-0463,49.2171258,-122.5969061,-122.5969061,,0
,,1971 Lougheed Hwy,,Port Coquitlam,BC,V3B 1A6,Canada,,49.2645962,-122.7693289,-122.7693289,,0
,,1301 Lougheed Hwy,,Coquitlam,BC,V3K 6P9,Canada,,49.2355449,-122.8562409,-122.8562409,,0
,,168 boul. Ste-Anne,,Ste-Anne-des-Plaines,QC,J0N 1H0,Canada,450-838-6551,45.7609227,-73.8135847,-73.8135847,,0
Place Major,,5333 boul. Laurier,,La Plaine,QC,J7M 1W1,Canada,450-477-3434,45.7532599,-73.7087503,-73.7087503,,0
,,2735 Boul. de la Pinière,,Terrebonne,QC,J6X 0G3,Canada,,45.7181014,-73.6950618,-73.6950618,,0
Centre L';Esplanade,,2232 Chemin Gascon,,Terrebonne,QC,J6X 3A1,Canada,450-961-3489,45.7231392,-73.6640383,-73.6640383,,0
,,1133 Rang Saint-Francois,,Terrebonne,QC,J6Y 0C7,Canada,1-450-435-0512,45.6894583,-73.7820453,-73.7820453,,0
,,163 Montée Masson,,Mascouche,QC,J7K 3B4,Canada,450-474-8722,45.7242749,-73.6151515,-73.6151515,,0
Marche Saint-Antoine,,1432 Boul. Saint-Antoine,,Saint-Jerome,QC,J7Z 7M2,Canada,,45.7703225,-73.9731326,-73.9731326,,0
,,1350 boul. Moody,,Terrebonne,QC,J6W 3K9,Canada,450-492-1374,45.7044925,-73.6495588,-73.6495588,,0
Centre d';Achats St-Jérome,,1950 rue Labelle,,St-Jérome,QC,J7Y 1S1,Canada,1-450-432-5624,45.7944614,-74.0104589,-74.0104589,,0
Carrefour du Nord,,900 boul. Grignon,,St-Jérome,QC,J7Y 3S1,Canada,1-450-438-1294,45.7939258,-74.0181148,-74.0181148,,0
,,13312 Boul du Curé-Labelle,,Mirabel,QC,J7J 1G9,Canada,450-434-7171,45.6983036,-73.9186658,-73.9186658,,0
,,3593 rue Queen,,Rawdon,QC,J0K 1S0,Canada,450-834-3862,46.0412546,-73.7054156,-73.7054156,,0
,,1042 boul du Grand-Heron,,St-Jérome,QC,J7Y 5K8,Canada,1-450-431-4005,45.7603601,-74.0193955,-74.0193955,,0
Promenade St-François,,600 Montée du Moulin,,Laval,QC,H7A 1Z6,Canada,450-665-1475,45.6690618,-73.576594,-73.576594,,0
,,262 Montée des Pionniers,,Terrebonne,QC,J6V 1S6,Canada,450-581-4746,45.7107903,-73.5120967,-73.5120967,,0
,,5845 boul. Robert Bourassa,,Laval,QC,H7E 0A4,Canada,450-661-4038,45.6131256,-73.6967470,-73.6967470,,0
,,2077 boul. des Laurentides,,Laval,QC,H7M 4M2,Canada,450-967-7929,45.6073524,-73.7330562,-73.7330562,,0
,,2 Hardy Ave.,,Grand Falls-Windsor,NL,A2A 2P9,Canada,1-709-489-9030,48.9535949,-55.6217775,-55.6217775,,0
,,94 Main St,,Stephenville,NL,A2N 1J3,Canada,1-709-643-3778,48.5486255,-58.5794264,-58.5794264,,0
,,680 Kennedy Road,,Toronto,ON,M1K 2B5,Canada,1-416-261-9685,43.7270801,-79.2657709,-79.2657709,,0
,,2480 Eglinton Avenue East,,Scarborough,ON,M1K 2R4,Canada,1-416-264-0759,43.7343046,-79.2594502,-79.2594502,,0
,,1450 Kingston Road,,Toronto,ON,M1N 1R6,Canada,1-416-698-9003,43.6878842,-79.2707696,-79.2707696,,0
,,3809 Sheppard Ave.,,Toronto,ON,M1T 3L5,Canada,1-416-609-1089,43.7820089,-79.2925448,-79.2925448,,0
,,2064 Danforth Ave,,Toronto,ON,M4C 1J6,Canada,1-416-421-9112,43.6855721,-79.3132455,-79.3132455,,0
,,293 Coxwell Ave,,Toronto,ON,M4L 3B5,Canada,1-416-645-0226,43.6739548,-79.3197073,-79.3197073,,0
,,2635 rue Bélanger,,Montréal,QC,H1Y 1A5,Canada,514-727-9700,45.5542,-73.597243,-73.597243,,0
,,2836 rue Masson,,Montréal,QC,H1Y 1W7,Canada,514-524-4232,45.5474051,-73.57516,-73.57516,,0
,,7017 Rue Saint-Hubert,,Montreal,QC,H2S 2N1,Canada,514-277-0343,45.5397405,-73.6111385,-73.6111385,,0
,,1665 est avenue Mont-Royal,,Montréal,QC,H2J 1Z6,Canada,514-598-7519,45.5325125,-73.5752469,-73.5752469,,0
,,5632 Avenue du Parc,,Montréal,QC,H2V 4H1,Canada,514-273-8054,45.5227102,-73.6037042,-73.6037042,,0
,,8114 rue St-Denis,,Montréal,QC,H2P 2G6,Canada,514-383-0241,45.542494,-73.629633,-73.629633,,0
,,3817 boul. St-Laurent,,Montréal,QC,H2W 1X9,Canada,514-845-4159,45.5156759,-73.576207,-73.576207,,0
,,3510 est rue Ontario,,Montréal,QC,H1W 1R2,Canada,514-529-8933,45.5439037,-73.5444922,-73.5444922,,0
,,3912 rue Ontario Est,,Montréal,QC,H1W 1S6,Canada,514-527-2075,45.5484151,-73.5421532,-73.5421532,,0
,,911 rue Ste-Catherine Est,,Montréal,QC,H2L 2E5,Canada,514-849-2786,45.5166508,-73.5580163,-73.5580163,,0
,,486 Sainte-Catherine Ouest,,Montreal,QC,H3B 1A6,Canada,,45.5044145,-73.5680472,-73.5680472,,0
,,8520 Boul. Lacordaire,,Saint-Leonard,QC,H1R 2A5,Canada,,45.5886136,-73.5980189,-73.5980189,,0
,,1780 Rue Fleury est,,Montreal,QC,H2C 1T4,Canada,514-904-0411,45.5674212,-73.6536374,-73.6536374,,0
Driftwood Mall,,2751 Cliffe Ave,,Courtenay,BC,V9N 2L8,Canada,1-250-331-9534,49.6740247,-124.9814000,-124.9814000,,0
Crown Isle,,444 Lerwick Road,,Courtenay,BC,V9N 0A9,Canada,,49.7095728,-124.964632,-124.964632,,0
Pacific Rim Shopping Centre,,3555 Johnston Rd,,Port Alberni,BC,V9Y 8K2,Canada,1-250-723-1754,49.2661579,-124.7852826,-124.7852826,,0
Terminal Park Plaza,,1150 Terminal Ave N,,Nanaimo,BC,V9S 5L6,Canada,1-250-714-0739,49.1836793,-123.9540933,-123.9540933,,0
,,648 Terminal ave.,,Nanaimo,BC,V9R 5E2,Canada,,49.1640647,-123.9352883,-123.9352883,,0
Coronation Mall,,7-361 Trans Canada Highway,,Duncan,BC,V9L 3R5,Canada,,48.7782526,-123.7004487,-123.7004487,,0
,,1345 Marine Drive,,North-Vancouver,BC,V7P 3E5,Canada,1-604-980-0152,49.3238031,-123.1120481,-123.1120481,,0
,,1450 Marine Drive SW,,Vancouver,BC,V6P 5Z9,Canada,1-604-261-0619,49.2045466,-123.1394970,-123.1394970,,0
,,9751 Bridgeport Rd,,Richmond,BC,V6X 1S3,Canada,1-604-233-1045,49.1920966,-123.1160495,-123.1160495,,0
,,1341 Main Street,,North Vancouver,BC,V7J 1C4,Canada,1-604-924-5061,49.3062906,-123.0368766,-123.0368766,,0
,,2201 Kingsway,,Vancouver,BC,V5N 2T6,Canada,1-604-430-1508,49.2436315,-123.0613413,-123.0613413,,0
,,5665 Kingsway,,Burnaby,BC,V5H 2G4,Canada,1-604-437-5784,49.2227533,-122.9810295,-122.9810295,,0
,,1971 Lougheed Hwy,,Port Coquitlam,BC,V3B 1A6,Canada,,49.2645962,-122.7693289,-122.7693289,,0
,,1301 Lougheed Hwy,,Coquitlam,BC,V3K 6P9,Canada,,49.2355449,-122.8562409,-122.8562409,,0
,,22565 Lougheed Hwy,,Maple Ridge,BC,V2X 2V2,Canada,1-604-467-0463,49.2171258,-122.5969061,-122.5969061,,0
,,5665 Kingsway,,Burnaby,BC,V5H 2G4,Canada,1-604-437-5784,49.2227533,-122.9810295,-122.9810295,,0
,,1341 Main Street,,North Vancouver,BC,V7J 1C4,Canada,1-604-924-5061,49.3062906,-123.0368766,-123.0368766,,0
,,2201 Kingsway,,Vancouver,BC,V5N 2T6,Canada,1-604-430-1508,49.2436315,-123.0613413,-123.0613413,,0
Smart Centre Go Lands,,3136 Argentina Road,,Mississauga,ON,L5N 0B1,Canada,1-905-824-0212,43.5931162,-79.7865075,-79.7865075,,0
,,7070 St Barbara,,Mississauga,ON,L5W 0E6,Canada,1-905-362-1261,43.6413068,-79.7161123,-79.7161123,,0
,,93 Dundas Street East,,Mississauga,ON,L5A 1W7,Canada,1-905-281-9895,43.5819695,-79.6145460,-79.6145460,,0
,,1475 Dundas Street East,,Mississauga,ON,L4X 1L3,Canada,1-905-624-0032,43.6112929,-79.5816206,-79.5816206,,0
Credit Ridge Common,,9465 Mississauga Road,,Brampton,ON,L6X 0Z8,Canada,1-905-457-9626,43.6547534,-79.8129683,-79.8129683,,0
,,1074 St. Mary';s Road,,Winnipeg,MB,R2M 3T3,Canada,1-204-237-7752,49.8363776,-97.1130406,-97.1130406,,0
,,230 Osborne Avenue,,Winnipeg,MB,R3L 1Z5,Canada,1-204-284-7466,49.8754849,-97.1427337,-97.1427337,,0
,,259 Marion Street,,Winnipeg,MB,R2H 0T8,Canada,1-204-231-5038,49.8817085,-97.1161418,-97.1161418,,0
,,295 Portage Avenue,,Winnipeg,MB,R3B 2B4,Canada,1-204-949-1525,49.8939263,-97.1430907,-97.1430907,,0
,,1589 Kenaston Blvd,,Winnipeg,MB,R3P 2N3,Canada,,49.8264375,-97.2046005,-97.2046005,,0
,,1300 Ellice Ave,,Winnipeg,MB,R3G 0E9,Canada,1-204-774-0536,49.8927556,-97.1919917,-97.1919917,,0
,,1114 Main Street,,Winnipeg,MB,R2W 3S2,Canada,1-204-582-3411,49.9173296,-97.1311755,-97.1311755,,0
,,1100 Concordia Ave.,,Winnipeg,MB,R2K 4B8,Canada,1-204-661-2915,49.9120891,-97.0642509,-97.0642509,,0
,,2360 Main Street,,Winnipeg,MB,R2V 4H7,Canada,,49.9536793,-97.1004701,-97.1004701,,0
Les Galeries Baie Comeau,,300 boul. Lasalle,,Baie-Comeau,QC,G4Z 2K2,Canada,1-418-294-4426,49.2140542,-68.1893109,-68.1893109,,0
Galeries des Iles,,8 boul. des Iles,,Port-Cartier,QC,G5B 2J4,Canada,1-418-766-4192,50.0210255,-66.8779383,-66.8779383,,0
Les Galeries Montagnaise,,1005 boul. Laure,,Sept-Iles,QC,G4R 4S6,Canada,1-418-968-3767,50.2284785,-66.3917877,-66.3917877,,0
Galeries Mont Joli,,1760 boul. Gaboury,,Mont-Joli,QC,G5H 3J2,Canada,1-418-775-9571,48.5807866,-68.1864594,-68.1864594,,0
Carrefour Rimouski,,419 boulevard Jessop,,Rimouski,QC,G5L 7Y5,Canada,1-418-721-2324,48.4679861,-68.5157411,-68.5157411,,0
,,396 boul. Jessop,,Rimouski,QC,G5L 1N1,Canada,1-418-721-6440,48.4660836,-68.5170137,-68.5170137,,0
,,383 Montée Ind et Commerciale,,Rimouski,QC,G5M 1Y1,Canada,1-418-724-4194,48.4567049,-68.4974042,-68.4974042,,0
,,68 est rue Racine,,Chicoutimi,QC,G7H 1P6,Canada,1-418-543-7375,48.4278758,-71.0663681,-71.0663681,,0
,,392 rue des Saguenéens,,Chicoutimi,QC,G7H 5S5,Canada,1-418-543-4092,48.4025996,-71.0594342,-71.0594342,,0
,,11807 48th Street Northwest,,Edmonton,AB,T5W 2Y4,Canada,1-780-477-2145,53.570603,-113.4153013,-113.4153013,,0
,,11807 48th Street Northwest,,Edmonton,AB,T5W 2Y4,Canada,1-780-477-2145,53.570603,-113.4153013,-113.4153013,,0
,,100A-5700 50th Street,,Beaumont,AB,T4X 1M8,Canada,,53.3572401,-113.4153533,-113.4153533,,0
,,9751 Bridgeport Rd,,Richmond,BC,V6X 1S3,Canada,1-604-233-1045,49.1920966,-123.1160495,-123.1160495,,0
,,5665 Kingsway,,Burnaby,BC,V5H 2G4,Canada,1-604-437-5784,49.2227533,-122.9810295,-122.9810295,,0
,,2201 Kingsway,,Vancouver,BC,V5N 2T6,Canada,1-604-430-1508,49.2436315,-123.0613413,-123.0613413,,0
,,1450 Marine Drive SW,,Vancouver,BC,V6P 5Z9,Canada,1-604-261-0619,49.2045466,-123.1394970,-123.1394970,,0
,,1341 Main Street,,North Vancouver,BC,V7J 1C4,Canada,1-604-924-5061,49.3062906,-123.0368766,-123.0368766,,0
,,1301 Lougheed Hwy,,Coquitlam,BC,V3K 6P9,Canada,,49.2355449,-122.8562409,-122.8562409,,0
,,1345 Marine Drive,,North-Vancouver,BC,V7P 3E5,Canada,1-604-980-0152,49.3238031,-123.1120481,-123.1120481,,0
,,77 Marr Road,,Rothesay,NB,E2E 3J9,Canada,,45.3901212,-65.9682755,-65.9682755,,0
,,30 Plaza Ave,,Saint John,NB,E2M 0C3,Canada,1-506-674-1687,45.2483627,-66.1018893,-66.1018893,,0
,,5 Trinity Ave,,Fredericton,NB,E3C 0B7,Canada,1-506-472-9742,45.9312969,-66.6615878,-66.6615878,,0
,,11 Victoria Street,,Shediac,NB,E4P 8T6,Canada,1-506-533-9419,46.2191340,-64.5416686,-64.5416686,,0
,,42 Pinebush Rd,,Cambridge,ON,N1R 8K5,Canada,1-519-629-0254,43.4087562,-80.3243423,-80.3243423,,0
,,551 Hespeler Road,,Cambridge,ON,N1R 6J3,Canada,1-519-621-7443,43.4017913,-80.3259441,-80.3259441,,0
,,655 Fairway Rd. South,,Kitchener,ON,N2C 1X4,Canada,1-519-894-9442,43.4194945,-80.4518956,-80.4518956,,0
South Cambridge Centre,,200 Franklin Blvd,,Cambridge,ON,N1R 8N8,Canada,1-519-629-0243,43.3562539,-80.2875706,-80.2875706,,0
,,53-61 King Street East,,Kitchener,ON,N2G 2K4,Canada,,43.4491635,-80.4884505,-80.4884505,,0
,,315 Arthur Street South,,Elmira,ON,N3B 3L5,Canada,,43.5859883,-80.5619603,-80.5619603,,0
,,330 Farmer';s Market Rd,,Waterloo,ON,N2V 0A5,Canada,1-519-746-3474,43.5098485,-80.5531370,-80.5531370,,0
,,525 Highland Road West,,Kitchener,ON,N2M 5K1,Canada,,43.4351729,-80.5151489,-80.5151489,,0
,,700 Westmount Rd. East,,Kitchener,ON,N2E 2V9,Canada,1-519-581-1215,43.4195969,-80.5016818,-80.5016818,,0
Skeena Mall,,4741 Lakelse Avenue,,Terrace,BC,V8G 4R9,Canada,1-250-635-5346,54.5171034,-128.5965347,-128.5965347,,0
,,1050 Somerset Street West,,Ottawa,ON,K1Y 3C5,Canada,1-613-688-0192,45.4068255,-75.7193101,-75.7193101,,0
,,375 Chemin d';Aylmer,,Gatineau,QC,J9H 1A5,Canada,1-819-682-3621,45.4076451,-75.7855579,-75.7855579,,0
,,2946 Baseline Road,,Ottawa,ON,K2H 8T5,Canada,1-613-828-7435,45.3356307,-75.8002090,-75.8002090,,0
,,255 Elgin St,,Ottawa,ON,K2P 1L8,Canada,1-613-288-0046,45.4183060,-75.6907068,-75.6907068,,0
,,183 Rideau Street,,Ottawa,ON,K1N 5X8,Canada,1-613-288-1364,45.4275205,-75.6891026,-75.6891026,,0
,,484 Hazeldean Road,,Kanata,ON,K2L 1V4,Canada,1-613-831-4375,45.2974576,-75.8893651,-75.8893651,,0
Coulee Creek Common,,3717 Mayor Magrath Dr S,,Lethbridge,AB,T1K 8A8,Canada,1-403-320-2552,49.6529041,-112.7934558,-112.7934558,,0
,,1131 Mayor Magrath Dr. South,,Lethbridge,AB,T1K 2P9,Canada,,49.6836921,-112.8052459,-112.8052459,,0
Plaza #1,,104 13th St N,,Lethbridge,AB,T1H 2R4,Canada,1-403-317-0202,49.6992318,-112.8246580,-112.8246580,,0
,,3019 26th Ave. N.,,Lethbridge,AB,T1H 5P4,Canada,1-403-330-2354,49.7271989,-112.7840613,-112.7840613,,0
,,927 2nd Street W,,Brooks,AB,T1R 0B7,Canada,1-403-362-2559,50.5776372,-111.8972960,-111.8972960,,0
Ranch Market Hall,,100 Ranch Market,,Strathmore,AB,T1P 0A8,Canada,1-403-934-6351,51.0381612,-113.3846936,-113.3846936,,0
,,1940 Strachan Rd. SE,,Medicine Hat,AB,T1B 4K4,Canada,1-403-526-9447,49.9971996,-110.6458119,-110.6458119,,0
,,24-7400 Macleod Trail S.E.,,Calgary,AB,T2H 0L9,Canada,,50.9869712,-114.0708237,-114.0708237,,0
,,5017 17th Avenue S.E,,Calgary,AB,T2A 0V5,Canada,,51.0378357,-113.9628277,-113.9628277,,0
,,24-7400 Macleod Trail S.E.,,Calgary,AB,T2H 0L9,Canada,,50.9869712,-114.0708237,-114.0708237,,0
,,5017 17th Avenue S.E,,Calgary,AB,T2A 0V5,Canada,,51.0378357,-113.9628277,-113.9628277,,0
,,1000 Islington Avenue,,Toronto,ON,M8Z 4P8,Canada,1-416-503-4173,43.6308114,-79.5177408,-79.5177408,,0
,,2561 St Clair Ave W,,Toronto,ON,M6N 4Z5,Canada,1-416-645-0336,43.6686587,-79.4849920,-79.4849920,,0
,,1337 Queen Street West,,Toronto,ON,M6K 1L8,Canada,1-416-531-4809,43.6410923,-79.4340818,-79.4340818,,0
,,800 Lansdowne Ave.,,Toronto,ON,M6H 4K3,Canada,1-416-649-0023,43.6652235,-79.4459654,-79.4459654,,0
,,3730 Lake Shore Blvd. W.,,Etobicoke,ON,M8W 1N6,Canada,,43.5933577,-79.5387479,-79.5387479,,0
Business Building,,605 Rogers Road,,Toronto,ON,M6M 1B9,Canada,1-416-651-6685,43.6821009,-79.4720241,-79.4720241,,0
,,1220 Dundas Street West,,Toronto,ON,M6J 1X5,Canada,1-416-588-7511,43.6494143,-79.4231381,-79.4231381,,0
,,1475 Dundas Street East,,Mississauga,ON,L4X 1L3,Canada,1-905-624-0032,43.6112929,-79.5816206,-79.5816206,,0
,,512 Bloor St. West,,Toronto,ON,M5S 1Y3,Canada,1-416-531-2255,43.6653497,-79.4106041,-79.4106041,,0
,,590 King Street West,,Toronto,ON,M5V 1M3,Canada,1-416-640-0227,43.6446396,-79.3996196,-79.3996196,,0
,,2013 Lawrence Ave West,,Toronto,ON,M9N 0A3,Canada,1-416-246-9839,43.7005080,-79.5144753,-79.5144753,,0
,,2388 Dufferin Street,,Toronto,ON,M6E 3S6,Canada,1-416-782-2963,43.6963808,-79.4508063,-79.4508063,,0
,,70 Route 132,,Delson,QC,J5B 0A1,Canada,450-635-5543,45.3844170,-73.5421640,-73.5421640,,0
Centre d';Achat Montcalm,,5 boul. Montcalm Nord,,Candiac,QC,J5R 3L5,Canada,450-444-1142,45.3921322,-73.5160178,-73.5160178,,0
,,510 Voie de Desserte,,St-Constant,QC,J5A 2S6,Canada,450-633-0297,45.3901876,-73.5875960,-73.5875960,,0
Place Lasalle,,7846 boul. Champlain,,Lasalle,QC,H8P 1B3,Canada,514-904-0982,45.4283993,-73.6096536,-73.6096536,,0
,,5220 Rue de Verdun,,Verdun,QC,H4H 1K1,Canada,,45.4544044,-73.5720968,-73.5720968,,0
,,4041 rue Wellington,,Verdun,QC,H4G 1V6,Canada,514-762-5459,45.4632730,-73.5670841,-73.5670841,,0
,,9550 boul Leduc,,Brossard,QC,J4Y 0B3,Canada,450-656-1728,45.4425744,-73.4358954,-73.4358954,,0
,,5716-34 rue Sherbrooke O,,Montréal,QC,H4A 1W8,Canada,514-904-1447,45.4703209,-73.6155809,-73.6155809,,0
,,3795 Notre-Dame Ouest,,Montréal,QC,H4C 1P8,Canada,514-932-2512,45.4786864,-73.5829404,-73.5829404,,0
,,6495 Somerled Ave,,Montréal,QC,H4V 1S6,Canada,514-487-6145,45.4681439,-73.6382836,-73.6382836,,0
,,1934 ouest Ste-Catherine,,Montréal,QC,H3H 1M4,Canada,514-935-2646,45.4922785,-73.5808318,-73.5808318,,0
,,5615 Grande-Allee,,Brossard,QC,J4Z 3G3,Canada,,45.474884,-73.444708,-73.444708,,0
,,5845 boul. Robert Bourassa,,Laval,QC,H7E 0A4,Canada,450-661-4038,45.6131256,-73.6967470,-73.6967470,,0
,,2077 boul. des Laurentides,,Laval,QC,H7M 4M2,Canada,450-967-7929,45.6073524,-73.7330562,-73.7330562,,0
,,1710 boul. des Laurentides,,Laval,QC,H7M 2Y4,Canada,450-967-7304,45.5824344,-73.706348,-73.706348,,0
Mail Leger Langelier,,6425 boul. Leger,,Montréal-Nord,QC,H1G 6G7,Canada,514-322-0528,45.6231165,-73.6226328,-73.6226328,,0
,,5610 boul. Henri-Bourassa est,,Montréal-Nord,QC,H1G 2T2,Canada,514-323-7511,45.6061919,-73.6212416,-73.6212416,,0
,,6134 boul. Henri-Bourassa est,,Montréal-Nord,QC,H1G 5X3,Canada,514-322-4468,45.6072066,-73.6149085,-73.6149085,,0
,,1780 Rue Fleury est,,Montreal,QC,H2C 1T4,Canada,514-904-0411,45.5674212,-73.6536374,-73.6536374,,0
,,2595 boul. Daniel-Johnson,,Laval,QC,H7T 1S8,Canada,450-978-5376,45.5703220,-73.7584688,-73.7584688,,0
,,6235 Boul. des Laurentides,,Laval,QC,H7H 2V3,Canada,,45.553678,-73.7267771,-73.7267771,,0
,,8520 Boul. Lacordaire,,Saint-Leonard,QC,H1R 2A5,Canada,,45.5886136,-73.5980189,-73.5980189,,0
,,1350 boul. Moody,,Terrebonne,QC,J6W 3K9,Canada,450-492-1374,45.7044925,-73.6495588,-73.6495588,,0
,,2 Hardy Ave.,,Grand Falls-Windsor,NL,A2A 2P9,Canada,1-709-489-9030,48.9535949,-55.6217775,-55.6217775,,0
,,94 Main St,,Stephenville,NL,A2N 1J3,Canada,1-709-643-3778,48.5486255,-58.5794264,-58.5794264,,0
Rio Centre Kanata,,844 March Road,,Kanata,ON,K2K 1X7,Canada,1-613-287-0189,45.3567277,-75.9345768,-75.9345768,,0
Kanata Centrum,,300 Earl Grey Drive,,Kanata,ON,K2T 1B8,Canada,,45.3117398,-75.9157882,-75.9157882,,0
,,484 Hazeldean Road,,Kanata,ON,K2L 1V4,Canada,1-613-831-4375,45.2974576,-75.8893651,-75.8893651,,0
Grant Crossing,,5487 Hazeldean rd,,Stittsville,ON,K2S 0P5,Canada,,45.2903303,-75.9038437,-75.9038437,,0
,,2946 Baseline Road,,Ottawa,ON,K2H 8T5,Canada,1-613-828-7435,45.3356307,-75.8002090,-75.8002090,,0
,,375 Chemin d';Aylmer,,Gatineau,QC,J9H 1A5,Canada,1-819-682-3621,45.4076451,-75.7855579,-75.7855579,,0
Stittsville Shopping Centre,,1300 Stittsville Main St,,Stittsville,ON,K2S 1A3,Canada,1-613-836-2203,45.2657753,-75.9305331,-75.9305331,,0
,,5375 Fernbank Rd,,Ottawa,ON,K2S 1B6,Canada,1-613-836-9158,45.2477556,-75.9123882,-75.9123882,,0
,,1050 Somerset Street West,,Ottawa,ON,K1Y 3C5,Canada,1-613-688-0192,45.4068255,-75.7193101,-75.7193101,,0
,,255 Elgin St,,Ottawa,ON,K2P 1L8,Canada,1-613-288-0046,45.4183060,-75.6907068,-75.6907068,,0
,,183 Rideau Street,,Ottawa,ON,K1N 5X8,Canada,1-613-288-1364,45.4275205,-75.6891026,-75.6891026,,0
,,3650 Hammonds Plains rd,,Upper Tantallon,NS,B3Z 4R3,Canada,,44.7038934,-63.8581074,-63.8581074,,0
,,50 Tacoma Drive,,Dartmouth,NS,B2W 3E5,Canada,1-902-434-5499,44.6808404,-63.5379670,-63.5379670,,0
Russel Lake,,268 Baker Drive,,Dartmouth,NS,B2W 6L4,Canada,,44.6551866,-63.531162,-63.531162,,0
Real Atlantic Superstore,,650 Portland Street,,Dartmouth,NS,B2W 6A3,Canada,1-902-462-0851,44.6699810,-63.5229060,-63.5229060,,0
,,164 Wade Road,,Truro,NS,B2N 0C7,Canada,1-902-895-4516,45.3563279,-63.3076253,-63.3076253,,0
,,660 Westville Road,,New Glasgow,NS,B2H 5E5,Canada,1-902-752-0123,45.5781950,-62.6654882,-62.6654882,,0
,,226 Front Street East,,Toronto,ON,M5A 1T8,Canada,1-416-640-0102,43.6511556,-79.3645785,-79.3645785,,0
,,149 Sherbourne Street,,Toronto,ON,M5A 2R5,Canada,1-416-363-9194,43.6557531,-79.3699096,-79.3699096,,0
,,425 Parliament Street,,Toronto,ON,M5A 3A1,Canada,1-416-944-0536,43.662705,-79.3671563,-79.3671563,,0
,,772 Queen Street East,,Toronto,ON,M4M 1H4,Canada,,43.6595219,-79.3476295,-79.3476295,,0
,,730 Yonge Street,,Toronto,ON,M4Y 2B7,Canada,1-416-924-1064,43.6687869,-79.3861823,-79.3861823,,0
,,685 Danforth Ave,,Toronto,ON,M4J 1L2,Canada,,43.6790234,-79.3441714,-79.3441714,,0
,,590 King Street West,,Toronto,ON,M5V 1M3,Canada,1-416-640-0227,43.6446396,-79.3996196,-79.3996196,,0
,,512 Bloor St. West,,Toronto,ON,M5S 1Y3,Canada,1-416-531-2255,43.6653497,-79.4106041,-79.4106041,,0
,,293 Coxwell Ave,,Toronto,ON,M4L 3B5,Canada,1-416-645-0226,43.6739548,-79.3197073,-79.3197073,,0
,,1220 Dundas Street West,,Toronto,ON,M6J 1X5,Canada,1-416-588-7511,43.6494143,-79.4231381,-79.4231381,,0
,,2064 Danforth Ave,,Toronto,ON,M4C 1J6,Canada,1-416-421-9112,43.6855721,-79.3132455,-79.3132455,,0
,,1531 Bayview Ave.,,Toronto,ON,M4G 3B5,Canada,1-416-932-6897,43.7047510,-79.3746454,-79.3746454,,0
,,1337 Queen Street West,,Toronto,ON,M6K 1L8,Canada,1-416-531-4809,43.6410923,-79.4340818,-79.4340818,,0
,,800 Lansdowne Ave.,,Toronto,ON,M6H 4K3,Canada,1-416-649-0023,43.6652235,-79.4459654,-79.4459654,,0
,,1450 Kingston Road,,Toronto,ON,M1N 1R6,Canada,1-416-698-9003,43.6878842,-79.2707696,-79.2707696,,0
,,5 Trinity Ave,,Fredericton,NB,E3C 0B7,Canada,1-506-472-9742,45.9312969,-66.6615878,-66.6615878,,0
,,77 Marr Road,,Rothesay,NB,E2E 3J9,Canada,,45.3901212,-65.9682755,-65.9682755,,0
,,30 Plaza Ave,,Saint John,NB,E2M 0C3,Canada,1-506-674-1687,45.2483627,-66.1018893,-66.1018893,,0
,,1000 Islington Avenue,,Toronto,ON,M8Z 4P8,Canada,1-416-503-4173,43.6308114,-79.5177408,-79.5177408,,0
,,3730 Lake Shore Blvd. W.,,Etobicoke,ON,M8W 1N6,Canada,,43.5933577,-79.5387479,-79.5387479,,0
,,1475 Dundas Street East,,Mississauga,ON,L4X 1L3,Canada,1-905-624-0032,43.6112929,-79.5816206,-79.5816206,,0
,,2561 St Clair Ave W,,Toronto,ON,M6N 4Z5,Canada,1-416-645-0336,43.6686587,-79.4849920,-79.4849920,,0
,,1337 Queen Street West,,Toronto,ON,M6K 1L8,Canada,1-416-531-4809,43.6410923,-79.4340818,-79.4340818,,0
,,800 Lansdowne Ave.,,Toronto,ON,M6H 4K3,Canada,1-416-649-0023,43.6652235,-79.4459654,-79.4459654,,0
,,2013 Lawrence Ave West,,Toronto,ON,M9N 0A3,Canada,1-416-246-9839,43.7005080,-79.5144753,-79.5144753,,0
,,1220 Dundas Street West,,Toronto,ON,M6J 1X5,Canada,1-416-588-7511,43.6494143,-79.4231381,-79.4231381,,0
,,93 Dundas Street East,,Mississauga,ON,L5A 1W7,Canada,1-905-281-9895,43.5819695,-79.6145460,-79.6145460,,0
,,2388 Dufferin Street,,Toronto,ON,M6E 3S6,Canada,1-416-782-2963,43.6963808,-79.4508063,-79.4508063,,0
,,157 Main Street East,,Hamilton,ON,L8N 1H1,Canada,1-905-972-9357,43.253608,-79.8626457,-79.8626457,,0
,,105 Betts Avenue,,Saskatoon,SK,S7M 1L2,Canada,1-306-384-7244,52.1285293,-106.7596683,-106.7596683,,0
,,513 Nelson Road,,Saskatoon,SK,S7S 1P4,Canada,1-306-651-1265,52.1500984,-106.5660322,-106.5660322,,0
,,520 Central St.,,Warman,SK,S0K 4S0,Canada,1-306-955-9663,52.3184812,-106.5818345,-106.5818345,,0
,,2327 Victoria Ave. East,,Regina,SK,S4N 1K5,Canada,1-306-546-2725,50.4471918,-104.5404612,-104.5404612,,0
,,275 Broadway St. East,,Yorkton,SK,S3N 3G7,Canada,1-306-782-1385,51.2102096,-102.4805525,-102.4805525,,0
,,127 1st Street,,Weyburn,SK,S4H 0T3,Canada,1-306-842-1314,49.6627564,-103.8564484,-103.8564484,,0
Bolton Country Shopping Centre,,301 Queen Street,,Bolton,ON,L7E 2B1,Canada,1-905-951-1891,43.8737400,-79.7300527,-79.7300527,,0
,,12720 Highway 50,,Bolton,ON,L7E 4G1,Canada,1-905-951-2643,43.8604131,-79.7115780,-79.7115780,,0
,,9960 Airport Road,,Brampton,ON,L6S 0C5,Canada,1-905-595-0712,43.7606168,-79.7188958,-79.7188958,,0
Heart Lake Town Centre,,180 Sandalwood Parkway East,,Brampton,ON,L6Z 4N2,Canada,1-905-840-5725,43.7274541,-79.7946074,-79.7946074,,0
Sandalwood Plaza,,170 Sandalwood Parkway E.,,Brampton,ON,L6Z 1Y5,Canada,1-905-495-6373,43.7261738,-79.7961058,-79.7961058,,0
Trinity Common,,70 Great Lakes Dr,,Brampton,ON,L6R 2K7,Canada,1-905-458-9190,43.7315860,-79.7621164,-79.7621164,,0
Brampton Mall,,160 Main Street South,,Brampton,ON,L6W 2E1,Canada,,43.6778663,-79.7477502,-79.7477502,,0
,,7070 St Barbara,,Mississauga,ON,L5W 0E6,Canada,1-905-362-1261,43.6413068,-79.7161123,-79.7161123,,0
,,680 Kennedy Road,,Toronto,ON,M1K 2B5,Canada,1-416-261-9685,43.7270801,-79.2657709,-79.2657709,,0
,,1450 Kingston Road,,Toronto,ON,M1N 1R6,Canada,1-416-698-9003,43.6878842,-79.2707696,-79.2707696,,0
,,2480 Eglinton Avenue East,,Scarborough,ON,M1K 2R4,Canada,1-416-264-0759,43.7343046,-79.2594502,-79.2594502,,0
,,2064 Danforth Ave,,Toronto,ON,M4C 1J6,Canada,1-416-421-9112,43.6855721,-79.3132455,-79.3132455,,0
,,293 Coxwell Ave,,Toronto,ON,M4L 3B5,Canada,1-416-645-0226,43.6739548,-79.3197073,-79.3197073,,0
,,685 Danforth Ave,,Toronto,ON,M4J 1L2,Canada,,43.6790234,-79.3441714,-79.3441714,,0
,,1531 Bayview Ave.,,Toronto,ON,M4G 3B5,Canada,1-416-932-6897,43.7047510,-79.3746454,-79.3746454,,0
,,772 Queen Street East,,Toronto,ON,M4M 1H4,Canada,,43.6595219,-79.3476295,-79.3476295,,0
,,3809 Sheppard Ave.,,Toronto,ON,M1T 3L5,Canada,1-416-609-1089,43.7820089,-79.2925448,-79.2925448,,0
,,1881 Leslie St North York,,Toronto,ON,M3B 2M3,Canada,1-416-640-1408,43.7565514,-79.3607743,-79.3607743,,0
,,50 Tacoma Drive,,Dartmouth,NS,B2W 3E5,Canada,1-902-434-5499,44.6808404,-63.5379670,-63.5379670,,0
,,3650 Hammonds Plains rd,,Upper Tantallon,NS,B3Z 4R3,Canada,,44.7038934,-63.8581074,-63.8581074,,0
,,164 Wade Road,,Truro,NS,B2N 0C7,Canada,1-902-895-4516,45.3563279,-63.3076253,-63.3076253,,0
,,660 Westville Road,,New Glasgow,NS,B2H 5E5,Canada,1-902-752-0123,45.5781950,-62.6654882,-62.6654882,,0
,,512 Bloor St. West,,Toronto,ON,M5S 1Y3,Canada,1-416-531-2255,43.6653497,-79.4106041,-79.4106041,,0
,,730 Yonge Street,,Toronto,ON,M4Y 2B7,Canada,1-416-924-1064,43.6687869,-79.3861823,-79.3861823,,0
,,590 King Street West,,Toronto,ON,M5V 1M3,Canada,1-416-640-0227,43.6446396,-79.3996196,-79.3996196,,0
,,149 Sherbourne Street,,Toronto,ON,M5A 2R5,Canada,1-416-363-9194,43.6557531,-79.3699096,-79.3699096,,0
,,1220 Dundas Street West,,Toronto,ON,M6J 1X5,Canada,1-416-588-7511,43.6494143,-79.4231381,-79.4231381,,0
,,425 Parliament Street,,Toronto,ON,M5A 3A1,Canada,1-416-944-0536,43.662705,-79.3671563,-79.3671563,,0
,,226 Front Street East,,Toronto,ON,M5A 1T8,Canada,1-416-640-0102,43.6511556,-79.3645785,-79.3645785,,0
,,1337 Queen Street West,,Toronto,ON,M6K 1L8,Canada,1-416-531-4809,43.6410923,-79.4340818,-79.4340818,,0
,,800 Lansdowne Ave.,,Toronto,ON,M6H 4K3,Canada,1-416-649-0023,43.6652235,-79.4459654,-79.4459654,,0
,,772 Queen Street East,,Toronto,ON,M4M 1H4,Canada,,43.6595219,-79.3476295,-79.3476295,,0
,,685 Danforth Ave,,Toronto,ON,M4J 1L2,Canada,,43.6790234,-79.3441714,-79.3441714,,0
,,1531 Bayview Ave.,,Toronto,ON,M4G 3B5,Canada,1-416-932-6897,43.7047510,-79.3746454,-79.3746454,,0
,,2388 Dufferin Street,,Toronto,ON,M6E 3S6,Canada,1-416-782-2963,43.6963808,-79.4508063,-79.4508063,,0
,,1320 Boul. La Verendrye Est,,Gatineau,QC,J8P 0A9,Canada,,45.5008985,-75.6474025,-75.6474025,,0
,,183 Rideau Street,,Ottawa,ON,K1N 5X8,Canada,1-613-288-1364,45.4275205,-75.6891026,-75.6891026,,0
,,255 Elgin St,,Ottawa,ON,K2P 1L8,Canada,1-613-288-0046,45.4183060,-75.6907068,-75.6907068,,0
,,1050 Somerset Street West,,Ottawa,ON,K1Y 3C5,Canada,1-613-688-0192,45.4068255,-75.7193101,-75.7193101,,0
,,375 Chemin d';Aylmer,,Gatineau,QC,J9H 1A5,Canada,1-819-682-3621,45.4076451,-75.7855579,-75.7855579,,0
,,3000 Richelieu St,,Clarence-Rockland,ON,K4K 0B5,Canada,1-613-446-0778,45.5340362,-75.3044499,-75.3044499,,0
,,2327 Victoria Ave. East,,Regina,SK,S4N 1K5,Canada,1-306-546-2725,50.4471918,-104.5404612,-104.5404612,,0
,,127 1st Street,,Weyburn,SK,S4H 0T3,Canada,1-306-842-1314,49.6627564,-103.8564484,-103.8564484,,0
,,275 Broadway St. East,,Yorkton,SK,S3N 3G7,Canada,1-306-782-1385,51.2102096,-102.4805525,-102.4805525,,0
,,400 King Street,,Estevan,SK,S4A 2B4,Canada,1-306-634-2505,49.1467817,-102.9776951,-102.9776951,,0
,,513 Nelson Road,,Saskatoon,SK,S7S 1P4,Canada,1-306-651-1265,52.1500984,-106.5660322,-106.5660322,,0
,,105 Betts Avenue,,Saskatoon,SK,S7M 1L2,Canada,1-306-384-7244,52.1285293,-106.7596683,-106.7596683,,0
,,520 Central St.,,Warman,SK,S0K 4S0,Canada,1-306-955-9663,52.3184812,-106.5818345,-106.5818345,,0
Corral Centre,,923 18th St North,,Brandon,MB,R7A 7S1,Canada,1-204-728-5945,49.8675156,-99.9616674,-99.9616674,,0
Mayfair Outlet Centre,,3082 Blanshard Street,,Victoria,BC,V8T 5E6,Canada,1-250-412-0226,48.4448011,-123.3661958,-123.3661958,,0
Saanich Plaza,,3510 Blanshard Street,,Victoria,BC,V8X 1W3,Canada,1-250-412-0224,48.4553,-123.3721284,-123.3721284,,0
Gorge Road Shopping Centre,,2973 Tillicum Road,,Victoria,BC,V9A 2A6,Canada,,48.4491034,-123.3989529,-123.3989529,,0
Langford Plaza,,127-777 Goldstream Avenue,,Victoria,BC,V9B 2X4,Canada,,48.448041,-123.4996341,-123.4996341,,0
Westshore Town Centre,,2945 Jacklin Road,,Victoria,BC,V9B 5E3,Canada,1-250-474-0183,48.4413325,-123.5110933,-123.5110933,,0
,,2210 Beacon Avenue,,Sidney,BC,V8L 1X1,Canada,,48.648966,-123.406879,-123.406879,,0
,,9751 Bridgeport Rd,,Richmond,BC,V6X 1S3,Canada,1-604-233-1045,49.1920966,-123.1160495,-123.1160495,,0
,,1450 Marine Drive SW,,Vancouver,BC,V6P 5Z9,Canada,1-604-261-0619,49.2045466,-123.1394970,-123.1394970,,0
,,3510 est rue Ontario,,Montréal,QC,H1W 1R2,Canada,514-529-8933,45.5439037,-73.5444922,-73.5444922,,0
,,3912 rue Ontario Est,,Montréal,QC,H1W 1S6,Canada,514-527-2075,45.5484151,-73.5421532,-73.5421532,,0
,,2836 rue Masson,,Montréal,QC,H1Y 1W7,Canada,514-524-4232,45.5474051,-73.57516,-73.57516,,0
,,1665 est avenue Mont-Royal,,Montréal,QC,H2J 1Z6,Canada,514-598-7519,45.5325125,-73.5752469,-73.5752469,,0
,,911 rue Ste-Catherine Est,,Montréal,QC,H2L 2E5,Canada,514-849-2786,45.5166508,-73.5580163,-73.5580163,,0
,,3817 boul. St-Laurent,,Montréal,QC,H2W 1X9,Canada,514-845-4159,45.5156759,-73.576207,-73.576207,,0
,,2635 rue Bélanger,,Montréal,QC,H1Y 1A5,Canada,514-727-9700,45.5542,-73.597243,-73.597243,,0
,,486 Sainte-Catherine Ouest,,Montreal,QC,H3B 1A6,Canada,,45.5044145,-73.5680472,-73.5680472,,0
,,7017 Rue Saint-Hubert,,Montreal,QC,H2S 2N1,Canada,514-277-0343,45.5397405,-73.6111385,-73.6111385,,0
,,5632 Avenue du Parc,,Montréal,QC,H2V 4H1,Canada,514-273-8054,45.5227102,-73.6037042,-73.6037042,,0
,,648 Terminal ave.,,Nanaimo,BC,V9R 5E2,Canada,,49.1640647,-123.9352883,-123.9352883,,0
,,1450 Marine Drive SW,,Vancouver,BC,V6P 5Z9,Canada,1-604-261-0619,49.2045466,-123.1394970,-123.1394970,,0
,,1345 Marine Drive,,North-Vancouver,BC,V7P 3E5,Canada,1-604-980-0152,49.3238031,-123.1120481,-123.1120481,,0
,,9751 Bridgeport Rd,,Richmond,BC,V6X 1S3,Canada,1-604-233-1045,49.1920966,-123.1160495,-123.1160495,,0
,,2201 Kingsway,,Vancouver,BC,V5N 2T6,Canada,1-604-430-1508,49.2436315,-123.0613413,-123.0613413,,0
,,1341 Main Street,,North Vancouver,BC,V7J 1C4,Canada,1-604-924-5061,49.3062906,-123.0368766,-123.0368766,,0
,,5665 Kingsway,,Burnaby,BC,V5H 2G4,Canada,1-604-437-5784,49.2227533,-122.9810295,-122.9810295,,0
,,2210 Beacon Avenue,,Sidney,BC,V8L 1X1,Canada,,48.648966,-123.406879,-123.406879,,0
,,5665 Kingsway,,Burnaby,BC,V5H 2G4,Canada,1-604-437-5784,49.2227533,-122.9810295,-122.9810295,,0
,,2201 Kingsway,,Vancouver,BC,V5N 2T6,Canada,1-604-430-1508,49.2436315,-123.0613413,-123.0613413,,0
,,1341 Main Street,,North Vancouver,BC,V7J 1C4,Canada,1-604-924-5061,49.3062906,-123.0368766,-123.0368766,,0
,,1301 Lougheed Hwy,,Coquitlam,BC,V3K 6P9,Canada,,49.2355449,-122.8562409,-122.8562409,,0
,,9751 Bridgeport Rd,,Richmond,BC,V6X 1S3,Canada,1-604-233-1045,49.1920966,-123.1160495,-123.1160495,,0
,,1450 Marine Drive SW,,Vancouver,BC,V6P 5Z9,Canada,1-604-261-0619,49.2045466,-123.1394970,-123.1394970,,0
,,1345 Marine Drive,,North-Vancouver,BC,V7P 3E5,Canada,1-604-980-0152,49.3238031,-123.1120481,-123.1120481,,0
,,7070 St Barbara,,Mississauga,ON,L5W 0E6,Canada,1-905-362-1261,43.6413068,-79.7161123,-79.7161123,,0
,,9960 Airport Road,,Brampton,ON,L6S 0C5,Canada,1-905-595-0712,43.7606168,-79.7188958,-79.7188958,,0
,,1475 Dundas Street East,,Mississauga,ON,L4X 1L3,Canada,1-905-624-0032,43.6112929,-79.5816206,-79.5816206,,0
,,2013 Lawrence Ave West,,Toronto,ON,M9N 0A3,Canada,1-416-246-9839,43.7005080,-79.5144753,-79.5144753,,0
,,1591 Wilson Ave,,Toronto,ON,M3L 1A5,Canada,1-416-645-0408,43.7206737,-79.5099257,-79.5099257,,0
,,2561 St Clair Ave W,,Toronto,ON,M6N 4Z5,Canada,1-416-645-0336,43.6686587,-79.4849920,-79.4849920,,0
,,20 Orfus Road,,Toronto,ON,M6A 1L6,Canada,1-416-782-1273,43.720164,-79.4573029,-79.4573029,,0
,,2388 Dufferin Street,,Toronto,ON,M6E 3S6,Canada,1-416-782-2963,43.6963808,-79.4508063,-79.4508063,,0
,,800 Lansdowne Ave.,,Toronto,ON,M6H 4K3,Canada,1-416-649-0023,43.6652235,-79.4459654,-79.4459654,,0
,,1000 Islington Avenue,,Toronto,ON,M8Z 4P8,Canada,1-416-503-4173,43.6308114,-79.5177408,-79.5177408,,0
,,5415 Tecumseh Rd E,,Windsor,ON,N8T 1C5,Canada,1-519-974-2096,42.3091853,-82.9583346,-82.9583346,,0
,,1484 Ottawa St,,Windsor,ON,N8X 2G1,Canada,,42.3106637,-83.0102581,-83.0102581,,0
,,1279 University Avenue West,,Windsor,ON,N9A 5T2,Canada,1-519-253-9489,42.3131590,-83.0544299,-83.0544299,,0
,,410 Main Street East,,Kingsville,ON,N9Y 0C1,Canada,,42.0381611,-82.7238297,-82.7238297,,0
,,10 Queen St South,,Tilbury,ON,N0P 2L0,Canada,1-519-682-2966,42.2587159,-82.4322110,-82.4322110,,0
,,835 Queen Street,,Chatham,ON,N7M 2K5,Canada,1-519-351-8833,42.3875113,-82.1658245,-82.1658245,,0
,,419 Lyndock St,,Corunna,ON,N0N 1G0,Canada,1-519-862-3757,42.886451,-82.4533937,-82.4533937,,0
Carrefour Richelieu,,600 rue Pierre-Caisse,,St-Jean-sur-Richelieu,QC,J3A 1M1,Canada,450-349-7898,45.3299440,-73.2806540,-73.2806540,,0
Faubourg Saint Jean,,Bldg 102-174 Boul.St-Luc,,St-Jean-Sur-Richelieu,QC,J2W 0J2,Canada,1-450-359-3237,45.3409592,-73.2817967,-73.2817967,,0
Les Galeries Richelieu,,1000 boul. du Séminaire Nord,,St-Jean-sur-Richelieu,QC,J3A 1E5,Canada,450-349-5591,45.3365852,-73.2697948,-73.2697948,,0
Carrefour Johannaes,,174 boul Saint-Joseph,,St-Jean-sur-Richelieu,QC,J3B 1W7,Canada,450-359-9258,45.3144027,-73.2604698,-73.2604698,,0
,,9550 boul Leduc,,Brossard,QC,J4Y 0B3,Canada,450-656-1728,45.4425744,-73.4358954,-73.4358954,,0
,,70 Route 132,,Delson,QC,J5B 0A1,Canada,450-635-5543,45.3844170,-73.5421640,-73.5421640,,0
,,5615 Grande-Allee,,Brossard,QC,J4Z 3G3,Canada,,45.474884,-73.444708,-73.444708,,0
,,510 Voie de Desserte,,St-Constant,QC,J5A 2S6,Canada,450-633-0297,45.3901876,-73.5875960,-73.5875960,,0
,,1211 boul. St-Bruno,,St-Bruno-de-Montarville,QC,J3V 6P4,Canada,450-441-0239,45.5042528,-73.3832038,-73.3832038,,0
,,5220 Rue de Verdun,,Verdun,QC,H4H 1K1,Canada,,45.4544044,-73.5720968,-73.5720968,,0
,,4041 rue Wellington,,Verdun,QC,H4G 1V6,Canada,514-762-5459,45.4632730,-73.5670841,-73.5670841,,0
Carrefour des Trinitaires,,191 Sir Wilfred Laurier,,St-Basile-le-Grand,QC,J3N 1R1,Canada,450-441-2033,45.5284796,-73.2904233,-73.2904233,,0
,,3795 Notre-Dame Ouest,,Montréal,QC,H4C 1P8,Canada,514-932-2512,45.4786864,-73.5829404,-73.5829404,,0
,,1475 Dundas Street East,,Mississauga,ON,L4X 1L3,Canada,1-905-624-0032,43.6112929,-79.5816206,-79.5816206,,0
,,93 Dundas Street East,,Mississauga,ON,L5A 1W7,Canada,1-905-281-9895,43.5819695,-79.6145460,-79.6145460,,0
,,7070 St Barbara,,Mississauga,ON,L5W 0E6,Canada,1-905-362-1261,43.6413068,-79.7161123,-79.7161123,,0
,,3730 Lake Shore Blvd. W.,,Etobicoke,ON,M8W 1N6,Canada,,43.5933577,-79.5387479,-79.5387479,,0
,,1000 Islington Avenue,,Toronto,ON,M8Z 4P8,Canada,1-416-503-4173,43.6308114,-79.5177408,-79.5177408,,0
,,6560 boul. Joseph Renaud,,Anjou,QC,H1K 3V4,Canada,514-352-3150,45.6052125,-73.552515,-73.552515,,0
,,8520 Boul. Lacordaire,,Saint-Leonard,QC,H1R 2A5,Canada,,45.5886136,-73.5980189,-73.5980189,,0
,,1400 Boul.St-Jean-Baptiste,,Pointe-aux-Trembles,QC,H1B 4A5,Canada,,45.6419837,-73.5041653,-73.5041653,,0
,,6134 boul. Henri-Bourassa est,,Montréal-Nord,QC,H1G 5X3,Canada,514-322-4468,45.6072066,-73.6149085,-73.6149085,,0
Carrefour de la Pointe,,12675 rue Sherbrooke est,,Montréal,QC,H1A 3W7,Canada,514-498-4776,45.6545836,-73.5129796,-73.5129796,,0
,,5610 boul. Henri-Bourassa est,,Montréal-Nord,QC,H1G 2T2,Canada,514-323-7511,45.6061919,-73.6212416,-73.6212416,,0
,,3912 rue Ontario Est,,Montréal,QC,H1W 1S6,Canada,514-527-2075,45.5484151,-73.5421532,-73.5421532,,0
,,2836 rue Masson,,Montréal,QC,H1Y 1W7,Canada,514-524-4232,45.5474051,-73.57516,-73.57516,,0
,,2635 rue Bélanger,,Montréal,QC,H1Y 1A5,Canada,514-727-9700,45.5542,-73.597243,-73.597243,,0
,,3510 est rue Ontario,,Montréal,QC,H1W 1R2,Canada,514-529-8933,45.5439037,-73.5444922,-73.5444922,,0
,,520 Blvd. Fort St-Louis,,Boucherville,QC,J4B 1S5,Canada,450-655-3717,45.6091391,-73.4508727,-73.4508727,,0
,,1 Pine Drive,,Parry Sound,ON,P2A 2C3,Canada,1-705-746-6823,45.3450830,-80.0110199,-80.0110199,,0
,,747 Notre Dame Ave.,,Sudbury,ON,P3A 2T2,Canada,1-705-524-6398,46.5101631,-80.9866688,-80.9866688,,0
,,3021 Highway 69 North,,Val Caron,ON,P3N 1R8,Canada,1-705-897-0329,46.6116900,-81.0074840,-81.0074840,,0
,,3744 Route 144,,Chelmsford,ON,P0M 1L0,Canada,,46.5686755,-81.1848731,-81.1848731,,0
,,225 Edward St.,,Gravenhurst,ON,P1P 1K8,Canada,1-705-684-9765,44.9084067,-79.3720428,-79.3720428,,0
,,187 Memorial Avenue,,Orillia,ON,L3V 5X7,Canada,1-705-327-2659,44.5978574,-79.4242940,-79.4242940,,0
Kirkland Lake Mall,,150 Government Rd. West,,Kirkland Lake,ON,P2N 2E9,Canada,1-705-567-1177,48.1475783,-80.0449006,-80.0449006,,0
,,1599 Rue du Sud,,Cowansville,QC,J2K 2Z4,Canada,,45.1912031,-72.7532988,-72.7532988,,0
,,440 rue Meigs,,Farnham,QC,J2N 2C8,Canada,1-450-293-7205,45.2829359,-72.9792315,-72.9792315,,0
,,5303 rue Foster,,Waterloo,QC,J0E 2N0,Canada,1-450-539-2055,45.3459762,-72.5169608,-72.5169608,,0
,,5400 Blvd. Laurier Ouest,,St-Hyacinthe,QC,J2S 3V7,Canada,,45.6054417,-72.9789043,-72.9789043,,0
Mail Montenach,,600 boul. Sir Wilfrid Laurier,,Beloeil,QC,J3G 4J2,Canada,450-446-4702,45.5620369,-73.2071426,-73.2071426,,0
,,1211 boul. St-Bruno,,St-Bruno-de-Montarville,QC,J3V 6P4,Canada,450-441-0239,45.5042528,-73.3832038,-73.3832038,,0
,,9550 boul Leduc,,Brossard,QC,J4Y 0B3,Canada,450-656-1728,45.4425744,-73.4358954,-73.4358954,,0
Place Nobel,,1999 rue Nobel,,Ste-Julie,QC,J3E 1Z7,Canada,450-922-9571,45.5780569,-73.3266953,-73.3266953,,0
,,5615 Grande-Allee,,Brossard,QC,J4Z 3G3,Canada,,45.474884,-73.444708,-73.444708,,0
,,20 Orfus Road,,Toronto,ON,M6A 1L6,Canada,1-416-782-1273,43.720164,-79.4573029,-79.4573029,,0
,,1591 Wilson Ave,,Toronto,ON,M3L 1A5,Canada,1-416-645-0408,43.7206737,-79.5099257,-79.5099257,,0
,,1054 Centre Street,,Vaughan,ON,L4J 8E5,Canada,1-905-695-0289,43.8090435,-79.4592182,-79.4592182,,0
,,2388 Dufferin Street,,Toronto,ON,M6E 3S6,Canada,1-416-782-2963,43.6963808,-79.4508063,-79.4508063,,0
,,1881 Leslie St North York,,Toronto,ON,M3B 2M3,Canada,1-416-640-1408,43.7565514,-79.3607743,-79.3607743,,0
,,1531 Bayview Ave.,,Toronto,ON,M4G 3B5,Canada,1-416-932-6897,43.7047510,-79.3746454,-79.3746454,,0
,,2013 Lawrence Ave West,,Toronto,ON,M9N 0A3,Canada,1-416-246-9839,43.7005080,-79.5144753,-79.5144753,,0
,,1211 boul. St-Bruno,,St-Bruno-de-Montarville,QC,J3V 6P4,Canada,450-441-0239,45.5042528,-73.3832038,-73.3832038,,0
,,5615 Grande-Allee,,Brossard,QC,J4Z 3G3,Canada,,45.474884,-73.444708,-73.444708,,0
,,520 Blvd. Fort St-Louis,,Boucherville,QC,J4B 1S5,Canada,450-655-3717,45.6091391,-73.4508727,-73.4508727,,0
,,9550 boul Leduc,,Brossard,QC,J4Y 0B3,Canada,450-656-1728,45.4425744,-73.4358954,-73.4358954,,0
,,3912 rue Ontario Est,,Montréal,QC,H1W 1S6,Canada,514-527-2075,45.5484151,-73.5421532,-73.5421532,,0
,,3510 est rue Ontario,,Montréal,QC,H1W 1R2,Canada,514-529-8933,45.5439037,-73.5444922,-73.5444922,,0
,,911 rue Ste-Catherine Est,,Montréal,QC,H2L 2E5,Canada,514-849-2786,45.5166508,-73.5580163,-73.5580163,,0
,,1400 Boul.St-Jean-Baptiste,,Pointe-aux-Trembles,QC,H1B 4A5,Canada,,45.6419837,-73.5041653,-73.5041653,,0
,,1341 Main Street,,North Vancouver,BC,V7J 1C4,Canada,1-604-924-5061,49.3062906,-123.0368766,-123.0368766,,0
,,5665 Kingsway,,Burnaby,BC,V5H 2G4,Canada,1-604-437-5784,49.2227533,-122.9810295,-122.9810295,,0
,,2201 Kingsway,,Vancouver,BC,V5N 2T6,Canada,1-604-430-1508,49.2436315,-123.0613413,-123.0613413,,0
,,1301 Lougheed Hwy,,Coquitlam,BC,V3K 6P9,Canada,,49.2355449,-122.8562409,-122.8562409,,0
,,1345 Marine Drive,,North-Vancouver,BC,V7P 3E5,Canada,1-604-980-0152,49.3238031,-123.1120481,-123.1120481,,0
,,9751 Bridgeport Rd,,Richmond,BC,V6X 1S3,Canada,1-604-233-1045,49.1920966,-123.1160495,-123.1160495,,0
,,1450 Marine Drive SW,,Vancouver,BC,V6P 5Z9,Canada,1-604-261-0619,49.2045466,-123.1394970,-123.1394970,,0
,,1971 Lougheed Hwy,,Port Coquitlam,BC,V3B 1A6,Canada,,49.2645962,-122.7693289,-122.7693289,,0
Upper Yonge Plaza,,10909 Yonge Street,,Richmond Hill,ON,L4C 3E3,Canada,1-905-508-7168,43.8937256,-79.440648,-79.440648,,0
Jefferson Square,,11700 Yonge Street,,Richmond Hill,ON,L4E 0K4,Canada,1-905-883-0034,43.9105649,-79.4465461,-79.4465461,,0
,,1054 Centre Street,,Vaughan,ON,L4J 8E5,Canada,1-905-695-0289,43.8090435,-79.4592182,-79.4592182,,0
Oak Ridges,,13231 Yonge Street,,Richmond Hill,ON,L4E 1B6,Canada,,43.9502292,-79.4559218,-79.4559218,,0
Food Land,,4721 Highway 7,,Markham,ON,L3R 1M7,Canada,1-905-948-1404,43.8632636,-79.3007975,-79.3007975,,0
,,11829 boul de Pierrefonds,,Pierrefonds,QC,H9A 1A1,Canada,514-683-1772,45.5055364,-73.8227571,-73.8227571,,0
,,4269 Boul. St-Jean,,Dollard-des-Ormeaux,QC,H9G 2R4,Canada,,45.4792116,-73.840805,-73.840805,,0
,,11780 boul de Salaberry,,Dollard-des-Ormeaux,QC,H9B 2R8,Canada,514-684-0978,45.4844332,-73.8052701,-73.8052701,,0
,,4870 boul St-Charles,,Pierrefonds,QC,H9H 3E2,Canada,514-620-4054,45.4668291,-73.8742954,-73.8742954,,0
,,367 Arthur-Sauvé,,St-Eustache,QC,J7P 2B1,Canada,450-491-1226,45.5623226,-73.9010852,-73.9010852,,0
,,2595 boul. Daniel-Johnson,,Laval,QC,H7T 1S8,Canada,450-978-5376,45.5703220,-73.7584688,-73.7584688,,0
,,6235 Boul. des Laurentides,,Laval,QC,H7H 2V3,Canada,,45.553678,-73.7267771,-73.7267771,,0
,,377 Chemin de la Grande Coté,,Boisbriand,QC,J7G 1A9,Canada,450-979-2574,45.607095,-73.83423,-73.83423,,0
,,262 Montée des Pionniers,,Terrebonne,QC,J6V 1S6,Canada,450-581-4746,45.7107903,-73.5120967,-73.5120967,,0
,,163 Montée Masson,,Mascouche,QC,J7K 3B4,Canada,450-474-8722,45.7242749,-73.6151515,-73.6151515,,0
,,1400 Boul.St-Jean-Baptiste,,Pointe-aux-Trembles,QC,H1B 4A5,Canada,,45.6419837,-73.5041653,-73.5041653,,0
,,520 Blvd. Fort St-Louis,,Boucherville,QC,J4B 1S5,Canada,450-655-3717,45.6091391,-73.4508727,-73.4508727,,0
,,1350 boul. Moody,,Terrebonne,QC,J6W 3K9,Canada,450-492-1374,45.7044925,-73.6495588,-73.6495588,,0
,,6560 boul. Joseph Renaud,,Anjou,QC,H1K 3V4,Canada,514-352-3150,45.6052125,-73.552515,-73.552515,,0
,,2735 Boul. de la Pinière,,Terrebonne,QC,J6X 0G3,Canada,,45.7181014,-73.6950618,-73.6950618,,0
,,2210 Beacon Avenue,,Sidney,BC,V8L 1X1,Canada,,48.648966,-123.406879,-123.406879,,0
,,9751 Bridgeport Rd,,Richmond,BC,V6X 1S3,Canada,1-604-233-1045,49.1920966,-123.1160495,-123.1160495,,0
,,1450 Marine Drive SW,,Vancouver,BC,V6P 5Z9,Canada,1-604-261-0619,49.2045466,-123.1394970,-123.1394970,,0
,,648 Terminal ave.,,Nanaimo,BC,V9R 5E2,Canada,,49.1640647,-123.9352883,-123.9352883,,0
,,5665 Kingsway,,Burnaby,BC,V5H 2G4,Canada,1-604-437-5784,49.2227533,-122.9810295,-122.9810295,,0
,,580 Laval Drive,,Oshawa,ON,L1J 0B5,Canada,,43.8803209,-78.8795745,-78.8795745,,0
,,4-1899 Brock Rd,,Pickering,ON,L1V 4H7,Canada,,43.8455676,-79.0728433,-79.0728433,,0
,,564 King Street East,,Oshawa,ON,L1H 1G5,Canada,1-905-725-7308,43.9023599,-78.8431012,-78.8431012,,0
Amberlea Shopping Centre,,1822 Whites Road,,Pickering,ON,L1V 4M1,Canada,1-905-619-0285,43.8313377,-79.1210928,-79.1210928,,0
Dodson Plaza,,4341 50th Street,,Drayton Valley,AB,T7A 1M4,Canada,1-780-542-7524,53.2162766,-114.9765503,-114.9765503,,0
Valley Centre Mall,,4802 51st Street,,Whitecourt,AB,T7S 1R9,Canada,,54.1386682,-115.6871748,-115.6871748,,0
,,5030 2nd Ave,,Edson,AB,T7E 1W2,Canada,1-780-723-3049,53.5813749,-116.4307242,-116.4307242,,0
,,183 Rideau Street,,Ottawa,ON,K1N 5X8,Canada,1-613-288-1364,45.4275205,-75.6891026,-75.6891026,,0
,,255 Elgin St,,Ottawa,ON,K2P 1L8,Canada,1-613-288-0046,45.4183060,-75.6907068,-75.6907068,,0
,,1050 Somerset Street West,,Ottawa,ON,K1Y 3C5,Canada,1-613-688-0192,45.4068255,-75.7193101,-75.7193101,,0
,,1320 Boul. La Verendrye Est,,Gatineau,QC,J8P 0A9,Canada,,45.5008985,-75.6474025,-75.6474025,,0
,,375 Chemin d';Aylmer,,Gatineau,QC,J9H 1A5,Canada,1-819-682-3621,45.4076451,-75.7855579,-75.7855579,,0
,,2735 Boul. de la Pinière,,Terrebonne,QC,J6X 0G3,Canada,,45.7181014,-73.6950618,-73.6950618,,0
,,1350 boul. Moody,,Terrebonne,QC,J6W 3K9,Canada,450-492-1374,45.7044925,-73.6495588,-73.6495588,,0
,,163 Montée Masson,,Mascouche,QC,J7K 3B4,Canada,450-474-8722,45.7242749,-73.6151515,-73.6151515,,0
,,1133 Rang Saint-Francois,,Terrebonne,QC,J6Y 0C7,Canada,1-450-435-0512,45.6894583,-73.7820453,-73.7820453,,0
,,168 boul. Ste-Anne,,Ste-Anne-des-Plaines,QC,J0N 1H0,Canada,450-838-6551,45.7609227,-73.8135847,-73.8135847,,0
,,5845 boul. Robert Bourassa,,Laval,QC,H7E 0A4,Canada,450-661-4038,45.6131256,-73.6967470,-73.6967470,,0
,,2077 boul. des Laurentides,,Laval,QC,H7M 4M2,Canada,450-967-7929,45.6073524,-73.7330562,-73.7330562,,0
,,5610 boul. Henri-Bourassa est,,Montréal-Nord,QC,H1G 2T2,Canada,514-323-7511,45.6061919,-73.6212416,-73.6212416,,0
,,6134 boul. Henri-Bourassa est,,Montréal-Nord,QC,H1G 5X3,Canada,514-322-4468,45.6072066,-73.6149085,-73.6149085,,0
,,262 Montée des Pionniers,,Terrebonne,QC,J6V 1S6,Canada,450-581-4746,45.7107903,-73.5120967,-73.5120967,,0
,,1710 boul. des Laurentides,,Laval,QC,H7M 2Y4,Canada,450-967-7304,45.5824344,-73.706348,-73.706348,,0
,,520 Blvd. Fort St-Louis,,Boucherville,QC,J4B 1S5,Canada,450-655-3717,45.6091391,-73.4508727,-73.4508727,,0
,,1400 Boul.St-Jean-Baptiste,,Pointe-aux-Trembles,QC,H1B 4A5,Canada,,45.6419837,-73.5041653,-73.5041653,,0
,,6560 boul. Joseph Renaud,,Anjou,QC,H1K 3V4,Canada,514-352-3150,45.6052125,-73.552515,-73.552515,,0
,,3912 rue Ontario Est,,Montréal,QC,H1W 1S6,Canada,514-527-2075,45.5484151,-73.5421532,-73.5421532,,0
,,3510 est rue Ontario,,Montréal,QC,H1W 1R2,Canada,514-529-8933,45.5439037,-73.5444922,-73.5444922,,0
,,1211 boul. St-Bruno,,St-Bruno-de-Montarville,QC,J3V 6P4,Canada,450-441-0239,45.5042528,-73.3832038,-73.3832038,,0
,,2836 rue Masson,,Montréal,QC,H1Y 1W7,Canada,514-524-4232,45.5474051,-73.57516,-73.57516,,0
Bucovetsky';s Kapuskasing,,25 Cain Avenue,,Kapuskasing,ON,P5N 1T2,Canada,,49.418397,-82.424488,-82.424488,,0
,,1850 Riverside Drive,,Timmins,ON,P4R 1N7,Canada,1-705-264-2198,48.4725586,-81.3893743,-81.3893743,,0
Park Road Square,,425 Algonquin Blvd. East,,Timmins,ON,P4N 1B5,Canada,1-705-268-2198,48.4766733,-81.3225609,-81.3225609,,0
The Porcupine Mall,,4858 Highway 101,,South Porcupine,ON,P0N 1K0,Canada,1-705-235-0831,48.4904530,-81.1984990,-81.1984990,,0
Plaza La Sarre,,77 2e rue Est,,La Sarre,QC,J9Z 3G8,Canada,1-819-333-3659,48.8144397,-79.2000987,-79.2000987,,0
Place Rouanda,,4 15e rue,,Rouyn-Noranda,QC,J9X 2J8,Canada,1-819-762-6473,48.2412804,-79.0323171,-79.0323171,,0
Place Centre-Ville D';Amos,,82 1e Avenue Est,,Amos,QC,J9T 4B2,Canada,1-819-727-9959,48.5719085,-78.1134273,-78.1134273,,0
,,3021 Highway 69 North,,Val Caron,ON,P3N 1R8,Canada,1-705-897-0329,46.6116900,-81.0074840,-81.0074840,,0
,,3744 Route 144,,Chelmsford,ON,P0M 1L0,Canada,,46.5686755,-81.1848731,-81.1848731,,0
,,747 Notre Dame Ave.,,Sudbury,ON,P3A 2T2,Canada,1-705-524-6398,46.5101631,-80.9866688,-80.9866688,,0
,,1454 Rue Royale,,Malartic,QC,J0Y 1Z0,Canada,,48.1423205,-78.1271908,-78.1271908,,0
,,293 Northern Ave. East,,Sault Ste Marie,ON,P6B 4H9,Canada,1-705-254-1342,46.5340816,-84.3215827,-84.3215827,,0
Churchill Plaza,,150 Churchill Blvd,,Sault Ste Marie,ON,P6A 3Z9,Canada,1-705-942-1545,46.5104371,-84.2971193,-84.2971193,,0
Station Mall,,293 Bay Street,,Sault Ste Marie,ON,P6A 1X3,Canada,,46.5130286,-84.3395827,-84.3395827,,0
Carrefour du Nord Ouest,,1801 3e Ave.,,Val-d';Or,QC,J9P 5K1,Canada,1-819-825-2720,48.0976302,-77.8255919,-77.8255919,,0
Les Galeries Val D';or,,1500 Chemin Sullivan,,Val-d';Or,QC,J9P 1M1,Canada,1-819-825-0864,48.1053918,-77.8037117,-77.8037117,,0
,,2 Hardy Ave.,,Grand Falls-Windsor,NL,A2A 2P9,Canada,1-709-489-9030,48.9535949,-55.6217775,-55.6217775,,0
,,94 Main St,,Stephenville,NL,A2N 1J3,Canada,1-709-643-3778,48.5486255,-58.5794264,-58.5794264,,0
,,1279 University Avenue West,,Windsor,ON,N9A 5T2,Canada,1-519-253-9489,42.3131590,-83.0544299,-83.0544299,,0
,,1484 Ottawa St,,Windsor,ON,N8X 2G1,Canada,,42.3106637,-83.0102581,-83.0102581,,0
,,5415 Tecumseh Rd E,,Windsor,ON,N8T 1C5,Canada,1-519-974-2096,42.3091853,-82.9583346,-82.9583346,,0
,,410 Main Street East,,Kingsville,ON,N9Y 0C1,Canada,,42.0381611,-82.7238297,-82.7238297,,0
,,10 Queen St South,,Tilbury,ON,N0P 2L0,Canada,1-519-682-2966,42.2587159,-82.4322110,-82.4322110,,0
,,835 Queen Street,,Chatham,ON,N7M 2K5,Canada,1-519-351-8833,42.3875113,-82.1658245,-82.1658245,,0
,,419 Lyndock St,,Corunna,ON,N0N 1G0,Canada,1-519-862-3757,42.886451,-82.4533937,-82.4533937,,0
,,1589 Kenaston Blvd,,Winnipeg,MB,R3P 2N3,Canada,,49.8264375,-97.2046005,-97.2046005,,0
,,1300 Ellice Ave,,Winnipeg,MB,R3G 0E9,Canada,1-204-774-0536,49.8927556,-97.1919917,-97.1919917,,0
,,230 Osborne Avenue,,Winnipeg,MB,R3L 1Z5,Canada,1-204-284-7466,49.8754849,-97.1427337,-97.1427337,,0
,,1074 St. Mary';s Road,,Winnipeg,MB,R2M 3T3,Canada,1-204-237-7752,49.8363776,-97.1130406,-97.1130406,,0
,,295 Portage Avenue,,Winnipeg,MB,R3B 2B4,Canada,1-204-949-1525,49.8939263,-97.1430907,-97.1430907,,0
,,259 Marion Street,,Winnipeg,MB,R2H 0T8,Canada,1-204-231-5038,49.8817085,-97.1161418,-97.1161418,,0
,,1114 Main Street,,Winnipeg,MB,R2W 3S2,Canada,1-204-582-3411,49.9173296,-97.1311755,-97.1311755,,0
,,1100 Concordia Ave.,,Winnipeg,MB,R2K 4B8,Canada,1-204-661-2915,49.9120891,-97.0642509,-97.0642509,,0
,,4445 boul. Gene-H.-Kruger,,Trois-Rivières,QC,G9A 4N3,Canada,1-819-840-8754,46.3237379,-72.5626725,-72.5626725,,0
,,697 Boul. Thibeau,,Trois-Rivieres,QC,G8T 7A2,Canada,1-819-840-1962,46.3840272,-72.5478157,-72.5478157,,0
,,44 Place Bourget,,Joliette,QC,J6E 5E7,Canada,1-450-759-9588,46.0251557,-73.4406517,-73.4406517,,0
,,5400 Blvd. Laurier Ouest,,St-Hyacinthe,QC,J2S 3V7,Canada,,45.6054417,-72.9789043,-72.9789043,,0
,,1450 Marine Drive SW,,Vancouver,BC,V6P 5Z9,Canada,1-604-261-0619,49.2045466,-123.1394970,-123.1394970,,0
,,9751 Bridgeport Rd,,Richmond,BC,V6X 1S3,Canada,1-604-233-1045,49.1920966,-123.1160495,-123.1160495,,0
,,2201 Kingsway,,Vancouver,BC,V5N 2T6,Canada,1-604-430-1508,49.2436315,-123.0613413,-123.0613413,,0
,,5665 Kingsway,,Burnaby,BC,V5H 2G4,Canada,1-604-437-5784,49.2227533,-122.9810295,-122.9810295,,0
,,1345 Marine Drive,,North-Vancouver,BC,V7P 3E5,Canada,1-604-980-0152,49.3238031,-123.1120481,-123.1120481,,0
,,1341 Main Street,,North Vancouver,BC,V7J 1C4,Canada,1-604-924-5061,49.3062906,-123.0368766,-123.0368766,,0
,,1301 Lougheed Hwy,,Coquitlam,BC,V3K 6P9,Canada,,49.2355449,-122.8562409,-122.8562409,,0
,,141 Dundas Street,,London,ON,N6A 1G3,Canada,1-519-679-4162,42.9834678,-81.2503208,-81.2503208,,0
,,1990 Dundas Street,,London,ON,N5V 3Z1,Canada,1-519-659-5924,43.0063990,-81.1702646,-81.1702646,,0
,,911 Southdale road west,,London,ON,N6P 0B3,Canada,1-519-652-5388,42.9366774,-81.3147429,-81.3147429,,0
,,110 Oxford Street,,Ingersoll,ON,N5C 2V5,Canada,1-519-425-4103,43.0387958,-80.8843180,-80.8843180,,0
,,588 Queen Street East,,St. Marys,ON,N4X 1B5,Canada,,43.2611965,-81.1256635,-81.1256635,,0
,,333 Main St South,,Exeter,ON,N0M 1S6,Canada,1-519-235-4628,43.3474662,-81.4806673,-81.4806673,,0
,,415 Norwich Ave,,Woodstock,ON,N4S 3W4,Canada,1-519-539-4545,43.1183552,-80.7387461,-80.7387461,,0
,,1054 Centre Street,,Vaughan,ON,L4J 8E5,Canada,1-905-695-0289,43.8090435,-79.4592182,-79.4592182,,0
,,15260 Yonge Street,,Aurora,ON,L4G 1N4,Canada,1-905-751-0517,44.0002835,-79.4677816,-79.4677816,,0
,,383 Montée Ind et Commerciale,,Rimouski,QC,G5M 1Y1,Canada,1-418-724-4194,48.4567049,-68.4974042,-68.4974042,,0
,,396 boul. Jessop,,Rimouski,QC,G5L 1N1,Canada,1-418-721-6440,48.4660836,-68.5170137,-68.5170137,,0
,,392 rue des Saguenéens,,Chicoutimi,QC,G7H 5S5,Canada,1-418-543-4092,48.4025996,-71.0594342,-71.0594342,,0
,,77 Marr Road,,Rothesay,NB,E2E 3J9,Canada,,45.3901212,-65.9682755,-65.9682755,,0
,,30 Plaza Ave,,Saint John,NB,E2M 0C3,Canada,1-506-674-1687,45.2483627,-66.1018893,-66.1018893,,0
,,5 Trinity Ave,,Fredericton,NB,E3C 0B7,Canada,1-506-472-9742,45.9312969,-66.6615878,-66.6615878,,0
,,660 Westville Road,,New Glasgow,NS,B2H 5E5,Canada,1-902-752-0123,45.5781950,-62.6654882,-62.6654882,,0
,,164 Wade Road,,Truro,NS,B2N 0C7,Canada,1-902-895-4516,45.3563279,-63.3076253,-63.3076253,,0
,,94 Main St,,Stephenville,NL,A2N 1J3,Canada,1-709-643-3778,48.5486255,-58.5794264,-58.5794264,,0
,,50 Tacoma Drive,,Dartmouth,NS,B2W 3E5,Canada,1-902-434-5499,44.6808404,-63.5379670,-63.5379670,,0
,,8114 rue St-Denis,,Montréal,QC,H2P 2G6,Canada,514-383-0241,45.542494,-73.629633,-73.629633,,0
,,7017 Rue Saint-Hubert,,Montreal,QC,H2S 2N1,Canada,514-277-0343,45.5397405,-73.6111385,-73.6111385,,0
,,5632 Avenue du Parc,,Montréal,QC,H2V 4H1,Canada,514-273-8054,45.5227102,-73.6037042,-73.6037042,,0
,,5858 Cote-des-Neiges,,Montreal,QC,H3S 1Z1,Canada,514-904-0721,45.4995227,-73.6300231,-73.6300231,,0
,,2635 rue Bélanger,,Montréal,QC,H1Y 1A5,Canada,514-727-9700,45.5542,-73.597243,-73.597243,,0
,,1780 Rue Fleury est,,Montreal,QC,H2C 1T4,Canada,514-904-0411,45.5674212,-73.6536374,-73.6536374,,0
,,1665 est avenue Mont-Royal,,Montréal,QC,H2J 1Z6,Canada,514-598-7519,45.5325125,-73.5752469,-73.5752469,,0
,,3817 boul. St-Laurent,,Montréal,QC,H2W 1X9,Canada,514-845-4159,45.5156759,-73.576207,-73.576207,,0
,,2836 rue Masson,,Montréal,QC,H1Y 1W7,Canada,514-524-4232,45.5474051,-73.57516,-73.57516,,0
,,4964 Chemin Queen Mary,,Montreal,QC,H3W 1X2,Canada,,45.486258,-73.6268923,-73.6268923,,0
,,486 Sainte-Catherine Ouest,,Montreal,QC,H3B 1A6,Canada,,45.5044145,-73.5680472,-73.5680472,,0
,,1934 ouest Ste-Catherine,,Montréal,QC,H3H 1M4,Canada,514-935-2646,45.4922785,-73.5808318,-73.5808318,,0
,,660 Westville Road,,New Glasgow,NS,B2H 5E5,Canada,1-902-752-0123,45.5781950,-62.6654882,-62.6654882,,0
,,164 Wade Road,,Truro,NS,B2N 0C7,Canada,1-902-895-4516,45.3563279,-63.3076253,-63.3076253,,0
,,50 Tacoma Drive,,Dartmouth,NS,B2W 3E5,Canada,1-902-434-5499,44.6808404,-63.5379670,-63.5379670,,0
,,23580 Woodbine Avenue,,Keswick,ON,L4P 0E2,Canada,1-905-476-9627,44.2369983,-79.4495164,-79.4495164,,0
Glenwoods Centre,,443 The Queensway S,,Keswick,ON,L4P 3J4,Canada,1-905-989-0573,44.2139541,-79.4645511,-79.4645511,,0
,,1491 Innisfil Beach Rd,,Innisfil,ON,L9S 4B2,Canada,1-705-436-1172,44.3083794,-79.5765077,-79.5765077,,0
Heritage Mall,,632 Yonge St,,Barrie,ON,L4N 4E6,Canada,1-705-726-6726,44.3552747,-79.6464864,-79.6464864,,0
Park Place,,110 Concert Way,,Barrie,ON,L4N 6N5,Canada,,44.3399983,-79.6842723,-79.6842723,,0
,,406 Bryne Drive,,Barrie,ON,L4N 9R1,Canada,1-705-726-3238,44.3372834,-79.6909771,-79.6909771,,0
,,187 Memorial Avenue,,Orillia,ON,L3V 5X7,Canada,1-705-327-2659,44.5978574,-79.4242940,-79.4242940,,0
,,60 Dunlop Street East,,Barrie,ON,L4M 1A3,Canada,1-705-792-9097,44.3893370,-79.6879881,-79.6879881,,0
,,555 Essa Road,,Barrie,ON,L4N 6A9,Canada,1-705-722-9238,44.3367399,-79.7102396,-79.7102396,,0
Bayfield Mall,,320 Bayfield St.,,Barrie,ON,L4M 3C1,Canada,1-705-735-6071,44.4011127,-79.7002836,-79.7002836,,0
Bradford Shopping Centre,,537 Holland St W.,,Bradford,ON,L3Z 2A4,Canada,1-905-778-0312,44.1068125,-79.5981857,-79.5981857,,0
Wellington Plaza,,165 Wellington Street West,,Barrie,ON,L4N 1L7,Canada,1-705-728-5073,44.3885027,-79.7053235,-79.7053235,,0
Springwater Marketplace,,409 Bayfield Street,,Barrie,ON,L4M 6E5,Canada,,44.4082475,-79.7065627,-79.7065627,,0
,,15260 Yonge Street,,Aurora,ON,L4G 1N4,Canada,1-905-751-0517,44.0002835,-79.4677816,-79.4677816,,0
,,1070 Hoover Park Dr,,Stouffville,ON,L4A 0K2,Canada,1-905-642-1135,43.9625959,-79.2541972,-79.2541972,,0
Kawartha Lakes Centre,,363 Kent Street West,,Lindsay,ON,K9V 2Z7,Canada,1-705-328-1190,44.3502798,-78.7588662,-78.7588662,,0
,,12720 Highway 50,,Bolton,ON,L7E 4G1,Canada,1-905-951-2643,43.8604131,-79.7115780,-79.7115780,,0
,,9960 Airport Road,,Brampton,ON,L6S 0C5,Canada,1-905-595-0712,43.7606168,-79.7188958,-79.7188958,,0
,,1054 Centre Street,,Vaughan,ON,L4J 8E5,Canada,1-905-695-0289,43.8090435,-79.4592182,-79.4592182,,0
,,1591 Wilson Ave,,Toronto,ON,M3L 1A5,Canada,1-416-645-0408,43.7206737,-79.5099257,-79.5099257,,0
,,2013 Lawrence Ave West,,Toronto,ON,M9N 0A3,Canada,1-416-246-9839,43.7005080,-79.5144753,-79.5144753,,0
,,1114 Main Street,,Winnipeg,MB,R2W 3S2,Canada,1-204-582-3411,49.9173296,-97.1311755,-97.1311755,,0
,,1300 Ellice Ave,,Winnipeg,MB,R3G 0E9,Canada,1-204-774-0536,49.8927556,-97.1919917,-97.1919917,,0
,,295 Portage Avenue,,Winnipeg,MB,R3B 2B4,Canada,1-204-949-1525,49.8939263,-97.1430907,-97.1430907,,0
,,2360 Main Street,,Winnipeg,MB,R2V 4H7,Canada,,49.9536793,-97.1004701,-97.1004701,,0
,,230 Osborne Avenue,,Winnipeg,MB,R3L 1Z5,Canada,1-204-284-7466,49.8754849,-97.1427337,-97.1427337,,0
,,259 Marion Street,,Winnipeg,MB,R2H 0T8,Canada,1-204-231-5038,49.8817085,-97.1161418,-97.1161418,,0
,,1100 Concordia Ave.,,Winnipeg,MB,R2K 4B8,Canada,1-204-661-2915,49.9120891,-97.0642509,-97.0642509,,0
,,1074 St. Mary';s Road,,Winnipeg,MB,R2M 3T3,Canada,1-204-237-7752,49.8363776,-97.1130406,-97.1130406,,0
,,1589 Kenaston Blvd,,Winnipeg,MB,R3P 2N3,Canada,,49.8264375,-97.2046005,-97.2046005,,0
,,1589 Kenaston Blvd,,Winnipeg,MB,R3P 2N3,Canada,,49.8264375,-97.2046005,-97.2046005,,0
,,1074 St. Mary';s Road,,Winnipeg,MB,R2M 3T3,Canada,1-204-237-7752,49.8363776,-97.1130406,-97.1130406,,0
,,230 Osborne Avenue,,Winnipeg,MB,R3L 1Z5,Canada,1-204-284-7466,49.8754849,-97.1427337,-97.1427337,,0
,,1300 Ellice Ave,,Winnipeg,MB,R3G 0E9,Canada,1-204-774-0536,49.8927556,-97.1919917,-97.1919917,,0
,,259 Marion Street,,Winnipeg,MB,R2H 0T8,Canada,1-204-231-5038,49.8817085,-97.1161418,-97.1161418,,0
,,295 Portage Avenue,,Winnipeg,MB,R3B 2B4,Canada,1-204-949-1525,49.8939263,-97.1430907,-97.1430907,,0
,,1114 Main Street,,Winnipeg,MB,R2W 3S2,Canada,1-204-582-3411,49.9173296,-97.1311755,-97.1311755,,0
,,1100 Concordia Ave.,,Winnipeg,MB,R2K 4B8,Canada,1-204-661-2915,49.9120891,-97.0642509,-97.0642509,,0
,,1131 Mayor Magrath Dr. South,,Lethbridge,AB,T1K 2P9,Canada,,49.6836921,-112.8052459,-112.8052459,,0
,,3019 26th Ave. N.,,Lethbridge,AB,T1H 5P4,Canada,1-403-330-2354,49.7271989,-112.7840613,-112.7840613,,0
,,927 2nd Street W,,Brooks,AB,T1R 0B7,Canada,1-403-362-2559,50.5776372,-111.8972960,-111.8972960,,0
,,1940 Strachan Rd. SE,,Medicine Hat,AB,T1B 4K4,Canada,1-403-526-9447,49.9971996,-110.6458119,-110.6458119,,0
,,24-7400 Macleod Trail S.E.,,Calgary,AB,T2H 0L9,Canada,,50.9869712,-114.0708237,-114.0708237,,0
,,5017 17th Avenue S.E,,Calgary,AB,T2A 0V5,Canada,,51.0378357,-113.9628277,-113.9628277,,0
