store_name,store_number,address,address2,city,state,zip_code,country,phone_number,latitude,longitude,store_hours,other_fields,coming_soon
Tuscola IGA Plus,,607 E. Southline Rd.,,Tuscola,IL,61953,United States,(217)253-4781,39.7916194,-88.2803002,,,
Mahomet IGA Foodliner,,202 Eastwood  Dr.,,Mahomet,IL,61853,United States,(217)586-4988,40.195461,-88.395387,,,
IGA,,431 S. Hamilton,,Sullivan,IL,61951,United States,(217)728-8366,39.5950562,-88.6093322,,,
St,,205 North Main Street,,St. Joseph,IL,61873,United States,(217)469-2311,40.1124189,-88.0423512,,,
Neoga IGA,,183 W. Sixth,,Neoga,IL,62447,United States,(217)895-2251,39.3199513,-88.4547419,,,
Tuscola IGA Plus,,607 E. Southline Rd.,,Tuscola,IL,61953,United States,(217)253-4781,39.7916194,-88.2803002,,,
Arthur IGA,,215 S. Vine Street,,Arthur,IL,61911,United States,(217)543-2633,39.7157169,-88.4726993,,,
Sullivan IGA,,431 S. Hamilton,,Sullivan,IL,61951,United States,(217)728-8366,39.5950562,-88.6093322,,,
St,,205 North Main Street,,St. Joseph,IL,61873,United States,(217)469-2311,40.1124189,-88.0423512,,,
Neoga IGA,,183 W. Sixth,,Neoga,IL,62447,United States,(217)895-2251,39.3199513,-88.4547419,,,
Mahomet IGA Foodliner,,202 Eastwood  Dr.,,Mahomet,IL,61853,United States,(217)586-4988,40.195461,-88.395387,,,
Greenup IGA,,201 E. Cumberland Street,,Greenup,IL,62428,United States,(217)923-5045,39.247655,-88.1630469,,,
Oakwood IGA,,110 S. Scott Avenue,,Oakwood,IL,61858,United States,(217)427-5671,40.1155436,-87.7768522,,,
Catlin IGA,,102 N. Sandusky,,Catlin,IL,61817,United States,(217)427-5671,40.0662027,-87.7031244,,,
Martin's IGA,,505 N. Route 49,,Casey,IL,62420,United States,(217)932-5228,39.2032209,-87.9986843,,,
Ken's IGA,,707 North State,,Westville,IL,61883,United States,(217)267-2426,40.0439473,-87.643043,,,
Clinton IGA,,1047 Western Ave.,,Clinton,IN,47842,United States,(765)832-3517,39.658855,-87.410772,,,
Martins,,101 S. Merchant St.,,Effingham,IL,62401,United States,(217)347-7191,39.121254,-88.546877,,,
West Vigo IGA,,1000 W. National Road,,W. Terre Haute,IN,47885,United States,(812)533-2101,39.4627789,-87.4576037,,,
Clinton IGA,,220 East Van Buren,,Clinton,IL,61727,United States,(217)935-3779,40.1481548,-88.9594075,,,
LeRoy IGA,,200 S Chestnut Street,,Leroy,IL,61752,United States,(309)962-4741,40.346206,-88.7604842,,,
Paxton IGA Foodliner,,144 W. Pells Street,,Paxton,IL,60957,United States,(217)379-3312,40.4610594,-88.098112,,,
Newton IGA Foodcenter,,1108 South Van Buren Street,,Newton,IL,62448,United States,(618)783-2422,38.9780189,-88.1608432,,,
Rockville IGA,,1250 N. Lincoln Road,,Rockville,IN,47872,United States,(765)569-3149,39.776578,-87.237536,,,
Heyworth IGA,,104 N. Buchanan,,Heyworth,IL,61745,United States,(309)473-3211,40.3150161,-88.9776614,,,
Hoopeston IGA,,1030 W Chestnut Street,,Hoopeston,IL,60942,United States,(217)283-6683,40.4602004,-87.6873175,,,
Page's IGA,,120 South Forest,,Brazil,IN,47834,United States,(812)448-1779,39.5223468,-87.1248955,,,
Lincoln IGA,,713 Pulaski,,Lincoln,IL,62656,United States,(217)735-2221,40.1442181,-89.3612283,,,
Miller's IGA,,6505 South State Road 59,,Clay City,IN,47841,United States,(812)939-2107,39.291641,-87.109705,,,
Kent's IGA Foodliner,,1277 North 7th St.,,Riverton,IL,62561,United States,(217)629-9613,39.8574699,-89.539643,,,
IGA Olney,,1313 E. Main Street,,Olney,IL,62450,United States,(618)392-2111,38.7314505,-88.0712367,,,
Price Less IGA #447,,804 E. North Avenue,,Flora,IL,62839,United States,(618)662-8673,38.6718958,-88.4745654,,,
Minier IGA,,211 North Main Street,,Minier,IL,61759,United States,(309)392-2040,40.4316142,-89.3147288,,,
Borowiak's IGA,,State and 13th Street,,Lawrenceville,IL,62439,United States,(618)943-2767,38.729478,-87.684248,,,
Capri IGA Foodliner,,1201 Vandalia Road,,Hillsboro,IL,62049,United States,(217)532-3727,39.1491735,-89.4913003,,,
Fowler IGA Foodliner,,501 S. Grant,,Fowler,IN,47944,United States,(765)884-0590,40.613574,-87.314423,,,
El Paso IGA,,45 N. Fayette,,El Paso,IL,61738,United States,(309)527-4075,40.7385784,-89.0248412,,,
Mackinaw IGA,,100 N. Mai92,-84.2800393,,,
Bowling Green IGA,,3170 Louisville Road,,Bowling Green,KY,42101,United States,(270)782-1213,37.0104521,-86.395945,,,
IGA Express #802,,2447 Russellville Road,,Bowling Green,KY,42101,United States,(270)843-2245,36.966347,-86.484104,,,
Crossroads IGA #770,,619 N Main Street,,Smiths Grove,KY,42171,United States,(270)563-2401,37.044377,-86.2076309,,,
WDP Bronson Shell IGA Express,,215 E. Chicago,,Bronson,MI,49028,United States,(517)369-4525,41.8725814,-85.1933531,,,
Owensville IGA,,200 Main St,,Owensville,OH,45160,United States,(513)732-0322,39.1233071,-84.1333454,,,
Glasgow IGA,,425 Happy Valley Road,,Glasgow,KY,42141,United States,(270)651-3911,37.0050655,-85.9104544,,,
Glasgow IGA,,746 East Main Street,,Glasgow,KY,42141,United States,(270)651-5181,36.9867916,-85.8977815,,,
Fitchs IGA,,102 East Main,,Wilmore,KY,40390,United States,(606)858-3135,37.8607869,-84.6622667,,,
Edmonton Foods IGA,,1417 W. Stockton Street,,Edmonton,KY,42129,United States,(270)432-4674,36.9883543,-85.6370753,,,
Columbia IGA,,900 Jamestown Street,,Columbia,KY,42728,United States,(270)384-3106,37.0877512,-85.3026399,,,
WDP Pioneer Marshall IGA Express,,15423 North US 27,,Marshall,MI,49068,United States,(269)781-6900,42.284516,-84.965236,,,
Russell Springs IGA,,2453 Lakeway Drive,,Russell Springs,KY,42642,United States,(270)866-3507,37.0673553,-85.0728736,,,
WDP Nashville Shell & Subway IGA Express,,133 South Main Street,,Nashville,MI,49073,United States,(517)852-0868,42.6029765,-85.0935314,,,
Ron's IGA,,4577 W. State Route 10,,Tollesboro,KY,41189,United States,(606)798-3921,38.5673993,-83.5378211,,,
Bubba's Corner IGA Express,,11500 US Rt. 62,,Orient,OH,43146,United States,(614)877-1025,39.774504,-83.212262,,,
Monticello IGA,,Highwaty 90 North,,Monticello,KY,42633,United States,(270)780-2848,36.8703342,-84.8272168,,,
Pemberville IGA,,209 Bierley Ave.,,Pemberville,OH,43450,United States,(419)287-3263,41.413365,-83.454713,,,
Jerry's IGA,,800 Overton Place,,Livingston,TN,38570,United States,(931)823-6439,36.3806593,-85.3318363,,,
Westside IGA,,2335 Galena Pike,,W. Portsmouth,OH,45663,United States,(740)858-5122,38.7643,-83.0194999,,,
J&C Grocery,,108 N. Railroad,,Sumner,IA,50674,United States,(563)578-3364,42.848141,-92.0986439,,,
West Liberty IGA,,64 Highway 191,,West Liberty,KY,41472,United States,(606)743-2465,37.8453227,-83.2584419,,,
Jackson IGA,,723 Highway 15 North,,Jackson,KY,41339,United States,(606)666-8188,37.5615763,-83.3980985,,,
Rob's Family Market,,2330 Menasha Avenue,,Manitowoc,WI,54220,United States,(920)684-1129,44.1157617,-87.6801233,,,
Hansen's IGA,,830 Front Street,,Cashton,WI,54619,United States,(608)654-7682,43.743224,-90.778326,,,
Schild's IGA SuperCenter,,171 Milan Ave.,,Norwalk,OH,44857,United States,(419)668-5156,41.255088,-82.6122929,,,
Lakeview Market IGA Express,,9775 Elizabeth Lake Road,,White Lake,MI,48386,United States,(248)698-3030,42.639575,-83.477584,,,
Hansen's IGA,,1800 Commerical Street,,Bangor,WI,54614,United States,(608)486-2626,43.892547,-90.995327,,,
Marion Street,,Morgantown,IN,46160,United States,(812)597-4353,39.370601,-86.26351,,,
Trenton IGA Foodliner,,491 East Broadway,,Trenton,IL,62293,United States,(618)224-7236,38.6057233,-89.6761916,,,
Walker's IGA,,49 Michigan Road,,Burlington,IN,46915,United States,(765)566-3349,40.4810686,-86.3949682,,,
Price Less IGA #434,,510 N. Street,,Bedford,IN,47421,United States,(812)279-4425,38.859749,-86.489874,,,
Brown County IGA,,30 Hawthorne Dr.,,Nashville,IN,47448,United States,(812)988-4546,39.200836,-86.2390505,,,
New Baden Market IGA,,450 West Hanover,,New Baden,IL,62265,United States,(618)588-4523,38.535564,-89.709168,,,
Lebanon IGA,,620 S. Madison,,Lebanon,IL,62254,United States,(618)537-2111,38.598846,-89.806926,,,
Waddell's IGA,,125 East Main Street,,Russiaville,IN,46979,United States,(765)883-5388,40.4174733,-86.2703544,,,
Handy Foods IGA #318,,604 W. Main Street,,Ottawa,IL,61350,United States,(815)434-2300,41.3457168,-88.8483373,,,
IGA Jasper,,750 2nd Street,,Jasper,IN,47546,United States,(812)482-3166,38.388959,-86.939988,,,
PC Foods IGA,,618 E. Grant,,Granville,IL,61326,United States,(815)339-6827,41.2582207,-89.2206305,,,
IGA Darmstadt,,12500 North Highway 14,,Darmstadt,IN,47725,United States,(812)867-8610,38.0992097,-87.5789075,,,
Carrollton IGA,,803 5th Street,,Carrollton,IL,62016,United States,(217)942-9706,39.2960733,-90.4077048,,,
IGA Huntingburg,,1200 W. Main Street,,Huntingburg,IN,47542,United States,(812)683-4658,38.306258,-86.9554113,,,
D & R Market IGA,,931 West Market,,Logansport,IN,46947,United States,(574)722-2100,40.752753,-86.38283,,,
IGA Evansville,,4635 1st Avenue,,Evansville,IN,47110,United States,(812)467-7255,38.020771,-87.57237,,,
McKim's IGA,,1320 N. Main Street,,Mt. Vernon,IN,47620,United States,(812)838-6521,37.9417907,-87.8972289,,,
IGA Pensylvania,,4851 Pennsylvania Avenue,,Evansville,IN,47712,United States,(812)426-7080,37.9779218,-87.6097201,,,
IGA Evansville,,2220 E. Morgan Avenue,,Evansville,IN,47711,United States,(812)475-6730,37.9916371,-87.5230775,,,
IGA Evansville,,200 North Main Street,,Evansville,IN,47711,United States,(812)421-5860,37.9792372,-87.5639377,,,
Boonville Sav U Mor IGA,,220 S. Second Street,,Boonville,IN,47601,United States,(812)897-1814,38.0488487,-87.2755539,,,
Millstadt IGA,,625 East Washington,,Millstadt,IL,62260,United States,(618)476-3161,38.4625042,-90.0837859,,,
Ludlum Food Mart,,1001 Cole St.,,Bushnell,IL,61422,United States,(309)772-3144,40.5553285,-90.4992833,,,
Mt,,200 Pittsfield Road #A,,Mt. Sterling,IL,62353,United States,(217)773-2213,39.9792888,-90.7593633,,,
Frontier IGA,,2871 Highway 94 North,,St. Charles,MO,63301,United States,(636)946-6122,38.811015,-90.475312,,,
Haga Supermarket IGA,,316 Market Street,,Galva,IL,61434,United States,(309)932-3400,41.165405,-90.0441691,,,
Elsberry IGA Supermarket,,401 North Main Street,,Elsberry,MO,63343,United States,(573)898-2558,39.168954,-90.7825033,,,
Red Bud IGA,,1010 S. Main St.,,Red Bud,IL,62278,United States,(618)282-2520,38.2028554,-89.9939332,,,
Borowiak's IGA,,914 West Main Street,,Marion,IL,62959,United States,(618)997-9683,37.731367,-88.934619,,,
IGA Rockport,,509 Main Street,,Rockport,IN,47635,United States,(812)649-2435,37.883688,-87.049909,,,
Borowiak's IGA,,1114 South Division,,Carterville,IL,62918,United States,(618)985-5660,37.749342,-89.076594,,,
Noble's IGA Foodliner,,1535 - 10th Street,,Tell City,IN,47586,United States,(812)547-3556,37.9633847,-86.7671323,,,
Crossroads IGA,,8090 US Highwat 60 W.,,Lewisport,KY,42348,United States,(270)295-3881,37.9236173,-86.8083097,,,
Owensboro IGA,,201 Carter Road,,Owensboro,KY,42301,United States,(270)683-4765,37.7737285,-87.1481633,,,
Rhodes Market IGA Express,,409 Main Street,,Augusta,IL,62311,United States,(217)392-2221,40.2303298,-90.9611697,,,
Owensboro IGA,,1731 Scherm Road,,Owensboro,KY,42301,United States,(270)852-2329,37.7415884,-87.1293514,,,
Owensboro IGA,,900 East 25th Street,,Owensboro,KY,42303,United States,(270)926-1269,37.7516279,-87.099088,,,
Bill's IGA,,290 Hawes Blvd,,Hawesville,KY,42348,United States,(270)927-8034,37.895793,-86.7435911,,,
Sebree IGA,,598 Hwy 41 N,,Sebree,KY,42455,United States,(270)835-9263,37.6130892,-87.5277774,,,
Orion Food Center IGA,,510 11th Avenue,,Orion,IL,61273,United States,(309)526-8305,41.353401,-90.378433,,,
Morrison's Market IGA Express,,1103 17th Avenue,,Viola,IL,61486,United States,(309)596-2434,41.2030859,-90.5892763,,,
Calhoun IGA,,230 West Second Street,,Calhoun,KY,42327,United States,(270)273-3091,37.5366921,-87.2606783,,,
Whitesville Hometown IGA,,10035 Highway 54 East,,Whitesville,KY,42378,United States,(270)233-1471,37.6659194,-86.8361242,,,
Sam's IGA,,212 N First Street,,Vienna,IL,62995,United States,(618)658-6181,37.4160134041979,-88.8930716587559,,,
Minars IGA,,949 W State Street,,Albany,IN,47320,United States,(765)789-4663,40.2995908,-85.247646,,,
The Village Store IGA,,22182 Main Street,,Oldenburg,IN,47036,United States,(812)934-3011,39.339881,-85.205965,,,
Fultz's IGA,,473 East Main Street,,Hagerstown,IN,47346,United States,(765)489-5631,39.907612,-85.154163,,,
Hometown IGA,,111 Old Highway 60,,Hardinsburg,KY,40143,United States,(270)756-5547,37.7800591,-86.4605337,,,
Livermore IGA,,313 Henton Street,,Livermore,KY,42352,United States,(270)278-2231,37.4900044,-87.131474,,,
Versailles IGA,,1004 Adams Street,,Versailles,IN,47042,United States,(812)689-1400,39.05598,-85.258311,,,
Price Less IGA #66,,10968 Dixie Highway,,Louisville,KY,40272,United States,(502)995-3886,38.093598,-85.875189,,,
Hometown IGA,,1137 Highway 231 South,,Hartford,KY,42347,United States,(270)298-3709,37.4726371,-86.9207556,,,
Sunman IGA,,114 N. Meridian Street,,Sunman,IN,47041,United States,(812)623-2297,39.2371861359055,-85.0944580105267,,,
Sawyer Market IGA Express,,5864 Sawyer Road,,Sawyer,MI,49125,United States,(269)426-4646,41.885222,-86.593922,,,
Brookville IGA,,11153 US Highway 52 S.,,Brookville,IN,47012,United States,(765)647-6562,39.4016391,-85.0047473,,,
Price Less IGA #19,,3417 A Breckinridge Lane,,Louisville,KY,40220,United States,(502)491-9884,38.225317,-85.637694,,,
Manchester IGA,,414 Manchester Square,,Manchester,KY,40962,United States,(606)598-6232,39.1643245,-85.0088316,,,
Dillsboro IGA,,12730 Main St.,,Dillsboro,IN,47018,United States,(812)432-5992,39.0169387,-85.0563435,,,
Price Less IGA #18,,7813 Beulah Church Road,,Louisville,KY,40228,United States,(502)239-7297,38.135704,-85.612558,,,
Price Less Foods Hillview #65,,175 Market Place Drive,,Hillview,KY,40229,United States,(502)957-0364,38.072538,-85.672532,,,
Crossroads IGA,,14010 Shelbyville Road,,Louisville,KY,40245,United States,502-253-4565-,38.239023,-85.48964,,,
Hickmans IGA,,104 Marybell Street,,Perry,MO,63462,United States,(573)565-3222,39.429015,-91.6716448,,,
IGA Plus - Vevay,,705 E Main Street,,Vevay,IN,47043,United States,(812)427-3544,38.751477,-85.058652,,,
Bright Market IGA,,24072 State Line Rd,,Lawrenceburg,IN,47025,United States,(812)637-1700,39.220209,-84.856384,,,
Tandy's IGA,,201 Third Street,,Aurora,IN,47001,United States,(812)926-2909,39.0548545,-84.8990256,,,
Egolf's IGA,,609 S. Main Street,,Churubusco,IN,46723,United States,(260)693-2909,41.2271543,-85.3179325,,,
Food World IGA,,9400 Highway 60 W.,,Kevil,KY,42053,United States,(270)488-3161,37.0797397,-88.9273023,,,
Leitchfield IGA,,Southgate Mall 492 South Main Street,,Leitchfield,KY,42754,United States,(270)259-5966,37.4713363,-86.2941624,,,
Tandy's IGA Foodliner,,524 N. High Street,,Rising Sun,IN,47040,United States,(812)438-2405,38.955642,-84.850238,,,
Price Less Foods - Elizabethtown,,"300 Sycamore Street, Suite 100",,Elizabethtown,KY,42701,United States,(270)769-1560,37.703763,-85.865471,,,
Hometown IGA #435,,200 Cottage Street,,Camden,OH,45311,United States,(937)452-1274,39.629972,-84.645543,,,
Millville IGA Express,,18 Millville-Oxford Road,,Millville,OH,45013,United States,(513)868-7847,39.391823,-84.654898,,,
Eikenberry's IGA Foodliner,,1120 Sweitzer St.,,Greenville,OH,45331,United States,(937)548-9214,40.084048,-84.636662,,,
Morgantown IGA,,779 South Main,,Morgantown,KY,42261,United States,(270)526-4727,37.2100601,-86.6940261,,,
IGA Plus - Ross,,3743 Hamilton Cleves,,Hamilton,OH,47042,United States,(513)738-3604,39.32481,-84.635955,,,
Ross/Hamilton IGA Express,,4193 Hamilton Cleves Road,,Hamilton,OH,45014,United States,(513)738-3771,39.330171,-84.6299,,,
Laurel Saint Henry,,451  Stachler Drive,,St. Henry,OH,45883,United States,(419)678-4249,40.426876,-84.627891,,,
WDP Jones Shell IGA Express,,10729 M-60,,Jones,MI,49061,United States,(269)244-8678,41.9041415,-85.792352,,,
Route 18 IGA Express,,986 Burlington Pike,,Florence,KY,41042,United States,(859)271-9607,39.006948,-84.658739,,,
Clinton Foods IGA,,603 Church Street,,Clinton,WI,53525,United States,(608)676-4606,42.5624994,-88.8650667,,,
Wagner's IGA,,200 S. Main Street,,Ft. Loramie,OH,45845,United States,(937)420-3537,40.3432302,-84.3753601,,,
Crossroads IGA,,3954 Highway 185,,Bowling Green,KY,42101,United States,(270)746-0457,37.0518138,-86.4385043,,,
Wagners IGA Market,,257 East 4th Street,,Minister,OH,45865,United States,(419)628-3537,40.392468,-84.3754809,,,
Howell's IGA,,444 South Washington,,New Bremen,OH,45869,United States,(419)629-2277,40.426824,-84.377704,,,
Mundfordville IGA,,1001 W Main Street,,Munfordville,KY,42625,United States,(270)524-3644,37.2766864,-85.8972399,,,
Todd's IGA Express,,313 West State Street,,Trenton,OH,45067,United States,(513)988-5068,39.4809362,-84.4628575,,,
Wayne IGA,,206 North Wayne Street,,Fort Recovery,OH,45846,United States,(419)375-2865,40.55258792,-84.56890909,,,
New Haven IGA,,132 S. Main,,New Haven,KY,40051,United States,(502)549-3638,37.6492679,-85.5981832,,,
Johns IGA Foodliner,,1327 East Main Street,,Versailles,OH,45380,United States,(937)526-3349,40.225128,-84.46588,,,
McMaken's IGA,,1 McMaken Lane,,Brookville,OH,45309,United States,(937)833-2118,39.8401491,-84.4229631,,,
Patty's IGA Market,,106 East Main Street,,Bradford,OH,45308,United States,(513)448-2710,40.1324029,-84.430475,,,
Route 17 IGA Express,,4147 Madison Pike,,Covington,KY,41017,United States,(859)356-3559,38.991756,-84.534153,,,
Monroe IGA Express,,2 East Avenue,,Monroe,OH,45050,United States,(513)539-8568,39.444287,-84.359351,,,
Dillonvale IGA,,3950 E. Galbraith Road,,Cincinnati,OH,45236,United States,(513)984-5249,39.2087554,-84.4030008,,,
West Milton IGA,,1177 S. Miami,,West Milton,OH,45383,United States,(937)698-4206,39.9435437,-84.320214,,,
Wagner's IGA,,200 S. Main Street,,Ft. Loramie,OH,45845,United States,(937)420-3537,40.3432302,-84.3753601,,,
Crossroads IGA,,3954 Highway 185,,Bowling Green,KY,42101,United States,(270)746-0457,37.0518138,-86.4385043,,,
Wagners IGA Market,,257 East 4th Street,,Minister,OH,45865,United States,(419)628-3537,40.392468,-84.3754809,,,
Howell's IGA,,444 South Washington,,New Bremen,OH,45869,United States,(419)629-2277,40.426824,-84.377704,,,
Mundfordville IGA,,1001 W Main Street,,Munfordville,KY,42625,United States,(270)524-3644,37.2766864,-85.8972399,,,
Hunter IGA Express,,4077 West Route 122,,Franklin,OH,45005,United States,(937)746-1139,39.4925592,-84.2800393,,,
IGA Express #838,,508 Gordon Avenue,,Bowling Green,KY,42101,United States,(270)782-6911,37.003655,-86.443231,,,
Hartzell's IGA,,7989 Rte. 78 North,,Warren,IL,61087,United States,(815)745-3311,42.5015957,-90.0031402,,,
Nabali Friendly IGA,,2288 N. Gettysburg,,Dayton,OH,45406,United States,(937)278-4236,39.78598,-84.253178,,,
IGA Express #813,,5202 Old Louisville Road,,Bowling Green,KY,42101,United States,(270)281-1455,37.005387,-86.419222,,,
Bowling Green IGA,,3170 Louisville Road,,Bowling Green,KY,42101,United States,(270)782-1213,37.0104521,-86.395945,,,
Crossroads IGA,,2560 Mt. Victor Lane,,Bowling Green,KY,42103,United States,(270)781-3059,36.9903199,-86.4436018,,,
IGA Express #837,,3380 Louisville Road,,Bowling Green,KY,42101,United States,(270)782-1366,37.010283,-86.39371,,,
Bowling Green IGA,,1901 Russellville Road,,Bowling Green,KY,42101,United States,(270)842-6140,36.979552,-86.468282,,,
IGA Express Munfordville,,1011 South Dixie Highway,,Munfordville,KY,42765,United States,(270)524-9259,37.2598722,-85.8834622,,,
IGA Express #802,,2447 Russellville Road,,Bowling Green,KY,42101,United States,(270)843-2245,36.966347,-86.484104,,,
Price Less IGA Russellville #590,,113 Logan Square,,Russellville,KY,42276,United States,(270)726-0060,36.82218,-86.888524,,,
Crossroads IGA,,7604 Russellville Road,,Bowling Green,KY,42101,United States,(270)782-3560,36.9285647,-86.5463308,,,
WDP Mendon IGA Express Shell,,465 W. Main Street,,Mendon,MI,49072,United States,(269)496-4965,42.0063724,-85.4567181,,,
Park View IGA,,1111 Lincoln Road,,Springfield,KY,40069,United States,(859)336-9600,37.6901481,-85.2189643,,,
Crossroads IGA #770,,619 N Main Street,,Smiths Grove,KY,42171,United States,(270)563-2401,37.044377,-86.2076309,,,
Lebanon IGA Express,,118 W. Main Street,,Lebanon,OH,45036,United States,(513)932-3006,39.433887,-84.210904,,,
IGA Express #828,,1790 Cave Mill Road,,Bowling Green,KY,42104,United States,(270)842-9265,36.943195,-86.433538,,,
Horse Cave IGA,,390 North Dixie Hwy,,Horse Cave,KY,42749,United States,(270)786-2639,37.1746931,-85.9149523,,,
Cave City IGA,,112 1st. Street,,Cave City,KY,42127,United States,(270)773-3818,37.1393978,-85.9583528,,,
WDP Bronson Shell IGA Express,,215 E. Chicago,,Bronson,MI,49028,United States,(517)369-4525,41.8725814,-85.1933531,,,
IGA Express #839,,5281 Scottsville Road,,Bowling Green,KY,42102,United States,(270)781-0394,36.923872,-86.410894,,,
Rivertown IGA,,1041 Old U.S. 52,,New Richmond,OH,45157,United States,(513)553-4245,38.9686639,-84.286734,,,
Crossroads IGA,,5499 Scottsville Road,,Bowling Green,KY,42104,United States,(270)782-1828,36.9200716,-86.4088512,,,
Anna Market Everyday IGA,,315 West Main Street,,Anna,OH,45302,United States,(937)394-3011,40.3948589,-84.1778009,,,
Owensville IGA,,200 Main St,,Owensville,OH,45160,United States,(513)732-0322,39.1233071,-84.1333454,,,
Price Less IGA - Clarksville,,1140 Ft. Campbell Road,,Clarksville,TN,37042,United States,(931)503-2216,36.554408,-87.39475,,,
Phillips Everyday IGA,,67 East Main Street,,Hiseville,KY,42152,United States,(270)453-2641,37.1004338,-85.8131985,,,
New Carlisle IGA,,534 North Main Street,,New Carlisle,OH,45344,United States,(937)845-0697,39.946282,-84.021914,,,
Greensburg IGA,,855 Campbellesville Road,,Greensburg,KY,42743,United States,(270)932-4996,37.273094,-85.4947573,,,
Glasgow IGA,,425 Happy Valley Road,,Glasgow,KY,42141,United States,(270)651-3911,37.0050655,-85.9104544,,,
Glasgow IGA,,619 South L. Rogers Blvd.,,Glasgow,KY,42141,United States,(270)651-7577,36.9846066,-85.9315916,,,
Price Le$$ IGA - Franklin,,1350 Harding Road,,Franklin,KY,42134,United States,(270)586-3454,36.7132517,-86.5632266,,,
Price Less IGA,,300 Lakeway Shopping Center,,Campbellsville,KY,42718,United States,(270)465-4391,37.343397,-85.341907,,,
Enon IGA,,7581 Dayton Rd.,,Enon,OH,45323,United States,(937)864-7359,39.8658659,-83.95726,,,
Glasgow IGA,,746 East Main Street,,Glasgow,KY,42141,United States,(270)651-5181,36.9867916,-85.8977815,,,
St,,311 West Main Street,,St. Paris,OH,43072,United States,(937)663-4523,40.12926,-83.964375,,,
IGA Express Glasgow,,1485 Burkesville Road,,Glasgow,KY,42141,United States,(270)651-5228,36.9822089,-85.8935447,,,
Thompson's IGA,,312 South Main Street,,Cuba City,WI,53807,United States,(608)744-2213,42.6034244,-90.4308027,,,
Felicity IGA,,412 Light Street,,Felicity,OH,45120,United States,(513)876-2631,38.8407057,-84.0954193,,,
Fitchs IGA,,102 East Main,,Wilmore,KY,40390,United States,(606)858-3135,37.8607869,-84.6622667,,,
IGA Express,,719 East Main St.,,Scottsville,KY,42164,United States,(270)237-4068,36.7526789,-86.1834164,,,
Lee's Bestway IGA,,117 E. Miami Street,,Brookville,KY,41004,United States,(606)735-2123,38.6821755,-84.0633468,,,
Lakeway IGA,,2601 East Wood Street,,Paris,TN,38242,United States,(731)642-1252,36.320001,-88.276389,,,
Pioneer Village Market IGA,,201 S. State Street,,Pioneer,OH,43554,United States,(419)737-2320,41.6789601,-84.5535044,,,
Edmonton Foods IGA,,1417 W. Stockton Street,,Edmonton,KY,42129,United States,(270)432-4674,36.9883543,-85.6370753,,,
K's Bestway IGA,,201 E Heather Renee French Blvd.,,Augusta,KY,41002,United States,(606)756-2145,38.7708579345382,-84.0050259232787,,,
IGA Plus - Georgetown,,4905 State Route 125,,Georgetown,OH,45121,United States,(937)378-1600,38.862613,-83.891161,,,
Thoman's IGA,,201 S. Detroit,,West Liberty,OH,43357,United States,(937)465-3936,40.2533604,-83.7559567,,,
Big Sandy Supermarket,,13870 Highway 69 A,,Big Sandy,TN,38221,United States,(731)593-0053,36.233993,-88.090353,,,
Columbia IGA,,900 Jamestown Street,,Columbia,KY,42728,United States,(270)384-3106,37.0877512,-85.3026399,,,
Liberty Square IGA,,150 Liberty Square,,Liberty,KY,42539,United States,(606)787-6262,37.3217349,-84.9403279,,,
WDP Homer IGA Express Shell,,221 W. Leigh Street,,Homer,MI,49245,United States,(517)568-4585,42.1470308,-84.8109229,,,
Shoemaker-Garringer Market,,111 S. Chillicothe St.,,South Charleston,OH,45368,United States,(937)462-8353,39.8227315,-83.6335641,,,
Price Less IGA #24,,5716 Austin Peay Highway,,Westmoreland,TN,37186,United States,(615)644-3245,36.5543253,-86.2296885,,,
WDP Pioneer Marshall IGA Express,,15423 North US 27,,Marshall,MI,49068,United States,(269)781-6900,42.284516,-84.965236,,,
Ripley IGA,,1015 South 2nd Street,,Ripley,OH,45167,United States,(937)392-1357,38.730186,-83.836512,,,
Sabina Hometown IGA,,440 E. Washington Street,,Sabina,OH,45169,United States,(937)584-4490,39.489261,-83.62861,,,
Bush's IGA,,123 Main Street,,Winchester,KY,40391,United States,(859)745-1133,37.9957252,-84.1757543,,,
Tompkinsville IGA,,704 North Main Street,,Tompkinsville,KY,42167,United States,(270)487-6300,36.7057942,-85.6884846,,,
Russell Springs IGA,,2453 Lakeway Drive,,Russell Springs,KY,42642,United States,(270)866-3507,37.0673553,-85.0728736,,,
Ron's IGA - Maysville,,1200 Forest Avenue,,Maysville,KY,41056,United States,(606)563-0675,38.640202,-83.7389749,,,
Appleseed IGA,,128 Vail Street,,Arlington,OH,45814,United States,(419)365-7007,40.8972918,-83.6526031,,,
Burkesville IGA,,210 A. North Main Street,,Burkesville,KY,42717,United States,(270)864-3167,36.7918033,-85.3689287,,,
Burkesville IGA,,116 Keen Street,,Burkesville,KY,42717,United States,(270)864-2234,36.7838519,-85.3696785,,,
WDP Nashville Shell & Subway IGA Express,,133 South Main Street,,Nashville,MI,49073,United States,(517)852-0868,42.6029765,-85.0935314,,,
Price Le$$ Old Hickory,,4331 Old Hickory Blvd.,,Old Hickory,TN,37138,United States,(615)847-2699,36.2179228,-86.6240397,,,
Prather's IGA,,107 East Walnut Street,,West Union,OH,45693,United States,(937)544-2643,38.7936311,-83.5456099,,,
Crossroads IGA,,9630 W Highway 80,,Nancy,KY,42544,United States,(606)636-5509,37.081921,-84.7620978,,,
WDP Vandercook Shell & Quizno's Express,,1302 E. McDevitt,,Jackson,MI,49203,United States,(517)788-8127,42.1973859,-84.3741404,,,
Ron's IGA,,4577 W. State Route 10,,Tollesboro,KY,41189,United States,(606)798-3921,38.5673993,-83.5378211,,,
Pettit's New Holland IGA Express,,38 East Front Street,,New Holland,OH,43145,United States,(740)495-5105,39.55421,-83.2558449,,,
E-Z Stop IGA Express,,Main Street,,Clay City,KY,40312,United States,(606)663-1500,37.8630128,-83.9249082,,,
Clay City IGA,,5669 Main Street,,Clay City,KY,40312,United States,(606)663-1500,37.8606415,-83.9210675,,,
Mt,,305 Crab Orchard Road,,Mt. Vernon,KY,40456,United States,(606)256-2514,37.3523354,-84.3454495,,,
Bubba's Corner IGA Express,,11500 US Rt. 62,,Orient,OH,43146,United States,(614)877-1025,39.774504,-83.212262,,,
Somerset IGA,,470 East SR-80,,Somerset,KY,42501,United States,(606)677-2409,37.0966205,-84.6138731,,,
Crossroads IGA,,1830 East Highwaty 80,,Somerset,KY,42501,United States,(606)678-5962,37.1013939,-84.5899409,,,
Hometown IGA,,39 Westview Shopping Center,,Albany,KY,42602,United States,(606)387-5117,36.6908991,-85.1346776,,,
Frederick IGA #1776,,140 East Findlay Street,,Carey,OH,43316,United States,(419)396-7607,40.9523669,-83.3814568,,,
Monticello IGA,,Highwaty 90 North,,Monticello,KY,42633,United States,(270)780-2848,36.8703342,-84.8272168,,,
Pettit's IGA Express,,107 Mill Street,,Williamsport,OH,43164,United States,(740)986-6001,39.5855746,-83.1200791,,,
Ron's IGA,,47 2nd Street,,Vanceburg,KY,41179,United States,(606)796-6431,38.59895,-83.314103,,,
Gibson's IGA Express,,2969 St Rd 772,,Chillicothe,OH,45601,United States,(740)663-7086,39.216214,-83.113052,,,
Smallwood IGA,,1175 Highway 36,,Frenchburg,KY,40322,United States,(606)768-4111,37.9858096,-83.6212929,,,
Pemberville IGA,,209 Bierley Ave.,,Pemberville,OH,43450,United States,(419)287-3263,41.413365,-83.454713,,,
Little's Village IGA,,704 Parsons Avenue,,Columbus,OH,43206,United States,(614)449-7703,39.9495375,-82.9823022,,,
Allen's IGA,,224 Morehead Plaza,,Morehead,KY,40351,United States,(606)784-4311,38.1839705,-83.4326841,,,
Cook's Oakland Park IGA,,1225 Oakland Park Ave.,,Columbus,OH,43224,United States,(614)268-4411,40.0318619,-82.980756,,,
H & G IGA Express,,120 S. Sycamore Street,,Sycamore,OH,44882,United States,(419)927-6212,40.9490238,-83.1698555,,,
Jerry's IGA,,800 Overton Place,,Livingston,TN,38570,United States,(931)823-6439,36.3806593,-85.3318363,,,
Ashville IGA,,300 N. Long Street,,Ashville,OH,43103,United States,(740)983-2211,39.719365,-82.952774,,,
Taylors IGA,,686 Eastern Ave.,,Chillicothe,OH,45601,United States,(740)774-4530,39.3246001,-82.9610736,,,
Heritage IGA,,479 E. Market Street,,Tiffin,OH,44883,United States,(419)447-5333,41.1195926,-83.1643961,,,
My IGA,,285 Main Street,,Beattyville,KY,41311,United States,(606)464-2707,37.5736123,-83.7109852,,,
Westside IGA,,2335 Galena Pike,,W. Portsmouth,OH,45663,United States,(740)858-5122,38.7643,-83.0194999,,,
Hill's IGA,,1010 N. Washington,,Cookeville,TN,38501,United States,(931)526-4924,36.1755718,-85.4969271,,,
E,,714 East 4th Street,,London,KY,40741,United States,(606)864-5145,37.1310739,-84.0745793,,,
Gale's IGA,,710 State Street,,Hart,MI,49420,United States,(231)873-3333,43.6950417,-86.3639881,,,
Tarlton IGA Express,,25 Harrison Street,,Tarlton,OH,43156,United States,(740)474-2072,39.5563069,-82.776338,,,
J&C Grocery,,108 N. Railroad,,Sumner,IA,50674,United States,(563)578-3364,42.848141,-92.0986439,,,
Lansing IGA,,314 Main Street,,Lansing,IA,52151,United States,(563)538-4774,43.361814,-91.2173,,,
Minford IGA,,5348 State Route 335,,Minford,OH,45653,United States,(740)820-4500,38.88885,-82.831125,,,
Hansen's IGA,,1701 Omaha Street,,Elroy,WI,53929,United States,(608)462-8200,43.7593926,-90.2744387,,,
Gillian's IGA,,Route 7 and 32,,Sandy Hook,KY,41171,United States,(606)738-6621,38.123142,-83.1046964,,,
West Liberty IGA,,64 Highway 191,,West Liberty,KY,41472,United States,(606)743-2465,37.8453227,-83.2584419,,,
Snyder's IGA,,520 North Main Street,,Perry,MI,48872,United States,(517)625-3174,42.8304604,-84.2192498,,,
Baltimore IGA Express,,1001 South Main Street,,Baltimore,OH,43105,United States,(740)862-5240,39.83678,-82.607276,,,
Manchester IGA,,1628 S. Highway 421,,Manchester,KY,40962,United States,(606)598-3773,37.152818,-83.7608244,,,
Swafford & Sons IGA,,6870 S. York Highway,,Clarkrange,TN,38553,United States,(931)863-3082,36.1867019,-85.021675,,,
Jackson IGA,,723 Highway 15 North,,Jackson,KY,41339,United States,(606)666-8188,37.5615763,-83.3980985,,,
Hogue's IGA,,855 Kilbourne Street,,Bellevue,OH,44811,United States,(419)483-2310,41.2635762,-82.8591303,,,
Williamsburg IGA,,25 Hwy. 25 W. North,,Williamsburg,KY,40769,United States,(606)549-2921,36.7434169,-84.1596561,,,
Hansen's IGA,,419 N. Main Street,,Westby,WI,54667,United States,(608)634-2464,43.6592295,-90.8569659,,,
Missler's IGA,,121 Blossom Ctr. Blvd,,Willard,OH,44890,United States,(419)935-7801,41.0411685,-82.7245629,,,
Rob's Family Market,,2330 Menasha Avenue,,Manitowoc,WI,54220,United States,(920)684-1129,44.1157617,-87.6801233,,,
Ross's Granville Market,,484 South Main Street,,Granville,OH,43023,United States,(740)587-0031,40.062931,-82.519117,,,
Helenwood Foods IGA,,12460 Scott Highway,,Helenwood,TN,37755,United States,(423)569-8110,36.425752,-84.5346239,,,
Cornells IGA Foodliner,,140 Mansfield Ave.,,Shelby,OH,44875,United States,(419)347-2223,40.872255,-82.648924,,,
Price Less IGA,,1770 Mooreville Highway,,Lewisburg,TN,37091,United States,(931)359-8498,35.454191,-86.818514,,,
Hansen's IGA,,830 Front Street,,Cashton,WI,54619,United States,(608)654-7682,43.743224,-90.778326,,,
Baker's IGA,,524 S. Main Street,,Mount Vernon,OH,43050,United States,(740)397-9907,40.385843,-82.485224,,,
Barbourville IGA,,193 Parkway Plaza,,Barbourville,KY,40906,United States,(606)546-8320,36.8580977,-83.8700798,,,
The Market IGA Express,,20175 Telegraph Road,,Brownstown,MI,48174,United States,(734)479-1240,42.158085,-83.265929,,,
Salyersville IGA,,433 Parkway Drive,,Salyersville,KY,41465,United States,(606)349-2214,37.7456789,-83.058831,,,
Schild's IGA SuperCenter,,171 Milan Ave.,,Norwalk,OH,44857,United States,(419)668-5156,41.255088,-82.6122929,,,
Price Less IGA,,75 Genesis Square,,Crossville,TN,38555,United States,(931)459-2014,35.954279,-85.031381,,,
Red's Hometown Market IGA,,500 East Main,,Spring Grove,MN,55974,United States,(507)498-5484,43.5615011,-91.629735,,,
Superior Food Market IGA,,U.S. Highway 421 South,,McKee,KY,40447,United States,(606)287-8148,37.1622167,-83.3733824,,,
Hyden IGA,,21224 Highway 421,,Hyden,KY,41749,United States,(606)672-2070,37.1320458,-83.3753305,,,
Lakeview Market IGA Express,,9775 Elizabeth Lake Road,,White Lake,MI,48386,United States,(248)698-3030,42.639575,-83.477584,,,
KD's IGA,,108 E. Ann Street,,Weyauwega,WI,54983,United States,(920)867-4161,44.3233956,-88.933891,,,
Hansen's IGA,,834 West Wisconsin Street,,Sparta,WI,54656,United States,(608)269-6752,43.9391973,-90.8222033,,,
Weber City IGA,,969 Highway 23 South,,Weber City,VA,24290,United States,(276)225-7461,37.8509616,-82.8242579,,,
Hometown IGA #41,,1014 Main Street,,Wartburg,TN,37887,United States,(423)346-3344,36.101594,-84.58746,,,
Hansen's IGA,,1800 Commerical Street,,Bangor,WI,54614,United States,(608)486-2626,43.892547,-90.995327,,,
LaFollette IGA,,1221 Jacksboro Pike,,La Follette,TN,37766,United States,(423)562-3123,36.3669412,-84.1360156,,,
Hansen's IGA,,635 West Hwy. 16,,West Salem,WI,54669,United States,(608)786-1730,43.89954173,-91.09188245,,,
Stake's IGA,,430 N. Jefferson Street,,Loudonville,OH,44842,United States,(419)994-3204,40.639521,-82.227268,,,
Harmony IGA,,55 Center Street West,,Harmony,MN,55939,United States,(507)886-2225,43.5543225,-92.0107076,,,
Casey's IGA,,130 Holly Hills Mall Road,,Hindman,KY,41822,United States,(606)785-4600,37.3359313,-82.9804414,,,
Happy IGA,,10036 Hwy 15 South,,Happy,KY,41746,United States,(606)476-8729,37.2067691,-83.072798,,,
Gateway IGA,,524 N. Gateway Avenue,,Rockwood,TN,37854,United States,(865)354-8303,35.8715009,-84.6790121,,,
Village Market IGA,,7026 Cumberland Gap Parkway,,Harrogate,TN,37752,United States,(423)869-2307,36.5755879,-83.6544935,,,
Martin IGA,,12602 Main St.,,Martin,KY,41649,United States,(606)285-3932,37.5737036,-82.7522687,,,
Inez Shoprite,,30 Rock Castle Road,,Inez,KY,41224,United States,(606)298-3510,37.910927,-82.532466,,,
Stodola IGA,,602 Center Drive,,Luxemburg,WI,54217,United States,(920)845-2914,44.546258,-87.698727,,,
West Salem IGA,,12 N. Main St.,,West Salem,OH,44287,United States,(419)853-4277,40.9727843,-82.1097925,,,
Holt's IGA,,2762-B Huntsville Hwy,,Fayettville,TN,37334,United States,(931)607-7045,35.075777,-86.570377,,,
Rushford IGA,,400 S. Mill Street,,Rushford,MN,55971,United States,(507)864-2878,43.8070278,-91.753196,,,
Scheck's IGA,,405 West South Street,,Shreve,OH,44676,United States,(330)567-2045,40.6795913,-82.0279347,,,
Forward Country Corners IGA Express,,11 E. Isabella Road,,Midland,MI,48640,United States,(989)832-3491,43.612464,-84.3684996,,,
P & G IGA Market,,140 N. Main St.,,Killbuck,OH,44637,United States,(330)276-3300,40.4959542,-81.984233,,,
Amherst IGA Foodliner,,1190 Milan Road,,Amherst,OH,44001,United States,(440)984-2272,41.397867,-82.249728,,,
Oberlin IGA,,331 East Lorain,,Oberlin,OH,44074,United States,(440)774-6351,41.293422,-82.205355,,,
McDowell IGA,,9623 Kentucky Rte. 122,,Mcdowell,KY,41647,United States,(606)377-6911,37.4573236,-82.7478569,,,
Preston IGA,,105 Fillmore 1 West,,Preston,MN,55965,United States,(507)765-2465,43.6703066,-92.0804954,,,
Hank's Market,,691 Emory Valley Road,,Oak Ridge,TN,37830,United States,(865)425-6995,36.020213,-84.227214,,,
LaGrange IGA,,540 North Center Street,,LaGrange,OH,44050,United States,(440)355-9920,41.245532,-82.11763,,,
Rodhe's IGA Marketplace,,2105 Glen Drive,,Millersburg,OH,44654,United States,(330)674-7075,40.5431462,-81.9124941,,,
Midway Market IGA,,7345 Tazewell Pike,,Corryton,TN,37721,United States,(865)687-4170,36.117693,-83.85497,,,
Schilds IGA Foodliner,,34981 Royalton Road,,Grafton,OH,44044,United States,(440)748-3751,41.313132,-82.000291,,,
Fruchey Family Market IGA,,360 N. Ross Street,,Beaverton,MI,48612,United States,(989)435-7712,43.8797534,-84.4853208,,,
Steve's Country Market IGA,,3170 N. Clare Avenue,,Harrison,MI,48625,United States,(989)539-3110,44.035174,-84.80817,,,
Food World IGA,,3149 Highway 805,,Neon,KY,41840,United States,(606)855-4224,37.1932871,-82.7104337,,,
Grabeel's IGA,,Highway 58,,Jonesville,VA,24263,United States,(276)346-3569,36.6785875,-83.1633663,,,
Fruchey Family Market IGA,,4516 S. M-30,,Edenville,MI,48612,United States,(989)435-9131,43.8566083,-84.3663042,,,
Grabeel's IGA,,140 E. Morgan Avenue,,Pennington Gap,VA,24277,United States,(276)546-5838,36.7594685,-83.0254358,,,
Shaker's IGA MarketPlace,,27091 Bagley Road,,Olmsted Township,OH,44138,United States,(440)235-4300,41.3725222,-81.9425053,,,
Rittman IGA,,220 N. Main Street,,Rittman,OH,44270,United States,(330)925-9502,40.97949,-81.780727,,,
Baker's IGA,,370 Downtowner Plaza,,Coshocton,OH,43812,United States,(740)622-6523,40.2689148,-81.8715152,,,
Isom IGA,,#29 Isom Shopping Plaza,,Isom,KY,41824,United States,(606)633-9820,37.1949819,-82.8694464,,,
Warfield Shoprite,,9134 Beauty Road,,Warfield,KY,41267,United States,(606)395-5050,37.842577,-82.4183,,,
Hudson's IGA,,Route 10 South Lincoln Plaza,,West Hamlin,WV,25571,United States,(304)824-7150,38.2697984,-82.1996522,,,
Simon's Supermarket IGA,,7600 Birch Run Road,,Millington,MI,48746,United States,(989)871-4314,43.2516829,-83.6089121,,,
Greene's IGA Supermarket,,138 Jail Street,,Sneedville,TN,37869,United States,(423)733-4218,36.5297521,-83.2163491,,,
Sponey's IGA Foodliner,,411 Fifth,,Beverly,OH,45715,United States,(740)984-2933,39.548463,-81.632669,,,
Jody's Supermarket,,Route 3/10960 Straight Fork Road,,Yawkey,WV,25573,United States,(304)524-7772,38.2250948,-81.964853,,,
Baker's IGA,,100 Andreas Dr.,,Sugarcreek,OH,44681,United States,(330)852-2621,40.500385,-81.635788,,,
James IGA Country Store,,"34 New England Ridge Rd,",,Washington,WV,26181,United States,(304)863-6300,39.2150133,-81.6542275,,,
Baker's IGA,,316 South College Street,,Newcomerstown,OH,43832,United States,(740)622-7979,40.272461,-81.602909,,,
Hansen's IGA,,305 West Fifth Street,,Neillsville,WI,54456,United States,(715)743-3865,44.5599082,-90.5984241,,,
Price Less IGA - Strawberry,,522 Andrew Johnson Highway,,Strawberry Plains,TN,37871,United States,(865)933-9223,36.03777787,-83.72134611,,,
Pound IGA,,11133 Indian Creek Road,,Pound,VA,24279,United States,(276)796-4042,37.1178958,-82.5981782,,,
Price Less Athens,,1312 Decatur Pike,,Athens,TN,37303,United States,(423)745-6796,35.4505603,-84.616596,,,
Holt's Food Center IGA,,1050 Main Street,,Bean Station,TN,37708,United States,(865)993-3239,36.3447382,-83.2881495,,,
KT Everyday IGA,,2500 Kanawha Terrace,,St. Albans,WV,25177,United States,(304)727-7931,38.3769704,-81.805306,,,
Sugar Shack IGA Express,,5490 Butman Road,,Gladwin,MI,48624,United States,(989)426-3220,44.131667,-84.4678162,,,
Payless Supermarket IGA,,305 Church Street,,Wise,VA,24293,United States,(276)328-6237,36.9775799,-82.5779579,,,
Warren Plaza IGA Super,,402 Muskingum Drive,,Marietta,OH,45750,United States,(740)373-1518,39.443168,-81.459204,,,
Price Le$$ Russellville IGA,,15160 Highway 43 Bypass NE,,Russellville,AL,35653,United States,(256)331-1071,34.5045922,-87.7169552,,,
Price Less Foods Morristown,,1707 E. Andrew Johnson Highway,,Morristown,TN,37814,United States,(423)586-7570,36.224822,-83.273176,,,
Brierwood Plaza IGA,,12335 Emerson Avenue.,,Parkersburg,WV,26104,United States,(304)464-1200,39.328256,-81.438475,,,
Quality Foods IGA,,2900 Rib Mountain Drive,,Wausau,WI,54401,United States,(715)848-2793,44.930162,-89.656234,,,
Payless Supermarket IGA,,109 Laurel Ave. N.W.,,Coeburn,VA,24230,United States,(276)395-2373,36.9432191,-82.4704011,,,
Quality Foods IGA,,730 Wausau Ave.,,Wausau,WI,54403,United States,(715)845-6703,44.974539,-89.619636,,,
Edgar IGA Food Center,,304 South 3rd Ave.,,Edgar,WI,54426,United States,(715)352-2381,44.9216559,-89.9639755,,,
Ellet IGA,,255 Darrow Road,,Akron,OH,44305,United States,(330)784-0053,41.070487,-81.441822,,,
Benton IGA,,6071 Highway 411,,Benton,TN,37307,United States,(423)338-9233,35.168938,-84.657928,,,
Townsend IGA,,7945 E. Lamar Alexander Parkway,,Townsend,TN,37882,United States,(865)448-3010,35.679799,-83.742548,,,
Newport IGA Foodliner,,38140 Greene St.,,Newport,OH,45768,United States,(740)473-2674,39.4010321,-81.2287483,,,
The Country Store IGA,,10392 Coal River Road,,Seth,WV,25181,United States,(304)837-3444,38.0866431,-81.6059576,,,
Buntings Cedar IGA,,9054 Kasson Street,,Cedar,MI,49621,United States,(231)228-7460,44.8491299,-85.7935179,,,
Hansen's IGA Mondovi,,142 E. Hudson Street,,Mondovi,WI,54755,United States,(715)926-3342,44.566724,-91.670053,,,
Athens IGA,,101 Alfred Street,,Athens,WI,54411,United States,(715)257-7123,45.035114,-90.074565,,,
Newport IGA,,208 W. Broadway,,Newport,TN,37821,United States,(423)623-4705,35.9674156,-83.1972323,,,
Louies Fresh Market IGA,,1025 N. St. Helen Road,,Saint Helen,MI,48656,United States,(989)389-4056,44.421779,-84.4103918,,,
Sunrise Market,,212 Saginaw,,Au Gres,MI,48703,United States,(989)876-7191,44.047908,-83.692672,,,
Price Less IGA - Kingsport,,4320 A W. Stone Drive,,Kingsport,TN,37660,United States,(423)392-4853,36.548955,-82.546424,,,
J & D Market,,5000 Easj Peck Road,,Croswell,MI,48422,United States,(810)679-2290,43.264314,-82.619189,,,
Kingsport IGA,,3006 John B Dennis Highway,,Kingsport,TN,37660,United States,(423)288-8776,36.5734776,-82.5066624,,,
Kingsport IGA,,1328 South John B Dennis Highway,,Kingsport,TN,37660,United States,(423)378-9411,36.506461,-82.555262,,,
Baker's IGA Express,,105 Walnut Street,,Scio,OH,43988,United States,(740)945-3381,40.3970609,-81.0871175,,,
Pigeon IGA,,15 N. Caseville Road,,Pigeon,MI,48755,United States,(989)453-2800,43.82956132,-83.27949525,,,
Kishman's IGA,,202 East High Street,,Minerva,OH,44657,United States,(330)868-7727,40.729352,-81.102304,,,
Elkton One Stop IGA Express,,5083 Whlalen Street,,Elkton,MI,48731,United States,(987)375-4163,43.8179522,-83.1833386,,,
Sistersville IGA,,520 Diamond Street,,Sistersville,WV,26104,United States,(304)652-1910,39.5644368,-80.9961551,,,
Hansen's IGA Stanley,,218 Washington Street,,Stanley,WI,54768,United States,(715)644-5842,44.958249,-90.936745,,,
Headland IGA Foodliner,,4701 Corduroy Road,,Mentor,OH,44060,United States,(440)257-7969,41.7429932,-81.3114262,,,
Price Less IGA Fort Payne,,2000 A Gault Avenue North,,Fort Payne,AL,35967,United States,(256)845-8807,34.460756,-85.705249,,,
Sky Plaza IGA,,8283 Windham Street,,Garrettsville,OH,44231,United States,(330)527-2253,41.2782961,-81.0912332,,,
Hometown Foods IGA,,23 Toccoa Ave.,,McCaysville,GA,30555,United States,(706)492-3222,34.9862392,-84.3602805,,,
Price Less Foods,,2012 Lee Highway,,Bristol,VA,24201,United States,(276)466-5555,36.597657,-82.205543,,,
Clay Foods IGA,,2200 Main Street,,Clay,WV,25043,United States,(304)993-2177,38.475719,-81.080857,,,
Alward's Market Express,,118 South Washington Street,,Hale,MI,48739,United States,(989)728-2315,44.3802105,-83.8049652,,,
Luzerne IGA Express,,3535 W. Park Road,,Luzerne,MI,48636,United States,(989)826-5533,44.6158665,-84.2712327,,,
Colerain IGA Foodliner,,72690 US Route 250,,Colerain,OH,43916,United States,(740)635-3770,40.1373105,-80.8239741,,,
Newton Falls IGA Foodliner,,140 Superior Street,,Newton Falls,OH,44444,United States,(330)872-1201,41.185336,-80.970917,,,
Rideout's IGA,,2736 N. Ridge Road,,Painesville,OH,44077,United States,(440)352-3600,41.764592,-81.182691,,,
Rick's Supermarket IGA,,7007 Harper Rd.,,Glen Daniel,WV,25844,United States,(304)934-7356,37.778526,-81.336537,,,
Bryson City IGA,,345 East Main Street,,Bryson City,NC,28713,United States,(828)488-2584,35.428945,-83.443207,,,
Ed's IGA,,801 McComb Ave.,,Rib Lake,WI,54470,United States,(715)427-3201,45.319494,-90.2042164,,,
Price Less Johnson City #486,,1530 South Roan Street,,Johnson City,TN,37601,United States,(423)928-4876,36.30823,-82.342516,,,
Cornerstone IGA,,235 Black Eagle Road,,Mullens,WV,25882,United States,(304)294-8470,37.568197,-81.37264,,,
Eddies Market,,6057 Robert C Byrd Drive,,Bradley,WV,25818,United States,(304)877-2500,37.864247,-81.195307,,,
Port Austin IGA,,8677 Lake Street,,Port Austin,MI,48467,United States,(989)738-5136,44.0452164,-82.993812,,,
Price Less IGA #30,,1609 Jackson Love HWY,,Erwin,TN,37650,United States,(423)743-6971,36.1259527,-82.4333424,,,
Harbor Beach Market IGA Express,,8974 Sand Beach Road,,Harbor Beach,MI,48441,United States,(989)479-6800,43.8410767,-82.6645266,,,
Kyle's IGA,,115 Main Street,,Colfax,WI,54730,United States,(715)962-3585,44.9907648,-91.7272594,,,
Schaefer's IGA,,600 E. Pioneer Street,,Crandon,WI,54520,United States,(715)478-2558,45.5646174,-88.8964477,,,
Calhoun WFO IGA,,118 W.C. Bryant Pkwy,,Calhoun,GA,30701,United States,(706)629-5354,34.483731,-84.944224,,,
Harold's Supermarket,,80 West Sylva Shopping Center,,Sylva,NC,28779,United States,(828)586-4073,35.3737111,-83.2259803,,,
Cornerstone IGA,,2122 Ritter Drive,,Daniels,WV,25832,United States,(304)763-4003,37.7280728,-81.1048514,,,
Priceless IGA Oneota,,939 Second Avenue East,,Oneonta,AL,35121,United States,2052742870-,33.953756,-86.466946,,,
Louie's Fresh Market IGA,,5170 North State Street,,Oscoda,MI,48750,United States,(989)739-0090,44.4290166,-83.330168,,,
Salem IGA Foodliner,,158 E. Main Street,,Salem,WV,26426,United States,(304)782-3654,39.2818166,-80.5547965,,,
Struthers IGA,,655 Creed Street,,Struthers,OH,44471,United States,(330)750-1341,41.0508481,-80.6128815,,,
West Rome IGA,,610 Shorter Street,,Rome,GA,30165,United States,(706)234-7578,34.2654525,-85.1994605,,,
Fairmount IGA,,2886 Highway 411,,Fairmount,GA,30139,United States,(706)337-5383,34.4400466,-84.7005209,,,
Prentice IGA,,520 Center Street,,Prentice,WI,54556,United States,(715)428-2958,45.5458122,-90.2860507,,,
Ptacek's IGA,,1449 Orrin Road,,Prescott,WI,54021,United States,(715)262-5636,44.759945,-92.787221,,,
Petrucci Market IGA,,1412 Main Street,,Burgettstown,PA,15021,United States,(724)947-2723,40.3717928,-80.3896578,,,
Pat's Foods,,529 Main Street,,Norway,MI,49870,United States,(906)563-9581,45.785232,-87.907371,,,
Kinsman IGA,,8281 State Street,,Kinsman,OH,44428,United States,(330)876-0033,41.4461391,-80.5893275,,,
Sav-Mor Foodliner IGA Express,,306 Stephenson Avenue,,Escanaba,MI,49829,United States,(906)786-4222,45.7481098,-87.0720737,,,
Kris Mart,,863 North Barlow Road,,Lincoln,MI,48742,United States,(989)736-8027,44.677425,-83.403301,,,
"Cowen IGA, LLC",,70 Railroad Avenue,,Cowen,WV,26206,United States,(304)847-2449,38.4091434,-80.5578008,,,
Mr,,415 Main Street,,Harrisville,MI,48740,United States,(989)724-6877,44.656515,-83.291258,,,
Hometown IGA,,1105 West Highway 60,,Irvington,KY,40146,United States,(270)547-2622,36.6270597,-94.9994208,,,
Louie's Fresh Market,,2394 E. Mitchell,,Petoskey,MI,49770,United States,(231)347-6121,45.373333,-84.921259,,,
Betty's Country Store,,18 Yonah Street,,Helen,GA,30545,United States,(706)878-2943,34.7010857,-83.7343704,,,
Foothills IGA Market,,70 Foothills Parkway,,Marble Hill,GA,30148,United States,(770)893-1000,34.414115,-84.281897,,,
Rock Cave IGA,,Rt. 4 and Rt. 20,,Rock Cave,WV,26234,United States,(304)924-5296,38.841028,-80.3380449,,,
Harbor Springs Market IGA,,300 W. Lake St.,,Harbor Springs,MI,49740,United States,(231)526-2101,45.435758,-84.99271,,,
Pats Foods IGA,,1000 Central Avenue,,Florence,WI,54121,United States,(715)528-3211,45.921716,-88.250804,,,
G & R IGA,,109 Baker Street,,Webster Springs,WV,26288,United States,(304)847-2449,38.4790563,-80.4188051,,,
Save More Market Place,,8522 Highway 51 North,,Minocqua,WI,54548,United States,(715)356-9437,45.8766626,-89.7037275,,,
Adams Foods IGA,,217 East Kytle Street,,Cleveland,GA,30528,United States,(706)865-2155,34.5951272,-83.7565358,,,
Louie's Fresh Market IGA,,6977 M-68,,Alanson,MI,49706,United States,(231)776-0023,45.442493,-84.772283,,,
Jewell's IGA,,210 Federal Street,,Rich Creek,VA,24147,United States,(540)726-3815,37.3833468,-80.822796,,,
Jarrett Brothers IGA,,191 Main Street,,Rosman,NC,28772,United States,(828)862-3344,35.14341,-82.823523,,,
Market on Broadway Avenue IGA,,1604 Broadway Avenue,,Pittsburgh,PA,15216,United States,(412)388-5018,40.4102278,-80.0248398,,,
Jewell's Country IGA Express,,US Route 219,,Lindside,WV,24951,United States,(304)753-4331,37.4638251,-80.6603951,,,
Clermont IGA,,5206 Cleveland Highway,,Clermont,GA,30527,United States,(770)983-2711,34.445794,-83.804989,,,
Jubilee Foods IGA,,1363 West U.S. 2,,Crystal Falls,MI,49920,United States,(906)875-6648,46.0972288,-88.3542063,,,
Jubilee IGA,,318 W. Adams Street,,Iron River,MI,49935,United States,(906)265-5462,46.0924129,-88.6416167,,,
Cornerstone IGA,,123 Seneca Trail,,Fairlea,WV,24902,United States,(304)645-3133,37.7838823,-80.4553472,,,
Jewell's IGA,,198 North Street,,Union,WV,24983,United States,(304)772-5904,37.591308,-80.540626,,,
Bloomfield IGA,,4401 Liberty Avenue,,Pittsburgh,PA,15224,United States,(412)621-2511,40.463663,-79.952954,,,
Perch's Food Store IGA,,1025 US-23 North,,Alpena,MI,49707,United States,(989)354-4012,45.0500906,-83.444737,,,
Friedman's Fresh Markets - Butler,,210 Greater Butler Mart,,Butler,PA,16001,United States,(724)283-1525,40.843611,-79.91801,,,
Friedman's Fresh Markets - Brady Street,,122 West Brady Street,,Butler,PA,16001,United States,(724)287-6468,40.863702,-79.89628,,,
Pocahontas IGA,,Route 219 N,,Marlinton,WV,24954,United States,(304)799-6667-,38.2823684,-80.1047993,,,
Friedman's Fresh Markets - Saxonburg,,270 West Water Street,,Saxonburg,PA,16056,United States,(724)352-2240,40.754684,-79.813435,,,
Trenary Farmers Cooperative Store,,N 1061 Trenary Avenue,,Trenary,MI,49891,United States,(906)446-4411,46.1807328,-86.9799155,,,
Old Town Market,,406 West Oldtown Street,,Galax,VA,24333,United States,(276)236-3280,36.660009,-80.927823,,,
Louie's Fresh Market IGA Express,,604 S. Main Street,,Cheboygan,MI,49721,United States,(231)627-4588,45.6357576,-84.4822524,,,
Hometown Food Store IGA,,2914 Geer Highway,,Marietta,SC,29661,United States,(864)836-6995,35.0229744,-82.5026414,,,
Rygwelski's IGA Express,,495 South First Street,,Rogers City,MI,49779,United States,(989)734-3248,45.4159203,-83.8079918,,,
Tryon IGA,,326 South Trade Street,,Tryon,NC,28782,United States,(828)859-9245,35.217184,-82.226181,,,
Nam Dae Mun Farmers Mkt #2,,2350 Spring Road,,Smyrna,GA,30080,United States,(678)309-0007,33.882312,-84.48719,,,
Ferri Supermarket,,3913 Old William Penn Highway,,Murrysville,PA,15668,United States,(724)327-0921,40.42795,-79.697053,,,
Friedman's Fresh Markets - Chicora,,182 Hummingbird Plaza,,Chicora,PA,16025,United States,(724)445-2490,40.953507,-79.740874,,,
IGA Market Place,,4646 W. Hungtington,,Lincoln,NE,68524,United States,(402)470-2000,40.839499,-96.785349,,,
Holly Mountain IGA,,"2759 Statesville Road, Highway 115",,Wilkesboro,NC,28697,United States,(336)696-2240,36.1459649,-81.1606401,,,
Nam Dae Mun Farmers Mkt #1,,3825 Shackleford Road,,Duluth,GA,30096,United States,(770)921-8288,33.948065,-84.135495,,,
Emlenton IGA,,514 River Avenue,,Emlenton,PA,16373,United States,(724)867-2427,41.176374,-79.7095993,,,
Sprankle's Neighborhood Market,,117 Third Street,,Leechburg,PA,15656,United States,(724)845-2671,40.627679,-79.608499,,,
Nam Dae Mun Farmers Mkt #5,,6131 S. Norcross Tucker Road,,Norcross,GA,30093,United States,(770)220-7832,33.896298,-84.211706,,,
Holly Mountain IGA,,4913 Elkin Highway,,Wilkesboro,NC,28659,United States,(336)696-2240,36.210862,-81.0581009,,,
D&D Groceries IGA Express,,14002 Melville St.,,Engadine,MI,49827,United States,(906)477-6222,46.1164622,-85.5729976,,,
Lavonia Foods IGA,,13365 Jones Street,,Lavonia,GA,30553,United States,(706)356-1258,34.4432962,-83.1139651,,,
Sprankle's Neighborhood Market,,523 Franklin Avenue,,Vandergrift,PA,15690,United States,(724)568-1502,40.596805,-79.567383,,,
Dill's Food City IGA,,12260 Augusta HWY,,Lavonia,GA,30553,United States,(706)356-8443,34.4359361,-83.106818,,,
Nam Dae Mun Farmers Mkt #3,,4805 Lawrenceville Highway Northwest,,Lilburn,GA,30047,United States,(770)381-4940,33.895632,-84.141008,,,
Nam Dae Mun Farmers Mkt #4,,850 Dogwood Road,,Lawrenceville,GA,30044,United States,(678)580-6730,33.890584,-84.061054,,,
Sprankle's Neighborhood Market,,151 North McKean Street,,Kittanning,PA,16201,United States,(724)543-5111,40.815519,-79.519756,,,
Nam Dae Mun Farmers Mkt #6,,5158 Memorial Drive,,Stone Mountain,GA,30083,United States,(678)705-0229,33.796505,-84.224829,,,
Jim's Super Foods IGA,,218 N. 2nd St.,,Ishpeming,MI,49849,United States,(906)485-1027,46.4913128,-87.6662927,,,
Valley Supermarket IGA Express,,9110 Sam Snead Highway,,Hot Springs,VA,24445,United States,(540)839-2221,37.9966796,-79.8315534,,,
Honey's IGA,,9580 N.C. 10 West,,Vale,NC,28168,United States,(704)462-2887,35.5536339,-81.5030193,,,
Bob's IGA Store 18-0262,,131 West Superior St.,,Munising,MI,49862,United States,(906)387-4073,46.4111359,-86.6566999,,,
Jubilee Foods IGA,,900 U.S. Hwy. 41 West,,Ishpeming,MI,49849,United States,(906)486-4900,46.5058567,-87.6579002,,,
Taylor Market IGA Express,,2936 CR 377,,McMillan,MI,49853,United States,(906)586-6353,46.273512,-85.718004,,,
Dill's Food City IGA,,721 Cook St.,,Royston,GA,30662,United States,(706)245-6400,34.2842264,-83.121816,,,
Forest Park WFO IGA,,4855 Jonesboro Rd,,Forest Park,GA,30297,United States,(404)361-0909,33.620988,-84.354821,,,
Pat's Foods,,1009 Holiday Ln,,Hurley,WI,54534,United States,(715)329-9581,46.459501,-90.195524,,,
Nam Dae Mun #7,,1940 Mt. Zion Road,,Morrow,GA,30260,United States,(678)251-1555,33.566866,-84.326158,,,
Rahillys IGA,,101 West Helen Street,,Newberry,MI,49868,United States,(906)293-5141,46.356099,-85.5102312,,,
Buffalo Shoals Supermarket & Hardware,,2887 Buffalo Shoals Rd.,,Newton,NC,28658,United States,(828)464-0817,35.605775,-81.114989,,,
Drennon's IGA Express,,815 West Front Street,,IVA,SC,29655,United States,(864)348-7955,34.308356,-82.663141,,,
Sune's Food Center IGA,,367 Ontario  Street,,De Tour Village,MI,49726,United States,(906)297-5321,45.98972,-83.9020302,,,
Pat's IGA,,139 N Main Street,,L'Anse,MI,49946,United States,(906)524-6463,46.75974,-88.40934,,,
Quality Foods IGA,,517 Dearborn Street,,Wayne,NE,68787,United States,(402)375-1540,42.2337242,-97.0101217,,,
Pacolet IGA,,7013 South Pine Street,,Pacolet,SC,29372,United States,(803)517-7301,34.886551,-81.74651,,,
Sune's Market IGA,,29958 East Channel Road,,Drummond Island,MI,49726,United States,(906)493-5259,45.9988632,-83.7398654,,,
Craigsville IGA,,139 Craig St,,Craigsville,VA,24430,United States,7039975011-,38.07847516,-79.3837666,,,
Mike's Super Market,,53 Taylor Street,,Brookville,PA,15825,United States,(814)849-8395,41.157988,-79.075174,,,
Daggett's Foods IGA,,104 1st Street NE,,Hinckley,MN,55037,United States,(320)384-6185,46.0167688,-92.9429023,,,
Pat's Foods IGA,,751 Greenland Road,,Ontonagon,MI,49953,United States,(906)884-2121,46.8697929,-89.3121723,,,
Hometown Proud IGA,,"11745 Statesville Blvd., Ste. A",,Cleveland,NC,27013,United States,(704)278-0228,35.730123,-80.693365,,,
Washburn IGA,,226 W. Bayfield Street,,Washburn,WI,54891,United States,(715)373-5566,46.6714266,-90.8939404,,,
Four Seasons Market IGA Express,,9253 West Six Mile Road,,Brimley,MI,49715,United States,(906)248-5605,46.4126587,-84.556102,,,
Market Basket of Johnstown,,1407 Dwight Drive,,Johnstown,PA,15904,United States,(814)266-5311,40.27232,-78.859495,,,
Osceola Food Mart IGA Express,,441 North State Street,,Osceola,NE,68651,United States,(402)747-2711,41.17317562,-97.54786737,,,
Corley's Market & Grill,,1220 Highway 72 West,,Greenwood,SC,29649,United States,(864)223-1144,34.195068,-82.192003,,,
Pat's Foods IGA,,47401 Highway M-26,,Houghton,MI,49931,United States,(906)482-7500,47.1025612,-88.60078,,,
Red Front Supermarket,,677 Chicago Ave,,Harrisonburg,VA,22802,United States,5404339171-,38.457628,-78.874075,,,
Pat's Foods IGA,,801 Market Street,,Hancock,MI,49930,United States,(906)482-4919,47.1306354,-88.5900651,,,
Terry's IGA,,115 Spring Street,,Washington,GA,30673,United States,(706)678-7810,33.7368638,-82.7395137,,,
Pat's Foods IGA,,56845 Station Drive,,Calumet,MI,49913,United States,(906)337-2233,47.2379055,-88.4556317,,,
Chester IGA,,2091 JA Cochran Bypass,,Chester,SC,29706,United States,(803)385-5220,34.7048613,-81.2142561,,,
Joe Lee's Blue Ridge IGA Express,,2797 Rockfish Valley Highway,,Nellysford,VA,22958,United States,(434)361-1105,37.8868501,-78.8839482,,,
Cedar Lodge IGA,,237 Cedar Lodge Road,,Thomasville,NC,27360,United States,(336)476-6722,35.846511,-80.081683,,,
Jim's Foods IGA,,1414 16th Street,,Central City,NE,68826,United States,(308)946-2241,41.11597634,-97.99777727,,,
Hollidaysburg Hometown Market IGA,,810 Church Street,,Hollidaysburg,PA,16648,United States,(814)695-0717,40.429904,-78.38702,,,
Richburg IGA,,3191 Lancaster Hwy,,Richburg,SC,29729,United States,(803)789-3233,34.745851,-81.030402,,,
Bellwood Hometown Market IGA,,104 Main Street,,Bellwood,PA,16617,United States,(814)742-7049,40.595723,-78.336029,,,
Sandy's IGA Foodliner,,385 Spring St.,,Sparta,GA,31087,United States,(706)444-5375,33.2756812,-82.9747344,,,
Philipsburg Hometown Market IGA,,1323 Walton Street,,Philipsburg,PA,16866,United States,(814)342-1374,40.886357,-78.234066,,,
Thomson IGA,,336 West Hill Street,,Thomson,GA,30824,United States,(706)595-4048,33.4607239,-82.5074207,,,
Great Falls IGA,,326 Dearborn Street,,Great Falls,SC,29055,United States,(803)482-2560,34.57136496,-80.89774806,,,
Berridge IGA,,115 N. Nickerson Street,,Nickerson,KS,67561,United States,(620)422-3298,38.1479,-98.0812,,,
KJ's Market IGA - Winnsboro #47,,133 Highway 321 Bypass South,,Winnsboro,SC,29180,United States,(803)815-1262,34.375293,-81.101185,,,
Johnston IGA,,170 Lee Street,,Johnston,SC,29832,United States,(803)275-4442,33.8193667,-81.8009882,,,
Oakland IGA,,5055  GA Hwy 41N,,Mauk,GA,31058,United States,(229)649-7164,32.4425304,-84.5375669,,,
KJ's Market IGA,,305 W Milledgeville Road,,Harlem,GA,30814,United States,(706)556-9802,33.41598,-82.319649,,,
KJ's Market #32,,217 W. Columbia Avenue,,Batesburg,SC,29006,United States,(803)532-8166,33.90781682,-81.53735092,,,
KJ's Market IGA - Grovetown,,5155 Wrightsboro Road,,Grovetown,GA,30813,United States,(706)869-7839,33.457745,-82.197513,,,
Gilbert IGA,,4760 Augusta Highway,,Gilbert,SC,29054,United States,(803)892-3571,33.953446,-81.41913,,,
Pageland IGA Foodliner,,1211 S. Pearl St.,,Pageland,SC,29728,United States,(843)672-6510,34.7624213,-80.3905199,,,
Blythewood IGA Foodliner,,135 B Blythewood Road,,Blythewood,SC,29016,United States,(803)735-1915,34.212702,-80.976836,,,
Kershaw IGA,,513 S. Hampton St.,,Kershaw,SC,29067,United States,(803)475-6888,34.5434217,-80.5819406,,,
North Main IGA,,1124 N. Main Street,,Roxboro,NC,27573,United States,(336)599-2813,36.411269,-78.971151,,,
Augusta IGA,,3355 Deans Bridge Road,,Augusta,GA,30906,United States,(706)796-7916,33.4191797,-82.077627,,,
Fork Union Community Market,,4312 James Madison Highway,,Fork Union,VA,23055,United States,(434)842-1031,37.7612897,-78.2628414,,,
KJ's Market,,543 Saint Andrews,,Columbia,SC,29210,United States,(803)612-4040,34.046302,-81.126986,,,
Haddens IGA,,200-A S. Main St.,,Wrens,GA,30833,United States,(706)547-3091,33.2090835,-82.3874931,,,
Sandersville IGA,,648 S. Harris Street,,Sandersville,GA,31082,United States,(478)552-2700,32.9732271,-82.808736,,,
Wadesboro IGA Food Store,,805 Camden Road,,Wadesboro,NC,28170,United States,(704)694-5937,34.9578599,-80.082799,,,
KJ's Market #44,,4360 Augusta Road,,Lexington,SC,29073,United States,(803)454-9664,33.974944,-81.154295,,,
Wylie's IGA,,280 S. Middleton Street,,Robbins,NC,27325,United States,(843)861-2277,35.432252,-79.587508,,,
KJ's Market IGA,,2508 Highway 88,,Hephzibah,GA,30815,United States,(706)592-6007,33.3143019,-82.0952837,,,
Alabama Holley Farm IGA,,6543 Alleghany Road,,Basom,NY,14013,United States,(585)948-5161,43.09623,-78.390837,,,
Elgin IGA,,2530 Main Street,,Elgin,SC,29045,United States,(803)438-1098,34.1677368,-80.7986959,,,
Shumpert's IGA,,861 Pine Street,,Pelion,SC,29123,United States,(803)894-3132,33.761766,-81.2471489,,,
Haddens IGA,,823 Peachtree Street,,Louisville,GA,30434,United States,(478)625-7933,33.0000255,-82.413432,,,
Camden IGA,,1816 Jefferson Davis Hwy.,,Camden,SC,29020,United States,(803)432-2571,34.265003,-80.568322,,,
Gaston IGA Foodliner,,185 N. Main Street,,Gaston,SC,29053,United States,(803)794-3920,33.8217432,-81.0984884,,,
Burkholder's Country Market IGA,,10 Market Drive,,Spring Mills,PA,16875,United States,(814)349-4370,40.886068,-77.493051,,,
Edwards IGA,,238 Airport Rd.,,Rockingham,NC,28379,United States,(910)895-3639,34.915138,-79.769502,,,
KJ's Market #5155,,208 W. 6th Street,,Waynesboro,GA,30830,United States,(706)554-2373,33.09049921,-82.01468047,,,
Haddens IGA,,62 Butts Street,,Wadley,GA,30477,United States,(478)252-3896,32.8629228,-82.4047642,,,
Carlie C's IGA,,3729 Wake Forest Highway,,Durham,NC,27703,United States,(919)596-9227,35.9817495,-78.8222945,,,
Cheraw IGA,,280 US Highway 1 South,,Cheraw,SC,29520,United States,(843)537-3272,34.696628,-79.8851067,,,
Williston IGA,,12996 Main Street,,Williston,SC,29853,United States,(803)266-3807,33.4025844,-81.4241257,,,
Fresh Foods IGA #14,,750 SW Broad Street,,Southern Pines,NC,28387,United States,(910)692-2151,35.169139,-79.401023,,,
IGA Food Center,,1202 North Fifth Street,,Hartsville,SC,29550,United States,(843)332-9551,34.3961862,-80.0638146,,,
Hartsville IGA Foodstore,,331 West Carolina Ave.,,Hartsville,SC,29550,United States,(843)332-3911,34.371831,-80.078368,,,
Kennie's Market Briglerville,,3463 Biglerville Road,,Biglerville,PA,17307,United States,(717)667-8152,39.924481,-77.247251,,,
Schlegel's IGA,,24015 Route 333,,Thompsontown,PA,17094,United States,(717)535-0151,40.587914,-77.234972,,,
Kennie's Market Gettysburg,,217 West Middle Street,,Gettysburg,PA,17328,United States,(717)334-2179,39.829982,-77.236134,,,
Market Place IGA,,5201 Spring Rd.,,Shermansdale,PA,17090,United States,(717)583-9103,40.320609,-77.165205,,,
Barnwell IGA,,9690 Marlboro,,Barnwell,SC,29812,United States,(803)259-7800,33.2452173,-81.3590154,,,
Food Towne of North Chili,,4390 Buffalo Road,,North Chili,NY,14514,United States,(585)594-1234,43.120586,-77.80735,,,
Jenkins IGA,,936 Charles Perry Ave.,,Sardis,GA,30456,United States,(478)569-5085,32.9802277,-81.7703938,,,
Kennie's Market Taneytown,,11 Grand Drive,,Taneytown,MD,21787,United States,(410)756-2775,39.648785,-77.159684,,,
Carl's Food Center IGA,,235 15-401 Bypass,,Bennettsville,SC,29512,United States,(843)479-4488,34.609963,-79.675412,,,
Sumter IGA Plus - Westmark,,325 W. Wesmark,,Sumter,SC,29150,United States,(803)469-2400,33.952091,-80.38828,,,
Carlie C's IGA #795,,1688 S. Main St Holly Ln,,Laurinburg,NC,28352,United States,(910)276-0110,34.724654,-79.513732,,,
Kennie's Market - Littlestown,,520 West Kings Street,,Littlestown,PA,17340,United States,(717)359-9001,39.74215,-77.09847,,,
Wylie's IGA,,228 W. Tatume Avenue,,McColl,SC,29570,United States,(843)523-6266,34.6719862,-79.5481554,,,
Sumter IGA Plus,,348 Pinewood Drive,,Sumter,SC,29150,United States,(803)775-7900,33.9048136,-80.3792846,,,
Carlie C's,,1514 Garner Station Blvd,,Raleigh,NC,27603,United States,(919)329-0970,35.7249145,-78.6544124,,,
Carlie C's IGA #815,,4111 New Bern Avenue,,Raleigh,NC,27610,United States,(919)250-7876,35.7993484,-78.5664894,,,
Fresh Foods IGA #11,,240 South Main Street,,Raeford,NC,28376,United States,(910)875-2451,34.976144,-79.224906,,,
Farmers IGA Foodliner,,907 Lemar Plaza Shopping Center,,Opp,AL,36467,United States,(334)493-9805,31.2826685,-86.2555067,,,
Darlington IGA,,207 S. Main Street,,Darlington,SC,29532,United States,(843)393-0885,34.3011302,-79.8697036,,,
Grimms Central Market IGA,,10 North Main Street,,Middleburg,PA,17842,United States,(570)837-7703,40.792766,-77.045775,,,
Carlie C's IGA,,333 N. Raleigh Street,,Angier,NC,27501,United States,(919)331-0125,35.512035,-78.741991,,,
Carlie C's IGA of Lillington,,711 West Front Street,,Lillington,NC,27546,United States,(910)893-3046,35.400892,-78.827518,,,
West Foods IGA,,19199 Hartford St,,Edison,GA,39846,United States,(229)835-2234,31.5584665,-84.7360489,,,
Leesburg IGA,,216 Walnut Street,,Leesburg,GA,31763,United States,(229)759-6286,31.7258965,-84.1721606,,,
Timmonsville IGA,,310 E. Smith St.,,Timmonsville,SC,29161,United States,(843)346-3118,34.1330115,-79.9372629,,,
Grabeel's IGA,,58 Main St.,,Rose Hill,VA,24281,United States,(276)445-4121,38.733499,-77.103342,,,
KJ's IGA Market,,900 East Ashby Road,,Quinby,SC,29506,United States,(843)662-8721,34.227922,-79.740437,,,
Carlie C IGA,,2738 Bragg Blvd.,,Fayetteville,NC,28303,United States,(910)483-8454,35.0734101,-78.9258735,,,
Kennie's Market Spring Grove,,440 North Main Street,,Spring Grove,PA,17362,United States,(717)225-4779,39.885317,-76.86296,,,
Carlie C's IGA,,506 W. Gannon Avenue,,Zebulon,NC,27597,United States,(919)269-0288,35.821395,-78.324725,,,
Allendale IGA,,5387 Allendale - Fairfax Hwy.,,Allendale,SC,29810,United States,(803)584-3303,32.9929249,-81.2862612,,,
Carlie C's IGA,,1790 Owen Drive C,,Fayetteville,NC,28304,United States,(910)484-2270,35.0290138,-78.9292757,,,
Carlie C's IGA,,801 South 13th Street,,Erwin,NC,28339,United States,(910)897-4141,35.320213,-78.675775,,,
KJ's Market #5156,,101 Mims Road,,Sylvania,GA,30467,United States,(912)564-2407,32.74847,-81.638522,,,
Country Pride Market IGA,,1823 Highway 280 West,,Milan,GA,31060,United States,(229)362-1825,32.0172906,-83.0618443,,,
Carlie C's IGA,,3501 N. Main St.,,Hope Mills,NC,28348,United States,(910)425-9440,34.9760055,-78.9509719,,,
Samson IGA,,104 North Ripley St.,,Samson,AL,36477,United States,(334)898-2572,31.1156102,-86.0473709,,,
Fresh Foods IGA #2,,506 Union Chapel Road,,Pembrooke,NC,28375,United States,(910)521-4396,34.684734,-79.188125,,,
KJ's Market IGA,,2300 Pamplico Hwy,,Florence,SC,29505,United States,(843)468-9800,34.144737,-79.727268,,,
Bowman IGA,,6511 Charleston Highway,,Bowman,SC,29018,United States,(803)829-3108,33.3525909,-80.686099,,,
Rank's IGA,,201 West Ave.,,Canandaigua,NY,14424,United States,(585)394-5370,42.884264,-77.289859,,,
Santee IGA,,9092 Old Number Highway 6,,Santee,SC,29142,United States,(803)854-5165,33.491,-80.4882,,,
Laniers IGA,,308 Grady Street South,,Portal,GA,30450,United States,(912)865-2828,32.5372034,-81.9333508,,,
Jim's IGA Food Store,,213 North Jones Street,,Olanta,SC,29114,United States,(843)396-4234,33.9377898,-79.9336514,,,
Carlie C's IGA,,600 Cedar Creek Road,,Fayetteville,NC,28312,United States,(910)483-3469,35.03472,-78.847495,,,
Carlie C's IGA,,1203 N. Ellis Ave.,,Dunn,NC,28334,United States,(910)892-0250,35.3206442,-78.6073035,,,
Gavin's IGA,,3745 Dunn Road,,Eastover,NC,28312,United States,(910)323-0832,35.0958004,-78.7843983,,,
Carlie C's IGA,,604 South Wall Street,,Benson,NC,27504,United States,(910)207-0744,35.377881,-78.553634,,,
Manning IGA,,600 South Mill Street,,Manning,SC,29102,United States,(803)435-0707,33.6862298,-80.2121554,,,
Carlie CIGA,,607 East Cumberland Road,,Dunn,NC,28334,United States,(910)892-2346,35.3044579,-78.605139,,,
Jeff's IGA,,13253 Broxton Bridge,,Ehrhardt,SC,29081,United States,(803)267-6070,33.0715173,-81.0276537,,,
Carl's Food Center IGA,,400 W. Main St.,,Dillon,SC,29536,United States,(843)774-5488,34.4191613,-79.3758538,,,
Turbeville IGA Plus,,5262 Turbeville Rd.,,Turbeville,SC,29162,United States,(843)659-2291,33.886314,-79.9329788,,,
Latta IGA,,412 S. Richardson St.,,Latta,SC,29565,United States,(843)752-7811,34.3335805,-79.4340005,,,
Fresh Foods IGA #19,,406 East Broad Street,,St. Pauls,NC,28384,United States,(910)865-3236,34.805311,-78.967109,,,
Carlie C's,,6050 U.S. 301 South,,Four Oaks,NC,27524,United States,(919)963-2015,35.4476581,-78.4200437,,,
Carlie C's,,721 North Bright Leaf Blvd.,,Smithfield,NC,27577,United States,(919)934-0727,35.5084935,-78.3394455,,,
Selma IGA,,212 N. Pollock St.,,Selma,NC,27576,United States,(919)965-2996,35.537574,-78.283013,,,
Carroll's IGA,,7431 Clinton Rd.,,Stedman,NC,28391,United States,(910)485-3333,35.014848,-78.694091,,,
Fresh Foods #7,,1000 N. Pine Street,,Lumberton,NC,28358,United States,(910)739-6506,34.623891,-79.00429,,,
Fresh Foods #9,,1733 North Roberts Avenue,,Lumberton,NC,28358,United States,(910)738-4759,34.630587,-78.99303,,,
Eutawville IGA,,225 Branchdale Highway,,Eutawville,SC,29048,United States,(803)492-7515,33.392044,-80.352689,,,
Fresh Foods IGA #12,,116 North Walnut Street,,Fairmont,NC,28340,United States,(910)628-6575,34.498939,-79.113305,,,
Lake City IGA Plus,,244 Kelley St.,,Lake City,SC,29560,United States,(843)394-2424,33.8774091,-79.7573774,,,
Fresh Foods #1,,1002 East 5th Street,,Lumberton,NC,28358,United States,(910)739-6578,34.618091,-78.996011,,,
Tuten's Bi-Rite IGA,,1073 3rd St. W.,,Estill,SC,29918,United States,(803)625-3421,32.75405,-81.2523619,,,
Livingston's IGA,,3288 East Golden Isles Highway,,Lumber City,GA,31549,United States,(912)363-4910,31.9556489,-82.7173285,,,
General Foods IGA,,621 Gardner Blvd.,,Holly Hill,SC,29059,United States,(803)245-1114,33.318943,-80.41204,,,
Pamplico IGA,,622 South Walnut Street,,Pamplico,SC,29583,United States,(803)493-1111,33.9897311,-79.5663862,,,
Barry's Country Market IGA,,478 Abels Road,,Craley,PA,17312,United States,(717)244-1595,39.94869,-76.512441,,,
Parmars IGA,,US-76,,Mullins,SC,29574,United States,(843)561-3243,34.200248,-79.2531974,,,
Kingstree IGA,,522  E. Main Street,,Kingstree,SC,29556,United States,(843)355-5275,33.6658822,-79.8219462,,,
Ken's IGA,,102 Highway 80,,Brooklet,GA,30415,United States,(912)842-2172,32.343232,-81.6380159,,,
Inmans IGA,,120 Third Street,,Dublin,NC,28332,United States,(910)862-3724,34.657407,-78.727585,,,
Fresh Foods IGA #15,,105 Village Street,,Bladenboro,NC,28320,United States,(910)863-0127,34.542678,-78.798621,,,
General Food Store IGA,,601 Wichman Street,,Walterboro,SC,29488,United States,(843)549-8585,32.905562,-80.661332,,,
Hurley's Fresh Market IGA  #2184,,121 W. Main Street,,Dushore,PA,18614,United States,(570)928-9251,41.5245948,-76.4021403,,,
Hurley Supermarket IGA,,387 York Avenue,,Towanda,PA,18848,United States,(570)265-2616,41.7828373,-76.4499886,,,
Diamond Food Market IGA,,238 South Preston,,Van Alstyne,TX,75495,United States,(903)482-5314,33.4245306,-96.5772576,,,
St,,3931 Byrnes,,St. Stephens,SC,29479,United States,(843)567-3565,33.407344,-79.924543,,,
KJ's Market IGA,,280 South Georgetown Highway,,Johnsonville,SC,29555,United States,(843)386-2761,33.81425,-79.441866,,,
Fresh Foods #19,,302 S. Poplar Street,,Elizabethtown,NC,28337,United States,(910)862-4702,34.626139,-78.606792,,,
Carlie C's,,1805 Wayne Memorial Blvd.,,Goldsboro,NC,27534,United States,(919)736-1940,35.396085,-77.971985,,,
The Market IGA,,203 West Railroad,,Pelham,GA,31779,United States,(229)294-3441,31.1246498,-84.1509487,,,
KJ's Market,,1245 Elm Street,,Aynor,SC,29511,United States,(843)358-3761,33.999055,-79.191912,,,
Ken's IGA,,101 West Central Blvd,,Guyton,GA,31312,United States,(912)772-7184,32.33073,-81.393483,,,
Fresh Foods IGA #17,,47 Green Street,,Clarkton,NC,28433,United States,(910)647-7001,34.487807,-78.656693,,,
Urbanna Market IGA,,335 Virginia Street,,Urbana,VA,23175,United States,(804)758-2250,37.6709292,-76.6601707,,,
Oxley IGA Fine Food,,11 8th Ave. N.E.,,Moultrie,GA,31768,United States,(229)985-6931,31.187361,-83.7886749,,,
Oxley IGA Fine Food,,818 W. Central Ave.,,Moultrie,GA,31768,United States,(229)985-9448,31.1800055,-83.7981511,,,
Oxley's IGA,,501 Veterans Parkway,,Moultrie,GA,31768,United States,(229)985-0813,31.1897502,-83.7621543,,,
Dixie Dandy Fresh Market IGA,,1015 Dothan Road,,Bainbridge,GA,39817,United States,(229)207-0559,30.915441,-84.589207,,,
Mickey's Food Store,,740 North Peterson Avenue,,Douglas,GA,31533,United States,(912)384-3240,31.5155491,-82.8506735,,,
Ken's IGA,,4507 US Hwy 80,,Blitchton,GA,31308,United States,(912)858-2313,32.2000776,-81.4444054,,,
Whiteville IGA,,604 Jefferson Street,,Whiteville,NC,28472,United States,(910)642-5568,34.338173,-78.690866,,,
Tabor City IGA,,806 E. 5th Street,,Tabor City,NC,28463,United States,(910)653-2363,34.152889,-78.865729,,,
Loris IGA,,3030 Broad Street,,Loris,SC,29569,United States,(843)756-5319,34.049842,-78.893886,,,
Nicholls IGA,,101 N Liberty St,,Nicholls,GA,31554,United States,(912)345-5366,31.5138408378842,-82.6348327054424,,,
Laurie's IGA Food Store,,1800 N. Main Street,,Conway,SC,29526,United States,(843)488-2797,33.8522643,-79.0571987,,,
Jay's IGA,,1022 South Pierce Street,,Alma,GA,31510,United States,(912)632-8511,31.5474813,-82.4618067,,,
Cairo IGA,,110 2nd Ave. S.E.,,Cairo,GA,31629,United States,(229)377-3112,30.8752669,-84.207059,,,
Jacksons IGA - Kenansville,,304 S. Main St.,,Kenansville,NC,28349,United States,(910)296-0434,34.961514,-77.964225,,,
Godwin's IGA,,588 Sycamore St.,,Rose Hill,NC,28458,United States,(910)289-2900,34.816313,-78.020425,,,
Oxley's IGA Express,,3086 East Harris Street,,Pavo,GA,31776,United States,(229)859-2050,30.959322,-83.738378,,,
Doscher's IGA,,1750 Remount Road,,Hanahan,SC,29410,United States,(843)744-7821,32.901014,-80.008707,,,
Diamond Food Market IGA,,911 South Highway 377,,Aubrey,TX,76227,United States,(940)365-1444,33.2723531,-96.9867729,,,
Bob and Jeff's IGA Supermarket,,523 W. Jackson Street,,Thomasville,GA,31792,United States,(229)226-0992,30.836835,-83.972588,,,
Jackson's IGA,,200 S. Kinston Blvd.,,Pink Hill,NC,28572,United States,(252)568-4148,35.056806,-77.7471489,,,
Ludowici IGA,,Highway 84 & Macon St.,,Ludowici,GA,31316,United States,(912)545-9889,31.730688,-81.735664,,,
Griffin's IGA,,8729 Highway 90,,Longs,SC,29568,United States,(843)399-6446,33.8562408,-78.7578908,,,
Jacksons IGA,,614 West Main Street,,Beulaville,NC,28349,United States,(910)298-3456,34.9248824,-77.779571,,,
Buddy's IGA,,197 Hwy. 165 South,,Oakdale,LA,71463,United States,(318)335-2872,30.8195346,-92.6622304,,,
Doscher's IGA,,1133 Savannah Hwy,,Charleston,SC,29407,United States,(843)766-6011,32.78298,-79.996724,,,
Midway IGA,,192 Butler Avenue,,Midway,GA,31320,United States,(912)884-9233,31.8013934,-81.418908,,,
Boulineau's Foods Plus IGA,,212 Sea Mountain Highway,,North Myrtle Beach,SC,29582,United States,(843)249-3556,33.828677,-78.6428169,,,
Wall's IGA Foodliner #2004,,3503 Highway 84 West,,Blackshear,GA,31516,United States,(912)449-6594,31.3075091,-82.2379014,,,
Hendersons IGA,,"710 E. Hwy. 20, Prairie Vlg.",,Valentine,NE,69201,United States,(402)376-1144,42.8727833,-100.5509669,,,
Super G IGA,,2044 New Castle Avenue,,New Castle,DE,19720,United States,(302)407-6130,39.69183,-75.556412,,,
Mr,,1405 N. Lee Street,,Valdosta,GA,31601,United States,(229)245-8300,30.848,-83.2773,,,
Tybee Market IGA,,1111 Butler Ave.,,Tybee Island,GA,31328,United States,(912)786-4601,31.9984434,-80.8468436,,,
Pasquale's IGA Express,,25 Dundaff Street,,Carbondale,PA,18407,United States,(570)282-5800,41.5750839,-75.503907,,,
Fresh Foods IGA #20,,5601 Castle Hayne Road,,Castle Hayne,NC,28429,United States,(910)675-3300,34.35323,-77.901348,,,
Fare and Square,,3117 West 9th Street,,Chester,PA,19013,United States,(484)483-2500,39.833848,-75.39882,,,
West Norriton Farmers Market IGA,,1930 West Main Street,,Norristown,PA,19403,United States,(610)539-8987,40.130846,-75.376655,,,
Dekalb Supermarket IGA,,815 Dekalb Street,,Norristown,PA,19401,United States,(610)278-8650,40.118729,-75.339842,,,
Diamond Food Market IGA,,1290 US Highway 82,,Henrietta,TX,76365,United States,(940)538-6991,33.8147681,-98.2062948,,,
Richs IGA Supermarket,,201 W. River Road,,Wewahitchka,FL,32465,United States,(850)639-5343,30.10644,-85.200996,,,
Harbor Market IGA Express,,111 Barracks Drive,,Sacketts Harbor,NY,13685,United States,(315)646-1322,43.9500482,-76.1112197,,,
Statenville IGA Express,,142 Highway 129 South,,Statenville,GA,31648,United States,(229)559-3662,30.7006208,-83.0279549,,,
Dublin IGA Market,,161 N. Main Street,,Dublin,PA,18917,United States,(215)249-0370,40.375216,-75.20726,,,
Chelten Market IGA,,176 West Chelten Avenue,,Philadelphia,PA,19144,United States,(215)848-3663,40.031774,-75.177603,,,
South Square Market IGA,,2221-25 South Street,,Philadelphia,PA,19146,United States,(215)985-5790,39.945658,-75.179422,,,
Georges Market at Dresherstown,,1650 Limekiln Pike,,Dresher,PA,19025,United States,(215)628-8055,40.145379,-75.167452,,,
Chaumont IGA Express,,12070 Main Street,,Chaumont,NY,13601,United States,(315)649-2444,44.031271,-76.053064,,,
Surf City Super Market IGA,,106 S.Topsail Drive,,Surf City,NC,28445,United States,(910)328-3961,34.4260279,-77.545891,,,
"Elmer IGA, Inc",,201 Front Street,,Elmer,NJ,08318,United States,(856)358-3713,39.593004,-75.1750828,,,
Lake Region Supermarket IGA,,52 Welwood Ave,,Hawley,PA,18428,United States,(570)226-6000,41.463565,-75.18014,,,
The Richmond Shops IGA,,2497 Aramingo Avenue,,Philadelphia,PA,19125,United States,(215)425-5690,39.974689,-75.12018,,,
Frenchtown Market IGA,,28 Sixth Street,,Frenchtown,NJ,08825,United States,(908)996-6869,40.530909,-75.0608589,,,
Lake Worth Cash Saver IGA,,3905 Telephone Road,,Lake Worth,TX,76135,United States,(817)237-7684,32.813572,-97.433916,,,
Bell's Market,,8330 Bustleton Ave,,Philadelphia,PA,19152,United States,(215)342-6016,40.068513,-75.051751,,,
Murray's Richboro Market IGA,,1025 N. Second Street Pike,,Richboro,PA,18954,United States,(215)355-5300,40.216352,-75.0093,,,
LaFargeville Market,,36111 NYS Route 180,,Lafargeville,NY,13656,United States,(315)658-2037,44.2083595,-75.9724562,,,
Peck's Market of Narrowsburg,,120 Kirk Road,,Narrowsburg,NY,12764,United States,(845)252-3016,41.6086999,-75.0618358,,,
Perks Pine Hill Market IGA,,712 Erial Rd.,,Pine Hill,NJ,08021,United States,(856)783-0925,39.786667,-74.991592,,,
Peck's Market of Callicoon,,9 Lower Main,,Callicoon,NY,12723,United States,(845)887-5090,41.765275,-75.0569469,,,
Woodbine Grocery,,908 Georgia Avenue,,Woodbine,GA,31569,United States,(912)576-2139,30.960947,-81.718793,,,
Peck's Market of Jeffersonville,,4897 State Route 52,,Jeffersonville,NY,12748,United States,(845)482-3800,41.77904,-74.934385,,,
Peck's Market of Eldred,,9 Proctor Road,,Eldred,NY,12732,United States,(845)557-6315,41.527221,-74.882429,,,
Gulfside IGA Plus,,812 NW Avenue A,,Carrabelle,FL,32322,United States,(850)697-2710,29.853245,-84.6696259,,,
Marrazzo's Market IGA,,1400 Parkway Ave,,Ewing,NJ,08628,United States,(609)434-0020,40.266738,-74.805657,,,
Pennington Quality Market IGA,,25 Route 31 Suite X,,Pennington,NJ,08534,United States,(609)737-0058,40.326016,-74.797866,,,
Roebling Town Market IGA,,1275 Hornberger Avenue,,Roebling,NJ,08554,United States,(609)499-1550,40.1162,-74.7848999,,,
Bishops Market IGA,,431 Rt 22,,Whitehouse Station,NJ,08889,United States,(908)534-9666,40.625339,-74.77158,,,
Town & Country IGA,,1180 Highway 24 East,,Newport,NC,28570,United States,(252)726-3781,34.734343,-76.8608952,,,
Gulfside IGA,,425 Highway 98 East,,Apalachicola,FL,32320,United States,(850)653-9695,29.7139739,-85.0090136,,,
Peck's Market of Livingston Manor,,29 Main Street,,Livingston Manor,NY,12758,United States,(845)439-4091,41.9017128,-74.8261339,,,
Foley's Family Market IGA,,1080 Whitehorse Mercerville Rd,,Hamilton,NJ,08610,United States,(609)581-0650,40.20704,-74.694873,,,
Kingsland IGA Express,,500 South Lee Street,,Kingsland,GA,31548,United States,(912)729-6008,30.7945864,-81.6891216,,,
Monnat's Country IGA Express,,9762 Main Street,,Croghan,NY,13327,United States,(315)346-6121,43.8931152,-75.3919378,,,
Metro Discount Foods IGA,,100 Southeast 17th Street,,Mineral Wells,TX,76067,United States,(940)325-9540,32.808737,-98.098235,,,
Wurtsboro G-Mart IGA,,2930 State Route 209,,Wurtsboro,NY,12790,United States,(845)888-8383,41.5584307,-74.5064494,,,
La Cosecha III,,306 South Main Street,,Pleasantville,NJ,08232,United States,(609)646-6455,39.38862,-74.52486,,,
Spires IGA Express,,2681 NE Bascom Noris Dr.,,Lake City,FL,32055,United States,(386)752-2855,30.1870571,-82.6043892,,,
Casel's Marketplace IGA,,8008 Ventnor Ave,,Margate City,NJ,08402,United States,(609)823-3829,39.329583,-74.499326,,,
DiOrio's Supermarket IGA,,2938 State Route 28,,Old Forge,NY,13420,United States,(315)369-3131,43.705039,-74.980606,,,
Food World IGA,,78 Main Street,,Bloomingdale,NJ,07403,United States,(973)838-2544,41.003013,-74.3291069,,,
Rowe's IGA,,6765 Dunn Avenue,,Jacksonville,FL,32219,United States,(904)652-2961,30.4405796,-81.7617881,,,
Scaff's IGA,,803 Suwannee Ave,,Branford,FL,32008,United States,(386)935-1527,29.9611138,-82.930125,,,
Rowe's IGA Express,,190 Lima Street South,,Baldwin,FL,32234,United States,(904)652-1640,30.301134,-81.982846,,,
Rowe's IGA Supermarkets,,8299 W. Beaver Street,,Jacksonville,FL,32220,United States,9045272640-,30.3225801,-81.7861181,,,
Boiceville Market IGA - #515,,4099 Route 28,,Boiceville,NY,12412,United States,(845)657-2695,42.00695,-74.267763,,,
Spires IGA Supermarket,,610 SW First Street,,Lake Butler,FL,32054,United States,(386)496-3361,30.02271,-82.3449838,,,
Rowe's Supermarket IGA,,5435 Blanding Road,,Jacksonville,FL,32244,United States,(904)652-1640-,30.247517,-81.741465,,,
Village IGA,,201 Main Street,,Ridgefield Park,NJ,07660,United States,(201)440-4290,40.8570154,-74.0250028,,,
Rowe's IGA,,8595 Beach Blvd. #329,,Jacksonville,FL,32216,United States,(904)527-2640,30.2879763,-81.5650749,,,
Bells IGA,,929 S Main St,,Bell,FL,32619,United States,(352)463-6282,29.751787,-82.861706,,,
My Market IGA,,140 North Chestnut Street,,New Paltz,NY,12561,United States,(845)255-1025,41.758297,-74.081778,,,
Kunoco Food Mart,,150 Lincoln Avenue,,Waddington,NY,13694,United States,(315)388-4465,44.8639889,-75.198842,,,
Rowe's Supermarket,,1670 Wells Road,,Orange Park,FL,32073,United States,(904)621-0957,30.186214,-81.723462,,,
Food Cellar & Company Market,,4-85 47th Road,,Long Island City,NY,11101,United States,(718)606-9786,40.745651,-73.956604,,,
Food Cellar Market #7607,,43-18 Crescent Street,,Long Island City,NY,11101,United States,(718)606-1888,40.748606,-73.942425,,,
Karista IGA LLC,,27 Elm Street,,Potsdam,NY,13676,United States,(315)265-6281,44.669437,-74.984022,,,
Hewitt IGA,,201 Hewitt Drive,,Hewitt,TX,76643,United States,(254)666-3641,31.464883,-97.198583,,,
Bryn Mar IGA,,129 Lake  Ave.,,Yonkers,NY,10701,United States,(914)963-3829,40.9452209,-73.887161,,,
Lawrence Brothers IGA,,211 North Munday Ave.,,Munday,TX,76371,United States,(940)422-4133,33.4505617,-99.6239369,,,
City Island Market,,385 City Island Avenue,,The Bronx,NY,10464,United States,(718)885-3400,40.849209,-73.787637,,,
Gabriels Supermarket IGA,,1924 Curry Road,,Rotterdam,NY,12306,United States,(518)355-2230,42.7794218072854,-73.9557847405723,,,
Gabriel's Scotia Foods IGA,,255 Mohawk Ave.,,Scotia,NY,12302,United States,(518)370-0140,42.8274495,-73.9676529,,,
Tri -Town IGA Express,,904 State Route 11C,,Brasher Falls,NY,13613,United States,(315)389-3333,44.8077872,-74.772886,,,
Shaheen's IGA,,252 Park Street,,Tupper Lake,NY,12986,United States,(518)359-9320,44.224437,-74.455014,,,
Marona's IGA Market,,32 Front Street,,Millbrook,NY,12545,United States,(845)677-3471,41.784587,-73.695068,,,
Lawrence Brothers IGA,,206 North Main,,Knox City,TX,79529,United States,(940)658-3715,33.418089,-99.815493,,,
Kobacker's IGA,,570 North Main Street,,Brewster,NY,10509,United States,(845)279-3515,41.402474,-73.617867,,,
Food Basket IGA,,68 Bayville Ave.,,Bayville,NY,11709,United States,(516)628-2402,40.909693,-73.5738049,,,
Peck's Market IGA,,State Route 199,,Pine Plains,NY,12567,United States,(518)398-6622,41.975178,-73.603038,,,
Palmer's Supermarket IGA,,264 Heights Rd.,,Darien,CT,06820,United States,(203)655-2077,41.069225,-73.496296,,,
Village Farms IGA,,1038 Park Boulevard,,Massapequa Park,NY,11762,United States,(516)798-9507,40.6799844,-73.4557329,,,
Sherman IGA,,15 Rte. 39 North,,Sherman,CT,06784,United States,(860)354-8488,41.5730703,-73.4994912,,,
Hillsdale Market IGA,,2628 Route 23,,Hillsdale,NY,12529,United States,(518)325-4341,42.1759459,-73.5769208,,,
Davis IGA,,27 Kent Green Blvd.,,Kent,CT,06757,United States,(860)927-4093,41.7272479,-73.4733576,,,
Copiague IGA Supermarket,,870 Merrick Road,,Copiague,NY,11726,United States,(631)841-1268,40.6678257,-73.3990006,,,
Cranbury Market IGA,,343 Newtown Avenue,,Norwalk,CT,06851,United States,(203)845-0026,41.1459566,-73.394554,,,
The Market CT - Northville,,301 Litchfield Road,,New Milford,CT,06776,United States,(860)355-2667,41.631894,-73.3928146,,,
LaBonne's Salisbury IGA,,22 Academy Street,,Salisbury,CT,06068,United States,(860)435-2559,41.9818676,-73.421694,,,
Larkfield IGA,,301 Claypitts Road,,East Northport,NY,11731,United States,(631)368-1661,40.86555,-73.320392,,,
Fort Salonga IGA - #2002,,10-15 Fort Salonga Road,,Fort Salonga,NY,11768,United States,(631)261-3511,40.9126823,-73.2952191,,,
Washington Food Market IGA,,5 Bryan Memorial Plaza,,Washington Depot,CT,06794,United States,(860)868-7351,41.6500394,-73.3354993,,,
The Market CT - Bantam,,"793 Bantam Road, Route 202",,Bantam,CT,06750,United States,(860)567-8647,41.7246245,-73.2444562,,,
IGA Foodliner,,3301 East Rancier Ave.,,Killeen,TX,76543,United States,(254)699-0868,31.118359,-97.695908,,,
LaBonne's Woodbury IGA,,238 Main Street South,,Woodbury,CT,06798,United States,(203)266-4202,41.5428375,-73.2086118,,,
Adam's Superfood Store,,200 Leavenworth Road,,Shelton,CT,06484,United States,(203)929-7982,41.3326598,-73.1385629,,,
Harry's Supermarket IGA,,290 Wahconah Street,,Pittsfield,MA,01201,United States,(413)442-9084,42.466775,-73.251441,,,
Adam's Super Food IGA,,1167 Main Street,,Watertown,CT,06795,United States,(860)274-0372,41.5927654,-73.1087883,,,
LaBonne's Watertown IGA,,639 Straits Turnpike,,Watertown,CT,06795,United States,(860)274-9631,41.5744578,-73.0998429,,,
Food Ranch IGA,,40 US HIghway 19,,Inglis,FL,34449,United States,(352)447-2905,29.034499,-82.670482,,,
Adam's IGA,,92 Main Street,,Thomaston,CT,06787,United States,(860)283-5645,41.673893,-73.0737969,,,
Town Plot IGA Supermarket,,286 Fairfield Ave.,,Waterbury,CT,06708,United States,(203)754-7817,41.5355613,-73.0597046,,,
Lawrence Brothers IGA,,700 Main Street,,Aspermont,TX,79502,United States,(940)989-2242,33.1334307,-100.2273276,,,
Winsted IGA Super Saver,,372-376 Main Street,,Winsted,CT,06790,United States,(860)379-1946,41.9212197,-73.0700671,,,
Lavigne's IGA,,6081 State Route 11,,Chateaugay,NY,12920,United States,(518)497-3072,44.927625,-74.067813,,,
Adam's IGA Supermarket,,1391 New Haven Ave.,,Milford,CT,06460,United States,(203)878-7363,41.2288206,-72.9955924,,,
Adams Supermarket/Terryville IGA,,201 Main Street,,Terryville,CT,06786,United States,(860)583-9177,41.6784219,-73.0069989,,,
Oliver's Supermarket IGA - #750,,75 Waterbury Road,,Prospect,CT,06712,United States,(203)758-4009,41.5142864,-72.9856408,,,
Pat's Supermarket IGA,,816 Wolcott Road,,Wolcott,CT,06716,United States,(203)879-4317,41.6059689,-72.9858031,,,
Bellport Super Saver IGA,,115 South Country Road,,Bellport,NY,11713,United States,(631)286-2772,40.7564522,-72.9404608,,,
Wallen's IGA,,133 Main Street,,Bellport,NY,11713,United States,(631)286-0202,40.7570429,-72.9392727,,,
Walsh's Quality Market IGA,,1786 Meridan Road,,Wolcott,CT,06716,United States,(203)879-2589,41.5553165,-72.9563141,,,
Lawrence Brothers IGA,,212 W. Lake Drive,,Hamlin,TX,79520,United States,(325)576-3551,32.8842344,-100.129109,,,
Harris IGA,,1006 South U.S. 1,,Bunnell,FL,32110,United States,(386)437-3813,29.4595003,-81.2516524,,,
Top's Market IGA,,887 Meriden Waterbury Turnpike,,Plantsville,CT,06479,United States,(860)621-5837,41.56318944,-72.87430428,,,
T & J IGA Food Market,,875 N. High Street,,East Haven,CT,06512,United States,(203)467-6438,41.3045761,-72.853882,,,
Gnazzo's IGA,,73 East Street,,Plainville,CT,06062,United States,(860)747-8758,41.66940633,-72.86096293,,,
East Center IGA Market,,816 East Center Street,,Wallingford,CT,06492,United States,(203)269-5926,41.448195,-72.80342,,,
Fitzgerald's Foods IGA,,710 Hopemeadow Street,,Simsbury,CT,06070,United States,(860)658-2271,41.8712143,-72.8034112,,,
Lawrence Brothers IGA,,601 Burlington,,Spur,TX,79370,United States,(806)271-4372,33.4788419,-100.8542125,,,
Geisslers IGA - Granby,,9-J Bank Street,,Granby,CT,06035,United States,(860)653-3990,41.9533926,-72.7850345,,,
Geissler's IGA - Bloomfield,,40 Tunxis Avenue,,Bloomfield,CT,06002,United States,(860)242-4444,41.8356971,-72.7380352,,,
Lemmon IGA,,411 Main Avenue,,Lemmon,SD,57638,United States,(605)374-3802,45.9408334,-102.1594317,,,
West Side Marketplace IGA #503,,887 Cromwell Ave.,,Rocky Hill,CT,06067,United States,(860)529-2200,41.646448,-72.678914,,,
Roberts Food Center IGA,,"514 Old Toll Road, Route #80",,Madison,CT,06443,United States,(203)421-3577,41.3578126,-72.6443285,,,
Geisslers IGA - Windsor,,318 Broad Street,,Windsor,CT,06095,United States,(860)688-8867,41.84942,-72.64588,,,
Geisslers IGA - East Windsor,,100 Bridge Street,,East Windsor,CT,06088,United States,(860)623-6336,41.929554,-72.6161416,,,
Geisslers IGA,,830 Suffield Street,,Agawam,MA,01001,United States,(860)623-0716,42.0633195,-72.6319004,,,
Tri-Town Portland Foods IGA,,316 Marlborough Street,,Portland,CT,06480,United States,(860)342-0672,41.6146372,-72.577419,,,
Geisslers IGA - South Windsor,,965 Sullivan Avenue,,South Windsor,CT,06074,United States,(860)644-3007,41.8463461,-72.5632879,,,
Clark's Quality Foods #6044,,5700 Route 100,,Londonderry,VT,05148,United States,(802)824-3144,43.2268644,-72.8077748,,,
Armata's IGA,,901 Shaker Road,,Longmeadow,MA,01106,United States,(413)567-5637,42.0331735,-72.5541839,,,
Grist Mill Market,,25 Falls Road,,Moodus,CT,06469,United States,(860)873-3663,41.5053263,-72.4471766,,,
Adam's Super Food IGA,,193 Main Street,,Deep River,CT,06417,United States,(860)526-2807,41.3846256,-72.4354014,,,
Southold IGA,,54560 Main Street,,Southold,NY,11971,United States,(631)765-3040,41.0874898,-72.3918934,,,
Geissler's Supermarket IGA,,95 South Road,,Somers,CT,06071,United States,(860)749-7339,41.9789724,-72.4462141,,,
Village Food Mart IGA,,43 Somers Road,,Hampden,MA,01036,United States,(413)566-8717,42.0553644,-72.4394024,,,
Greenport IGA,,101 South Street,,Greenport,NY,11944,United States,(631)477-0101,41.103111,-72.360957,,,
Shelter Island IGA,,75 North Ferry Road,,Shelter Island,NY,11964,United States,(631)749-0382,41.074568,-72.340631,,,
Ted's IGA Supermarket,,127 Main Street,,Hebron,CT,06248,United States,(860)228-4311,41.6619674,-72.3550147,,,
Noel's IGA Supermarket,,1 Broadway,,Colchester,CT,06415,United States,(860)537-5988,41.5769539,-72.3338088,,,
Schiavoni's IGA,,48 Main Street,,Sag Harbor,NY,11963,United States,(631)725-0366,41.001066,-72.295863,,,
Adams IGA Supermarket,,111 Main Street,,Monson,MA,01057,United States,(413)267-3144,42.0993761,-72.3155792,,,
Tri-Town Flanders Foods IGA,,15 Chesterfield Road,,East Lyme,CT,06333,United States,(860)739-2434,41.3666285,-72.2097751,,,
Mt,,Country Road 435,,Sorrento,FL,32776,United States,(352)383-5001,28.764259,-81.5206919,,,
East Hampton IGA,,92  N. Main Street,,East Hampton,NY,11937,United States,(631)324-0529,40.9691669,-72.1820344,,,
Windham IGA,,422 Windham Road,,Willimantic,CT,06226,United States,(860)423-3056,41.7041244,-72.1934195,,,
Lawrence Brothers IGA,,624 Ave. E,,Ralls,TX,79357,United States,(806)253-2412,33.1972345,-101.3753534,,,
Amagansett IGA Super Saver,,7 S Jersey Ave. #B Montauk Highway,,Amagansett,NY,11930,United States,(631)267-3556,40.996128,-72.043767,,,
Fishers Island IGA Supermarket,,"West St, Cresent Street",,Fishers Island,NY,06390,United States,(631)788-7255,41.2570434,-72.0239626,,,
Tropic Save Supermarket,,23 West Silver Star Road,,Ocoee,FL,34761,United States,(407)905-9606,28.5738233,-81.5445229,,,
Montauk IGA,,654 Montauk Hwy,,Montauk,NY,11954,United States,(631)668-4929,41.025920044183,-71.9665778663588,,,
Better Val-U Supermarket IGA,,99 River Road,,Lisbon,CT,06351,United States,(860)376-4424,41.5895668,-71.9910011,,,
Better Val-U Supermarket IGA,,"4 North Canterbury Rd, Rte. 169",,Canterbury,CT,06331,United States,(860)546-9436,41.698977,-71.97148,,,
Better Val-U Supermarket IGA,,657 Norwich Road,,Plainfield,CT,06374,United States,(860)564-7714,41.6751748,-71.9154414,,,
Meat Depot,,1401 E. Fowler Avenue,,Tampa,FL,33612,United States,(813)515-6328,28.05364,-82.443895,,,
Farmer's Market Express,,11701 International Drive,,Orlando,FL,32821,United States,(407)778-1949,28.3947912,-81.4646414,,,
King's Supermarket IGA,,7562 West Highway 192,,Kissimmee,FL,34747,United States,(407)778-1949,28.3333628,-81.588705,,,
Brigido's Fresh Market #72224,,24 Sayles Ave.,,Pascoag,RI,02859,United States,(401)568-4626,41.956401,-71.7026174,,,
Economizer IGA,,14720 State Route 574,,Dover,FL,33527,United States,(813)659-0602,27.9984609,-82.2034001,,,
Dave's Marketplace IGA,,23 Coventry Shoppers Park,,Coventry,RI,02816,United States,(401)615-9975,41.691925,-71.566382,,,
Brigido's Fresh Market,,25 Village Plaza Way,,N Scituate,RI,02857,United States,(401)934-2283,41.836829,-71.574082,,,
Brigido's IGA Marketplace,,900 Victory Highway,,Slatersville,RI,02876,United States,(401)762-1020,42.00522,-71.585155,,,
Jerry's Supermarket IGA,,25 Providence Street,,West Warwick,RI,02893,United States,(401)828-2999,41.7086767,-71.5213635,,,
Dave's Marketplace,,4 Cedar Swamp Road,,Smithfield,RI,02917,United States,(401)231-1620,41.8713802,-71.5309892,,,
Dave's Marketplace,,371 Putnam Pike,,Smithfield,RI,02917,United States,(401)830-5650,41.8753381,-71.5206419,,,
Dave's Marketplace,,1000 Division Street,,East Greenwich,RI,02818,United States,(401)558-0190,41.6630189,-71.4879922,,,
Dave's Marketplace,,125 Tower Hill,,North Kingstown,RI,02852,United States,(401)268-3991,41.570755,-71.462694,,,
Dave's Marketplace,,105 Gate Road,,North Kingstown,RI,02852,United States,(401)885-9100,41.6056478,-71.4514494,,,
Dave's Marketplace,,2687 West Shore Road,,Warwich,RI,02886,United States,(401)737-5860,41.7046935,-71.4197537,,,
Dave's Marketplace,,18 Airport Road,,Warwick,RI,02889,United States,(401)738-8300,41.7334005,-71.4080136,,,
Dave's Marketplace,,2077 Diamond Hill Road,,Cumberland,RI,02864,United States,(401)334-9362,41.945236,-71.402039,,,
McKinnon's Market & Super Butcher Shop,,236 North Broadway,,Salem,NH,03079,United States,(603)894-6328,42.7915948,-71.2356485,,,
McKinnon's Market & Super Butcher Shop,,620 Broadway,,Everett,MA,02149,United States,(617)387-6285,42.4122911,-71.0508319,,,
McKinnon's Market & Super Butcher Shop,,73 Holten Street,,Danvers,MA,01923,United States,(978)774-0429,42.561295,-70.947698,,,
Lawrence Brothers IGA,,304 N. LaMesa Hwy.,,Stanton,TX,79782,United States,(432)756-3375,32.1292891,-101.7884642,,,
LaPerle's IGA,,64 Trooper Leslie Lord Memorial Highway,,Colebrook,NH,03576,United States,(603)237-4370,44.9215815,-71.3954629,,,
McKinnon's Market,,2454 Lafayette Road,,Portsmouth,NH,03801,United States,(603)559-5714,43.0333139,-70.7834798,,,
Wells Food Mart IGA,,1517 Post Road,,Wells,ME,04090,United States,(207)641-2125,43.3173127,-70.5830744,,,
Village Beach Market,,4905 North Highway A-1-A,,Vero Beach,FL,32963,United States,(772)231-8135,27.5585,-80.360333,,,
Broadus IGA,,120 S. Park,,Broadus,MT,59317,United States,(406)436-2288,45.4438809,-105.4074903,,,
Reese & Ray's IGA,,203 Second Street NW,,Sidney,MT,59270,United States,(406)482-3737,47.716697,-104.1580517,,,
Future Foods IGA,,5 Depot Square,,Mechanic Falls,ME,04256,United States,(207)345-2791,44.111441,-70.3937145,,,
Family Center IGA,,8416 South Alister,,Port Aransas,TX,78373,United States,(361)749-6233,27.825283,-97.064208,,,
Pond Cove IGA Foodliner,,339 Ocean House Road,,Cape Elizabeth,ME,04107,United States,(207)799-3711,43.59341,-70.2273764,,,
Rangeley IGA,,2185  Main Street,,Rangeley,ME,04970,United States,(207)864-5089,44.9621604,-70.6398813,,,
Greene IGA,,440 Route 202,,Greene,ME,04236,United States,(207)946-5100,44.1839693,-70.1622022,,,
Valley Foods IGA,,1120 South 1st Street,,Saratoga,WY,82331,United States,(307)326-5336,41.4455996,-106.8075299,,,
Bailey's General Store IGA,,2477 Periwinkle Way,,Sanibel,FL,33957,United States,(239)472-1516,26.4355423,-82.0796066,,,
Rines Market IGA,,15500 SW Trail Drive,,Indiantown,FL,34956,United States,(772)597-3535,27.018987,-80.462298,,,
Brackett's Market IGA,,185 Front Street,,Bath,ME,04530,United States,(207)443-2012,43.914993,-69.813923,,,
Fuller's Market IGA,,599 Hallowesll and Litchfield Road,,West Gardiner,ME,04345,United States,(207)724-3940,44.2257359,-69.8987341,,,
Goggin's IGA,,268 Water Street,,Randolph,ME,04346,United States,(207)582-3453,44.228929,-69.7650536,,,
Regi Universal Supermarket IGA,,26611 Old 41 Road,,Bonita Springs,FL,34135,United States,(239)495-3414,26.350363,-81.778825,,,
Reese & Ray's IGA,,440 Fort Street,,Buffalo,WY,82834,United States,(307)684-2239,44.3484096,-106.7044321,,,
Buddies Groceries IGA,,43 Main Street,,Oakland,ME,04963,United States,(207)465-2621,44.5477348,-69.7171255,,,
City Market IGA,,5011 Broadway,,West Palm,FL,33407,United States,(561)848-4856,26.756277,-80.056164,,,
Lame Deer Trading IGA,,501 Cheyenne Ave.,,Lame Deer,MT,59043,United States,(406)477-6281,45.622084,-106.6657242,,,
Monterrey Supermarket #3,,5851 Lake Worth Road,,Greenacres,FL,33463,United States,(561)963-2230,26.6191939963079,-80.136252694044,,,
Monterrey Supermarket #1,,5100 Lake Worth Road,,Greenacres,FL,33463,United States,(561)963-2230,26.618758,-80.122542,,,
P&L Market IGA,,514 Corinna Blvd.,,Dexter,ME,04930,United States,(207)924-5000,44.9994153,-69.2815791,,,
Picchioni's IGA of Forsyth,,1026 Main Street,,Forsyth,MT,59327,United States,(406)346-7531,46.2650069,-106.680364,,,
Food Bazaar International IGA,,202 W. Hillsboro Blvd.,,Deerfield,FL,33441,United States,(954)421-6444,26.3183369,-80.104914,,,
Pompano IGA Supermarket,,11 NE 3rd Street,,Pompano Beach,FL,33060,United States,(786)280-5217,26.2343008,-80.1244741,,,
Little Horn IGA,,100 Main Street,,Lodge Grass,MT,59050,United States,(406)639-2312,45.317828,-107.3645947,,,
Neighbors IGA,,6041 West Sunrise Boulevard,,Sunrise,FL,33313,United States,(954)316-6255,26.1359183,-80.230911,,,
Price Choice Foodmarkets #3 (1700),,1941 NW 9th  Avenue,,Ft. Lauderdale,FL,33311,United States,(954)457-2302,26.1528592,-80.1545313,,,
Price Choice #10,,109 North State Road 7,,Plantation,FL,33317,United States,(954)581-2660,26.118856,-80.202284,,,
Worland IGA,,221 North 10th Street,,Worland,WY,82401,United States,(307)347-3628,44.0185294,-107.9563051,,,
Central Supermarket,,4675 NW 199th Street,,Miami Gardens,FL,33055,United States,(305)625-0358,25.9542198,-80.2775963,,,
Price Choice Foodmarket,,"4500 NW 183rd St,",,Carol City,FL,33055,United States,(305)625-0074,25.938742,-80.275861,,,
Bell's Orono IGA,,6 Stillwater Ave.,,Orono,ME,04473,United States,(207)827-0354,44.9060391,-68.6885919,,,
Tropical Supermarket,,18351 NW 27th Avenue,,Miami,FL,33056,United States,(305)628-1948,25.946322,-80.247066,,,
Price Choice #6,,1900 W 60th Street,,Hialeah,FL,33012,United States,(954)445-6863,25.876294,-80.322693,,,
Price Choice Foodmarket,,13931 NW 27th Avenue,,Opa-Laka,FL,33054,United States,(305)681-5424,25.901615,-80.242889,,,
Wheeler's IGA,,114  S. 4th Street,,Basin,WY,82410,United States,(307)568-2325,44.3804162,-108.0391841,,,
Reese & Ray's IGA,,225 South 4th Street,,Thermopolis,WY,82443,United States,(307)864-5576,43.6447086,-108.2083839,,,
National Supermarket IGA,,5400 Palm Ave.,,Hialeah,FL,33012,United States,(305)558-1540,25.871844,-80.283921,,,
Milam's Market IGA,,17100 Collins  Ave.,,North Miami Beach,FL,33160,United States,(305)945-1890,25.934415,-80.123043,,,
New Way Supermarket,,12955 NW 7th Avenue,,Miami,FL,33168,United States,(305)681-0246,25.893305,-80.210458,,,
Big Horn IGA,,901 North Center Street,,Hardin,MT,59034,United States,(406)665-1687,45.738456,-107.604854,,,
Tropical Meat & Fish IGA,,11800 North West 10th Ave.,,Miami,FL,33168,United States,(305)688-3444,25.883125,-80.215596,,,
Price Choice Foodmarket,,2712 NW 95th Street,,Miami,FL,33147,United States,(305)696-6363,25.859737,-80.242861,,,
Milam's Market IGA,,80 Curtiss Parkway,,Miami Springs,FL,33166,United States,(305)887-4434,25.821963,-80.2826259,,,
Sabor Tropical Supermarket,,10692 NW 7th Street,,Miami,FL,33172,United States,(305)226-4722,25.7769314,-80.3787507,,,
Sabor Tropical IGA,,8000 NE 5th Avenue,,Miami,FL,33150,United States,(305)751-9124,25.8481029,-80.1866091,,,
Trenton Marketplace IGA,,1007 Bar Harbor Road,,Trenton,ME,04605,United States,(207)667-9597,44.4482038,-68.3700657,,,
Sabor Tropical Supermarket #7,,969 Normandy Dr,,Miami Beach,FL,33141,United States,3058657116-,25.8560481,-80.1293143,,,
Southwest Food Mart IGA,,101 Main Street,,Southwest Harbor,ME,04679,United States,(207)244-5601,44.2927586,-68.3288311,,,
Sabor Tropical Supermarket,,6190 SW 8th Street,,Miami,FL,33144,United States,(305)266-6678,25.7628239,-80.295292,,,
Price Choice Foodmarket,,1851 NE 2nd Avenue,,Miami,FL,33132,United States,(305)374-2525,25.794356,-80.190389,,,
Top Value IGA,,1490 NW 3rd Ave.,,Miami,FL,33136,United States,(305)573-4695,25.789667,-80.200485,,,
Sabor Tropical #2,,8700 SW 137th Avenue,,Miami,FL,33183,United States,(305)382-3102,25.686171,-80.4167,,,
Milam's Market IGA,,5767 S.W. 40th Street,,Miami,FL,33155,United States,(305)662-1510,25.7340807,-80.2875663,,,
Art Deco Supermarket,,1435 Washington Avenue,,Miami Beach,FL,33139,United States,(305)532-7398,25.786601,-80.131419,,,
Milam's Market IGA,,2969 SW 32nd Ave.,,Miami,FL,33133,United States,(305)446-4909,25.7362282,-80.2458641,,,
Meridian Food Market,,812 6th Street,,Miami Beach,FL,33139,United States,(305)673-8509,25.775733,-80.1364307,,,
Blue Marlin IGA,,2912 Padre Boulevard,,South Padre Island,TX,78597,United States,(956)761-4966,26.1059882,-97.1682961,,,
Sabor Tropical Supermarket,,28945 S. Dixie Highway,,Homestead,FL,33033,United States,(426)499-0000,25.49792,-80.446228,,,
Foodbasket IGA Plus,,421 East 1st Street,,Powell,WY,82435,United States,(307)754-3602,44.753286,-108.753888,,,
Lockwood IGA,,1960 Old Hardin Road,,Billings,MT,59101,United States,(406)252-4798,45.803536,-108.435056,,,
Van's Evergreen IGA,,1540 - 13th Street West,,Billings,MT,59102,United States,(406)245-5138,45.7854069,-108.5486147,,,
Fausto's Food Palace,,522 Fleming Street,,Key West,FL,33040,United States,(305)296-5663,24.556277,-81.801908,,,
Fausto's Food Palace,,1105 White Street,,Key West,FL,33040,United States,(305)294-5221,24.5550365,-81.7902361,,,
Reese & Ray's IGA,,205 1st Ave. South,,Laurel,MT,59044,United States,(406)628-2315,45.666825,-108.770558,,,
Princeton Food Mart IGA,,123 Main Street,,Princeton,ME,04668,United States,(207)796-2244,45.205785,-67.5302739,,,
Andy's IGA Foodliner,,132 North Street,,Houlton,ME,04730,United States,(207)532-3305,46.1341062,-67.8395288,,,
Picchioni's IGA,,10-9th Ave. West,,Roundup,MT,59072,United States,(406)323-2410,46.4498103,-108.542661,,,
Star City IGA,,247 Main Street,,Presque Isle,ME,04769,United States,(207)762-5151,46.6763678,-68.015916,,,
Woodland Food Mart IGA,,667 Houlton Road,,Baileyville,ME,04694,United States,(207)427-6995,45.14989,-67.402578,,,
Davis Food & Drug,,575 W Main St,,Vernal,UT,84078,United States,4357892001-,40.454852,-109.539312,,,
Mars Hill IGA,,7 Market Street,,Mars Hill,ME,04758,United States,(207)425-2411,46.5140539,-67.8655019,,,
Bell's IGA,,200 North Street,,Calais,ME,04619,United States,(207)454-3892,45.1750625,-67.2901591,,,
Beartooth IGA,,201 N. Oakes Ave.,,Red Lodge,MT,59068,United States,(406)446-2684,45.1888947,-109.2477606,,,
Hillside IGA Foodliner,,207  Main Street,,Fort Fairfield,ME,04742,United States,(207)473-7942,46.7700166,-67.8257875,,,
Columbus IGA Plus,,133 North Fifth,,Columbus,MT,59019,United States,(406)322-5718,45.6439395,-109.2601235,,,
Lyons IGA,,82 Washington St,,Lubec,ME,04652,United States,(207)733-0925,44.8577442,-66.990714,,,
R & M IGA,,88 Washington Street,,Eastport,ME,04631,United States,(207)853-4050,44.9060236,-66.9950155,,,
Milligan's IGA,,2 South Woodard,,Absarokee,MT,59001,United States,(406)328-4314,45.520451,-109.442518,,,
Davis IGA Super Center,,750 E 200 N,,Roosevelt,UT,84066,United States,4357222296-,40.3021445,-109.9805478,,,
Big T IGA,,110 West 3rd,,Big Timber,MT,59011,United States,(406)932-5446,45.8326822,-109.954725,,,
Wilbur's IGA Supermarket,,1135 West Cleveland,,St. John's,AZ,85936,United States,(928)337-2261,34.5065423,-109.3815729,,,
Gary & Leo's IGA Plus,,730 1st Street,,Havre,MT,59501,United States,(406)265-1404,48.552391,-109.671158,,,
Davis Food & Drug,,3765 S 2700 W,,West Valley City,UT,84119,United States,8019693222-,40.6902143,-111.957973,,,
Ed's IGA Supermarket,,160 North Main,,Snowflake,AZ,85937,United States,(520)536-4343,34.462671,-110.091174,,,
Everyday IGA North,,2505 6th Ave. North,,Great Falls,MT,59401,United States,(406)761-7506,47.5117835,-111.2636441,,,
Everyday IGA,,701 First Avenue North,,Great Falls,MT,59401,United States,(406)727-0818,47.506699,-111.295145,,,
Walter's IGA,,102 South Main,,Sheridan,MT,59749,United States,(406)842-5417,45.4565213,-112.1975312,,,
Heber IGA Express,,1823 Black Caynon Drive,,Heber,AZ,85928,United States,(928)535-3220,34.428988,-110.54312,,,
Van's IGA of Dillon Inc,,110 Southside Blvd,,Dillon,MT,59725,United States,(406)683-8267,45.210823,-112.6376234,,,
Gary & Leo's Fresh Foods,,600 South Main Street,,Conrad,MT,59425,United States,(406)278-7843,48.165928,-111.949246,,,
Weber's IGA Food & Drug - #52172,,100 Verde Valley School Road,,Sedona,AZ,86351,United States,(928)284-1144,34.7782612,-111.7651363,,,
"Tonto Basin Marketplace, LLC",,45994 North Arizona Highway 188,,Tonto Basin,AZ,85553,United States,(928)479-2000,33.861162,-111.311731,,,
Norm's IGA,,345 Alden Road,,Kearny,AZ,85237,United States,(520)363-5595,33.058634,-110.906342,,,
Davis Food & Drug,,495 N State St,,La Verkin,UT,84745,United States,4356350774-,37.210372,-113.27329,,,
Teeple's IGA,,1600 Main,,Browning,MT,59417,United States,(406)338-2165,48.5569174,-113.0134175,,,
Shope's Market IGA,,1940 S. Arizona Boulevard,,Coolidge,AZ,85128,United States,(520)723-4567,32.95938284,-111.5242264,,,
Ron's Market IGA,,34360 S Old Black Canyon Highway,,Black Canyon City,AZ,85324,United States,(623)374-5546,34.0671419,-112.151437,,,
El Rancho Market IGA,,1076 N. Arizona Avenue,,Chandler,AZ,85225,United States,(480)792-1414,33.3222443,-111.8416384,,,
Gary & Leo's Fresh Foods IGA,,5537 Hwy 93 North,,Florence,MT,59833,United States,(406)273-2791,46.634296,-114.078131,,,
Rccm Foodtown IGA Market,,13 North Santa Cruz,,Eloy,AZ,85231,United States,(520)466-7790,32.7494118,-111.5488782,,,
El Rancho Market IGA,,8901 N. 19th Avenue,,Phoenix,AZ,85021,United States,(602)870-3600,33.5668232,-112.0995988,,,
Food Town IGA,,10601 W Battaglia Dr,,Arizona City,AZ,85223,United States,5204665760-,32.762222,-111.681549,,,
Garrett's IGA Supermarket,,"1060 Yavapai, Ste. 10",,Rio Rico,AZ,85648,United States,(520)281-8151,31.4643722,-110.9998061,,,
The Butcher & The Farmer Marketplace IGA,,224 East Monroe Ave.,,Buckeye,AZ,85326,United States,(623)386-4723,33.3705565,-112.5882936,,,
Stein's Market #104,,33 Kaylin Lane,,Eureka,MT,59917,United States,(406)297-3151,48.901608,-115.056206,,,
Olsens Marketplace IGA #25175,,1961 N. Ajo-Gilo Bend Hwy,,Ajo,AZ,85321,United States,(520)387-5641,32.39232874,-112.8729729,,,
Glenwood IGA,,1130 Michigan Ave.,,Orofino,ID,83544,United States,(208)476-3011,46.483858,-116.242717,,,
Stein's Market #103,,712 E. Mullan,,Osburn,ID,83849,United States,(208)752-5021,47.504072,-115.994832,,,
WDP Pioneer Fremont IGA Express,,6917 Old Street Road 27,,Fremont,IN,46737,United States,(260)833-3755,36.1889666,-115.22687,,,
Stein's Market #102,,207 W. Cameron,,Kellogg,ID,83837,United States,(208)784-1122,47.540564,-116.122777,,,
Stein's Market #105,,607 E. Missoula Avenue,,Troy,MT,59935,United States,(406)295-4177,48.458397,-115.892927,,,
Archie's IGA Plus,,105 E. College Ave.,,St. Maries,ID,83861,United States,(208)245-5504,47.3152161,-116.5597475,,,
Stein's Market IGA,,16102 North Highway 41,,Rathdrum,ID,83858,United States,(208)680-0767,47.819823,-116.882055,,,
Dissmore's IGA,,1205 North Grand Ave.,,Pullman,WA,99163,United States,(509)332-2918,46.7394664,-117.1730558,,,
Hanks Market & Butcher Shop IGA,,11720 S. Foothills Blvd,,Yuma,AZ,85367,United States,(928)342-1291,32.659249,-114.409817,,,
Foothills Mini Mart IGA Express,,12870 S. Foothills Blvd,,Yuma,AZ,85367,United States,(928)342-1291,32.6489004,-114.4098546,,,
Del Sol Market IGA,,280 South 4th Ave.,,Yuma,AZ,85364,United States,(908)627-8033,32.7217405,-114.624657,,,
Del Sol,,367 W. 16th Street,,Yuma,AZ,85364,United States,(928)627-8083,32.698417,-114.6233989,,,
Riverside Center Place Market,,34710 North Newport Highway,,Chattaroy,WA,99003,United States,(509)292-2253,47.971046,-117.348543,,,
Del Sol IGA,,131 N. Main Street,,Somerton,AZ,85350,United States,(928)627-3748,32.596635,-114.713383,,,
DelSol,,402 E 5th St,,Holtville,CA,92250,United States,2603652215-,32.810488,-115.3761,,,
Redlands Ranch Market IGA,,800 East Lugonia Avenue,,Redlands,CA,92374,United States,(909)307-2600,34.069701,-117.173145,,,
El Mercado - Grandview,,206 North Euclid,,Grandview,WA,98930,United States,(509)882-1900,46.25901,-119.916654,,,
El Mercado - Quincy,,807 1st Avenue SW,,Quincy,WA,98848,United States,(509)787-4567,47.2320045,-119.8547718,,,
Foodland Mercado,,1099 E. Main Street,,El Cajon,CA,92019,United States,(619)579-4100,32.7947597,-116.9448105,,,
Isabella Supermarket,,6120 Lake Isabella,,Lake Isabella,CA,93240,United States,(760)379-8222,35.624964,-118.473506,,,
Foodland Mercado,,5075 Federal Blvd.,,San Diego,CA,92102,United States,(619)262-9992,32.72093,-117.085643,,,
Foodland Mercado,,303 Highland Street,,National City,CA,91950,United States,(619)336-0130,32.682676,-117.09948,,,
Foodland Mercado,,3550 National Avenue,,San Diego,CA,92113,United States,(619)234-2156,32.6960238,-117.117789,,,
Eduardo's Mercado IGA,,3175 National Ave.,,San Diego,CA,92113,United States,(619)595-1841,32.6958327,-117.125691,,,
Hometown Market IGA,,646 E St.,,Chula Vista,CA,91910,United States,(619)427-4844,32.6406007,-117.0959647,,,
Su Mercado IGA,,1860 Coronado Avenue,,San Diego,CA,92154,United States,(619)575-4660,32.57789,-117.093347,,,
Wallys Markerplace IGA,,836 Palm Avenue,,Imperial Beach,CA,91932,United States,(619)424-8129,32.585106,-117.115193,,,
Evergreen IGA,,920 Highway 20,,Winthrop,WA,98862,United States,(509)996-2525,48.4681503,-120.176232,,,
Wray's Food and Drug,,401 W. Nob Hill,,Yakima,WA,98902,United States,(508)248-0610,46.5852462,-120.5108001,,,
Martin's Marketplace,,130 Titchenal Way,,Cashmere,WA,98815,United States,(509)782-3801,47.517979,-120.4530235,,,
Wray's Food and Drug,,7200 W. Nobhill,,Yakima,WA,98908,United States,(509)965-4040,46.58563911,-120.604319634864,,,
Leonard's Market,,88 West Sierra Street,,Portola,CA,96122,United States,(530)832-5062,39.795355,-120.14783,,,
Wray's Food and Drug,,5605 Summitview,,Yakima,WA,98908,United States,(509)966-2660,46.6029513,-120.7036976,,,
Wagner's Market IGA,,930 North Main Street,,Prineville,OR,97754,United States,5414472600-,44.308322,-120.846508,,,
Best Buy Market IGA,,1300 W. Walnut,,Visalia,CA,93277,United States,(559)732-7981,36.313395,-119.30616,,,
Gong's Southgate Market,,1825 Academy Avenue,,Sanger,CA,93657,United States,(559)875-5576,36.6937552,-119.5541355,,,
Palace Food Depot,,115 South West Street,,Tulare,CA,93274,United States,(559)686-8716,36.20606,-119.3669793,,,
Susanville Supermarket IGA,,50 Grand Ave.,,Susanville,CA,96130,United States,(530)257-5136,40.417057,-120.653025,,,
Twain Harte Market,,18711 Tiffeni Drive,,Twain Harte,CA,95383,United States,(209)586-6100,38.04049974,-120.2244328,,,
Best Buy Market,,1798 North 10th Avenue,,Hanford,CA,93230,United States,(559)582-8806,36.3439898,-119.6375728,,,
Sun River Marketplace,,18160 Cottonwood Road #222,,Sun River,OR,97707,United States,(541)593-8166,43.898248,-121.417958,,,
Sunriver Country Store IGA,,57100 Beaver Drive,,Sun River,OR,97707,United States,(541)593-8113,43.8735728,-121.4347952,,,
Evergreen Market,,427 Crescent Street,,Greenville,CA,95947,United States,(530)284-7313,40.1377969,-120.9382049,,,
Best Buy Market,,1135 W. Bush Street,,Lemoore,CA,93245,United States,(559)924-5623,36.297167,-119.798062,,,
Payless,,26560 Street Highway 88,,Pioneer,CA,95666,United States,(209)295-7160,38.42877,-120.556938,,,
Worton's Foresthill,,23140 Foresthill Road,,Foresthill,CA,95631,United States,(530)367-4040,39.012372,-120.838928,,,
Blanton's Market IGA,,13040 US Highway 12,,Packwood,WA,98361,United States,(360)494-6101,46.648332,-121.615959,,,
Payless IGA,,3505 Spangler Ln Ste 100,,Copperopolis,CA,95228,United States,(209)785-5100,37.9367763,-120.6045858,,,
Westridge Market IGA,,802 E. Ojai Avenue,,Ojai,CA,93023,United States,(805)646-2760,34.44843299,-119.2383111,,,
Westridge Midtown Market IGA,,131 W. Ojai Avenue,,Ojai,CA,93023,United States,(805)646-2760,34.44767921,-119.2467446,,,
SPD IGA,,735 Zion Street,,Nevada City,CA,95959,United States,(530)265-4596,39.2537256,-121.025679,,,
SPD IGA,,129 West McKnight Way,,Grass Valley,CA,95949,United States,(530)272-5000,39.1996492,-121.0610694,,,
Darrington IGA,,1090 Seeman Street,,Darrington,WA,98241,United States,(360)436-0141,48.255767,-121.603536,,,
Fischer's Market,,9790 U.S. Highway 12,,Randle,WA,98377,United States,(360)497-5355,46.5350589,-121.958025,,,
The Ridge Supermarket IGA,,7730 Center Blvd. SE,,Snoqualmie,WA,98065,United States,(425)396-1340,47.531046,-121.8734109,,,
Livingston Liberty Market,,1471 B Street,,Livingston,CA,95334,United States,(209)394-4920,37.38605253,-120.7229149,,,
Carnation Market IGA,,31722 Eugene Street #1,,Carnation,WA,98014,United States,(425)333-4156,47.646858,-121.9169404,,,
Delhi Liberty Market,,16385 Schendel Ave,,Delhi,CA,95315,United States,(209)669-8794,37.42669325,-120.7828038,,,
Front Street Market IGA,,90 Front St. South,,Issaquah,WA,98027,United States,(425)392-4571,47.528924,-122.035376,,,
Granite Falls IGA,,115 North Granite Avenue,,Granite Falls,WA,98252,United States,(360)691-6733,48.084522,-121.968364,,,
Payless Market,,18980 Hwy 88,,Lockeford,CA,95237,United States,(209)727-5628,38.1561853,-121.15481,,,
Big Al's Market,,422 Main Street,,Wheatland,CA,95692,United States,(530)633-2779,39.009821,-121.422179,,,
Reed's Ranch Market IGA,,7007 Shingle Glen Trail,,Shingletown,CA,96088,United States,(530)474-3874,40.49182,-121.892001,,,
Normandy Park Market,,19805 1st Avenue,,Normandy Park,WA,98148,United States,(206)651-7797,47.424982,-122.337504,,,
Kress IGA Supermarket,,1427 Third Avenue,,Seattle,WA,98101,United States,(206)749-9500,47.60949,-122.337404,,,
Vashon Market IGA,,17639 100th S.W.,,Vashon,WA,98070,United States,(206)463-9725,47.3896361,-122.4616168,,,
El Rancho Marketplace,,2886 Mission Dr,,Solvang,CA,93463,United States,8056884300-,34.605972,-120.10126,,,
Dodson's IGA,,3705 Mt. Baker Highway,,Everson,WA,98247,United States,(360)592-5351,48.8432363,-122.2885149,,,
Thriftway Foods Express,,5529 Dunsmuir Avenue,,Dunsmuir,CA,96025,United States,(530)235-4751,41.2133625,-122.2720764,,,
Bromley's Market IGA,,315 Cherry St.,,Sumas,WA,98295,United States,(360)988-4721,49.000604,-122.265488,,,
Camano Plaza Market IGA,,370 N. Camano Drive,,Camano Island,WA,98282,United States,(360)387-7965,48.2490531,-122.4622212,,,
Spencer's Markets,,3580 Orcutt Road,,Santa Maria,CA,93455,United States,(805)937-3702,34.895127,-120.435638,,,
California Fresh Markets,,771 E. Foothill Blvd.,,San Luis Obispo,CA,93405,United States,(805)250-1425,35.29337,-120.673139,,,
California Fresh Market IGA,,555 Five Cities Avenue,,Pismo Beach,CA,93449,United States,(805)295-7162,35.135121,-120.623825,,,
Tops Fresh Market IGA,,3685 Eureka Way,,Redding,CA,96001,United States,(530)241-1391,40.5838833,-122.4263147,,,
Cedar Village IGA,,206 East Walnut Street,,Winlock,WA,98596,United States,(360)785-4610,46.4912058,-122.9354541,,,
Town & Country IGA Market,,121 E. Grant Street,,Winters,CA,95694,United States,(530)795-3214,38.527875,-121.965614,,,
Hollister Super #2,,211 Third Street,,Hollister,CA,95023,United States,(831)636-8887,36.8535174,-121.4010893,,,
Hollister Super #1,,1280 San Juan Blvd,,Hollister,CA,95023,United States,(831)637-3020,36.8535309,-121.420674,,,
Spencer's Market,,2650 Main Street,,Morro Bay,CA,93442,United States,(805)772-8103,35.3894559,-120.858534,,,
Bailey's IGA,,10333 Highway 12 SW,,Rochester,WA,98579,United States,(360)273-7330,46.8219308,-123.0993636,,,
Windmill Market,,301 The Almeda,,San Juan Bautista,CA,95045,United States,(831)623-2956,36.841315,-121.534728,,,
Hood Canal Grocery,,24151 Highway 101 North,,Hoodsport,WA,98548,United States,(360)877-9444,47.4062579,-123.1407495,,,
Zanotto's Willow Glen Market,,1421 Foxworthy Avenue,,San Jose,CA,95126,United States,(408)264-0103,37.320261,-121.917689,,,
Zanotto's Willow Glen Market,,1970 Naglee Avenue,,San Jose,CA,95126,United States,(408)294-9151,37.32823521,-121.9309659,,,
Tops Super Foods,,1665 Main Street,,Weaverville,CA,96093,United States,(530)623-2494,40.7256077,-122.9330639,,,
Zanotto's Sunnyvale IGA,,1356 S. Mary Avenue,,Sunnyvale,CA,94087,United States,(408)977-1333,37.349911,-122.050404,,,
Foods Etc,,15290 Lakeshore Drive,,Clearlake,CA,95422,United States,(707)994-6423,38.9498719,-122.6268788,,,
Sonoma Market IGA,,500 W Napa St,,Sonoma,CA,95476,United States,7079963411-,38.293991,-122.468605,,,
Cal Mart IGA,,1491 Lincoln Avenue,,Calistoga,CA,94515,United States,(707)942-6271,38.580271,-122.578826,,,
Larkfield Super IGA,,522 Larkfield Center,,Santa Rosa,CA,95403,United States,(707)546-5041,38.5011924,-122.7512097,,,
Fircrest Market IGA,,998 Gravenstein Highway South,,Sebastopol,CA,95472,United States,(707)823-9171,38.3907515,-122.816543,,,
Kenny's IGA Seafood Grocery,,2429 Northwest Highway 101,,Lincoln City,OR,97367,United States,(541)994-3031,44.9496863,-124.0145966,,,
Kenny's IGA Village Market,,4845 SW Highway 101,,Lincoln City,OR,97367,United States,(541)994-3031,44.9294735,-124.0167559,,,
Keith's Market IGA,,76201 Covelo Road,,Covelo,CA,95428,United States,(707)983-6633,39.7912818,-123.2477254,,,
Sid's IGA,,44th and Pacific,,Seaview,WA,98644,United States,(360)642-3737,46.3343665,-124.0548031,,,
Ocean Shores IGA,,101 East Chance Ala Mer,,Ocean Shores,WA,98569,United States,(360)289-2448,46.9736986,-124.1562852,,,
Harvest Market IGA,,171 Boatyard Shopping Center,,Fort Bragg,CA,95437,United States,(707)964-7000,39.445723,-123.8052935,,,
Harvest Market,,10501 Landsing Street,,Mendocino,CA,95460,United States,(707)937-5879,39.307451,-123.798784,,,
