store_name,store_number,address,address2,city,state,zip_code,country,phone_number,latitude,longitude,store_hours,other_fields,coming_soon
Vincom Plaza Da Nang,,"2nd Floor, 910A Ngo Quyen Street",,Da Nang,Da Nang,590000,Vietnam, (84-511) 381 7789,,,,,
Lotte Department Store,,"4th Floor, 54 Lieu Giai Street",,Ha Noi,Ha Noi,100000,Vietnam, (84-4) 3267 6082,,,,,
Multiplaza Pacific Mall,,"Store J&M, Floor #1, Area - Avenida de los Aves, Punta Pacifica",,Panama City,Panama City,02890833,Panama, (507)235-4744,,,,,
Plaza Loreto,,Altamirano #46 Tizapan San Angel,,Mexico City,Alvaro Obreg,01090,Mexico, 5255-3003-2770,,,,,
Plaza Carso,,Local A06 PB.  Lago Zurich 245.,,Col. Ampliacion Granada,Distrito Federal,11529,Mexico, 5255-4976-0369,,,,,
Centro Comercial Antara,,Local 102-A PB.  Av. Ejercito Nacional 843.,,Col. Ampliacion Granada,Distrito Federal,11520,Mexico, 5255-5280-3964,,,,,
Cancun La Isla,,"Blvd. Kukulcan Lote 18-10 Mz 52, Local G-01, Zona Hotelera",,Cancun,Quintana Roo,77500,Mexico, 52-998-176-8075,,,,,
Galeria Atizapan,,Local 322 PA.  Av. Ruiz Cortinez #25.,,Col. Las Margaritas,Estado de Mexico,52390,Mexico, 5255-1668-9162,,,,,
Phoenix Market City Kurla Mumbai,,"UG-35-Lal Bahadur Shastri Marg, Kurla West, Kurla",,Mumbai,Maharashtra,400070,India, 022-67080415,,,,,
Linking Road Mumbai,,"710 Kala Kunj, Linking Road, Khar West",,Mumbai,Maharashtra,400052,India, 022-26484550,,,,,
High Street Phoenix Mumbai,,"G18-A-Phoenix Mills Compound, 462, Senapati Bapat Marg, Lower Parel",,Mumbai,Maharashtra,400013,India, 022-40234360,,,,,
Regal Shoes,,"South Extension Part 2, New Delhi, E-30 South Ext. Part 2",,New Delhi,New Delhi,110049,India, 91 11 26256300,,,,,
Footloose,,"Khan Market, New Delhi, Shop No 73-A, Khan Market",,New Delhi,New Delhi,110003,India, 91 11 24697319,,,,,
Mapleview Shopping Centre,,900 Maple Avenue,,Burlington,ON,L7S 2J8,Canada, (905) 637-3098,,,,,
Toronto Eaton Centre,,220 Yonge Street,,Toronto,ON,M5B 2H1,Canada, (416) 977-9530,,,,,
Yorkdale Shopping Centre,,3401 Dufferin Street,,Toronto,ON,M6A 2T9,Canada, (416) 789-1304,,,,,
Toronto Dominion Centre,,66 Wellington Street,,Toronto,ON,M5K 1A1,Canada, (416) 214-6395,,,,,
Sherway Gardens,,25 The West Mall,,Toronto,ON,M9C 1B8,Canada, (416) 621-2463,,,,,
CrossIron Mills,,261055 CrossIron Boulevard,,Rocky View,AB,T4A 0G3,Canada, (403) 261-5074,,,,,
Vaughan Mills,,1 Bass Pro Mills Drive,,Vaughan,ON,L4K 5W4,Canada, (905) 532-9556,,,,,
Bagot Leather Goods,,34 Princess Street,,Kingston,ON,K7L 1A4,Canada, (613) 544-4612,,,,,
Boutique Jerome,,Place de la Cite,,Quebec,QC,J4K 2V1,Canada, (418) 653-8881,,,,,
Caswell's Co. Ltd,,132-2nd Avenue South,,Saskatoon,SK,S7K 7E6,Canada, (306) 242-8804,,,,,
Centre Du Pied Montreal,,2501 Belanger Est,,Montreal,QC,H1Y 1A2,Canada, (514) 374-7774,,,,,
CheckMate Shoes,,206-10816 Macleod Trail South,,Calgary,AB,T2J 5N8,Canada, (403) 271-1597,,,,,
CheckMate Shoes,,173-5005 Dalhousie Drive NW,,Calgary,AB,T3A 5R8,Canada, (403) 286-8834,,,,,
Infiniti Leather,,214 Edmonton City Centre East,,Edmonton,AB,T5J 2Y9,Canada, (780) 429-6303,,,,,
Ingledews Shoes,,650 41st Avenue West,,Vancouver,BC,V5Z2M9,Canada, (604) 261-4040,,,,,
Ingledews Shoes,,535 Granville Street,,Vancouver,BC,V6C1X6,Canada, (604) 687-8606,,,,,
Ingledews Shoes,,6060 Minoru Boulevard,,Vancouver,BC,V6Y2V7,Canada, (604) 214-2007,,,,,
Ingledews Shoes,,802 Park Royal North,,Vancouver,BC,V7T1H9,Canada, (604) 922-5020,,,,,
Ingledews Shoes,,1644 Hillside Avenue,,Victoria,BC,V8T2C5,Canada, (250) 545-7463,,,,,
Kennell's Shoes,,249 Victoria Street,,Kamloops,BC,V2C 2A1,Canada, (250) 374-1711,,,,,
Knighton Menswear Fashions,,107-314 McLeod Avenue,,Spruce Grove,AB,T7X 0J6,Canada, (780) 571-3434,,,,,
Lashbrooks,,385 Fairway Road South,,Kitchener,ON,N2C2N9,Canada, (514) 894-2888,,,,,
Fournier,,"2450, boul. Laurier",,Ste-Foy,QC,G1V 2L1,Canada, (418) 656-6716,,,,,
Fournier,,"632, rue Cathcart",,Montreal,QC,H3B 1L9,Canada, (514) 871-9843,,,,,
Fournier,,"3035, boul. Le Carrefour",,Laval,QC,H7T 1C7,Canada, (450) 902-0210,,,,,
Town Shoes,,2929 Barnet Highway,,Coquitlam,BC,V3B 5R5,Canada, (604) 472-0543,,,,,
Town Shoes,,2876 Granville Street,,Vancouver,BC,V6H 3J4,Canada, (604) 732-5011,,,,,
Town Shoes,,2171 West 4th Avenue,,Vancouver,BC,V6M1Z6,Canada, (604) 261-1044,,,,,
Geomercier,,150 Rue St-Catherine,,Montreal,QC,H5B 1E9,Canada, (514) 849-5454,,,,,
Nordstrom,,Chinook Centre,,Calgary,AB,T2H 0K8,Canada, ,,,,,
Hills of Kerrisdale,,2125 West 41st Avenue,,Vancouver,BC,V6M1Z6,Canada, (604) 266-9177,,,,,
Staccato Men's Fashions,,1842 West 1st Avenue,,Vancouver,BC,V6J1G5,Canada, (604) 731-4343,,,,,
The Bay,,585 rue Ste-Catherine Ouest,,Montreal,QC,H3B 3Y5,Canada, (514) 281-4422,,,,,
The Bay,,6790 route Trans-Canada,,Pointe-Claire,QC,H9R 1C5,Canada, (514) 697-4870,,,,,
The Bay,,800 Boulevard des Promenades,,St-Bruno,QC,J3V 5J9,Canada, (450) 653-4455,,,,,
The Bay,,73 Rideau Street,,Ottawa,ON,K1N 5W8,Canada, (613) 241-7511,,,,,
The Bay,,100 Bayshore Drive,,Ottawa,ON,K2B 8C1,Canada, (613) 596-9810,,,,,
Andrew Douglas Clothier ,,620 Richmnond Street,,London,ON,N6A 5J9,Canada, (519) 645-3116,,,,,
Mr. Hanleys Shoes for Men,,346 Wilson Street East,,Ancaster,ON,L9G2C2,Canada, (289) 239-8080,,,,,
Ottawa Leather Goods,,179 Sparks Street,,Ottawa,ON,K1P 5B9,Canada, (613) 232-4656,,,,,
Outlooks for Men,,534 Yates Street,,Victoria,BC,V8W 1K8,Canada, (250) 384-2848,,,,,
Pensieri Shoes,,373 George Street N,,Peterborough,ON,K9H3R2,Canada, (705) 876-9558,,,,,
The Bay,,17600 Yonge Street,,Newmarket,ON,L3Y 4Z1,Canada, (905) 853-0986,,,,,
The Bay,,240 Leighland Avenue,,Oakville,ON,L6H 3H6,Canada, (905) 842-4811,,,,,
The Bay,,900 Maple Avenue,,Burlington,ON,L7S2J8,Canada, (905) 681-0030,,,,,
The Bay,,1800 Sheppard Avenue East,,Willowdale,ON,M2J 5A7,Canada, (416) 491-2010,,,,,
The Bay,,44 Bloor Street East,,Toronto,ON,M4W 3H7,Canada, (416) 972-3333,,,,,
The Bay,,176 Yonge Street,,Toronto,ON,M5C 2L7,Canada, (416) 861-9111,,,,,
The Bay,,"3401 Dufferin Street, HWY 401",,North York,ON,M6A 2T9,Canada, (416) 789-8011,,,,,
The Bay,,25 The West Mall,,Etobicoke,ON,M9C 1B8,Canada, (416) 626-4711,,,,,
The Bay,,1485 Portage Avenue,,Winnipeg,MB,R3G 0W4,Canada, (204) 975-3228,,,,,
The Bay,,6455 Macleod Trail South,,Calgary,AB,T2H 0L1,Canada, (403) 255-6121,,,,,
The Bay,,200-8th Avenue South,,Calgary,AB,T2P 1B5,Canada, (403) 262-0345,,,,,
The Bay,,3625 Shaganappi Trail,,Calgary,AB,T3A 0E2,Canada, (403) 286-1220,,,,,
The Bay,,8882-170 Street,,Edmonton,AB,T5T 3J7,Canada, (780) 444-1550,,,,,
The Bay,,5015-111 Street NW,,Edmonton,AB,T6H 4M7,Canada, (780) 435-9211,,,,,
The Bay,,650 41st Avenue West,,Vancouver,BC,V5Z2M9,Canada, (604) 261-3311,,,,,
The Bay,,674 Granville Street,,Vancouver,BC,V6C 1Z6,Canada, (604) 681-6211,,,,,
The Bay,,725 Park Royal North,,WVncouver,BC,V7T 1H9,Canada, (604) 925-1411,,,,,
The Bay,,221-3125 Douglas Street,,Victoria,BC,V8Z 3K3,Canada, (250) 386-3322,,,,,
Tony Pappas,,9130 Boulevard Leduc Suite 150,,Brossard,QC,J4Y 0L3,Canada, (450) 678-0820,,,,,
Torino Clothing Co,,1045-2271 Harvey Avenue,,Kelowna,BC,V1Y 6H2,Canada, (250) 869-0168,,,,,
Town Shoes,,7001 Mumford Road,,Halifax,NS,B3L 4R3,Canada, (902) 454-6257,,,,,
Town Shoes,,50 Rideau Street,,Ottawa,ON,K1N9J7,Canada, (613) 233-4554,,,,,
Town Shoes,,1 Bass Pro Mills drive,,Vaughan,ON,L3F 4M9,Canada, (905) 761-8674,,,,,
Town Shoes,,17600 Yonge Street,,Newmarket,ON,L3Y 4Z1,Canada, (905) 853-8787,,,,,
Town Shoes,,100 City Center Drive,,Mississauga,ON,L5B 2C9,Canada, (905) 276-9296,,,,,
Town Shoes,,1800 Sheppard Avenue East,,Willowdale,ON,M2J 1V4,Canada, (416) 491-7332,,,,,
Town Shoes,,"3401 Dufferin Street, HWY 401",,Toronto,ON,M4T1Z1,Canada, (416) 789-2629,,,,,
Town Shoes,,220 Yonge Street,,Toronto,ON,M5B2H1,Canada, (416) 979-9914,,,,,
Town Shoes,,55 King Street West,,Toronto,ON,M5K1G8,Canada, (416) 362-1921,,,,,
Town Shoes,,95 Bloor Street West,,Toronto,ON,M5S1M1,Canada, (416) 928-5062,,,,,
Town Shoes,,25 The West Mall,,Etobicoke,ON,M9C 1B8,Canada, (416) 621-2630,,,,,
Town Shoes,,1680 Richmond Street North,,London,ON,N6G3Y9,Canada, (519) 645-6996,,,,,
Town Shoes,,1485 Portage Avenue,,Winnipeg,MB,R3G 0W4,Canada, (204) 774-8483,,,,,
Town Shoes,,201-1st Avenue South,,Saskatoon,SK,S7K1J9,Canada, (306) 373-8808,,,,,
Town Shoes,,6455 Macleod Trail South,,Calgary,AB,T2H 0K9,Canada, (403) 255-5270,,,,,
Town Shoes,,751 - 3rd Street SW,,Calgary,AB,T2P4K8,Canada, (403) 263-1997,,,,,
Town Shoes,,8882-170 Street,,Edmonton,AB,T5T 4M2,Canada, (780) 483-1512,,,,,
Town Shoes,,701 West Georgia Street,,Vancouver,ON,V7J1V9,Canada, (604) 696-9815,,,,,
Trends for Men,,1400 Ottawa Street South,,Kitchener,ON,N2E4E2,Canada, (519) 745-5100,,,,,
Hudson's Bay,,419 King Street,,Oshawa,ON,L1J 2K5,Canada, (905) 432-1729,,,,,
Hudson's Bay,,5100 Erin Mills Parkway,,Mississauga,ON,L5M 4Z5,Canada, (905) 607-9480,,,,,
Hudson's Bay,,900 Maple Avenue,,Burlington,ON,L7S2J8,Canada, (905) 639-7274,,,,,
Hudson's Bay,,1717 Avenue Road,,Toronto,ON,LM3J2H1,Canada, (416) 781-5675,,,,,
Hudson's Bay,,35 Eglington Square,,Scarborough,ON,M1L 2K1,Canada, (416) 759-3588,,,,,
Hudson's Bay,,939 Eglinton Avenue East,,Toronto,ON,M4G 4E8,Canada, (416) 441-0013,,,,,
Hudson's Bay,,1500 Yonge Street,,Toronto,ON,M4T1Z6,Canada, (416) 925-4990,,,,,
Hudson's Bay,,144 Yonge Street,,Toronto,ON,M5C1X6,Canada, (416) 214-0848,,,,,
Hudson's Bay,,250 The East Mall,,Etobicoke,ON,M9B3Y8,Canada, (416) 231-2192,,,,,
Hudson's Bay,,1680 Richmond Street North,,London,ON,N6G3Y9,Canada, (519) 661-1079,,,,,
TomKat Shoes,,10322 Jasper Avenue,,Edmonton,AB,T5J1Y7,Canada, (780) 422-2718,,,,,
Brixton Shoes,,4100 - 70th Avenue,,Lloydminster,AB,T9V 2X3,Canada, (780) 875-5080,,,,,
Chaussures Cameron,,12370 1e Avenue,,St Georges,QC,G5Y 2E1,Canada, (418) 228-2472,,,,,
Kunitz Shoes,,10846 Jasper Avenue,,Edmonton,AB,T5J 2B2,Canada, (780) 428-0200,,,,,
Mahone Bay ,,554 Main Street,,Mahone Bay,NS,B0J 2E0,Canada, (902) 624-8425,,,,,
Mahone Bay ,,201 Chain Lake Drive,,Halifax,NS,B3S 1C8,Canada, (902) 444-4229,,,,,
Mahone Bay ,,5657 Spring Garden Road,,Halifax,NS,B3J 3R4,Canada, (902) 423-4369,,,,,
Peckitt's Menswear,,78 Ontario Street,,Grand Bend,ON,N0M 1T0,Canada, (519) 238-6165,,,,,
Royal Footcare,,4500 Highway #7,,Woodbridge,ON,L4L 4Y7,Canada, (905) 850-1611,,,,,
Step Ahead Shoes,,2325 Preston Avenue,,Saskatoon,SK,S7J 2G2,Canada, (306) 978-7837,,,,,
Step Ahead Shoes,,134 Primrose Drive,,Saskatoon,SK,S7K 5S6,Canada, (306) 978-7837,,,,,
The Shoe-per Store,,130 Silvercreek Parkway North,,Guelph,ON,N1H 7Y5,Canada, (519) 766-1523,,,,,
Tony Pappas,,1822 Ave Du Mont Royal East,,Montreal,QC,H2H 1J1,Canada, (514) 521-0820,,,,,
Leclerc Chaussures,,635 Graham Bell,,Quebec,QC,G1N 4B9,Canada, (418) 682-5533,,,,,
The Shoe Company,,85 Aberdeen Ave. Unit 2,,St. John's,NL,A1A 5P6,Canada, (709) 738-4006,,,,,
The Shoe Company,,33 Lemlair Row,,Dartmouth,NS,B3B 0C6,Canada, (902) 481-0166,,,,,
The Shoe Company,,1599 Kenaston Blvd. Unit #1,,Winnipeg,MB,R3P 2N3,Canada, (204) 489-6992,,,,,
The Shoe Company,,"675 Empress St., Unit 1",,Winnipeg,MB,R3G 3P7,Canada, (204) 783-4448,,,,,
The Shoe Company,,"1718 Preston Avenue North, Unit 150",,Saskatoon,SK,S7N 4Y1,Canada, (306) 931-1390,,,,,
The Shoe Company,,"2038 Prince of Wales Drive, Unit #4",,Regina,SK,S4V 3A6,Canada, (306) 781-0033,,,,,
The Shoe Company,,360-5000 Emerald Drive,,Sherwood Park,AB,T8H 0P5,Canada, (780) 417-6667,,,,,
The Shoe Company,,5657 Signal Hill Centre SW Unit 2,,Calgary,AB,T3H 3P8,Canada, (403) 246-8666,,,,,
The Shoe Company,,318 Mayfield Common,,Edmonton,AB,T5P 4B3,Canada, (780) 444-1441,,,,,
The Shoe Company,,72 Crowfoot Terrace N.W.,,Calgary,AB,T3G 4J8,Canada, (403) 547-7777,,,,,
The Shoe Company,,350 Shawville Blvd. S.E. Unit 220,,Calgary,AB,T2Y 3S4,Canada, (403) 256-7773,,,,,
The Shoe Company,,2022-99 Street North West,,Edmonton,AB,T6N 1L3,Canada, (780) 433-4466,,,,,
The Shoe Company,,13616 - 137 Ave. N. W.,,Edmonton,AB,T5L 5C9,Canada, (780) 482-4803,,,,,
The Shoe Company,,11692 Sarcee Trail NW Unit - F2,,Calgary,AB,T3R 0A1,Canada, (403) 275-5243,,,,,
The Shoe Company,,99 4307-130 Ave SE,,Calgary,AB,T2Z 3V8,Canada, (403) 257-4205,,,,,
The Shoe Company,,261055 Crossiron Blvd Unit 124,,Rocky View,AB,T4A 0G3,Canada, (403) 275-8133,,,,,
The Shoe Company,,2002 Park Royal South Unit 2021,,West Vancouver,BC,V7T 2W4,Canada, (604) 921-2051,,,,,
The Shoe Company,,109-2401C Millstream Road,,Victoria,BC,V9B 3R5,Canada, (250) 474-7150,,,,,
Brocanier's,,23 King St West,,Cobourg,ON,K94 2M1,Canada, (905) 377-9504,,,,,
Omar's  Shoes,,14800 Yonge Street,,Aurora,ON,L4G 1N3,Canada, (905) 727-9391,,,,,
Park Shoes,,2020 Sherwood Drive,,Sherwood Park,AB,T8A 3H9,Canada, (780) 467-0553,,,,,
Ronson's,,734 Granville Street,,Vancouver,BC,V6Z 1E4,Canada, (604) 682-0795,,,,,
Colwell Brothers,,1869 Upper Water Street,,Halifax,NS,B3J 1S9,Canada, (902) 420-1222,,,,,
Duggers,,5476 Spring Garden Road,,Halifax,NS,B3J 1G3,Canada, (902) 425-2525,,,,,
Shoes on Fourth,,2090 West 4th Avenue,,Vancouver,BC,V6J 1N3,Canada, (604) 241-1941,,,,,
DSW,,17890 YONGE STREET,,Newmarket,ON,L3Y 8S1,Canada, (905) 952-2121,,,,,
DSW,,5930 RODEO DRIVE,,Mississauga,ON,L5R 3S9,Canada, (905) 712-4141,,,,,
Jean-Paul Fortin,,2452 Boulevard Laurier,,Quebec,QC,G1V 2L1,Canada, (418) 651-2154,,,,,
Jean-Paul Fortin,,2700 Boulevard Laurier,,Quebec,QC,G1V 2L8,Canada, (418) 651-4952,,,,,
Jean-Paul Fortin,,9140 Boulevard Leduc,,Brossard,QC,J4Y 0L2,Canada, (450) 678-8988,,,,,
Jean-Paul Fortin,,1 Place Ville-Marie,,Montreal,QC,H3B 3Y1,Canada, (514) 871-8686,,,,,
Hudson's Bay,,7895 boulevard Les-Galeries-d'Anjou,,Montreal,QC,H1M 1W6,Canada, (514) 343-3300,,,,,
Hudson's Bay,,2435 Chemin Rockland,,Ville Mont-Royal,QC,H3P 2Z3,Canada, (514) 739-5521,,,,,
Hudson's Bay,,3045 Boulevard de Carrefour,,Laval,QC,H7T 1C7,Canada, (450) 687-1540,,,,,
Town Shoes,,5000 Highway #7 East,,Markham,ON,L3R 4M9,Canada, (905) 477-8696,,,,,
Town Shoes,,2283 Yonge Street,,Toronto,ON,M4P 2C6,Canada, (416) 489-7474,,,,,
Town Shoes,,736 Park Royal North,,West Vancouver,BC,V7T 1H9,Canada, (604) 922-8225,,,,,
Walking on a Cloud,,5095 Yonge Street,,Toronto,ON,M2N 6Z4,Canada, (647) 346-5248,,,,,
Walking on a Cloud,,3487 Wycroft Rd Unit G5,,Oakville,ON,L6L 0B6,Canada, (905) 469-8967,,,,,
Walking on a Cloud,,1980 St. Claire Ave W,,Toronto,ON,M6N 0A6,Canada, (416)762-9975,,,,,
The Shoe Company,,210 The Boardwalk,,Kitchener,ON,N2N 0B1,Canada, (519) 749-5672,,,,,
The Shoe Company,,"777 Guelph Line, Unit A6",,Burlington,ON,L7R 3N2,Canada, (905) 681-2897,,,,,
The Shoe Company,,"31 Disera, Unit #100",,Thornhill,ON,L4J 0A7,Canada, (905) 881-5999,,,,,
The Shoe Company,,"1 Bass Pro Mills Drive, Suit #330",,Vaughan,ON,L4K 5W4,Canada, (905) 669-2828,,,,,
The Shoe Company,,"3110 Bathurst St., Unit 7B",,North York,ON,M6A 1A1,Canada, (416) 787-5136,,,,,
The Shoe Company,,"200 North Service Rd., Unit 10",,Oakville,ON,L6M 2V1,Canada, (905) 338-8285,,,,,
The Shoe Company,,"17820 Yonge St., Unit #B3, Dawson Manor Blvd.",,Newmarket,ON,L3Y 8S1,Canada, (905) 895-9161,,,,,
The Shoe Company,,822 Warden Ave.,,Scarborough,ON,M1L 4W1,Canada, (416) 751-1441,,,,,
The Shoe Company,,94 Fanshaw Park Rd. E. Unit #2,,London,ON,N5X 4C5,Canada, (519) 645-8882,,,,,
The Shoe Company,,3135 Argentia Road,,Mississauga,ON,L5N 8E1,Canada, (905) 824-9774,,,,,
The Shoe Company,,"80 Great Lakes Dr., Unit 152",,Brampton,ON,L6R 2K7,Canada, (905) 789-8181,,,,,
The Shoe Company,,"5000 Highway #7 East, Unit 69A",,Markham,ON,L3R 4M9,Canada, (905) 947-0404,,,,,
The Shoe Company,,40 King St. W. Unit #121,,Toronto,ON,M5H 3Y2,Canada, (416) 360-7480,,,,,
The Shoe Company,,2355 Yonge St.,,Toronto,ON,M4P 2C8,Canada, (416) 481-8448,,,,,
The Shoe Company,,7575 Weston Rd. Unit #113,,Woodbridge,ON,L4L 9K5,Canada, (905) 850-8081,,,,,
The Shoe Company,,5935 Mavis Rd. Unit #6,,Mississauga,ON,L5R 3T7,Canada, (905) 712-4949,,,,,
The Shoe Company,,"33 Mapleview Drive West, Unit #6",,Barrie,ON,L4N 9H5,Canada, (705) 727-0935,,,,,
The Shoe Company,,"171 North Queen St., Unit #3",,Etobicoke,ON,M9C 1A7,Canada, (416) 622-3883,,,,,
The Shoe Company,,40 Kingston Rd. E.,,Ajax,ON,L1Z 1E9,Canada, (905) 686-7979,,,,,
The Shoe Company,,14 Martindale Cr.,,Ancaster,ON,L9K 1J9,Canada, (905) 304-3700,,,,,
The Shoe Company,,200 Chain Lake Dr.,,Halifax,NS,B3S 1C5,Canada, (902) 450-5323,,,,,
The Shoe Company,,2277 Riverside Dr. Unit #40,,Ottawa,ON,K1H 7X6,Canada, (613) 731-8858,,,,,
The Shoe Company,,750 Yonge Street,,Toronto,ON,M4Y 2B6,Canada, (416) 923-8388,,,,,
The Shoe Company,,3175 Hwy 7,,Markham,ON,L3R 0J5,Canada, (905) 477-0697,,,,,
The Shoe Company,,3235 Dundas St. W. Unit #2,,Mississauga,ON,L5L 5V7,Canada, (905) 608-0266,,,,,
The Shoe Company,,1425 Kingsway Rd.,,Sudbury,ON,P3A 4R7,Canada, (705) 524-1441,,,,,
The Shoe Company,,1651 Merivale Rd. Unit 1,,Ottawa,ON,K2G 3K2,Canada, (613) 274-7444,,,,,
The Shoe Company,,"650 Earl Grey Drive, Unit # 4",,Kanata,ON,K2T 1H6,Canada, (613) 599-7272,,,,,
The Shoe Company,,"4240 Innes Road, Unit #3",,Orleans,ON,K4A 5E6,Canada, (613) 837-2224,,,,,
The Shoe Company,,"550 Terminal Ave, Unit b-1",,Ottawa,ON,K1G 0Z3,Canada, (613) 244-3636,,,,,
The Shoe Company,,171 Trinity Dr. Unit 5.,,Moncton,NB,E1G 2E7,Canada, (506) 382-7000,,,,,
67 Richmond,,178 Sandwich Street South,,Amherstburg,ON,N9V 2A1,Canada, (519) 736-4744,,,,,
Foot Sensations,,135 Danforth Avenue,,Toronto,ON,M4K 1N2,Canada, (647) 435-1240,,,,,
Brocks,,168 Queen Street,,Port Perry,ON,L9L 1B8,Canada, (905) 985-2521,,,,,
Andrews Shoes,,4160 Baldwin Street,,Whitby,ON,L1R 3H8,Canada, (905) 620-0884,,,,,
Becker Shoes,,175 Wellington Street,,Kingston,ON,K7L 3E4,Canada, (613) 546-9756,,,,,
Cruikshanks Clothing,,59 King Street West,,Dundas,ON,L9H 1T5,Canada, (905) 627-1313,,,,,
Miller Shoes,,130 James Street North,,Hamilton,ON,L8R 2K7,Canada, (905) 527-1950,,,,,
The Boot Shop,,46 James Street,,Ste Catharines,ON,L2R 5B8,Canada, (905) 641-2224,,,,,
The Shoe Box,,101 Osler Drive,,Dundas,ON,L9H 4H4,Canada, (905) 628-9212,,,,,
Miller Shoes,,1289 Upper James Street,,Hamilton,ON,L9C 3A9,Canada, (905) 387-7463,,,,,
The Shoe Tree,,55 Vaughan Harvey Boulevard,,Moncton,NB,E1C 0N3,Canada, (506) 857-0221,,,,,
Service Shoe,,55 Mechanic Street,,Moncton,NB,E1C 4V4,Canada, (506) 389-3000,,,,,
European Shoe Shop,,436 Academy Road,,Winnipeg,MB,R3N 0C4,Canada, (204) 487-4193,,,,,
Mercerie Jules Demers,,328 Principale,,Granby,QC,J2G 2W4,Canada, (450) 372-4645,,,,,
Step In Shoes,,251 1-Londonderry Mall NW,,Edmonton,AB,T5C 3C8,Canada, (780) 705-4929,,,,,
Goulds Footwear,,26 Walton Street,,Port Hope,ON,L1A 1M9,Canada, (905) 885-4051,,,,,
J.B. Evans,,122 West Frederica Street,,Thunder Bay,ON,P7E 3V7,Canada, (807) 475-4755,,,,,
Murray's Clothing and Footwear,,95 Peel Street,,New Hamburg,ON,N3A 1E7,Canada, (519) 662-3000,,,,,
The Shoe Fits,,293 Bay Street,,Sault Ste Marie,ON,P6A 1X3,Canada, (705) 942-3934,,,,,
Colin O'Brian Man's Shoppe,,1825 Hamilton Street,,Regina,SK,S4P 2B9,Canada, (306) 584-9300,,,,,
Sole City Shoes,,4851-50th Street,,Camrose,AB,T4V 1P6,Canada, (780) 672-8371,,,,,
Ed Williams Menswear,,830 - 20 Crowfoot Crescent,,Calgary,AB,T3G2P6,Canada, (403) 241-2111,,,,,
Leclerc Chaussures,,2700 Boulevard Laurier,,Ste-Foy,QC,G1V 4P7,Canada, (418) 658-8089,,,,,
Foot Sensations,,3042 Bloor Street West,,Toronto,ON,M8X 1C4,Canada, (416) 239-4122,,,,,
Boutique Rejean Mode,,134 Wellington Nord,,Sherbrooke,QC,J1H 5C5,Canada, (819) 563-8518,,,,,
Canadian Footwear,,128 Adelaide Street,,Winnipeg,MB,R3A 0W5,Canada, (204) 944-7463,,,,,
Bigley Shoes,,39 Bolton Street,,Bobcaygeon,ON,K0M 1A0,Canada, (705) 445-7490,,,,,
Steinberg & Mahn,,25 Wilson Avenue,,Timmins,ON,P4N 2S5,Canada, (705) 264-1489,,,,,
The Boot Shop,,221 Glendale Avenue,,Ste Catharines,ON,L2T 2K9,Canada, (905) 685-4031,,,,,
Williams Shoe Store,,750 Queen Street West,,Toronto,ON,M6J 1E9,Canada, (416) 504-4898,,,,,
Pasqualino's Menswear,,654 College Street,,Toronto,ON,M6G 1B8,Canada, (416) 533-3923,,,,,
Leclerc Chaussures,,552 Boulevard Hamel,,Quebec,QC,G1M 3E5,Canada, (418) 649-7796,,,,,
Chaussures Pierre-Roy,,252 Richelieu,,St Jean Sue Richelieu,QC,J3B 6X8,Canada, (450) 346-9849,,,,,
Fields Shoes,,1300 Government Street,,Victoria,BC,V8W 1Y8,Canada, (250) 388-5921,,,,,
Milano for Men,,"#184, 2004-50th Avenue",,Red Deer,AB,T4R 3A2,Canada, (403) 346-9333,,,,,
Leclerc Chaussures,,5401 Boulevard des Galeries,,Quebec,QC,G2K 1N4,Canada, (418) 622-2954,,,,,
Cordonnerie RL Plus,,190 - 550 De Mortange,,Boucherville,QC,J4B 5E4,Canada, (514) 443-2205,,,,,
Chaussures Regional,,2568 Boulebatd St-Joseph,,Orleans,ON,K1C 1G3,Canada, (613) 824-3025,,,,,
Elegante Shoes,,1711-152 Street,,Surrey,BC,V4A 4N3,Canada, (604) 531-4633,,,,,
The Boot Shop,,1050 Upper James Street,,Hamilton,ON,L9C 3A9,Canada, (905) 667-1939,,,,,
The Grand Canal Shoppes,,3377 Las Vegas Boulevard South,,Las Vegas,NV,89109,United States, (702) 366-1452,,,,,
South Coast Plaza,,3333 Bristol Street,,Costa Mesa,CA,92626,United States, (714) 549-1833,,,,,
The Galleria,,5085 Westheimer Road,,Houston,TX,77056,United States, (713) 961-0025,,,,,
Lakeside Mall,,14600 Lakeside Circle,,Sterling Heights,MI,48313,United States, (586) 247-6400,,,,,
Town Center at Boca Raton,,6000 Glades Road,,Boca Raton,FL,33431,United States, (561) 392-9784,,,,,
The Court at King of Prussia,,690 West Dekalb Pike,,King of Prussia,PA,19406,United States, (610) 265-0165,,,,,
South Park Mall,,4400 Sharon Road,,Charlotte,NC,28211,United States, (704) 366-5924,,,,,
Fair Oaks Mall,,11753 L Fair Oaks,,Fairfax,VA,22033,United States, (703) 385-0240,,,,,
Crabtree Valley Mall,,4325 Glenwood Ave,,Raleigh,NC,27612,United States, (919) 781-2240,,,,,
Oakbrook Center,,182 Oakbrook Center,,Oakbrook,IL,60523,United States, (630) 574-9040,,,,,
Northbrook Court,,1116 Northbrook Court,,Northbrook,IL,60062,United States, (847) 480-1636,,,,,
South Hills Village,,Route 19 at Fort Couch Road,,Pittsburgh,PA,15241,United States, (412) 835-7880,,,,,
Stamford Town Center,,100 Greyrock Place,,Stamford,CT,06901,United States, (203) 964-1331,,,,,
Bellevue Square,,2032 Bellevue Square,,Bellevue,WA,98004,United States, (425) 451-8570,,,,,
Washington Street,,292 Washington Street,,Boston,MA,02108,United States, (617) 426-8086,,,,,
Horton Plaza,,150 Horton Plaza,,San Diego,CA,92101,United States, (619) 236-1714,,,,,
Roosevelt Field Mall,,630 Old Country Road,,Garden City,NY,11530,United States, (516) 742-0802,,,,,
North Star Mall,,7400 San Pedro,,San Antonio,TX,78216,United States, (210) 349-3504,,,,,
Riverchase Galleria,,2000 Riverchase Galleria,,Birmingham,AL,35244,United States, (205) 985-7161,,,,,
Burlington Mall,,75 Middlesex Turnpike,,Burlington,MA,01803,United States, (781) 273-1770,,,,,
Bridgewater Commons,,640 Commons Way,,Bridgewater,NJ,08807,United States, (908) 218-0062,,,,,
The Fashion Mall at Keystone,,8702 Keystone Crossings,,Indianapolis,IN,46240,United States, (317) 582-1440,,,,,
Oxmoor Center,,7900 Shelbyville Road,,Louisville,KY,40222,United States, (502) 425-4837,,,,,
Laurel Park Place,,37534 W 6 Mile Road,,Livonia,MI,48152,United States, (734) 953-2514,,,,,
Woodland Mall,,3167 28th Street,,Grand Rapids,MI,49512,United States, (616) 975-1797,,,,,
Mall of Louisiana,,6401 Bluebonnet Boulevard,,Baton Rouge,LA,70836,United States, (225) 757-8500,,,,,
The Gallery at Harborplace,,200 E. Pratt Street,,Baltimore,MD,21202,United States, (410) 837-6435,,,,,
The Shops at LaCantera,,15900 LaCantera Parkway,,San Antonio,TX,78256,United States, (210) 558-3340,,,,,
Beachwood Place,,26300 Cedar Road,,Beachwood,OH,44122,United States, (216) 292-3097,,,,,
Cherry Hill Mall,,2000 Route #38,,Cherry Hill,NJ,08002,United States, (856) 665-6947,,,,,
Perimeter Mall,,4400 Ashford Dunwoody Road,,Atlanta,GA,30346,United States, (770) 393-8297,,,,,
Galleria Dallas,,13350 Dallas Parkway,,Dallas,TX,75240,United States, (972) 387-7934,,,,,
The Shops at Willow Bend,,6121 West Park Boulevard,,Plano,TX,75093,United States, (469) 366-1076,,,,,
International Plaza,,2223 N West Shore Boulevard,,Tampa,FL,33607,United States, (813) 353-2001,,,,,
The Mall at Short Hills,,1200 Morris Turnpike,,Short Hills,NJ,07078,United States, (973) 379-9055,,,,,
Aventura Mall,,19575 Biscayne Boulevard,,Aventura,FL,33180,United States, (305) 936-8608,,,,,
Lower Madison,,345 Madison Avenue,,New York,NY,10017,United States, (212) 697-9375,,,,,
MacArthur Center,,300 East Monticello Avenue,,Norfolk,VA,23510-2426,United States, (757) 627-7045,,,,,
Lenox Square,,3393 Peachtree Rd NE,,Atlanta,GA,30326,United States, (404) 261-6529,,,,,
Westfarms Mall,,500 Westfarms Mall,,Farmington,CT,06032,United States, (860) 521-2024,,,,,
The Gardens,,3101 PGA Blvd.,,Palm Beach Gardens,FL,33410,United States, (561) 624-2455,,,,,
Fashion Center at Pentagon City,,1100 S. Hayes Street,,Arlington,VA,22202,United States, (703) 418-6181,,,,,
Northpark Center,,8687 N. Central Expressway,,Dallas,TX,75225,United States, (214) 363-0698,,,,,
Scottsdale Fashion Square,,7014 E. Camelback Rd.,,Scottsdale,AZ,85251,United States, (480) 425-7748,,,,,
Walt Whitman Mall,,160 Walt Whitman Rd,,Huntington Station,NY,11746,United States, (631) 427-0861,,,,,
Polaris Fashion Place,,1500 Polaris Fashion Pkwy.,,Columbus,OH,43240,United States, (614) 842-6428,,,,,
The Mall in Columbia,,10300 Little Patuxent Pkwy,,Columbia,MD,21044,United States, (410) 730-0920,,,,,
Lakeside Center,,3301 Veterans Blvd.,,Metarie,LA,70002,United States, (504) 837-0449,,,,,
Minneapolis-St. Paul International Airport,,4300 Glumack Drive,,St. Paul,MN,55111,United States, (612) 725-0343,,,,,
Philadelphia International Airport,,8000 Essington Avenue,,Philadelphia,PA,19153,United States, (215) 365-4858,,,,,
Pittsburgh International Airport,,1000 Airport Boulevard,,Pittsburgh,PA,15231,United States, (412) 472-0943,,,,,
Newark International Airport,,3 Brewster Road,,Newark,NJ,07114,United States, (973) 824-0856,,,,,
George Bush Intercontinental Airport - Terminal E,,2800 N Terminal Road,,Houston,TX,77032,United States, (281) 443-8370,,,,,
Baltimore / Washington International Airport D,,Concourse D,,Baltimore,MD,21240,United States, (410) 684-6892,,,,,
Ronald Reagan National Airport,,Termianl C,,Washington,DC,20001,United States, (703) 418-0863,,,,,
Charlotte/Douglas International Airport,,Concourse C/D,,Charlotte,NC,28208,United States, (704) 359-0133,,,,,
Boston Logan International Airport,,1 Harborside Drive,,East Boston,MA,02128,United States, (617) 567-4698,,,,,
Denver International Airport,,8900 Pena Boulevard,,Denver,CO,80249-2026,United States, (303) 342-6935,,,,,
Cleveland Hopkins International Airport,,5300 Riverside Drive,,Cleveland,OH,44135,United States, (216) 898-0631,,,,,
Orlando International Airport,,Terminal B - Next to Food Court,,Orlando,FL,32827,United States, 407-825-7111,,,,,
Boston Logan International Airport - B,,1 Harborside Drive,,East Boston,MA,02128,United States, (617) 569-4301,,,,,
Miami International Airport,,"4200 NW 21st St., Concourse D",,Miami,FL,33122,United States, (305) 492-0676,,,,,
Baltimore / Washington International Airport,,107 Fuel Farm Road,,Baltimore,MD,21240,United States, (410) 684-3980,,,,,
George Bush Intercontinental Airport - Terminal B,,3100 South Terminal Road,,Houston,TX,77032,United States, (281) 233-7806,,,,,
Fashion Show,,3200 Las Vegas Blvd. S.,,Las Vegas,NV,89109,United States, (702) 737-0114,,,,,
Oak Park Mall,,11251 W 95th St.,,Overland Park,KS,66214,United States, (913) 894-5996,,,,,
13th Street,,600 13th St. NW,,Washington,DC,20005,United States, (202) 638-2924,,,,,
The Natick Collection,,1245 Worcester St.,,Natick,MA,01760,United States, (508) 655-6010,,,,,
Annapolis Mall,,1435 Annapolis Mall,,Annapolis,MD,21401,United States, (410) 571-6301,,,,,
Twelve Oaks Mall,,27344 Novi Rd,,Novi,MI,48377,United States, (248) 349-8270,,,,,
Southpark Shopping Center,,256 Southpark Center,,Strongsville,OH,44136,United States, (440) 846-8993,,,,,
Barton Creek Square Mall,,2901 Capitol of Texas Hwy,,Austin,TX,78746,United States, (512) 732-0867,,,,,
Saint Louis Galleria,,1154 Saint Louis Galleria,,St. Louis,MO,63117,United States, (314) 726-1056,,,,,
Connecticut Avenue,,1150 Connecticut Avenue N.,,Washington,DC,20036,United States, (202) 872-0383,,,,,
Kenwood Towne Centre,,7875 Montgomery Rd,,Cincinnati,OH,45236,United States, (513) 791-1780,,,,,
Tysons Corner Center,,8001 Tysons Corner Center,,McLean,VA,22102,United States, (703) 556-9833,,,,,
Hill Center,,4017 Hillsboro Pike,,Nashville,TN,37215,United States, (615) 279-9485,,,,,
Cool Springs Galleria,,1800 Galleria Blvd.,,Franklin,TN,37067,United States, (615) 771-9945,,,,,
The Shops at Friendly Center,,3334 W. Friendly Center Drive,,Greensboro,NC,27410,United States, (336) 852-5029,,,,,
Promenade Shops Saucon Valley,,2495 Center Valley Pkwy,,Center Valley,PA,18034,United States, (610) 791-5108,,,,,
Legacy Place,,950 Providence Highway,,Dedham,MA,02026,United States, (781) 326-5862,,,,,
St. Johns Town Center,,4751 River City Dr.,,Jacksonville,FL,32246,United States, (904) 620-9445,,,,,
Ross Park Mall,,1000 Ross Park Mall Drive,,Pittsburgh,PA,15237,United States, (412) 364-2450,,,,,
Cherry Creek Shopping Center,,3000 East First Avenue,,Denver,CO,80206,United States, (303) 322-0168,,,,,
Towson Town Center,,825 Dulaney Valley Road,,Towson,MD,21204,United States, (410) 828-4435,,,,,
Union Square,,299 Post Street,,San Francisco,CA,94108,United States, (415) 392-0199,,,,,
Paragon Outlets Grand Prairie,,2950 West Interstate 20,,Grand Prairie,TX,75052,United States, (972) 352-2971,,,,,
Westfield UTC,,4525 La Jolla Village Drive,,San Diego,CA,92122,United States, (858) 526-0978,,,,,
Hartsfield-Jackson Atlanta International Airport,,Concourse D,,Atlanta,GA,30320,United States, (404) 761-3302,,,,,
Memorial City,,303 Memorial City Way,,Houston,TX,77024,United States, (713) 468-3607,,,,,
West County Center,,49 West County Center,,Des Peres,MO,63131,United States, (314) 984-0204,,,,,
Water Tower Place,,835 N. Michigan Avenue,,Chicago,IL,60611,United States, (312) 202-0716,,,,,
Detroit Metropolitan Airport,,2588 Worldgateway Place,,Detroit,MI,48242,United States, (734) 941-6102,,,,,
Phoenix Sky Harbor International Airport,,3400 East Sky Harbor Boulevard,,Phoenix,AZ,85034,United States, (602) 231-5441,,,,,
O'Hare International Airport,,"Terminal 1, Gate B6",,Chicago,IL,60666,United States, (773) 462-9031,,,,,
Opryland Hotel,,2800 Opryland Drive,,Nashville,TN,37214,United States, (615) 458-1741,,,,,
Mall of America,,144 West Market,,Bloomington,MN,55425,United States, (952) 854-1930,,,,,
Westfield Montgomery,,7101 Democracy Boulevard,,Bethesda,MD,20817,United States, (301) 469-4985,,,,,
University Town Center,,140 University Town Center Drive,,Sarasota,FL,34243,United States, (941) 702-9666,,,,,
Disney Springs,,1520 E Buena Vista Drive,,Lake Buena Vista,FL,32830,United States, (407) 828-6008,,,,,
Dallas/Ft Worth Intl. Airport,,"2040 N International Pkwy, Terminal A",,Dallas,TX,75261,United States, 972-973-7368,,,,,
Fifth Avenue,,200 Fifth Ave,,New York,NY,10010,United States, (212) 242-1636,,,,,
Houston Premium Outlets,,29300 Hempstead Rd.,,Cypress,TX,77433,United States, (281) 758-1037,,,,,
Philadelphia Premium Outlets,,18 Lightcap Road,,Pottstown,PA,19464,United States, (610) 705-6260,,,,,
Riverhead II Outlet,,903 Tanger Mall Drive,,Riverhead,NY,11901,United States, (631) 727-1058,,,,,
The Outlet Shoppes at Oklahoma City,,7634 West Reno Avenue,,Oklahoma City,OK,73127,United States, (405) 495-0400,,,,,
San Francisco Premium Outlets,,2660 Livermore Outlets Drive,,Livermore,CA,94551,United States, (925) 961-9778,,,,,
Fashion Outlets of Niagara Falls,,2064 Military Road,,Niagara Falls,NY,14304,United States, (716) 298-8370,,,,,
Jersey Shore Premium Outlets,,1 Premium Outlets Boulevard,,Tinton Falls,NJ,07753,United States, (732) 493-1301,,,,,
Great Lakes Crossing,,4714 Baldwin Road,,Auburn Hills,MI,48326,United States, (248) 874-3487,,,,,
The Outlet Shoppes of Atlanta,,915 Ridgewalk Parkway,,Woodstock,GA,30188,United States, (770) 591-9277,,,,,
Fashion Outlets of Chicago,,5220 Fashion Outlets Way,,Rosemont,IL,60018,United States, (847) 233-0343,,,,,
Foley Tanger Outlet,,2601 South McKenzie Street,,Foley,AL,36535,United States, (251) 943-3699,,,,,
Osage Beach Premium Outlets,,4540 East Highway 54,,Osage Beach,MO,65065,United States, (573) 348-2223,,,,,
Potomac Mills,,2700 Potomac Mills Circle,,Woodbridge,VA,22192,United States, (703) 490-8082,,,,,
Allen Premium Outlets,,820 West Stacy Road,,Allen,TX,75013,United States, (972) 678-3052,,,,,
The Outlets at Grand River,,6200 Grand River Boulevard East,,Leeds,AL,35094,United States, (205) 699-3865,,,,,
Five Oaks Factory Stores,,1645 Parkway,,Sevierville,TN,37862,United States, (865) 428-6750,,,,,
Cincinnati Premium Outlets,,604 Premium Outlets Drive,,Monroe,OH,45050,United States, (513) 539-8775,,,,,
Lee Premium Outlets,,20 Premium Outlets Boulevard,,Lee,MA,01238,United States, (413) 243-4193,,,,,
Hilton Head Factory Stores II,,1414 Fording Island Road,,Bluffton,SC,29910,United States, (843) 837-8844,,,,,
Grove City Premium Outlets,,1911 Leesburg Grove City Road,,Grove City,PA,16127,United States, (724) 748-4002,,,,,
Myrtle Beach Tanger Outlet,,4638 Factory Store Boulevard,,South Myrtle Beach,SC,29579,United States, (843) 236-2032,,,,,
Hagerstown Premium Outlets,,495 Premium Outlets Boulevard,,Hagerstown,MD,21740,United States, (301) 766-7940,,,,,
Woodbury Commons,,803 Grapevine Court,,Central Valley,NY,10917,United States, (845) 928-4911,,,,,
Silver Sands Premium Outlets,,10746 Emerald Coast Parkway West,,Destin,FL,32550,United States, (850) 654-4274,,,,,
The Crossing Premium Outlet,,1000 Premium Outlets Drive,,Tannersville,PA,18372,United States, (570) 619-8702,,,,,
Wrentham Premium Outlets,,One Premium Outlets Boulevard,,Wrentham,MA,02093,United States, (508) 384-1923,,,,,
North Georgia Premium Outlet,,800 Highway 400 South,,Dawsonville,GA,30534,United States, (706) 216-4252,,,,,
Orlando Premium Outlets,,8200 Vineland Avenue,,Orlando,FL,32821,United States, (407) 239-8099,,,,,
Miromar Outlet,,10801 Corkscrew Road,,Estero,FL,33928,United States, (239) 949-6853,,,,,
San Marcos Premium Outlets,,3939 IH35 South,,San Marcos,TX,78666,United States, (512) 392-2766,,,,,
Clinton Crossing Premium Outlet,,20-A Killingworth Turnpike,,Clinton,CT,06413,United States, (860) 664-1783,,,,,
Round Rock Premium Outlets,,4401 North IH 35,,Round Rock,TX,78664,United States, (512) 868-2096,,,,,
Manchester Center,,"497 Depot Street, Route 11/30",,Manchester Center,VT,05255,United States, (802) 362-3446,,,,,
Genesco Park,,1415 Murfreesboro Pike,,Nashville,TN,37217,United States, (615) 367-4443,,,,,
Lancaster Tanger Outlet,,313 Stanley K. Tanger Boulevard,,Lancaster,PA,17602,United States, (717) 393-9415,,,,,
Desert Hills Premium Outlets,,48650 Seminole Drive,,Cabazon,CA,92230,United States, (951) 849-3546,,,,,
The Outlets at Castle Rock,,5050 Factory Shops Boulevard,,Castle Rock,CO,80108,United States, (303) 688-9311,,,,,
Las Vegas Premium Outlets,,855 South Grand Central Parkway,,Las Vegas,NV,89106,United States, (702) 382-2180,,,,,
Ellenton Premium Outlets,,5315 Factory Shop Boulevard,,Ellenton,FL,34222,United States, (941) 729-6706,,,,,
Pleasant Prairie Premium Outlets,,11211 120th Avenue,,Pleasant Prairie,WI,53158,United States, (262) 857-2427,,,,,
Chicago Premium Outlets,,1650 Premium Outlets Boulevard,,Aurora,IL,60504,United States, (630) 236-9640,,,,,
Gilroy Premium Outlets,,8300 Arroyo Circle,,Gilroy,CA,95020,United States, (408) 848-4307,,,,,
Leesburg Corner Premium Outlet,,241 Fort Evans Road NE,,Leesburg,VA,20176,United States, (703) 443-0847,,,,,
Williamsburg Premium Outlets,,5709-70 Richmond Road,,Williamsburg,VA,23188,United States, (757) 258-2581,,,,,
Kittery Premium Outlet,,345 US Route 1,,Kittery,ME,03904,United States, (207) 439-0548,,,,,
Queenstown Premium Outlets,,109 Outlet Center Drive,,Queenstown,MD,21658,United States, (410) 827-4585,,,,,
Outlet Shops at El Paso,,7051 South Desert Boulevard,,Canutillo,TX,79835,United States, (915) 877-3271,,,,,
Rio Grande Valley Premium Outlets,,5001 East Expressway 83,,Mercedes,TX,78570,United States, (956) 514-1223,,,,,
Charleston Tanger Outlet,,4840 Tanger Outlet Boulevard,,North Charleston,SC,29418,United States, (843) 566-1381,,,,,
Mebane Tanger Outlet,,4000 Arrowhead Boulevard,,Mebane,NC,27302,United States, (919) 563-2826,,,,,
Orlando Premium Outlets,,4957 International Drive,,Orlando,FL,32819,United States, (407) 370-4360,,,,,
Tanger Outlets,,200 Tanger Outlets Boulevard,,Pooler,GA,31322,United States, (912) 450-1114,,,,,
Palm Beach Outlets,,1781 Palm Beach Lakes Boulevard,,West Palm Beach,FL,33401,United States, (561) 687-9892,,,,,
Tanger Outlets - Memphis,,5205 Airways Boulevard,,Southaven,MS,38671,United States, (662) 349-0601,,,,,
Tanger Outlets,,350 84th Street SW,,Byron Center,MI,49315,United States, (616) 878-4168,,,,,
The Outlet Collection at Riverwalk,,500 Port of New Orleans Place,,New Orleans,LA,70130,United States, (504) 522-9815,,,,,
Prestige Outlets Chesterfield,,17089 North Outer 40 Road,,Chesterfield,MO,63005,United States, (636) 489-3774,,,,,
Destiny USA,,1 Destiny USA Drive,,Syracuse,NY,13204,United States, (315) 422-9656,,,,,
Charlotte Premium Outlets,,5512 New Fashion Way,,Charlotte,NC,28278,United States, (704) 588-2078,,,,,
Twin Cities Premium Outlets,,3905 Eagan Outlets Parkway,,Eagan,MN,55122,United States, (651) 365-0375,,,,,
Outlet Shoppes of the Bluegrass,,1155 Buck Creek Road,,Simpsonville,KY,40067,United States, (502) 722-6664,,,,,
Nebraska Crossing Outlet Mall,,21323 Nebraska Crossing Drive,,Gretna,NE,68028,United States, (402) 332-3916,,,,,
The Outlets of Mississippi,,200 Bass Pro Drive,,Pearl,MS,39208,United States, (601) 936-0725,,,,,
Asheville Outlets,,800 Brevard Road,,Asheville,NC,28806,United States, (828) 670-5888,,,,,
Tampa Premium Outlets,,2364 Grand Cypress Drive,,Lutz,FL,33559,United States, (813) 379-3293,,,,,
Tanger Outlets - Columbus,,400 South Wilson Road,,Sunbury,OH,43074,United States, (740) 965-3892,,,,,
Clarksburg Premium Outlets,,22705 Clarksburg Road,,Clarksburg,MD,20871,United States, (301) 972-0959,,,,,
Phoenix Premium Outlets,,4976 Premium Outlets Way,,Chandler,AZ,85226,United States, (520) 796-1656,,,,,
Country Cobbler,,1737 Gronto Road,,Valdosta,GA,31601,United States, (229) 242-1430,,,,,
Crooks Clothing,,539 Main St.,,Clarion,PA,16214,United States, (814) 226-8020,,,,,
Dan Brothers,,1032 S. Charles St.,,Baltimore,MD,21230,United States, (410) 752-8175,,,,,
Daniel's,,419 High St.,,Morgantown,WV,26505,United States, (304) 296-7202,,,,,
Daniel's Shoes,,7929 N. McArthur Blvd.,,Oklahoma City,OK,73132,United States, (405) 722-5845,,,,,
Dardano's,,1550 S. Colorado Blvd,,Denver,CO,80222,United States, (303) 692-9355,,,,,
David K & Co.,,225 Summit,,Birmingham,AL,35243,United States, (205) 877-8554,,,,,
Dawson's Mens Shop,,1720 W Andrew Johnson Hwy,,Morristown,TN,37814,United States, (423) 586-5732,,,,,
Dean's Clothing,,226 S Main St,,Naperville,IL,60540,United States, (630) 355-3007,,,,,
Dell Brothers,,416 Washington St,,Columbus,IN,47201,United States, (812) 372-4486,,,,,
DeMarco's,,2825 W. Main St Suite 68D,,Bozeman,MT,59718,United States, (406) 586-0061,,,,,
DeMarco's,,FootHills Mall,,Fort Collins,CO,80525,United States, (970) 377-0620,,,,,
DeMarco's,,Eastridge Mall,,Casper,WY,82609,United States, (307) 266-5201,,,,,
DeMarco's,,Grand Teton Mall,,Idaho Falls,ID,83404,United States, (208) 524-3611,,,,,
Dennis Shea Shoes,,286 Lincoln Center,,Stockton,CA,95207,United States, (209) 957-7064,,,,,
Dillard's,,Short Pump Town Center,,Richmond,VA,23233,United States, (804) 253-0182,,,,,
Dillard's,,Stony Point,,Richmond,VA,23235,United States, (804) 253-1860,,,,,
Dillard's,,Greenbriar Mall,,Chesapeake,VA,23320,United States, (757) 523-9031,,,,,
Dillard's,,Lynnhaven,,Virginia Beach,VA,23452,United States, (757) 463-4800,,,,,
Dillard's,,Mcarthur Center,,Norfolk,VA,23510,United States, (757) 622-6800,,,,,
Dillard's,,Patrick Henry Mall,,Newport News,VA,23602,United States, (757) 930-0291,,,,,
Dillard's,,Hanes Mall,,Winston-Salem,NC,27103,United States, (336) 659-1515,,,,,
Dillard's,,Alamance Crossing,,Burlington,NC,27215,United States, (336) 538-6498,,,,,
Dillard's,,Four Seasons Mall,,Greensboro,NC,27407,United States, (336) 855-5511,,,,,
Dillard's,,Cary Village,,Cary,NC,27511,United States, (919) 469-1611,,,,,
Dillard's,,Triangle Town Center,,Raleigh,NC,27616,United States, (919) 792-2900,,,,,
Dillard's,,Eastridge Mall,,Gastonia,NC,28054,United States, (704) 864-8361,,,,,
Dillard's,,Carolina Place Parkway,,Pineville,NC,28134,United States, (704) 544-0113,,,,,
Dillard's,,South Park,,Charlotte,NC,28211,United States, (704) 365-3111,,,,,
Dillard's,,Northlake Mall,,Charlotte,NC,28216,United States, (704) 568-3111,,,,,
Dillard's,,Independence Mall,,Wilmington,NC,28403,United States, (910) 796-0187,,,,,
Dillard's,,Valley Hills Mall,,Hickory,NC,28602,United States, (828) 327-2656,,,,,
Dillard's,,Asheville Mall,,Asheville,NC,28805,United States, (828) 298-2611,,,,,
Dillard's,,Columbiana Centre,,Columbia,SC,29212,United States, (803) 732-7037,,,,,
Dillard's,,Westgate Mall,,Spartanburg,SC,29301,United States, (864) 576-0046,,,,,
Dillard's,,Northwood Mall,,N. Charleston,SC,29406,United States, (843) 553-6363,,,,,
Dillard's,,Charleston Citadel Mall,,Charleston,SC,29407,United States, (843) 556-0080,,,,,
Dillard's,,Coastal Grand,,Myrtle Beach,SC,29577,United States, (843) 839-2917,,,,,
Dillard's,,Haywood Mall,,Greenville,SC,29607,United States, (864) 987-9229,,,,,
Dillard's,,Anderson Mall,,Anderson,SC,29621,United States, (864) 224-1315,,,,,
Dillard's,,North Point Mall,,Alpharetta,GA,30022,United States, (770) 410-9020,,,,,
Dillard's,,Stonecrest Mall,,Lithonia,GA,30038,United States, (770) 666-0000,,,,,
Dillard's,,Arbor Place,,Douglasville,GA,30135,United States, (770) 577-4271,,,,,
Dillard's,,The Forum At Ashley Park,,Newnan,GA,30265,United States, (770) 254-0166,,,,,
Dillard's,,Perimeter Mall,,Atlanta,GA,30346,United States, (678) 320-9140,,,,,
Dillard's,,Atlantic Station,,Atlanta,GA,30363,United States, (404) 879-0635,,,,,
Dillard's,,Mall Of Georgia,,Buford,GA,30519,United States, (678) 482-5241,,,,,
Dillard's,,Augusta Mall,,Augusta,GA,30909,United States, (706) 481-0600,,,,,
Dillard's,,Shoppes At River Crossing,,Macon,GA,31210,United States, (478) 474-4545,,,,,
Dillard's,,Savannah Mall,,Savannah,GA,31419,United States, (912) 920-9000,,,,,
Dillard's,,Albany Mall,,Albany,GA,31707,United States, (912) 883-7900,,,,,
Dillard's,,Peachtree Mall,,Columbus,GA,31909,United States, (706) 324-7272,,,,,
Dillard's,,Orange Park Mall,,Orange Park,FL,32073,United States, (904) 269-2222,,,,,
Dillard's,,Volusia Mall,,Daytona Beach,FL,32114,United States, (904) 255-8161,,,,,
Dillard's,,Regency Square,,Jacksonville,FL,32225,United States, (904) 721-9166,,,,,
Dillard's,,St Johns Town Center,,Jacksonville,FL,32246,United States, (904) 641-0471,,,,,
Dillard's,,The Avenues,,Jacksonville,FL,32256,United States, (904) 363-6115,,,,,
Dillard's,,Governors Square,,Tallahassee,FL,32301,United States, (850) 671-2000,,,,,
Dillard's,,Panama City Mall,,Panama City,FL,32405,United States, (850) 769-7671,,,,,
Dillard's,,Pier Park,,Panama City,FL,32413,United States, (850) 234-2417,,,,,
Dillard's,,Cordova Mall,,Pensacola,FL,32504,United States, (850) 476-3011,,,,,
Dillard's,,Santa Rosa Mall,,Mary Esther,FL,32569,United States, (850) 244-7111,,,,,
Dillard's,,Oaks Mall,,Gainesville,FL,32605,United States, (352) 331-1455,,,,,
Dillard's,,Altamonte Mall,,Altamonte Springs,FL,32701,United States, (407) 830-1211,,,,,
Dillard's,,Market Place,,Oviedo,FL,32765,United States, (407) 977-9996,,,,,
Dillard's,,Seminole Town Center,,Sanford,FL,32771,United States, (407) 330-1775,,,,,
Dillard's,,Florida Mall,,Orlando,FL,32809,United States, (407) 240-1771,,,,,
Dillard's,,Melbourne Square,,Melbourne,FL,32904,United States, (321) 676-1300,,,,,
Dillard's,,Merritt Square,,Merritt Island,FL,32952,United States, (321) 452-6411,,,,,
Dillard's,,Indian River Mall,,Vero Beach,FL,32966,United States, (561) 770-2141,,,,,
Dillard's,,Pembroke Lakes Mall,,Pembroke Pines,FL,33026,United States, (954) 450-8661,,,,,
Dillard's,,Galleria Mall,,Ft. Lauderdale,FL,33304,United States, (954) 565-5245,,,,,
Dillard's,,Broward Mall,,Plantation,FL,33388,United States, (954) 370-8182,,,,,
Dillard's,,Wellington Green,,Wellington,FL,33414,United States, (561) 227-5470,,,,,
Dillard's,,Brandon Town Center,,Brandon,FL,33511,United States, (813) 653-4436,,,,,
Dillard's,,Wiregrass,,Wesley Chapel,FL,33543,United States, (831) 991-1352,,,,,
Dillard's,,International Plaza,,Tampa,FL,33607,United States, (813) 342-1220,,,,,
Dillard's,,Citrus Park Town  Center,,Tampa,FL,33625,United States, (813) 926-4545,,,,,
Dillard's,,Tyrone Square,,St. Petersburg,FL,33710,United States, (727) 344-4611,,,,,
Dillard's,,Countryside Mall,,Clearwater,FL,33761,United States, (727) 796-2242,,,,,
Dillard's,,Lakeland Square,,Lakeland,FL,33809,United States, (863) 859-2000,,,,,
Dillard's,,Eagle Ridge Mall,,Lake Wales,FL,33859,United States, (863) 676-7646,,,,,
Dillard's,,Edison Mall,,Ft. Myers,FL,33901,United States, (941) 936-1441,,,,,
Dillard's,,Coconut Point,,Bonita Springs,FL,33928,United States, (239) 947-4133,,,,,
Dillard's,,Town Center,,Port Charlotte,FL,33948,United States, (941) 255-1778,,,,,
Dillard's,,Coastland Center,,Naples,FL,34102,United States, (941) 261-4100,,,,,
Dillard's,,Desoto Square Mall,,Bradenton,FL,34205,United States, (941) 748-2266,,,,,
Dillard's,,Market Street,,Ocala,FL,34474,United States, (352) 629-9266,,,,,
Dillard's,,Gulfview Square,,Port Ritchey,FL,34668,United States, (727) 847-9393,,,,,
Dillard's,,Treasure Coast Square,,Jensen Beach,FL,34957,United States, (561) 692-0555,,,,,
Dillard's,,Colonial Mall,,Decatur,AL,35601,United States, (256) 350-3450,,,,,
Dillard's,,Regency Square Mall,,Florence,AL,35630,United States, (256) 766-8200,,,,,
Dillard's,,Parkway Place,,Huntsville,AL,35801,United States, (256) 551-0179,,,,,
Dillard's,,The Shoppes At Eastchase,,Montgomery,AL,36117,United States, (334) 821-3900,,,,,
Dillard's,,Quintard Mall,,Oxford,AL,36203,United States, (256) 835-2819,,,,,
Dillard's,,Wiregrass Commons,,Dothan,AL,36303,United States, (334) 794-3300,,,,,
Dillard's,,Eastern Shore Center,,Spanish Fort,AL,36527,United States, (251) 621-2257,,,,,
Dillard's,,Bel Air,,Mobile,AL,36606,United States, (251) 471-1551,,,,,
Dillard's,,Colonial University Village,,Auburn,AL,36830,United States, (334) 821-3900,,,,,
Dillard's,,Governors Square,,Clarksville,TN,37040,United States, (931) 648-3511,,,,,
Dillard's,,Cool Springs Galleria,,Franklin,TN,37067,United States, (615) 771-7101,,,,,
Dillard's,,Rivergate Mall,,Goodlettsville,TN,37072,United States, (615) 859-2811,,,,,
Dillard's,,Stones River Mall,,Murfreesboro,TN,37129,United States, (615) 867-2100,,,,,
Dillard's,,Green Hills Mall,,Nashville,TN,37215,United States, (615) 297-0971,,,,,
Dillard's,,Hamilton Place Mall,,Chattanooga,TN,37421,United States, (423) 892-1110,,,,,
Dillard's,,West Town Mall,,Knoxville,TN,37919,United States, (865) 531-1931,,,,,
Dillard's,,The Avenue Carriage C,,Collierville,TN,38017,United States, (901) 850-2229,,,,,
Dillard's,,Oak Court,,Memphis,TN,38117,United States, (901) 685-0382,,,,,
Dillard's,,Wolfchase Galleria,,Memphis,TN,38133,United States, (901) 383-1029,,,,,
Dillard's,,Southaven Towne Center,,Southaven,MS,38671,United States, (662) 536-4786,,,,,
Dillard's,,North Park Mall,,Ridgeland,MS,39157,United States, (601) 957-7100,,,,,
Dillard's,,Pembertown Square,,Vicksburg,MS,39180,United States, (601) 638-8853,,,,,
Dillard's,,Bonita Lakes,,Meridian,MS,39301,United States, (601) 482-8929,,,,,
Dillard's,,Turtle Creek,,Hattiesburg,MS,39402,United States, (601) 268-6700,,,,,
Dillard's,,Edgewater Mall,,Biloxi,MS,39531,United States, (228) 388-4000,,,,,
Dillard's,,The Mall In St Matthews,,Louisville,KY,40207,United States, (502) 893-4400,,,,,
Dillard's,,Jefferson Mall,,Louisville,KY,40219,United States, (502) 968-6080,,,,,
Dillard's,,Fayette Mall,,Lexington,KY,40503,United States, (859) 271-9797,,,,,
Dillard's,,Crestview Hills Mall,,Crestview Hills,KY,41017,United States, (859) 344-2795,,,,,
Dillard's,,Kentucky Oaks,,Paducah,KY,42001,United States, (270) 442-3200,,,,,
Dillard's,,Greenwood Mall,,Bowling Green,KY,42104,United States, (502) 782-1111,,,,,
Dillard's,,Fallen Timbers,,Maumee,OH,43537,United States, (419) 878-2729,,,,,
Dillard's,,Franklin Park,,Toledo,OH,43623,United States, (419) 473-9600,,,,,
Dillard's,,Great Lakes,,Mentor,OH,44060,United States, (440) 255-5651,,,,,
Dillard's,,Great Northern,,North Olmstead,OH,44070,United States, (440) 777-0822,,,,,
Dillard's,,Beachwood Place,,Beachwood,OH,44122,United States, (216) 464-6000,,,,,
Dillard's,,Southpark Center,,Strongville,OH,44136,United States, (440) 846-8718,,,,,
Dillard's,,Summit Mall,,Akron,OH,44333,United States, (330) 867-3300,,,,,
Dillard's,,Eastwood,,Niles,OH,44446,United States, (330) 544-1016,,,,,
Dillard's,,South Park Mall,,Boardman,OH,44512,United States, (330) 629-2150,,,,,
Dillard's,,Belden Village,,Canton,OH,44718,United States, (330) 494-3050,,,,,
Dillard's,,Kenwood Center,,Cincinnati,OH,45236,United States, (513) 745-4489,,,,,
Dillard's,,Green Tree Mall,,Clarksville,IN,47129,United States, (812) 285-0161,,,,,
Dillard's,,Richmond Square,,Richmond,IN,47374,United States, (765) 966-8211,,,,,
Dillard's,,Eastland Mall,,Evansville,IN,47715,United States, (812) 473-1583,,,,,
Dillard's,,Jordan Creek Town Center,,Des Moines,IA,50266,United States, (515) 440-2277,,,,,
Dillard's,,Crossroads Center,,Waterloo,IA,50702,United States, (319) 232-6668,,,,,
Dillard's,,Coral Ridge Mall,,Coralville,IA,52241,United States, (319) 625-2600,,,,,
Dillard's,,Northpark Mall,,Davenport,IA,52806,United States, (563) 388-7954,,,,,
Dillard's,,Rimrock Mall,,Billings,MT,59102,United States, (406) 656-0100,,,,,
Dillard's,,Southgate Mall,,Missoula,MT,59801,United States, (406) 721-3100,,,,,
Dillard's,,South Park,,Moline,IL,61265,United States, (309) 797-1866,,,,,
Dillard's,,St Clair Square,,Fairview Heights,IL,62208,United States, (618) 632-5000,,,,,
Dillard's,,Illinois Center,,Marion,IL,62959,United States, (618) 993-6000,,,,,
Dillard's,,Chesterfield Mall,,Chesterfield,MO,63017,United States, (636) 532-4040,,,,,
Dillard's,,St Louis Galleria,,St. Louis,MO,63117,United States, (314) 725-8363,,,,,
Dillard's,,South County Center,,St. Louis,MO,63129,United States, (314) 487-1600,,,,,
Dillard's,,Mid Rivers Mall,,St. Peters,MO,63376,United States, (636) 970-2555,,,,,
Dillard's,,Independence Center,,Independence,MO,64057,United States, (816) 795-1818,,,,,
Dillard's,,Zona Rosa,,Kansas City,MO,64153,United States, (816)741-0707,,,,,
Dillard's,,E Hill Shopping Ctr,,St. Joseph,MO,64506,United States, (816) 232-7666,,,,,
Dillard's,,Capital Mall,,Jefferson City,MO,65109,United States, (573) 893-4497,,,,,
Dillard's,,Columbia Mall,,Columbia,MO,65203,United States, (573) 876-8600,,,,,
Dillard's,,Battlefield Mall,,Springfield,MO,65804,United States, (417) 883-4550,,,,,
Dillard's,,Oak Park South,,Overland Park,KS,66214,United States, (913) 492-0666,,,,,
Dillard's,,Manhattan Town Center,,Manhattan,KS,66502,United States, (785) 776-4224,,,,,
Dillard's,,West Ridge Mall,,Topeka,KS,66604,United States, (785) 273-5451,,,,,
Dillard's,,Towne East Mall,,Wichita,KS,67207,United States, (316) 685-0341,,,,,
Dillard's,,Towne West Mall,,Wichita,KS,67209,United States, (316) 943-8031,,,,,
Dillard's,,Central Mall,,Salina,KS,67401,United States, (785) 823-3553,,,,,
Dillard's,,Oakview Mall,,Omaha,NE,68144,United States, (402) 697-1323,,,,,
Dillard's,,Gateway Mall,,Lincoln,NE,68505,United States, (402) 464-7451,,,,,
Dillard's,,Grand Isle,,Grand Island,NE,68803,United States, (308) 384-5200,,,,,
Dillard's,,Lakeside Shopping Center,,Metairie,LA,70002,United States, (504) 833-1075,,,,,
Dillard's,,Oakwood Shopping Ctr,,Gretna,LA,70053,United States, (504) 362-4800,,,,,
Dillard's,,Southland Mall,,Houma,LA,70364,United States, (504) 873-6100,,,,,
Dillard's,,Hammond Square,,Hammond,LA,70403,United States, (504) 345-7121,,,,,
Dillard's,,Acadiana Mall,,Lafayette,LA,70503,United States, (337) 989-8139,,,,,
Dillard's,,Prien Lake Mall,,Lake Charles,LA,70601,United States, (337) 474-9533,,,,,
Dillard's,,Mall Of Louisiana,,Baton Rouge,LA,70836,United States, (225) 761-7293,,,,,
Dillard's,,Mall St Vincent,,Shreveport,LA,71104,United States, (318) 226-9565,,,,,
Dillard's,,Pierre Bossier Mall,,Bossier City,LA,71111,United States, (318) 747-5610,,,,,
Dillard's,,Pecanland Mall,,Monroe,LA,71203,United States, (318) 323-8000,,,,,
Dillard's,,Alexandria Mall,,Alexandria,LA,71301,United States, (318) 445-9992,,,,,
Dillard's,,The Pines Mall,,Pine Bluff,AR,71601,United States, (870) 535-0433,,,,,
Dillard's,,Hot Springs Mall,,Hot Springs,AR,71913,United States, (501) 525-4501,,,,,
Dillard's,,Mccain Mall,,No. Little Rock,AR,72116,United States, (501) 771-4100,,,,,
Dillard's,,Park Plaza,,Little Rock,AR,72205,United States, (501) 661-0053,,,,,
Dillard's,,Turtle Creek,,Jonesboro,AR,72401,United States, (870) 932-6300,,,,,
Dillard's,,Northwest Arkansas,,Fayetteville,AR,72703,United States, (501) 521-7171,,,,,
Barefield's Store,,115 Court Sq.,,Ozark,AL,36360,United States, ,,,,,
Shooz,,44 Housatonic Street,,Lenox,MA,01240,United States, (413) 637-1118,,,,,
Tibbs Leather Works,,366 S. Pierre St. #1,,Pierre,SD,57501,United States, (605) 945-1754,,,,,
Art's Apparel,,843 Main Street,,Honesdale,PA,18431,United States, (570) 253-3080,,,,,
Brown Shoe Fit,,705 South Timberland,,Lufkin,TX,75901,United States, (936) 634-6773,,,,,
Adolph's,,648B Southpark Blvd.,,Colonial Heights,VA,23834,United States, (804) 520-0141,,,,,
Dafoe's Black Tie,,1017 South Mission Street,,Mount Pleasant,MI,48858,United States, (989) 772-1430,,,,,
GR Sweetings,,3218 N. W. North River Drive,,Miami,FL,33142,United States, ,,,,,
Miroballi's Shoes,,124 N Hale Street,,Wheaton,IL,60187,United States, ,,,,,
Alec's Shoes,,201 Main street,,Nashua,NH,03060,United States, (603) 882-6811,,,,,
Alvin Dennis,,102 West Washington Street,,Lexington,VA,24450,United States, (540) 463-5383,,,,,
Amityville Men's Shop,,184 Park avenue,,Amityville,NY,11701,United States, (631) 264-2916,,,,,
Angelo D'Amincantonio & Sons,,157 W. Lancaster Avenue,,Wayne,PA,19087,United States, (610) 688-7530,,,,,
Ashby's  Menswear,,379 Westwood Shopping Ctr,,Fayetteville,NC,38314,United States, (910) 864-5066,,,,,
Barclay's Mens Clothiers,,314-318 N.Main St.,,Piqua,OH,45356,United States, (937) 773-5928,,,,,
Bellagio Footwear,,120 Broadway,,Santa Monica,CA,90401,United States, (310) 260-1956,,,,,
Belterra Casino Resort,,777 Belterra Dr.,,Belterra,IN,47020,United States, (812) 427-7777,,,,,
Benjamin Peters,,120 East State street,,Ithaca,NY,14850,United States, (607) 273-1371,,,,,
Bennies Shoes,,Buckhead Crossing 2625 Piedmont Rd. Northeast,,Atlanta,GA,30324,United States, (404) 262-1966,,,,,
Best Fit Menswear,,Oakdale Mall,,Johnson City,NY,13790,United States, (607) 797-7848,,,,,
Best Foot Forward,,Danbury Mall,,Danbury,CT,06810,United States, (203) 743-7200,,,,,
Galapogos Boutique,,5193 Old Post Road,,Charlestown,RI,02813,United States, (401) 322-3000,,,,,
Bloomingdale's,,Chestnut Hill I & II,,Newton,MA,02467,United States, (617) 630-6000,,,,,
Bloomingdale's,,Short Hills,,Short Hills,NJ,07078,United States, (973) 548-2200,,,,,
Bloomingdale's,,Willowbrook Place,,Wayne,NJ,07470,United States, (973) 582-2400,,,,,
Bloomingdale's,,Bergen County  Riverside,,Hackensack,NJ,07601,United States, (201) 457-2000,,,,,
Well Heeled,,2850 Mountain Road,,Stowe,VT,05672,United States, (802) 253-6077,,,,,
Bloomingdale's,,White Plains,,White Plains,NY,10605,United States, (914) 684-6300,,,,,
In Her Shoes,,1344 4th Street,,San Rafael,CA,94901,United States, (415) 306-7157,,,,,
Bloomingdale's,,Willow Grove Park,,Willow Grove,PA,19090,United States, (215) 706-3300,,,,,
Bloomingdale's,,King Of Prussia,,King of Prussia,PA,19406,United States, (610) 337-6300,,,,,
Bloomingdale's,,Mall of America,,Bloomington,MN,55425,United States, (952) 883-2500,,,,,
Bloomingdale's,,Old Orchard,,Skokie,IL,60077,United States, (847) 675-4200,,,,,
Bloomingdale's,,Beverly Center,,Los Angeles,CA,90048,United States, (310) 360-2700,,,,,
Bloomingdale's,,Sherman Oaks,,Sherman Oaks,CA,91423,United States, (818) 325-2200,,,,,
Bloomingdale's,,Newport Beach Fashion,,Newport Beach,CA,92660,United States, (949) 729-6600,,,,,
Bloomingdale's,,Stanford CA,,Palo Alto,CA,94304,United States, (650) 463-2000,,,,,
Bob's Men's shop,,602 Main street,,Boonton,NJ,07005,United States, (973) 334-1496,,,,,
Booth's Corner Shoes,,1362 Naamans Creek Road,,Boothwyn,PA,19061,United States, (610) 485-7280,,,,,
Two Sole Sisters,,1078 S Gaylord,,Denver,CO,80209,United States, (303) 722-2887,,,,,
Piece Unique & Shoez,,205 N. 10th Street,,Boise,ID,83702,United States, (208) 387-0250,,,,,
Ritzy Rags,,8787 Scottsdale Rd.,,Scottsdale,AZ,85253,United States, (480) 596-0533,,,,,
Junction Shoes,,324 Sir Francis Drake Blvd.,,San Anselmo,CA,94960,United States, (415) 256-9290,,,,,
Broadway Shoes,,236 Broadway,,Brooklyn,NY,11211,United States, (718) 599-7663,,,,,
Brother's,,101 Arnould Blvd.,,Lafayette,LA,70506,United States, (337) 984-7749,,,,,
Brown Shoe Fit,,3500 S. College Ave.,,Fort Collins,CO,80525,United States, (970) 226-1776,,,,,
Brown Shoe Fit,,871 Main Ave.,,Durango,CO,81301,United States, (970) 247-5542,,,,,
Brown Shoe Fit,,124 W. Main St.,,Farmington,NM,87401,United States, (505) 327-9330,,,,,
Brown Shoe Fit,,201 West Main St.,,Visalia,CA,93291,United States, (559) 734-4152,,,,,
Brown Shoe Fit,,1416 Twixt Town Rd.,,Marion,IA,52302,United States, (319) 373-8434,,,,,
Browns Shoe Fit,,311 Poyntz Ave.,,Manhatten,KS,66502,United States, (785) 776-6612,,,,,
Browns Shoe Fit,,1920 SW Wanamaker Rd.,,Topeka,KS,66604,United States, (785) 271-6961,,,,,
Browns Shoe Fit,,603 Commercial St.,,Emphoria,KS,66801,United States, (620) 342-5871,,,,,
Browns Shoe Fit,,401 E. 30th Ave.,,Hutchinson,KS,67502,United States, (620) 663-6991,,,,,
Browns Shoe Fit,,803 S. 13th St.,,Norfolk,NE,68701,United States, (402) 371-0932,,,,,
Browns Shoe Fit,,2427 W. Main,,Norman,OK,73069,United States, (405) 329-1863,,,,,
Browns Shoe Fit,,719 Main St.,,Woodward,OK,73801,United States, (580) 256-7228,,,,,
Browns Shoe Fit,,2101 N. 14th St.,,Ponca City,OK,74601,United States, (580) 762-1045,,,,,
Browns Shoe Fit,,113 W. Main,,Ada,OK,74820,United States, (580) 332-1464,,,,,
Brown's Shoe Fit,,201 S. Mount Auburn Rd.,,Cape Girardeau,MO,63703,United States, (573) 335-3850,,,,,
Brown's Shoe Fit,,825 23rd St.,,Colombus,NE,68601,United States, (402) 562-6499,,,,,
Brown's Shoe Fit,,2312 West Garriott Rd,,Enid,OK,73703,United States, (580) 237-5034,,,,,
Brown's Shoe Fit,,201 S. Perkins Rd.,,Stillwater,OK,74074,United States, (405) 372-7170,,,,,
Brown's Shoe Fit,,2234 E. Shawnee Bypass,,Muskogee,OK,74403,United States, (918) 687-5950,,,,,
Burch's Shoes,,16 Oakway Center,,Eugene,OR,97401,United States, (541) 683-4115,,,,,
Burnham's,,2521 Airport Thruway,,Columbus,GA,31907,United States, (706) 596-9400,,,,,
Burnham's,,3811 Ross Clark Circle,,Dothan,AL,36302,United States, (334) 794-5682,,,,,
Cabonas,,10100 Donner Pass,,Truckee,CA,96161,United States, (530) 587-3161,,,,,
Carla's Shoes,,330 A1A North Suite,,Ponte Vedra,FL,32082,United States, (904) 543-1372,,,,,
Christensen's,,761 Bluff Road,,St. George,UT,84770,United States, (435) 628-4213,,,,,
Circle Quality Shoes,,208 Cambridge St,,Midland,MI,48642,United States, (989) 835-4853,,,,,
Clothing Center,,645 Hwy 18 south,,East Brunswick,NJ,08816,United States, (732) 254-0870,,,,,
Schuecking's Menswear,,106 North 5th Street,,Quincy,IL,62301,United States, (217) 224-4895,,,,,
Houser Shoes,,3100 Wade Hampton Blvd.,,Taylors,SC,29687,United States, (828) 254-0054,,,,,
Houser Shoes,,1525 East Stone Drive,,Kingsport,TN,37660,United States, (828) 254-0054,,,,,
I Perlis & Sons,,346 Main St.,,Tifton,GA,31794,United States, (229) 382-6212,,,,,
Schuler Shoes,,7845 Main Street N,,Maple Grove,MN,55369,United States, (763) 494-4878,,,,,
Davis Clothing,,9355 Ogden Landing Road,,West Paducah,KY,42086,United States, ,,,,,
J David's,,24201 W. Valencia Blvd,,Valencia,CA,91355,United States, (661) 287-3636,,,,,
J E Neilson Co,,119 Courthouse Square,,Oxford,MS,38655,United States, (662) 234-1161,,,,,
Schuler Shoes,,1475 W County Road B,,Roseville,MN,55113,United States, (652) 631-8344,,,,,
J. Laurie Shoe Boutique,,628 Washington Avenue,,Ocean Springs,MS,39564,United States, (228) 243-5324,,,,,
Schuler Shoes,,2081 Ford Parkway,,St. Paul,MN,55116,United States, (651) 207-1125,,,,,
Scioto Shoe Mart,,615 harding Avenue,,Portsmouth,OH,45662,United States, (740) 776-7516,,,,,
James Davis,,400 Grove Park South,,Memphis,TN,38117,United States, (901) 767-4640,,,,,
JDR Shoe Warehouse,,2040 Springdale Rd.,,Cherry Hill,NJ,08003,United States, (609) 751-6668,,,,,
JDR Shoe Warehouse,,202 Parket Place Shopping Center,,Montgomeryville,PA,18936,United States, (919) 954-0051,,,,,
Jerry Ryan Clothing & Sportswear,,7806 Dodge Street,,Omaha,NE,68114,United States, (402) 330-6614,,,,,
Joe Sugar's of St. Pauls,,119 West Broad Street,,St. Pauls,NC,28384,United States, (910) 865-5149,,,,,
Joe's Shoe Store,,1814 North Causeway Blvd. Ste. 4,,Mandeville,LA,70471,United States, (985) 626-5633,,,,,
John Cicco's,,8250 Mississippi Street,,Merrillville,IN,46410,United States, (219) 769-1744,,,,,
Johnston's Clothiers,,12111 East 21st Street North,,Wichita,KS,67206,United States, (316) 682-1000,,,,,
Joseph's,,126 W. Rector,,San Antonio,TX,78216,United States, (210) 344-9285,,,,,
Karaz Shoes,,New Hartford Shopping Center,,New Hartford,NY,13413,United States, (315) 797-0025,,,,,
Karlton's,,515 4th st,,Sioux City,IA,51101,United States, (712) 255-4040,,,,,
Kaufman's,,411 Central Ave,,Great Falls,MT,59403,United States, (406) 761-5010,,,,,
Kaufman's Big & Tall,,3395 South Broadway,,Englewood,CO,80113,United States, (303) 761-6000,,,,,
The Squire Shop,,4516 Hartwood,,Ft. Worth,TX,76109,United States, (817) 927-8722,,,,,
Kemps Shoe Salon Inc,,3385 Ocean Drive,,Vero Beach,FL,32963,United States, (772) 231-2771,,,,,
Kenny's Clothing,,28 Piquetts lane,,Woodbury,NY,11797,United States, (516) 921-2660,,,,,
Kent's Men's Shoes,,200 N. 66th St,,Lincoln,NE,68606,United States, (402) 466-3345,,,,,
Kern Bros.,,7 Boone Village,,Zionsville,IN,46077,United States, (317) 873-5756,,,,,
Kinkades,,120 W Jackson St,,Ridgeland,MS,39157,United States, (601) 898-0513,,,,,
Lee's Shoes,,1300 Farm Rd.,,Raleigh,NC,27603,United States, (919) 772-2564,,,,,
Libin's,,1028 Cork St.,,Kalamazoo,MI,49001,United States, (269) 381-0746,,,,,
Littles,,5850 Forbes Av,,Pittsburgh,PA,15217,United States, (412) 521-3530,,,,,
Loker's Shoe Co,,31 East 8th St.,,Holland,MI,49423,United States, (616) 821-0944,,,,,
Lord & Taylor,,Natick Mall,,Natick,MA,01760,United States, (508) 651-0744,,,,,
Lord & Taylor,,Burlington Mall,,Burlington,MA,01803,United States, (781) 273-1461,,,,,
Lord & Taylor,,South Shore Plaza,,Braintree,MA,02184,United States, (781) 848-1970,,,,,
Lord & Taylor,,Prudential Center,,Boston,MA,02199,United States, (617) 262-6000,,,,,
Lord & Taylor,,Prudential Center,,Boston,MA,02199,United States, (617) 262-6000,,,,,
Lord & Taylor,,Westfarms Mall,,Farmington,CT,06032,United States, (860) 521-8411,,,,,
Dillard's,,Pinnacle Hills,,Rogers,AR,72758,United States, (479) 936-7984,,,,,
Dillard's,,Central Mall,,Fort Smith,AR,72903,United States, (501) 484-5700,,,,,
Dillard's,,Sooner Fashion Mall,,Norman,OK,73072,United States, (405) 329-2600,,,,,
Dillard's,,Penn Square Mall,,Oklahoma City,OK,73118,United States, (405) 840-8495,,,,,
Dillard's,,Quail Springs Mall,,Oklahoma City,OK,73134,United States, (405) 755-5220,,,,,
Dillard's,,Central Mall,,Lawton,OK,73501,United States, (580) 248-8120,,,,,
Dillard's,,Oakwood Mall,,Enid,OK,73703,United States, (580) 237-2984,,,,,
Dillard's,,Washington Park Mall,,Bartlesville,OK,74006,United States, (918) 335-3300,,,,,
Dillard's,,Woodland Hills Mall,,Tulsa,OK,74133,United States, (918) 252-1890,,,,,
Dillard's,,Promenade Shopping Center,,Tulsa,OK,74135,United States, (918) 627-7700,,,,,
Dillard's,,Arrowhead Mall,,Muskogee,OK,74401,United States, (918) 682-1000,,,,,
Dillard's,,Shawnee Mall,,Shawnee,OK,74804,United States, (405) 273-1500,,,,,
Dillard's,,Stonebriar Mall,,Frisco,TX,75034,United States, (214) 705-8065,,,,,
Dillard's,,Firewheel Town Center,,Garland,TX,75040,United States, (817) 465-0718,,,,,
Dillard's,,Vista Ridge Mall,,Lewisville,TX,75067,United States, (972) 423-6902,,,,,
Dillard's,,Village at Fairview,,Fairview,TX,75069,United States, (972) 549-1300,,,,,
Dillard's,,Midway Mall,,Sherman,TX,75090,United States, (903) 868-1065,,,,,
Dillard's,,Shops At Willow Bend,,Plano,TX,75093,United States, (972) 202-4730,,,,,
Dillard's,,Uptown Village,,Cedar Hill,TX,75104,United States, (972) 293-0868,,,,,
Dillard's,,Town East Center,,Mesquite,TX,75150,United States, (972) 682-4502,,,,,
Dillard's,,Northpark Center,,Dallas,TX,75225,United States, (214) 373-7000,,,,,
Dillard's,,Central Mall,,Texarkana,TX,75503,United States, (903) 838-6591,,,,,
Dillard's,,Longview Mall,,Longview,TX,75605,United States, (903) 758-4436,,,,,
Dillard's,,Broadway Square Mall,,Tyler,TX,75703,United States, (903) 561-1221,,,,,
Dillard's,,The Parks At Arlington,,Arlington,TX,76015,United States, (817) 465-0718,,,,,
Dillard's,,Northeast Mall,,Hurst,TX,76053,United States, (817) 284-4566,,,,,
Dillard's,,Ridgmar Mall,,Ft. Worth,TX,76116,United States, (817) 731-4711,,,,,
Dillard's,,Hulen Mall,,Fort Worth,TX,76132,United States, (817) 294-1449,,,,,
Dillard's,,Golden Triangle Mall,,Denton,TX,76205,United States, (972) 496-4070,,,,,
Dillard's,,Sikes Center,,Wichita Falls,TX,76308,United States, (940) 692-9310,,,,,
Dillard's,,Colonial Mall,,Temple,TX,76502,United States, (254) 778-1854,,,,,
Dillard's,,Killeen Mall,,Killeen,TX,76543,United States, (254) 699-6116,,,,,
Dillard's,,Richland Fashion Mall,,Waco,TX,76710,United States, (254) 776-3560,,,,,
Dillard's,,Sunset Mall,,San Angelo,TX,76904,United States, (325) 944-4571,,,,,
Dillard's,,Memorial City Mall,,Houston,TX,77024,United States, (713) 464-1851,,,,,
Dillard's,,Post Oak,,Houston,TX,77056,United States, (713) 622-1200,,,,,
Dillard's,,Willowbrook Mall,,Houston,TX,77070,United States, (281) 890-9200,,,,,
Dillard's,,Deerbrook Mall,,Humble,TX,77338,United States, (281) 540-1612,,,,,
Dillard's,,Woodlands,,Woodlands,TX,77380,United States, (281) 363-9300,,,,,
Dillard's,,First Colony Mall,,Sugarland,TX,77479,United States, (281) 980-8300,,,,,
Dillard's,,Baybrook Mall,,Friendswood,TX,77546,United States, (281) 486-0700,,,,,
Dillard's,,Brazos Mall,,Lake Jackson,TX,77566,United States, (979) 297-7201,,,,,
Dillard's,,Central Mall,,Port Arthur,TX,77642,United States, (409) 724-7575,,,,,
Dillard's,,Parkdale Mall,,Beaumont,TX,77706,United States, (409) 899-9800,,,,,
Dillard's,,Post Oak Mall,,College Station,TX,77840,United States, (409) 764-0014,,,,,
Dillard's,,Victoria Mall,,Victoria,TX,77904,United States, (316) 576-5261,,,,,
Dillard's,,Mall Del Notre,,Laredo,TX,78041,United States, (956) 727-1171,,,,,
Dillard's,,North Star Mall,,San Antonio,TX,78216,United States, (210) 341-6666,,,,,
Dillard's,,Ingram Park Mall,,San Antonio,TX,78238,United States, (210) 681-7970,,,,,
Dillard's,,Rolling Oaks Mall,,San Antonio,TX,78247,United States, (210) 651-5033,,,,,
Dillard's,,The Shops At La Cantera,,San Antonio,TX,78256,United States, (210) 558-6121,,,,,
Dillard's,,La Palmera Mall,,Corpus Christi,TX,78411,United States, (361) 991-7300,,,,,
Dillard's,,La Plaza Mall,,Mcallen,TX,78501,United States, (956) 687-5211,,,,,
Dillard's,,Sunrise Mall,,Brownsville,TX,78526,United States, (956) 546-4581,,,,,
Dillard's,,Valle Vista Mall,,Harlingen,TX,78552,United States, (956) 428-8181,,,,,
Dillard's,,Lakeline Mall,,Cedar Park,TX,78613,United States, (512) 257-8740,,,,,
Dillard's,,Hill Country Galleria,,Bee Cave,TX,78738,United States, (512) 263-0520,,,,,
Dillard's,,Barton Creek Mall,,Austin,TX,78746,United States, (512) 327-6100,,,,,
Dillard's,,Domain,,Austin,TX,78758,United States, (512) 833-9556,,,,,
Dillard's,,Westgate Mall,,Amarillo,TX,79121,United States, (806) 358-7771,,,,,
Dillard's,,South Plains,,Lubbock,TX,79414,United States, (806) 792-6871,,,,,
Dillard's,,Mall Of Abilene,,Abilene,TX,79606,United States, (915) 695-2200,,,,,
Dillard's,,Midland Park Mall,,Midland,TX,79705,United States, (915) 697-7911,,,,,
Dillard's,,Music City Mall,,Odessa,TX,79762,United States, (915) 362-1986,,,,,
Dillard's,,Sunland Park Mall,,El Paso,TX,79912,United States, (915) 833-8100,,,,,
Dillard's,,Cielo Vista Mall,,El Paso,TX,79925,United States, (915) 779-6969,,,,,
Dillard's,,Town Center At Aurora,,Aurora,CO,80012,United States, (303) 790-0100,,,,,
Dillard's,,Flatirons Mall,,Broomfield,CO,80021,United States, (303) 464-3900,,,,,
Dillard's,,Westminster Mall,,Westminster,CO,80030,United States, (303) 429-2000,,,,,
Dillard's,,Southwest Plaza,,Littleton,CO,80123,United States, (303) 360-5900,,,,,
Dillard's,,Park Meadwows Center,,Littleton,CO,80124,United States, (303) 932-6180,,,,,
Dillard's,,Greeley Mall,,Greeley,CO,80631,United States, (970) 356-3330,,,,,
Dillard's,,Chapel Hills Mall,,Colorado Springs,CO,80920,United States, (719) 532-1400,,,,,
Dillard's,,Pueblo Mall,,Pueblo,CO,81008,United States, (719) 545-9665,,,,,
Dillard's,,Frontier Mall,,Cheyenne,WY,82009,United States, (307) 632-2224,,,,,
Dillard's,,Grand Teton Mall,,Idaho Falls,ID,83404,United States, (208) 525-4000,,,,,
Dillard's,,Boise Towne Square,,Boise,ID,83704,United States, (208) 321-4646,,,,,
Dillard's,,Fashion Place,,Murray,UT,84107,United States, (801) 266-2006,,,,,
Dillard's,,Newgate Mall,,Ogden,UT,84405,United States, (801) 392-0689,,,,,
Dillard's,,Towne Center,,Provo,UT,84601,United States, (801) 852-3000,,,,,
Dillard's,,Red Cliffs Mall,,St George,UT,84790,United States, (435) 634-4900,,,,,
Dillard's,,Paradise Valley Mall,,Phoenix,AZ,85032,United States, (602)953-9600,,,,,
Dillard's,,Promenade At Casa Grande,,Casa Grande,AZ,85194,United States, (520) 421-1141,,,,,
Dillard's,,Fiesta Mall,,Mesa,AZ,85202,United States, (480) 833-7777,,,,,
Dillard's,,Superstition Springs,,Mesa,AZ,85206,United States, (480) 832-1247,,,,,
Dillard's,,Chandler Fashion Center,,Chandler,AZ,85226,United States, (480) 735-2060,,,,,
Dillard's,,Fashion Square,,Scottsdale,AZ,85251,United States, (480) 949-5869,,,,,
Dillard's,,San Tan Village,,Gilbert,AZ,85296,United States, (480) 726-1512,,,,,
Dillard's,,Arrowhead Towne Center,,Phoenix,AZ,85308,United States, (623) 979-1128,,,,,
Dillard's,,Yuma Palms,,Yuma,AZ,85365,United States, (928) 329-4722,,,,,
Dillard's,,Mall At Sierra Vista,,Sierra Vista,AZ,85635,United States, (520) 515-0151,,,,,
Dillard's,,Tucson Mall,,Tucson,AZ,85705,United States, (520) 293-4550,,,,,
Dillard's,,Park Place Mall,,Tucson,AZ,85711,United States, (520) 747-4700,,,,,
Dillard's,,Flagstaff Mall,,Flagstaff,AZ,86004,United States, (520) 526-5541,,,,,
Dillard's,,Prescott Mall,,Prescott,AZ,86303,United States, (928) 717-1270,,,,,
Dillard's,,Winrock Center,,Albuquerque,NM,87110,United States, (505) 883-5900,,,,,
Dillard's,,Cottonwood Mall,,Albuquerque,NM,87114,United States, (505) 898-2530,,,,,
Dillard's,,Animas Valley Mall,,Farmington,NM,87402,United States, (505) 326-2681,,,,,
Dillard's,,Villa Linda Mall,,Santa Fe,NM,87505,United States, (505) 473-2900,,,,,
Dillard's,,Mesilla Valley,,Las Cruces,NM,88001,United States, (505) 522-5400,,,,,
Dillard's,,North Plains Mall,,Clovis,NM,88101,United States, (505) 742-3200,,,,,
Dillard's,,Galleria @ Sunset,,Henderson,NV,89014,United States, (702) 435-6300,,,,,
Dillard's,,Fashion Show Mall,,Las Vegas,NV,89109,United States, (702) 733-2008,,,,,
Dillard's,,Summit Sierra,,Reno,NV,89511,United States, (775) 852-3080,,,,,
Dillard's,,Imperial Valley Mall,,El Centro,CA,92243,United States, (760) 370-0190,,,,,
Dillard's,,Antelope Valley Mall,,Palmdale,CA,93551,United States, (661) 267-0670,,,,,
Dillard's,,Weberstown,,Stockton,CA,95207,United States, (209) 477-1230,,,,,
Earl's Men's Shop,,116 E. Main,,Henderson,TX,75652,United States, (903) 657-6535,,,,,
Edward & Son Clothier's,,405 SW C Ave.,,Lawton,OK,73501,United States, (580) 353-5800,,,,,
Emporio,,467 Central Avenue,,Cedarhurst,NY,11516,United States, (516) 295-5006,,,,,
Edward's Men's Shop,,4928 Gratiot,,Saginaw,MI,48603,United States, (989) 793-4523,,,,,
Nordstrom,,100 Bellevue Square,,Bellevue,WA,98004,United States, (425) 455-5800,,,,,
EM Jeans,,1100 Oak St.,,Conway,AR,72032,United States, (501) 329-0444,,,,,
Emerhoff's Footwear,,215 Main St.,,Ames,IA,50010,United States, (515) 232-3473,,,,,
Nordstrom,,Old Orchard,,Skokie,IL,60077,United States, ,,,,,
Nordstrom,,Michigan Avenue,,Chicago,IL,60611,United States, ,,,,,
Eric's Comfort Shoes,,426 Hillside Avenue,,Williston Park,NY,11596,United States, (516) 877-2042,,,,,
Nordstrom,,South Coast Plaza,,Costa Mesa,CA,92626,United States, ,,,,,
Fiddler's Green,,91292 HWY 99 North,,Eugene,OR,97402,United States, (541) 689-8464,,,,,
Isaac Baler,,1001 State Street,,Erie,PA,16501,United States, (814) 454-7144,,,,,
Five Seasons Mens,,627 E Reelfoot Ave,,Union City,TN,38281,United States, (731) 885-2772,,,,,
Florio's,,820 9th St,,Greely,CO,80631,United States, (970) 352-0576,,,,,
Sam Michael's Clothing,,28678 Telegraph Road,,Southfield,MI,48034,United States, (248) 477 4615,,,,,
Schuler Shoes,,921 County Road 42 W,,Burnsville,MN,55306,United States, (952) 898-5585,,,,,
Schuler Shoes,,7971 Southtown Center,,Bloomington,MN,55431,United States, (952) 884-0242,,,,,
Scioto Shoe Mart,,206 Jamesway,,Marion,OH,43302,United States, (740) 389-5775,,,,,
Scioto Shoe Mart,,780 Western Avenue,,Chillcothe,OH,45601,United States, (740)773-2933,,,,,
Garage Clothing,,1909 Stillwell avenue,,Brooklyn,NY,11223,United States, (718) 996-2342,,,,,
Gary Michael's Clothier's,,642 W. 2nd St.,,Hastings,NE,68901,United States, (402) 463-9881,,,,,
Gavel,,2370 N. Expressway 83,,Brownsville,TX,78521,United States, (956) 542-4532,,,,,
Houser's Shoes,,5418 Asheville Highway,,Hendersonville,NC,28791,United States, (828) 254-0054,,,,,
GB Shoes,,2909 Richmond Road,,Hendersonville,NC,28791,United States, (828) 254-0054,,,,,
GB Shoes,,421 Bush River Road,,Columbia,SC,29210,United States, (828) 254-0054,,,,,
Houser's Shoes,,1290 S. Pleasantburg Drive,,Greenville,SC,29605,United States, (828) 254-0054,,,,,
GB Shoes,,1424 Marks Church Road,,Augusta,GA,30909,United States, (828) 254-0054,,,,,
GB Shoes,,6636 Clinton Highway,,Knoxville,TN,37912,United States, (828) 254-0054,,,,,
Giogio's Menswear,,2625 Scottsville Rd,,Bowling Green,KY,42104,United States, (270) 782-8888,,,,,
Globe Shoe Company,,17 East Broughton Street,,Savannah,GA,31401,United States, (912) 232-8161,,,,,
Globe Shoes,,73 Route 17,,Paramus,NJ,07652,United States, (201) 843-6515,,,,,
Golden Shoes,,122 E Front Street,,Traverse City,MI,49684,United States, (231) 947-6924,,,,,
Golden Shoes,,12212 S Harlem Ave.,,Palos Heights,IL,60463,United States, (708) 448-5541,,,,,
Nordstrom,,The Woodlands Mall,,The Woodlands,TX,77380,United States, ,,,,,
Graham's Style Store for Men,,890 Main Street,,Dubuque,IA,52001,United States, (563) 582-3760,,,,,
Nordstrom,,San Francisco Center,,San Francisco,CA,94103,United States, (415) 243-8500,,,,,
Greenhaw's,,10301 Rodney Parham Rd.,,Little Rock,AR,72227,United States, (501) 227-8703,,,,,
Greiner's,,405 E Silver Springs Blvd,,Ocala,FL,34470,United States, (352) 629-3195,,,,,
Guarantee Shoe Center,,2101 Chester Ave,,Bakersfield,CA,93301,United States, (661) 325-8751,,,,,
H. Walkers Mens Shop,,1700 K. Street,,Bakersfield,CA,93301,United States, (661) 283-4500,,,,,
Nordstrom,,Valley Fair,,San Jose,CA,95128,United States, (408) 248-2180,,,,,
Nordstrom,,Northpark Center,,Dallas,TX,75225,United States, (214) 231-3900,,,,,
Nordstrom,,500 Pine St.,,Seattle,WA,98101,United States, (206) 628-1500,,,,,
Harry's Shoes,,2299 Broadway,,New York,NY,10024,United States, (212) 874-2035,,,,,
Hedi's,,3630 The Barnyard,,Carmel,CA,93922,United States, (831) 624-5580,,,,,
Heimie's Haberdashery,,400 St Peter St,,St Paul,MN,55102,United States, (651) 224-2354,,,,,
Hellman Brothers Men's Clothing,,717 E Main Avenue,,Bismarck,ND,58501,United States, (701) 255-2155,,,,,
Hofeller Hiatt & Clark,,237 N Main St,,Lima,OH,45801,United States, (419) 228-5621,,,,,
Holley's Shop for Men,,4444 1st Ave NW,,Cedar Rapids,IA,52402,United States, (319) 393-2310,,,,,
Holmes Clothing,,2342 Washington Blvd,,Ogden,UT,84401,United States, (801) 781-4040,,,,,
Macy's,,Springfield (VA),,Springfield,VA,22150,United States, (703) 719-6100,,,,,
Macy's,,Fashion Ctr At Pentagon City,,Arlington,VA,22202,United States, (703) 418-4488,,,,,
Ticknor's,,The Streets of Southpoint Mall,,Durham,NC,27713,United States, (984) 219-6022,,,,,
Alexander's Men's Clothing,,148 E Carolina Ave,,Hartsville,SC,29550,United States, (843) 383-9791,,,,,
Ballards of Blue Ridge,,135 Roberts Way,,Blue Ridge,GA,30513,United States, (251) 455-6210,,,,,
Macy's,,Short Pump,,Richmond,VA,23233,United States, (804) 364-8209,,,,,
Macy's,,Lynnhaven,,VA Beach,VA,23452,United States, (757) 306-0666,,,,,
Macy's,,Huntington,,Barboursville,WV,25504,United States, (304) 733-0244,,,,,
Country Casuals,,1266 Brevard Road,,Asheville,NC,28806,United States, (828) 667-0085,,,,,
Culwell & Son,,6319 Hillcrest Ave,,Dallas,TX,75205,United States, (214) 522-7000,,,,,
Dan's of Murray,,1205A Chestnut St,,Murray,KY,42071,United States, (270) 753-0100,,,,,
Macy's,,Northpoint (GA),,Alpharetta,GA,30022,United States, (770) 410-2600,,,,,
Macy's,,Town Center At Cobb,,Kennesaw,GA,30144,United States, (770) 423-2600,,,,,
Macy's,,Lenox Square,,Atlanta,GA,30326,United States, (404) 231-2800,,,,,
Macy's,,Cumberland,,Atlanta,GA,30339,United States, (770) 434-2611,,,,,
Macy's,,Perimeter,,Atlanta,GA,30346,United States, (770) 392-4601,,,,,
Macy's,,Mall Of Georgia,,Buford,GA,30519,United States, (678) 546-4300,,,,,
Macy's,,Orlando Millenia (FL),,Orlando,FL,32839,United States, (407) 264-2300,,,,,
F Rees Co,,198 N Main,,Mt. Airy,NC,27030,United States, (336) 786-6121,,,,,
Macy's,,Dadeland,,Miami,FL,33143,United States, (305) 662-3400,,,,,
Macy's,,Miami International,,Miami,FL,33172,United States, (305) 594-6300,,,,,
Macy's,,The Falls,,Miami,FL,33176,United States, (305) 278-3300,,,,,
Macy's,,Aventura,,N. Miami,FL,33180,United States, (305) 682-3300,,,,,
Macy's,,Galleria (Ft. Lauderdale),,Ft. Lauderdale,FL,33304,United States, (954) 537-2300,,,,,
Macy's,,The Gardens (FL),,Palm Beach Gardens,FL,33410,United States, (561) 775-2300,,,,,
Macy's,,Boca Raton Town Center,,Boca Raton,FL,33431,United States, (561) 620-4500,,,,,
Macy's,,West Shore Plaza,,Tampa,FL,33609,United States, (813) 286-7525,,,,,
Macy's,,Fort Myers Edison,,Ft. Myers,FL,33901,United States, (941) 278-9300,,,,,
Macy's,,Brookwood Village,,Birmingham,AL,35209,United States, (205) 868-2600,,,,,
Macy's,,Cool Springs Galleria,,Franklin,TN,37067,United States, (615) 771-2100,,,,,
Macy's,,Green Hills (TN),,Nashville,TN,37215,United States, (615) 383-3300,,,,,
Macy's,,Oak Court (TN),,Memphis,TN,38117,United States, (901) 766-4199,,,,,
Macy's,,Wolfchase Galleria,,Bartlett,TN,38133,United States, (901) 937-2600,,,,,
Macy's,,Old Hickory,,Jackson,TN,38305,United States, (731) 668-6291,,,,,
Macy's,,Oxmoor Center,,Louisville,KY,40222,United States, (502) 423-3000,,,,,
Macy's,,Fayette (KY),,Lexington,KY,40503,United States, (859) 271-7200,,,,,
Macy's,,Mall Of America,,Bloomington,MN,55425,United States, (612) 888-3333,,,,,
Macy's,,Southdale Center,,Edina,MN,55435,United States, (952) 924-6600,,,,,
Macy's,,Apache,,Rochester,MN,55902,United States, (507) 280-5400,,,,,
Macy's,,Empire,,Sioux Falls,SD,57106,United States, (605) 361-4500,,,,,
Macy's,,Hawthorn Center,,Vernon Hills,IL,60061,United States, (847) 918-2700,,,,,
Macy's,,Old Orchard,,Skokie,IL,60077,United States, (847) 329-2700,,,,,
Macy's,,Woodfield,,Schaumburg,IL,60173,United States, (847) 706-6000,,,,,
Macy's,,Orland Square,,Orland Park,IL,60462,United States, (708) 873-4100,,,,,
Macy's,,Oakbrook Center,,Oak Brook,IL,60523,United States, (630) 684-2400,,,,,
Macy's,,Fox Valley (IL),,Aurora,IL,60540,United States, (630) 978-5400,,,,,
Macy's,,Naperville Clearance Center,,Naperville,IL,60540,United States, (630) 717-3960,,,,,
Macy's,,State Street,,Chicago,IL,60602,United States, (312) 781-1000,,,,,
Macy's,,Water Tower Place,,Chicago,IL,60611,United States, (312) 335-7700,,,,,
Macy's,,St. Clair Square,,Fairview Heights,IL,62208,United States, (618) 624-2000,,,,,
Macy's,,Chesterfield (MO),,Chesterfield,MO,63017,United States, (636) 532-3800,,,,,
Macy's,,St. Louis Galleria,,St. Louis,MO,63117,United States, (314) 726-1810,,,,,
Macy's,,West County,,St. Louis,MO,63131,United States, (314) 966-0017,,,,,
Macy's,,Mid Rivers,,St. Peters,MO,63376,United States, (636) 278-6660,,,,,
Macy's,,Trumbull,,Trumbull,CT,6611,United States, (203) 374-7200,,,,,
Macy's,,Town Center Plaza (KS),,Leawood,KS,66211,United States, (913) 563-3996,,,,,
Macy's,,Oak Park,,Overland Park,KS,66214,United States, (913) 888-4910,,,,,
Macy's,,Woodland Hills (Ok),,Tulsa,OK,74133,United States, (918) 250-2924,,,,,
Macy's,,Stonebriar Centre (TX),,Frisco,TX,75034,United States, (972) 731-3600,,,,,
Macy's,,Vista Ridge,,Lewisville,TX,75067,United States, (972) 315-5524,,,,,
Macy's,,Village at Fairview,,Fairview,TX,75069,United States, (972) 649-5800,,,,,
Macy's,,Northpark Center (TX),,Dallas,TX,75225,United States, (469) 232-3600,,,,,
Macy's,,Galleria (Dallas),,Dallas,TX,75240,United States, (214) 295-1300,,,,,
Macy's,,Parks At Arlington,,Arlington,TX,76017,United States, (817) 472-4500,,,,,
Macy's,,North East (TX),,Hurst,TX,76053,United States, (817) 317-5300,,,,,
Macy's,,Deerbrook,,Humble,TX,77002,United States, ,,,,,
Macy's,,Deerbrook,,Humble,TX,77002,United States, (281) 540-9250,,,,,
Macy's,,Memorial City,,Houston,TX,77024,United States, (713) 461-0400,,,,,
Macy's,,Galleria Houston At Hildago,,Houston,TX,77056,United States, (832) 667-4200,,,,,
Macy's,,Willowbrook (TX),,Houston,TX,77070,United States, (281) 955-4300,,,,,
Macy's,,Woodlands (TX),,The Woodlands,TX,77386,United States, (281) 362-6100,,,,,
Macy's,,First Colony,,Sugar Land,TX,77479,United States, (281) 243-7600,,,,,
Macy's,,Baybrook,,Friendswood,TX,77598,United States, (281) 226-5300,,,,,
Macy's,,North Star (TX),,San Antonio,TX,78216,United States, (210) 340-4200,,,,,
Macy's,,Shops At La Cantera,,San Antonio,TX,78256,United States, (210) 332-4800,,,,,
Macy's,,Barton Creek Square,,Austin,TX,78746,United States, (512) 329-2300,,,,,
Macy's,,The Domain (TX),,Austin,TX,78759,United States, (512) 490-3300,,,,,
Macy's,,Flat Iron Crossing,,Broomfield,CO,80021,United States, (303) 222-4000,,,,,
Macy's,,Flat Iron Crossing,,Broomfield,CO,80027,United States, (303) 222-4000,,,,,
Macy's,,Park Meadows,,Littleton,CO,80124,United States, (303) 566-6370,,,,,
Macy's,,Cherry Creek SC,,Denver,CO,80206,United States, (303) 390-2200,,,,,
Macy's,,Boise Town Square,,Boise,ID,83704,United States, (208) 373-6000,,,,,
Macy's,,University (UT),,Orem,UT,84097,United States, (801) 227-3000,,,,,
Macy's,,City Creek Center,,Salt lake City,UT,84111,United States, (801) 736-8950,,,,,
Macy's,,Cottonwood,,Salt Lake City,UT,84117,United States, (801) 278-0052,,,,,
Macy's,,Cottonwood  UT,,Salt Lake City,UT,84117,United States, (801) 278-0052,,,,,
Macy's,,Biltmore Fashion Park,,Phoenix,AZ,85016,United States, (602) 468-2100,,,,,
Macy's,,Arrowhead Towne Center,,Glendale,AZ,85308,United States, (623) 797-7900,,,,,
Macy's,,Quakerbridge,,Lawrenceville,NJ,8648,United States, (609) 897-1511,,,,,
Macy's,,Florence,,Florence,KY,41042,United States, (859) 525-5600,,,,,
Macy's,,Tuttle Crossing,,Dublin,OH,43017,United States, (614) 726-3690,,,,,
Macy's,,Easton Town Center,,Columbus,OH,43219,United States, (614) 342-2300,,,,,
Macy's,,Polaris Fashion Place (OH),,Columbus,OH,43240,United States, (614) 880-6300,,,,,
Macy's,,Franklin Park (OH),,Toledo,OH,43623,United States, (419) 479-2300,,,,,
Macy's,,Great Northern (OH),,N. Olmstead,OH,44070,United States, (440) 777-7000,,,,,
Macy's,,Southpark Center (OH),,Strongsville,OH,44136,United States, (440) 846-7000,,,,,
Macy's,,Summit (OH),,Akron,OH,44333,United States, (330) 867-8888,,,,,
Macy's,,Fountain Place,,Cincinnati,OH,45202,United States, (513) 361-4200,,,,,
Macy's,,Kenwood Towne Centre,,Cincinnati,OH,45236,United States, (513) 745-5380,,,,,
Macy's,,Dayton,,Dayton,OH,45458,United States, (937) 439-2152,,,,,
Macy's,,Castleton Square,,Indianapolis,IN,46250,United States, (317) 579-4500,,,,,
Macy's,,Southlake (IN),,Merrillville,IN,46410,United States, (219) 769-9100,,,,,
Macy's,,University Park (IN),,Mishawaka,IN,46545,United States, (574) 277-2950,,,,,
Macy's,,Glenbrook Square,,Ft. Wayne,IN,46805,United States, (260) 484-1561,,,,,
Macy's,,Eastland Mall (IN),,Evansville,IN,47715,United States, (812) 473-9205,,,,,
Macy's,,Northland Clearance Center,,Southfield,MI,48075,United States, (248) 443-6000,,,,,
Macy's,,Somerset Collection,,Troy,MI,48084,United States, (248) 816-4000,,,,,
Macy's,,Southland,,Taylor,MI,48180,United States, (734) 374-5030,,,,,
Macy's,,Lakeside (MI),,Sterling Heights,MI,48313,United States, (586) 566-2800,,,,,
Macy's,,Twelve Oaks (MI),,Novi,MI,48377,United States, (248) 344-6848,,,,,
Macy's,,Genesee Valley Center,,Flint,MI,48507,United States, (810) 230-5700,,,,,
Macy's,,Fashion Square,,Saginew,MI,48604,United States, (989) 797-6300,,,,,
Macy's,,Rivertown Crossings,,Grandville,MI,49418,United States, (616) 257-4900,,,,,
Macy's,,Woodland,,Kentwood,MI,49512,United States, (616) 940-2100,,,,,
Macy's,,Mayfair,,Wauwatosa,WI,53226,United States, (414) 471-3700,,,,,
Macy's,,Hilldale (WI),,Madison,WI,53705,United States, (608) 232-2400,,,,,
Macy's,,Rosedale Center,,Roseville,MN,55113,United States, (651) 639-6600,,,,,
Macy's,,Ridgedale,,Minnetonka,MN,55305,United States, (952) 591-6600,,,,,
Macy's,,Burnsville Center,,Burnsville,MN,55306,United States, (952) 435-4812,,,,,
Macy's,,Minneapolis (Downtown),,Minneapolis,MN,55402,United States, (612) 375-2200,,,,,
Lord & Taylor,,Trumbull Shopping Park,,Trumball,CT,06611,United States, (203) 374-5700,,,,,
Lord & Taylor,,Danbury Fair Mall,,Danbury,CT,06810,United States, (203) 790-5115,,,,,
Lord & Taylor,,110 High Ridge Road,,Stamford,CT,06905,United States, (203) 327-6600,,,,,
Lord & Taylor,,Stamford,,Stamford,CT,06905,United States, (203) 327-6600,,,,,
Lord & Taylor,,Livingston Mall,,Livingston,NJ,07039,United States, (973) 994-0800,,,,,
Lord & Taylor,,Westfield,,Westfield,NJ,07090,United States, (908) 233-6600,,,,,
Lord & Taylor,,609 North Avenue,,Westfield,NJ,07090,United States, (908) 233-6600,,,,,
Lord & Taylor,,Woodbridge Center,,Woodbridge,NJ,07095,United States, (732) 750-3232,,,,,
Lord & Taylor,,Willowbrook Mall,,Wayne,NJ,07470,United States, (973) 890-5000,,,,,
Lord & Taylor,,504 Garden State Plaza,,Paramus,NJ,07652,United States, (201) 909-0400,,,,,
Lord & Taylor,,Garden State Plaza,,Paramus,NJ,07652,United States, (201) 909-0400,,,,,
Lord & Taylor,,Ridgewood,,Paramus,NJ,07652,United States, (201) 447-0400,,,,,
Lord & Taylor,,The Fashion Center,,Paramus,NJ,07652,United States, (201) 447-0400,,,,,
Lord & Taylor,,Monmouth Mall,,Eatontown,NJ,07724,United States, (732) 544-8300,,,,,
Lord & Taylor,,Freehold Raceway Mall,,Freehold,NJ,07728,United States, (732) 308-1400,,,,,
Lord & Taylor,,Rockaway Town Sq Mall,,Rockaway,NJ,07866,United States, (973) 328-9000,,,,,
Lord & Taylor,,Moorestown Mall,,Moorestown,NJ,08057,United States, (856) 608-7967,,,,,
Lord & Taylor,,Quakerbridge Mall,,Lawrenceville,NJ,08648,United States, (609) 799-9500,,,,,
Lord & Taylor,,Bridgewater Commons,,Bridgewater,NJ,08807,United States, (908) 707-9000,,,,,
Lord & Taylor,,424 Fifth Avenue,,New York,NY,10018,United States, (212) 391-3344,,,,,
Lord & Taylor,,NYC,,New York,NY,10018,United States, (212) 391-3344,,,,,
Lord & Taylor,,Westchester,,Scarsdale,NY,10583,United States, (914) 723-7700,,,,,
Lord & Taylor,,750 White Plains Road,,Scarsdale,NY,10583,United States, (914) 723-7700,,,,,
Lord & Taylor,,Palisades Center,,West Nyack,NY,10994,United States, (845) 353-6440,,,,,
Lord & Taylor,,1440 Northern Boulevard,,Manhasset,NY,11030,United States, (516) 627-3000,,,,,
Lord & Taylor,,Manhasset,,Manhasset,NY,11030,United States, (516) 627-3000,,,,,
Lord & Taylor,,1200 Franklin Avenue,,Garden City,NY,11530,United States, (516) 742-7000,,,,,
Lord & Taylor,,Garden City,,Garden City,NY,11530,United States, (516) 742-7000,,,,,
Lord & Taylor,,Bayshore,,Bay Shore,NY,11706,United States, (516) 665-2244,,,,,
Lord & Taylor,,South Shore Mall,,Bay Shore,NY,11706,United States, (516) 665-2244,,,,,
Lord & Taylor,,Walt Whitman Mall,,Huntington Station,NY,11746,United States, (516) 424-1600,,,,,
Lord & Taylor,,9629 Carousel Center,,Syracuse,NY,13204,United States, (315) 466-0600,,,,,
Lord & Taylor,,Carousel Center,,Syracuse,NY,13204,United States, (315) 466-0600,,,,,
Lord & Taylor,,Walden Galleria,,Cheektowaga,NY,14225,United States, (716) 684-5900,,,,,
Lord & Taylor,,8 Walden Galleria,,Cheektowaga,NY,14225,United States, (716) 684-5900,,,,,
Lord & Taylor,,Eastview Mall,,Victor,NY,14564,United States, (585) 425-8840,,,,,
Lord & Taylor,,Bala Cynwyd Shopping Center,,Bala Cynwyd,PA,19004,United States, (610) 664-7050,,,,,
Lord & Taylor,,King of Prussia Plaza,,King of Prussia,PA,19406,United States, (610) 992-0333,,,,,
Lord & Taylor,,Washington DC,,Washington,DC,20015,United States, (202) 362-9600,,,,,
Lord & Taylor,,5255 Western Avenue NW,,Washington,DC,20015,United States, (202) 362-9600,,,,,
Lord & Taylor,,21050 Dulles Town Center,,Dulles,VA,20166,United States, (703) 430-2800,,,,,
Lord & Taylor,,Louden,,Dulles,VA,20166,United States, (703) 430-2800,,,,,
Lord & Taylor,,Lake Forest Mall,,Gaithersburg,MD,20877,United States, (301) 947-0502,,,,,
Lord & Taylor,,White Flint Mall,,Kensington,MD,20895,United States, (301) 770-9000,,,,,
Lord & Taylor,,The Columbia Mall,,Columbia,MD,21044,United States, (410) 997-7518,,,,,
Lord & Taylor,,1600 Annapolis Mall Road,,Annapolis,MD,21401,United States, (410) 897-4865,,,,,
Lord & Taylor,,Annapolis Mall,,Annapolis,MD,21401,United States, (410) 897-4865,,,,,
Lord & Taylor,,11900-L Fair Oaks Mall,,Fairfax,VA,22033,United States, (703) 691-0100,,,,,
Lord & Taylor,,Fair Oaks Mall,,Fairfax,VA,22033,United States, (703) 691-0100,,,,,
Lord & Taylor,,7950 Tysons Corner Center,,Mclean,VA,22102,United States, (703) 506-1156,,,,,
Lord & Taylor,,Tysons Corner Center,,McLean,VA,22102,United States, (703) 506-1156,,,,,
Lord & Taylor,,Landmark Mall,,Alexandria,VA,22304,United States, (703) 642-5400,,,,,
Lord & Taylor,,Lakeside Mall,,Sterling Heights,MI,48313,United States, (586) 247-4500,,,,,
Lord & Taylor,,Twelve Oaks Mall,,Novi,MI,48377,United States, (248) 348-3400,,,,,
Lord & Taylor,,Northbrook Court,,Northbrook,IL,60062,United States, (847) 498-2500,,,,,
Lord & Taylor,,Old Orchard Shopping Center,,Skokie,IL,60077,United States, (847) 677-9000,,,,,
Lord & Taylor,,Woodfield Mall,,Schaumburg,IL,60173,United States, (847) 619-5000,,,,,
Lord & Taylor,,180 Oakbrook Center Mall,,Oakbrook,IL,60521,United States, (630) 574-8000,,,,,
Lord & Taylor,,Oakbrook Center Mall,,Oakbrook,IL,60521,United States, (630) 574-8000,,,,,
Louis Thomas,,150 Kentucky street,,Petaluma,CA,94952,United States, (707) 765-1715,,,,,
Lucky's Shoes,,2767 W. Market St.,,Akron,OH,44313,United States, (330) 836-9542,,,,,
Lucky's Shoes,,4840 Everhard Rd NW,,Canton,OH,44718,United States, (330) 494-7575,,,,,
Brown Shoe Fit,,806 Wacker Drive,,Dubuque,IA,52002,United States, (563) 845-7699,,,,,
M Dumas & Sons,,294 King St,,Charleston,SC,29401,United States, (843) 723-8603,,,,,
Macy's,,Solomon Pond,,Marlborough,MA,01503,United States, (508) 303-3800,,,,,
Macy's,,Natick Collection,,Natick,MA,01760,United States, (508) 653-3800,,,,,
Macy's,,Burlington (MA),,Burlington,MA,01803,United States, (781) 221-3706,,,,,
Macy's,,Northshore (MA),,Peabody,MA,01960,United States, (978) 531-3800,,,,,
Macy's,,Boston (Downtown),,Boston,MA,02111,United States, (617) 357-3063,,,,,
Macy's,,South Shore Plaza (MA),,Braintree,MA,02184,United States, (781) 848-3800,,,,,
Macy's,,Warwick (RI),,Warwick,RI,02886,United States, (401) 737-3800,,,,,
Macy's,,South Portland,,South Portland,ME,04106,United States, (207) 761-7305,,,,,
Macy's,,Westfarms Mall,,Farmington,CT,06032,United States, (860) 561-3030,,,,,
Macy's,,Shoppes At Buckland Hills,,Manchester,CT,06040,United States, (860) 644-6700,,,,,
Macy's,,CT Post,,Milford,CT,06460,United States, (203) 877-9393,,,,,
Macy's,,Danbury Fair,,Danbury,CT,06810,United States, (203) 731-3500,,,,,
Macy's,,Short Hills,,Short Hills,NJ,07078,United States, (973) 467-0800,,,,,
Macy's,,Newport Centre (NJ),,Jersey City,NJ,07310,United States, (201) 255-5200,,,,,
Macy's,,Willowbrook (NJ),,Wayne,NJ,07470,United States, (973) 785-9525,,,,,
Macy's,,Paramus Park,,Paramus,NJ,07652,United States, (201) 967-1400,,,,,
Macy's,,Garden State Plaza,,Paramus,NJ,07652,United States, (201) 291-3211,,,,,
Macy's,,Monmouth,,Eatontown,NJ,07724,United States, (732) 542-1212,,,,,
Macy's,,Freehold Raceway,,Freehold,NJ,07728,United States, (732) 683-1345,,,,,
Macy's,,Rockaway Townsquare,,Rockaway Township,NJ,07801,United States, (973) 442-2511,,,,,
Macy's,,Cherry Hill,,Cherry Hill,NJ,08002,United States, (856) 665-5500,,,,,
Macy's,,Hamilton,,Mays Landing,NJ,08330,United States, (609) 484-5207,,,,,
Macy's,,Quaker Bridge,,Lawrenceville,NJ,08648,United States, (609) 897-1511,,,,,
Macy's,,Bridgewater Commons,,Bridgewater,NJ,08807,United States, (908) 429-3211,,,,,
Macy's,,Menlo Park,,Menlo Park,NJ,08837,United States, (732) 549-4400,,,,,
Macy's,,Plaza Las Americas,,San Juan,PR,09180,United States, (787) 296-3970,,,,,
Macy's,,Herald Square,,New York,NY,10001,United States, (212) 695-4400,,,,,
Macy's,,Staten Island,,Staten Island,NY,10314,United States, (718) 761-3000,,,,,
Macy's,,Cross County Shopping Center,,Yonkers,NY,10704,United States, (914) 964-6680,,,,,
Macy's,,Palisades Center,,West Nyack,NY,10994,United States, (845) 358-7990,,,,,
Macy's,,Manhasset,,Manhasset,NY,11030,United States, (516) 869-8500,,,,,
Macy's,,Queens Center,,Elmhurst,NY,11373,United States, (718) 271-7200,,,,,
Macy's,,Roosevelt Field,,Garden City,NY,11530,United States, (516) 746-8200,,,,,
Macy's,,Green Acres (NY),,Valley Stream,NY,11581,United States, (516) 561-6100,,,,,
Scarpaletto,,1436 Larimer Street,,Denver,CO,80202,United States, (303) 321-5771,,,,,
Macy's,,Walt Whitman,,Huntington Station,NY,11746,United States, (631) 427-7200,,,,,
Macy's,,Smith Haven,,Lake Grove,NY,11755,United States, (631) 724-4900,,,,,
Macy's,,Colonie Center,,Albany,NY,12205,United States, (518) 459-1950,,,,,
Macy's,,Poughkeepsie Galleria,,Poughkeepsie,NY,12590,United States, (845) 297-2222,,,,,
Chiapetta's Shoe Store,,6821 39th Street,,Kenosha,WI,53142,United States, (262) 657-9142,,,,,
Macy's,,Walden Galleria,,Buffalo,NY,14225,United States, (716) 684-6267,,,,,
Corey's Fine Footwear,,515 Wabash Avenue,,Terre Haute,IN,47807,United States, (812) 232-2728,,,,,
Macy's,,Monroeville,,Monroeville,PA,15146,United States, (412) 858-3700,,,,,
Macy's,,The Mall At Robinson,,Pittsburgh,PA,15205,United States, (412) 787-9777,,,,,
Macy's,,Ross Park Mall,,Pittsburgh,PA,15237,United States, (412) 366-1400,,,,,
Macy's,,South Hills Village,,Pittsburgh,PA,15241,United States, (412) 854-6800,,,,,
Macy's,,Westmoreland,,Greensburg,PA,15601,United States, (724) 836-6000,,,,,
Macy's,,Lehigh Valley,,Whitehall,PA,18052,United States, (610) 264-8711,,,,,
Macy's,,Suburban Square,,Ardmore,PA,19003,United States, (610) 645-1399,,,,,
Macy's,,Oxford Valley,,Langhorne,PA,19047,United States, (215) 752-1340,,,,,
Macy's,,Willow Grove Park,,Willow Grove,PA,19090,United States, (215) 658-4700,,,,,
Macy's,,Center City,,Philadelphia,PA,19107,United States, (215) 241-9000,,,,,
Macy's,,Exton Square,,Exton,PA,19341,United States, (610) 363-2110,,,,,
Macy's,,King Of Prussia (The Court),,King of Prussia,PA,19406,United States, (610) 337-9350,,,,,
Macy's,,Montgomery (PA),,North Wales,PA,19454,United States, (215) 393-6211,,,,,
Macy's,,Christiana,,Newark,DE,19702,United States, (302) 452-3211,,,,,
Macy's,,Metro Center (Downtown DC),,Washington D.C.,DC,20037,United States, (202) 628-6661,,,,,
Macy's,,Dulles Town Center,,Dulles,VA,20166,United States, (703) 421-4814,,,,,
Macy's,,Montgomery (MD),,Bethesda,MD,20817,United States, (301) 469-6800,,,,,
Jason Louis Clothing,,784 Willard Drive,,Green Bay,WI,54384,United States, (920) 488-9555,,,,,
Macy's,,Mall In Columbia (MD),,Columbia,MD,21044,United States, (410) 997-3000,,,,,
Mainstream Fashions,,206 West Superior Street,,Duluth,MN,55802,United States, (218) 723-7500,,,,,
Macy's,,Annapolis,,Annapolis,MD,21401,United States, (410) 266-0800,,,,,
Macy's,,Fair Oaks,,Fairfax,VA,22033,United States, (703) 591-3900,,,,,
Macy's,,Tysons Corner,,McLean,VA,22102,United States, (703) 893-4900,,,,,
Macy's,,Tysons Galleria,,McLean,VA,22102,United States, (703) 556-0000,,,,,
Rudolph's Shoes,,4510 Southern Hills Dr,,Sioux City,IA,51106,United States, (712) 276-2727,,,,,
Rudolph's Shoes,,3405 S Louise Ave,,Sioux Falls,SD,57106,United States, (608) 723-4700,,,,,
S&S Menswear,,1910 Wells Rd. Ste D01B,,Orange Park,FL,32073,United States, (904) 644-7192,,,,,
Sam Shoe Service,,28678 Telegraph Road,,Southfield,MI,48034,United States, (248) 538-1555,,,,,
Robert Frost Shoes,,305 East Lake Street,,Petoskey,MI,49770,United States, (231) 439-2777,,,,,
Savon Shoes,,3901 13th Avenue,,Brooklyn,NY,11218,United States, (718) 853-5755,,,,,
Saxon Shoes,,4500 Spotsylvania Towne Center,,Fredericksburgh,VA,22407,United States, (540) 736-8600,,,,,
Saxon Shoes,,2750 Short Pump Town Center,,Richmond,VA,23233,United States, (804) 285-3473,,,,,
Robert Frost Shoes,,217 East Front Street,,Traverse City,MI,49684,United States, (231) 929-7463,,,,,
Schuler Shoes,,1175 East Wayzata Boulevard,,Wayzata,MN,55391,United States, (952) 345-0021,,,,,
Schwartz  Shoes,,4908 16th avenue,,Brooklyn,NY,11204,United States, (718) 851-8500,,,,,
entreDonovan,,"222 Delaware Avenue, #105",,Wilmington,DE,19801,United States, (302) 543-8054,,,,,
Scott Joseph Menswear,,506 Main St,,La Crosse,WI,54601,United States, (608) 782-1314,,,,,
Sears Shoes,,2778 Lafayette Rd,,Ft Oglethorpe,GA,30742,United States, (706) 866-5935,,,,,
Shoe Buckle,,106 Mercer Street,,Hightstown,NJ,08520,United States, (609) 448-7895,,,,,
Shoe Center,,710 Hwy 17 South Ste l,,N Myrtle Beach,SC,29582,United States, (843) 272-6515,,,,,
Schuler Shoes,,5201 Excelsior Boulevard,,St Louis Park,MN,55416,United States, (952) 926-3446,,,,,
Shoe Emporium,,2005 Kalia Rd,,Honolulu,HI,96815,United States, (808) 949-4321,,,,,
Shoe Station,,1400 Village Square,,Tallahassee,FL,32312,United States, (850) 668-6733,,,,,
Shoe Station,,8041 Eastchase Parkway,,Montgomery,AL,36117,United States, (334) 277-4747,,,,,
Shoe Station,,741-C Hillcrest Road,,Mobile,AL,36695,United States, (251) 341-0585,,,,,
Shoe Station,,220 Ridgeway,,Flowood,MS,39232,United States, (601) 992-8872,,,,,
Shoe Stop,,4650 Frederica Street,,Owensboro,KY,42301,United States, (270) 686-7508,,,,,
Shoemania,,853 Broadway,,New York,NY,10003,United States, (212) 253-8744,,,,,
Shoemania,,654 Broadway,,New York,NY,10012,United States, (212) 673-0904,,,,,
Shoemania,,331 Madison avenue,,New York,NY,10017,United States, (212) 557-6627,,,,,
Shoemart,,3 Berkeley street,,Norwalk,CT,06850,United States, (203) 853-6543,,,,,
Shoe's N More,,1700 Madison Avenue,,Lakewood,NJ,08701,United States, (732) 363-2319,,,,,
Siebert's,,532 Main St.,,Jasper,IN,47546,United States, (812) 482-5514,,,,,
Sikes & Kohn,,US 231 South,,Pine Level,AL,36065,United States, (334) 584-7402,,,,,
Silcott's,,11 Washington St.,,Valparaiso,IN,46383,United States, (219) 462-7178,,,,,
Simon's Shoes,,100 N Main Street,,Henderson,KY,42420,United States, (270) 826-2341,,,,,
SRI Shoe Warehouse,,300318 Business Center Drive,,Reisterstown,MD,21136,United States, (410) 526-2972,,,,,
SRI Shoe Warehouse,,6031 Oak Forest Rd.,,Raleigh,NC,27616,United States, (919) 872-2800,,,,,
Stallones,,600 E. Northern Lights Blvd.,,Anchorage,AK,99503,United States, (907) 258-1213,,,,,
Stapleton Shoes,,one Rector street,,New York,NY,10006,United States, (212) 425-5260,,,,,
Stout's Shoes,,13155 N.Old Merdian Rd,,Carmel,IN,46032,United States, (317) 848-5432,,,,,
Stout's Shoes,,1430 N.Green St.,,Brownsburg,IN,46112,United States, (317) 852-8300,,,,,
Stout's Shoes,,318 Massachusetts,,Indianapolis,IN,46204,United States, (317) 632-7818,,,,,
Suburban Casuals,,832 Scranton Carbondale Hwy,,Scranton,PA,18508,United States, (570) 343-9886,,,,,
Syndey,,100 W Michigan,,Kalamazoo,MI,49007,United States, (269) 226-3174,,,,,
Tankersley,,306 Main,,Clovis,NM,88101,United States, (575) 762-0362,,,,,
Ted's Clothiers,,3476 S Broadway,,Englewood,CO,80013,United States, (303) 781-1382,,,,,
The Barn (The Republic Co),,25 Kempton place,,West Newton,MA,02465,United States, (617) 332-6300,,,,,
Schuler Shoes,,342 3rd Street,,Waite Park,MN,56387,United States, (320) 253-8777,,,,,
Macy's,,Las Vegas,,Las Vegas,NV,89109,United States, (702) 731-5111,,,,,
Macy's,,Las Vegas Fashion Show,,Las Vegas,NV,89109,United States, (702) 731-5111,,,,,
Macy's,,Reno Meadowwood,,Reno,NV,89502,United States, (775) 826-8333,,,,,
Macy's,,Beverly Center,,Los Angeles,CA,90048,United States, (310) 854-6655,,,,,
Schuler Shoes,,10150 Hudson Road,,Woodbury,MN,55129,United States, (651) 731-8700,,,,,
Macy's,,Manhattan Beach,,Manhattan Beach,CA,90266,United States, (310) 546-5525,,,,,
Sklut's Menswear,,307 Liberty Street,,Morris,IL,46383,United States, (219) 462-7178,,,,,
Van Hoeck's Footwear,,1144 East Paris Avenue S.E.,,Grand Rapids,MI,49546,United States, (616) 456-6923,,,,,
Macy's,,Del Amo Fashion Center,,Torrance,CA,90503,United States, (310) 370-8511,,,,,
Macy's,,Pasadena - Paseo Colorado,,Pasadena,CA,91101,United States, (626) 796-0411,,,,,
Macy's,,Pasadena - Plaza on Lake Ave,,Pasadena,CA,91101,United States, (626) 792-0211,,,,,
Mike's Better Shoes,,1362 Naamans Creek Rd,,Garnet Valley,PA,19060,United States, (610) 485-7280,,,,,
Macy's,,Valencia Town Center,,Santa Clarita,CA,91355,United States, (661) 287-5911,,,,,
Macy's,,Thousand Oaks,,Thousand Oaks,CA,91360,United States, (805) 496-4444,,,,,
Macy's,,Victoria Gardens CA,,Rancho Cucamonga,CA,91739,United States, (909) 646-3333,,,,,
Macy's,,West Covina,,West Covina,CA,91790,United States, (626) 962-5400,,,,,
Macy's,,Fashion Valley CA,,San Diego,CA,92108,United States, (619) 299-9811,,,,,
Macy's,,University Town Center CA,,San Diego,CA,92122,United States, (858) 453-2060,,,,,
Macy's,,Palm Desert,,Palm Desert,CA,92260,United States, (760) 346-9300,,,,,
Macy's,,Temecula Promenade,,Temecula,CA,92591,United States, (909) 541-3333,,,,,
Macy's,,South Coast Plaza,,Costa Mesa,CA,92626,United States, (714) 556-0611,,,,,
Macy's,,Newport Fashion Island,,Newport Beach,CA,92660,United States, (949) 640-8333,,,,,
Macy's,,Mission Viejo,,Mission Viejo,CA,92691,United States, (949) 364-3111,,,,,
Macy's,,Brea CA,,Brea,CA,92821,United States, (714) 990-1400,,,,,
Macy's,,Simi Valley Town Center,,Simi Valley,CA,93065,United States, (805) 581-3333,,,,,
Macy's,,Bakersfield Valley Plaza,,Bakersfield,CA,93309,United States, (661) 832-5550,,,,,
Macy's,,Fresno Fashion Fair,,Fresno,CA,93726,United States, (559) 228-3333,,,,,
Macy's,,Monterey Del Monte Center,,Monterey,CA,93940,United States, (831) 372-3333,,,,,
Macy's,,San Francisco Union Square,,San Francisco,CA,94102,United States, (415) 397-3333,,,,,
Macy's,,Stonestown Galleria,,San Francisco,CA,94132,United States, (415) 753-4000,,,,,
Macy's,,Stanford CA,,Palo Alto,CA,94304,United States, (650) 326-3333,,,,,
Macy's,,Concord Sunvalley,,Concord,CA,94520,United States, (925) 689-3333,,,,,
Macy's,,Pleasanton Stoneridge,,Pleasanton,CA,94588,United States, (925) 463-3333,,,,,
Macy's,,Walnut Creek Broadway Plaza,,Walnut Creek,CA,94596,United States, (925) 279-3333,,,,,
Macy's,,Corte Madera Village,,Corte Madera,CA,94925,United States, (415) 927-3333,,,,,
Macy's,,Valley Fair CA,,Santa Clara,CA,95050,United States, (408) 248-3333,,,,,
Macy's,,Santa Rosa Plaza,,Santa Rosa,CA,95401,United States, (707) 523-3333,,,,,
Macy's,,Sunrise CA,,Citrus Heights,CA,95610,United States, (916) 962-3333,,,,,
Macy's,,Roseville Galleria,,Roseville,CA,95678,United States, (916) 771-3333,,,,,
Macy's,,Sacramento Downtown Plaza,,Sacramento,CA,95814,United States, (916) 444-3333,,,,,
Macy's,,Arden Fair,,Sacramento,CA,95815,United States, (916) 925-2845,,,,,
Macy's,,Ala Moana - Oahu,,Honolulu,HI,96814,United States, (808) 941-2345,,,,,
Macy's,,Portland (Downtown),,Portland,OR,97204,United States, (503) 223-0512,,,,,
Macy's,,Downtown Portland,,Portland,OR,97204,United States, (503) 223-0512,,,,,
Macy's,,Washington Square OR,,Tigard,OR,97223,United States, (503) 620-3311,,,,,
Macy's,,Clackamas Town Center,,Portland,OR,97266,United States, (503) 653-8811,,,,,
Macy's,,Medford Rogue Valley,,Medford,OR,97501,United States, (541) 772-3700,,,,,
Macy's,,Medford Rogue Valley (OR),,Medford,OR,97504,United States, (541) 772-3700,,,,,
Macy's,,Bend River,,Bend,OR,97701,United States, (541) 317-6000,,,,,
Macy's,,Bend River OR,,Bend,OR,97701,United States, (541) 317-6000,,,,,
Macy's,,Bellevue Square,,Bellevue,WA,98004,United States, (425) 688-6000,,,,,
Macy's,,Alderwood,,Lynnwood,WA,98037,United States, (425) 712-6000,,,,,
Macy's,,Seattle (Downtown),,Seattle,WA,98101,United States, (206) 506-0000,,,,,
Macy's,,Downtown Seattle,,Seattle,WA,98181,United States, (206) 506-6000,,,,,
Macy's,,Tacoma,,Tacoma,WA,98409,United States, (253) 471-6800,,,,,
Macy's,,Olympia Capital WA,,Olympia,WA,98502,United States, (360) 534-7000,,,,,
Macy's,,Northtown (WA),,Spokane,WA,99207,United States, (509) 482-6800,,,,,
Macy's,,Spokane Downtown,,Spokane,WA,99207,United States, (509) 626-6000,,,,,
Gary's Shoes,,126 N. Main Street,,Richfield,UT,84701,United States, (435) 896-4931,,,,,
Browns Shoe Fit,,1403 N. Belt Highway,,St. Joseph,MO,64506,United States, (816) 671-9931,,,,,
Mieras Family Shoes,,841 W Leonard,,Grand Rapids,MI,49504,United States, (616) 458-7600,,,,,
Metro Shoe Warehouse,,2210 W. Memorial Road,,Oklahoma City,OK,73134,United States, (405) 302-5150,,,,,
Michael's Menswear,,617 St. Joseph St.,,Rapid City,SD,57701,United States, (605) 342-0127,,,,,
Leibowitz Fine Menswear,,3831 Frederick Avenue,,St. Joseph,MO,64503,United States, (816) 671-9931,,,,,
Michelson's Shoes,,1780 Massachusetts Avenue,,Lexington,MA,02420,United States, (781) 862-1034,,,,,
Macy's,,Mall at University Town Center,,Sarasota,FL,34243,United States, (914) 232-7300,,,,,
Miller Bros.,,105 Main street,,Keene,NH,03431,United States, (603) 352-3039,,,,,
Miller Bros.,,109 Main street,,Brattleboro,VT,05302,United States, (802) 254-2287,,,,,
Von Maur,,Iowa River Landing,,Coralville,IA,52241,United States, (319) 351-7220,,,,,
Von Maur,,The Meadows,,Lake St. Louis,MO,63367,United States, (636) 561-7040,,,,,
Von Maur,,North Point Mall,,Alpharetta,GA,30022,United States, (678) 339-9988,,,,,
Miltons,,250 Granite street,,Braintree,MA,02184,United States, (781) 848-1880,,,,,
Miltons,,176 Boylston Street,,Chestnut Hill,MA,02467,United States, (617) 969-4547,,,,,
Models Shoe,,1934 Shattuck Ave,,Berkeley,CA,94704,United States, (510) 843-7218,,,,,
Monsey Shoes,,40 Main Street,,Monsey,NY,10952,United States, (845) 352-0033,,,,,
Moorman Clothiers,,1 S. Federal,,Mason City,IA,50401,United States, (641) 423-5222,,,,,
Von Maur,,Perimeter Mall,,Atlanta,GA,30346,United States, (770) 522-0468,,,,,
Morgan's Shoes & Bootery,,1876 South New Hope Road,,Gastonia,NC,28054,United States, (704) 866-8033,,,,,
Mosser Shoes,,2415 Sagamore Parkway,,LaFayette,IN,47905,United States, (765) 447-0766,,,,,
Mosser's Shoes,,2460 W Wabash Ave,,Springfield,IL,61704,United States, (218) 787-7022,,,,,
Mosser's Shoes,,6 Convenience Center,,Champaign,IL,61820,United States, (217) 351-5022,,,,,
Mr. Mac,,62 Norht 600 West # F-1,,American Fork,UT,84003,United States, (801) 492-9400,,,,,
Mr. Mac,,1706 South 500 West,,Bountiful,UT,84010,United States, (801) 292-1236,,,,,
Mr. Mac,,1986 N. Hillfield Rd,,Layton,UT,84041,United States, (801) 614-1366,,,,,
Mr. Mac,,7208 S. Union Park Ave,,Midvale,UT,84047,United States, (801) 566-9537,,,,,
Mr. Mac,,575 E University PKWay,,Orem,UT,84097,United States, (801) 224-4520,,,,,
Mr. Mac,,160 E South Temple,,Salt Lake City,UT,84111,United States, (801) 355-6443,,,,,
Mr. Mac,,5690 South Redwood Rd,,Salt Lake City,UT,84123,United States, (801) 966-6400,,,,,
Mr. Mac,,1309 N. Main St,,Logan,UT,84341,United States, (435) 753-0020,,,,,
Mr. Mac,,1194 Newgate Mall,,Ogden,UT,84405,United States, (801) 627-3152,,,,,
Perfect Touch,,923 Highway 80 East,,Demopolis,AL,36732,United States, ,,,,,
Norman's Shoes,,4132 Dowlen Rd,,Beaumont,TX,77706,United States, (409) 898-1340,,,,,
Northern Sole Shoes,,304 E Lake St,,Petosky,MI,49770,United States, (231) 753-2005,,,,,
O'Connors Pendleton Shop,,116 Newman St,,E Tawas,MI,48730,United States, (989) 362-3437,,,,,
Palace Clothier,,312 Main St,,Cedar Falls,IA,50613,United States, (319) 268-7537,,,,,
Palace Clothier,,2110 Kimball Ave,,Waterloo,IA,50702,United States, (319) 234-7537,,,,,
Park's Tailoring,,894 S Adams Rd,,Birmingham,MI,48009,United States, (248) 644-2460,,,,,
Parvizi Clothing,,3387 S. Linden Road,,Flint,MI,48507,United States, (810) 230-1788,,,,,
Novus Inc.,,#655 Cubitas Street,,Guaynabo,PR,00969,United States, ,,,,,
Penner's,,311 W. Commerce,,San Antonio,TX,78205,United States, (210) 226-2487,,,,,
Von Maur,,Eastview Mall,,Victor,NY,14564,United States, (585) 223-3417,,,,,
Piperline Leather,,131 Kaiulani AVE,,Honolulu,HI,96815,United States, (808) 923-3988,,,,,
Pratt Shoes,,1183 3rd St.,,South Naples,FL,34102,United States, (239) 261-7127,,,,,
Prestige Shoes,,1583 Coney Island Avenue,,Brooklyn,NY,11230,United States, (718) 338-3881,,,,,
Progressive Shoes,,11 W. Marion,,Pontotoc,MS,38863,United States, (662) 489-3342,,,,,
Von Maur,,Riverchase Mall,,Hoover,AL,35244,United States, (205) 982-4337,,,,,
Von Maur,,Quail Springs Mall,,Oklahoma City,OK,73134,United States, (405) 751-1424,,,,,
Campbell & Haines,,350 3rd Street,,Wausau,WI,54403,United States, (715) 842-9520,,,,,
R B Shap,,1517 Lititz Pike,,Lancaster,PA,17601,United States, (717) 397-3159,,,,,
R&G Shoes,,3902 13 AVE S. # 4232,,Fargo,ND,58103,United States, (701) 282-0660,,,,,
Randy's Eli of Troy,,5067 Rochester,,Troy,MI,48098,United States, (248) 689-2010,,,,,
Red Shoe Barn,,35 Broadway,,Dover,NH,03820,United States, (603) 742-1893,,,,,
Cleo's,,247 Rehoboth Avenue,,Rehoboth Beach,DE,19971,United States, (302) 227-6840,,,,,
Reed's,,131 W Main St,,Tupelo,MS,38804,United States, (662) 842-6453,,,,,
John Reyer's Shoe Store,,40 S. Water St.,,Sharon,PA,16146,United States, (724) 981-2200,,,,,
Darien Sport Shop,,1127 Post Road,,Darien,CT,06820,United States, (203) 655-2575,,,,,
Entre Donovan,,222 Delaware Avenue,,Wilmington,DE,19801,United States, (302) 543-8054,,,,,
Roderer Shoes,,300 E Stroop Rd,,Kettering,OH,45429,United States, (937) 981-1801,,,,,
Hollywood Suits,,6420 Hollywood Blvd.,,Los Angeles,CA,90028,United States, (323) 462-8228,,,,,
Hollywood Suits,,23030 Hawthorne Blvd,,Torrance,CA,90505,United States, (310) 303-3135,,,,,
Hollywood Suits,,15011 Beach Blvd,,Westminster,CA,92683,United States, (714) 908-5252,,,,,
Boca,,1034 Montana,,Santa Monica,CA,09403,United States, (310) 459-7259,,,,,
Gina's Boutique,,425 Healdsburg Ave.,,Healdsburg,CA,95448,United States, (707) 431-1645,,,,,
Footloose/Richard's,,1500 Washington Road,,Pittsburg,PA,15228,United States, (412) 531-9663,,,,,
Piazza Della Sole,,620 Valley Road,,Montclair,NJ,07043,United States, (973) 783-9243,,,,,
Marie Lyall Shoes,,614 Main St.,,Napa,CA,94559,United States, (707) 255-5858,,,,,
Shooze,,634 Market Street,,Kingston,PA,18704,United States, (570) 287-2777,,,,,
Hedi's,,Ocean Avenue,,Carmel,CA,93923,United States, (831) 624-5580,,,,,
Stella Mae,,96 Church Street,,Burlington,VT,05401,United States, (802) 864-2800,,,,,
Brown Shoe Fit,,373 Main St.,,Longmont,CO,80501,United States, (303) 776-2920,,,,,
Brown Shoe Fit,,123 N. Tejon St.,,Colorado Springs,CO,80903,United States, (719) 635-1575,,,,,
Step in 4 More,,1823 W. Allen Street,,Allentown,PA,18104,United States, (610) 432-1183,,,,,
Cynthias Fine Ladies Shoes,,2001-D Hoffmeyer,,Florence,SC,29501,United States, (843) 665-7669,,,,,
Mara's Shoes,,824 Grant Avenue,,Novato,CA,94945,United States, (415) 892-3732,,,,,
Seaside Soles,,1400 S. Coast Hwy,,Laguna Beach,CA,92651,United States, (949) 397-4905,,,,,
Shoe Fetish,,7542 Soquel Drive,,Aptos,CA,95003,United States, (831) 688-6500,,,,,
Walin & Wolff,,30 Post Rd.,,Westport,CT,06880,United States, (203) 557-4876,,,,,
Walin & Wolff,,36 Elm St.,,New Cannan,CT,06840,United States, (203) 966-4281,,,,,
Reasons,,20 N. lemmon Ave.,,Sarasota,FL,34236,United States, (941) 388-1602,,,,,
Giorgio's Men Warehouse,,704 Market St,,Chattanooga,TN,37402,United States, (423) 756-5080,,,,,
Houser's Shoes,,421 Bush River Rd,,Columbia,SC,29210,United States, ,,,,,
Lebo's,,2321 Crown Centre Dr,,Charlotte,NC,28227,United States, (704) 641-4243,,,,,
Shoe Visions,,67 Amelia Village Circle,,Fernandina Beach,FL,32034,United States, (904) 277-0909,,,,,
Jim's Slack Shack,,1507 East Walnut,,Dalton,GA,30721,United States, (706) 226-6378,,,,,
K&D Shoes,,2240 Dogwood Dr,,Conyers,GA,30013,United States, (770) 483-9037,,,,,
On Time Fashions,,26 W Broughton St,,Savannah,GA,31401,United States, (912) 233-2320,,,,,
Shos At Surrey,,487 Highland Avenue,,Augusta,GA,30909,United States, (706) 504-3532,,,,,
Brass Horn,,108 E Prairie St,,Decatur,IL,62523,United States, (217) 422-9112,,,,,
Nelson's Clothing,,104 N Courthouse Square,,Macomb,IL,61455,United States, (309) 833-2493,,,,,
Englin's Fine Footwear,,1215 S Reed St,,Kokomo,IN,46903,United States, (765) 457-7944,,,,,
Alamo Shoes,,5321 N. Clark Street,,Chicago,IL,60640,United States, (773) 334-6100,,,,,
Binns,,435 W. Duke of Gloucester,,Williamsburg,VA,23185,United States, (757) 229-3391,,,,,
Kiskadee,,2205 Mt. Vernon Ave,,Alexandria,VA,22301,United States, (703) 549-0813,,,,,
G Miller,,501 S. Capitol Way,,Olympia,WA,98501,United States, (360) 786-6634,,,,,
Waugh's,,110 E. Heron ST,,Aberdeen,WA,98520,United States, (360) 533-3880,,,,,
Harry Mayer Clothiers,,3129-B Hwy 39 North,,Meridian,MS,39302,United States, (601) 693-1135,,,,,
Perlis Mens Store,,6070 Magazine St,,New Orleans,LA,70118,United States, (504) 895-8661,,,,,
Halberstadt's,,Rushmore Mall,,Rapid City,,,United States, (605) 341-4446,,,,,
Picardy's,,11035 N. Port Washington,,Mequon,WI,19807,United States, (262) 241-5578,,,,,
Michael Duru Clothiers,,801 Route 35 Broad Street,,Shrewsbury,NJ,07702,United States, (732) 741-1999,,,,,
Classic Tuxedo,,171 Neff Avenue,,Harrisonburg,VA,22801,United States, (540) 433-9966,,,,,
Heart & Sole,,750 W. Shaw Avenue,,Fresno,CA,93704,United States, (559) 222-0001,,,,,
Jacks Shoes,,950 S. Westlake Blvd.,,Westlake Village,CA,91361,United States, (805) 373-9328,,,,,
Pedestrian Shops,,1425 Pearl Street,,Boulder,CO,80302,United States, (303) 449-5260,,,,,
Englin's Fine Footwear,,8701 Keystone Crossing,,Indianapolis,IN,46240,United States, (317) 574-0777,,,,,
Knight's Chamber Menswear,,111 S Broadway,,Rochester,MN,55904,United States, (507) 285 0517,,,,,
Lucky's Shoes,,3866 Townfair Way,,Easton,OH,43219,United States, ,,,,,
Miroballi's Shoes,,143600 South LaGrange Road,,Orland Park,IL,60462,United States, (708) 349 7277,,,,,
Brown Shoe Fit,,2732 S E Delaware Ave,,Ankeny,IA,50021,United States, (515) 207-1128,,,,,
Couture For Men,,1106 Main St.,,Hays,KS,67601,United States, (785) 621-4905,,,,,
Shoe Station,,9620 Airline Highway,,Baton Rouge,LA,70815,United States, (225) 927-9680,,,,,
L'Auberge Hotel & Casino,,777 Ave. L'Auberge,,Lake Charles,LA,70601,United States, (337) 395-7777,,,,,
Joe's Shoe Store,,1814 N. Causeway Blvd.,,Mandeville,LA,70471,United States, (985) 626-5633,,,,,
Johnny's Men's Shop,,605 W. 3rd St.,,Thibodeaux,LA,70301,United States, (985) 446-1144,,,,,
Mooney's,,2825 Washington Rd Ste G2,,Augusta,GA,30909,United States, (706) 722-8773,,,,,
Partner's LTD,,1907 Kaliste Saloom Road,,Lafayette,LA,70508,United States, (337) 984-9933,,,,,
Barefeet,,1014 Taylor Ave.,,Towson,MD,21286,United States, (410) 296-3675,,,,,
Barefeet,,10560 Campus Way South,,Largo,MD,20774,United States, (410) 499-9666,,,,,
Barefeet,,4001 Branch Avenue,,Marlo Heights,MD,20848,United States, (410) 423-7195,,,,,
Couio,,128 Newbury Street,,Boston,MA,02109,United States, (617) 859-0636,,,,,
Monelle,,1 Main St.,,Nantucket,MA,02554,United States, ,,,,,
Nell,,20 Main Ste.,,Edgartown,MA,02539,United States, ,,,,,
Craft Shoes,,6149 Jericho Turnpike,,Commack,NY,11725,United States, (631) 499-5773,,,,,
Davidsons,,4235 Electric Road,,Roanoke,Virginia,24018,United States, (540) 774-1644,,,,,
Rice's Shoes,,62 W Michigan Ave,,Battle Creek,MI,49017,United States, (269) 963-9273,,,,,
Sundance,,6915 Orchard Lake Road,,West Bloomfield,MI,48322,United States, (248) 737-9059,,,,,
Graif Clothing,,900 N. Riverfront Road,,Mankato,MN,56001,United States, (507) 345-3000,,,,,
Huttons,,15 Bailey Avenue,,Ridgefield,CT,06877,United States, (203) 438-6989,,,,,
Michael's Shoes,,262 Great Road,,Acton,MA,01720,United States, (978) 263-8772,,,,,
Randy's Menswear,,640 Broadway,,Alexandria,MN,56308,United States, (320) 762-2475,,,,,
Red Square Clothiers,,1000 Highland Colony Pkwy # 9004,,Ridgeland,MS,39157,United States, (601) 853-8960,,,,,
Reed's of Columbus,,2013 Hwy 45 N,,Columbus,MS,39705,United States, (662) 327-2684,,,,,
Lumiere Place Hotel & casino,,999 N. 2nd St.,,St. Louis,MO,63102,United States, (314) 881-7459,,,,,
Browns Shoe Fit,,1608 Broadway,,Scottsbluff,NE,69361,United States, (308) 632-6665,,,,,
The Post & Nickel,,144 N. 14th St.,,Lincoln,NE,68508,United States, (402) 476-3432,,,,,
Limdley Clothing store,,707 N. 132nd. St.,,Omaha,NE,68154,United States, (402) 491-4000,,,,,
Aurora Apparel,,390 Hackensack avenue,,Hackensack,NJ,07601,United States, (201) 646-4590,,,,,
Victor's,,55 East Ridgewood avenue,,Ridgewood,NJ,07450,United States, (201) 670-5730,,,,,
Goler Fine Imported Shoes,,125 E. Palace Ave.,,Santa Fe,NM,87501,United States, (505) 982-8630,,,,,
Steppin Out,,120 K Bent Street,,Taos,NM,87571,United States, (575) 758-4487,,,,,
Odessa Shoes,,1245 Worcester Road,,Natick,MA,01760,United States, (508) 651-9002,,,,,
Buckle's,,501 Avenue P,,Brooklyn,NY,11223,United States, (718) 336-3177,,,,,
Heels & Hobos,,12 E. Market St,,Corning,NY,14830,United States, (607) 738-2389,,,,,
Shoe Parlor,,851 Seventh Avenue,,New York,NY,10019,United States, (212) 582-0039,,,,,
Walin & Wolff,,62 Purchase St.,,Rye,NY,10580,United States, (914) 305-6601,,,,,
Bear Mountain Outfitters,,302 Main St.,,Highlands,NC,28741,United States, (828) 526-8213,,,,,
Shoegasm,,144 Fifth Avenue,,New York,NY,10010,United States, (646) 559-0125,,,,,
Martha Annes on the Hill,,256 W. 4th St.,,Highlands,NC,28741,United States, (828) 526-4473,,,,,
Vail Boot & Shoe,,175 Main St # C -108,,Edwards,CO,81632,United States, (970) 926-0751,,,,,
Lucky's Shoes,,600 Southpark Center,,Strongsville,OH,44136,United States, (440) 572-5111,,,,,
Mar-Lou Shoes,,5471 Mayfield Rd,,Lyndhurst,OH,44124,United States, (440) 449-7463,,,,,
Wade's Clothing,,3546 Maple Ave,,Zanesville,OH,43701,United States, (740) 452-9394,,,,,
Kositchek's,,113 North Washington Square,,Lansing,MI,48933,United States, (517) 482-1171,,,,,
Steinbeck's Mens Shop,,604 E Arlington Blvd,,Greenville,NC,27858,United States, (252) 355-5926,,,,,
Ventresca,,145 West State Street,,Doylestown,PA,18901,United States, (215) 348-3139,,,,,
Footloose/JR inc,,736 Bellefonte St,,Pittsburg,PA,15232,United States, (412) 687-3663,,,,,
The Mens Shop,,49 N Congress St,,York,SC,29745,United States, (803) 684-4121,,,,,
Phillips Shoes,,S Windermere Shopping Center,,Charleston,SC,29407,United States, (843) 763-1000,,,,,
Shoes on King,,335 King Street,,Charleston,SC,29401,United States, (843) 718-2190,,,,,
Ferrell's,,417 Broadway St,,Idaho Falls,ID,83402,United States, (208) 522-8293,,,,,
Yacoubians,,629 Broad Street,,Chattanooga,TN,37402,United States, (423) 265-0187,,,,,
Sole in the City,,5508 Kingston Pike,,Knoxville,TN,37919,United States, (865) 249-7329,,,,,
Karavel Shoes,,5525 Burnet Rd.,,Austin,TX,78756,United States, (512) 459-7603,,,,,
Harley's,,520 University Avenue Drive East,,College Station,TX,77840,United States, (979) 693-0995,,,,,
E.G. Geller,,4723 Westheimer,,Houston,TX,77027,United States, (713) 993-0488,,,,,
Casa Authentique,,201 Walnut St.,,Abilene,TX,79601,United States, (325) 673-1190,,,,,
Shoe Closet,,2906 Garnett Avenue,,Wichita Falls,TX,76308,United States, (940) 322-6300,,,,,
Stanley Eisenman Fine Shoes,,6333 Camp Bowie Blvd.,,Ft. Worth,TX,76116,United States, (817) 735-9229,,,,,
The Clothier,,130 W. 4th. St.,,Williamsport,PA,17701,United States, (570) 322-5707,,,,,
The Gentry Shop,,5515 Utica Ridge Rd,,Davenport,IA,52807,United States, (563) 324-6689,,,,,
The Man's Shop,,2019 S.10th St.,,McAllen,TX,78501,United States, (956) 686-1777,,,,,
The Man's Shop Shoes,,2221 S. 10th Street,,McAllen,TX,78501,United States, (956) 686-2701,,,,,
The Model,,Broadmoor Mall,,Hobbs,NM,88240,United States, (575) 393-0044,,,,,
The Pinpoint Resource,,1900 NW Expressway,,Oklahoma City,OK,73118,United States, (405) 767-9700,,,,,
The Pinpoint Resource,,5201 S. Sheridan Rd.,,Tulsa,OK,74145,United States, (918) 622-5027,,,,,
The Shoe Bank,,603 N. Perkins Rd.,,Stillwater,OK,74075,United States, (405) 377-5908,,,,,
The Shoe Box,,Hwy 14 & Mills,,Black Earth,WI,53515,United States, (608) 231-4445,,,,,
The Shoe Gallery,,3630 Peachtree Parkway,,Suwanee,GA,30024,United States, (770) 476-9476,,,,,
The Shoe Gallery,,606 Holcomb Bridge Road,,Roswell,GA,30076,United States, (770) 642-0051,,,,,
The Shoe Gallery,,820 Wilson Drive,,Ridgeland,MS,39157,United States, (601) 956-9414,,,,,
Ticknor's,,4325 Glenwood Avenue,,Raleigh,NC,27612,United States, (919) 786-9850,,,,,
Ticknor's,,1500 Polaris Prk.,,Columbus,OH,43240,United States, (614) 888-8668,,,,,
Ticknor's,,5001 Monroe St.,,Toledo,OH,43623,United States, (419) 472-7588,,,,,
Ticknor's,,Beachwood Place,,Beachwood,OH,44122,United States, (216) 514-7848,,,,,
Ticknor's,,125 Great Noth. Mall,,North Olmstead,OH,44122,United States, (440) 779-6251,,,,,
Ticknor's,,316 South Park,,Strongsville,OH,44136,United States, (440) 846-3914,,,,,
Ticknor's,,3265 W.Market,,Akron,OH,44333,United States, (330) 864-7848,,,,,
Tops for Shoes,,27 North Lexington Avenue,,Asheville,NC,28801,United States, (828) 254-6721,,,,,
Treadz,,812 Grand Ave,,Glenwood Springs,CO,81601,United States, (970) 928-0620,,,,,
Treat's Squire Shops,,308 N Michigan St.,,Plymouth,IN,46563,United States, (574) 936-3669,,,,,
Urban Soles,,33 Durkee St.,,Plattsburgh,NY,12901,United States, (518) 324-7656,,,,,
V.& A. Bootery,,6292 S.Westnedge,,Portage,MI,49002,United States, (269) 345-0107,,,,,
Van Dyke & Bacon,,10015 York Road,,Cockeysville,MD,21030,United States, (410) 666-0162,,,,,
Van Dyke & Bacon,,9150 Baltimore National Pike,,Ellicott City,MD,21042,United States, (410) 750-2737,,,,,
Van Dyke & Bacon,,5919 York Road,,Baltimore,MD,21212,United States, (410) 433-1100,,,,,
Van Hoecks Shoes,,95 Monroe,,Grand Rapids,MI,49503,United States, (616) 454-2282,,,,,
Von Maur,,Oxmoor Center,,Louisville,KY,40222,United States, (502) 425-7100,,,,,
Von Maur,,Polaris Fashion Place,,Columbus,OH,43240,United States, (614) 781-7855,,,,,
Von Maur,,The Greene Towne Center,,Beavercreek,OH,45440,United States, ,,,,,
Von Maur,,Greenwood Park Mall,,Greenwood,IN,46142,United States, (317) 885-9936,,,,,
Von Maur,,Castleton Square Mall,,Indianapolis,IN,46250,United States, (317) 594-1870,,,,,
Von Maur,,Jefferson Pointe,,Fort Wayne,IN,46804,United States, (260) 432-3244,,,,,
Von Maur,,Briarwood Mall,,Ann Arbor,MI,48108,United States, (734) 622-0233,,,,,
Von Maur,,Laurel Park Place,,Livonia,MI,48152,United States, (734) 432-6949,,,,,
Von Maur,,300 Valley West Mall,,West Des Moines,IA,50266,United States, (515) 223-1311,,,,,
Von Maur,,College Square Mall,,Cedar Falls,IA,50613,United States, (319) 277-7490,,,,,
Von Maur,,Sycamore Mall,,Iowa City,IA,52240,United States, (319) 351-7220,,,,,
Von Maur,,Lindale Mall,,Cedar Rapids,IA,52402,United States, (319) 395-9770,,,,,
Von Maur,,NorthPark Mall,,Davenport,IA,52806,United States, (563) 386-0880,,,,,
Von Maur,,Eden Prairie Center,,Eden Prairie,MN,55344,United States, (952) 829-0200,,,,,
Von Maur,,The Glen Town Center,,Glenview,IL,60026,United States, (847) 724-4199,,,,,
Von Maur,,Yorktown Center,,Lombard,IL,60148,United States, (630) 953-8181,,,,,
Von Maur,,Charlestowne Mall,,St. Charles,IL,60174,United States, (630) 377-9987,,,,,
Von Maur,,SouthPark Mall,,Moline,IL,61265,United States, (309) 797-0575,,,,,
Von Maur,,College Hills Mall,,Normal,IL,61761,United States, (309) 454-2048,,,,,
Von Maur,,Hickory Point Mall,,Forsyth,IL,62535,United States, (217) 877-2499,,,,,
Von Maur,,Corbin Park,,Overland Park,KS,66223,United States, ,,,,,
Von Maur,,Towne East Square,,Wichita,KS,67207,United States, (316) 685-6100,,,,,
Von Maur,,Westroads Mall,,Omaha,NE,68114,United States, (402) 390-0381,,,,,
Von Maur,,SouthPointe Pavilions,,Lincoln,NE,68516,United States, (402) 420-9100,,,,,
Wadsworth Menswear,,204 Centre St,,Fernandina Beach,FL,32034,United States, (904) 277-1162,,,,,
Williams Bros,,10360 Road 375,,Philadelphia,MS,39350,United States, (601) 656-2651,,,,,
Woldruff's Footwear,,129 S Main St,,Goshen,IN,46526,United States, (574) 534-5088,,,,,
Yarid'S,,204 W. Washington Street,,Lewisburg,WV,24901,United States, (304) 647-5000,,,,,
Jane Loves Shoes,,27267 Perdido Beach Blvd,,Orange Beach,AL,36561,United States, (251) 980-5263,,,,,
B. Barnett,,8201 Cantrell Road,,Little Rock,AR,72227,United States, (501) 223-2514,,,,,
Maggie B,,2670 Via De La Valle,,Del Mar,CA,92014,United States, (858) 755-7525,,,,,
Bob Jones Shoes,,1914 Grand Avenue,,Kansas City,MO,64108,United States, (816) 474-4212,,,,,
Erik's Clothing,,125 Market Street,,Sandusky,OH,44870,United States, (419) 502-3002,,,,,
Englunds Apparel For Men,,115 W. King Street,,Malvern,PA,19355,United States, (610) 644-9315,,,,,
Kimberly's,,103 W. Piccadilly Street,,Winchester,VA,22601,United States, ,,,,,
Sampter's,,517 N. Main Street,,Fremont,NE,68025,United States, (402) 727-1531,,,,,
Abrahams,,115 Front Street,,Indianola,MS,38751,United States, (662) 887-2026,,,,,
Buckle's,,4617 18th Avenue,,Brooklyn,NY,11204,United States, (718) 336-3177,,,,,
Circles,,1475 Western Avenue,,Albany,NY,12203,United States, (518) 482-2554,,,,,
CK Collection,,326 Fairhope Avenue,,Fairhope,AL,36532,United States, (251) 990-9001,,,,,
Jildor,,42A Middle Neck Road,,Great Neck,NY,11021,United States, (516) 487-6464,,,,,
Jildor,,7945 Jericho Turnpike,,Woodbury,NY,11797,United States, (516) 367-3838,,,,,
Mainly Shoes,,248 West Garden Street,,Pensacola,FL,32501,United States, (850) 438-7114,,,,,
Picardy Shoe Parlour,,18900 W. Bluemound Road,,Brookfield,WI,53045,United States, (262) 784-3434,,,,,
Sweet Soles,,211 West Main,,Sweetwater,TN,37874,United States, (706) 614-8420,,,,,
The Gallery Shoe Boutique,,4310 Old Shell Road,,Mobile,AL,36608,United States, (251) 344-4257,,,,,
Infinity Shoes,,59 Route 59,,Monsey,NY,10952,United States, ,,,,,
Mastro Shoes,,20 Minebrook Road,,Bernardsville,NJ,07924,United States, (908) 766-4311,,,,,
Jacks Shoe Service,,388 Market Street,,San Francisco,CA,94111,United States, (415) 989-9434,,,,,
Fergen's,,307 6th Street,,Brookings,SD,57006,United States, (605) 692-2622,,,,,
Bell & Sward,,1020 Oak Street,,Conway,AR,72032,United States, (501) 413-4007,,,,,
Brown's Shoe Fit,,4105 2nd. Avenue,,Kearney,NE,68847,United States, (308) 234-3660,,,,,
Browns Shoe Fit,,506 S.E. Washington Blvd.,,Bartlesville,OK,74005,United States, (918) 333-5889,,,,,
Brown's Shoe Fit,,1406 South Main,,Maryville,MO,64468,United States, (660) 582-4641,,,,,
Brown's Shoe Fit,,2553 Texas Avenue South,,College Station,TX,77840,United States, (979) 693-8424,,,,,
McLavy Mens Clothiers,,7665 Jefferson Highway,,Baton Rouge,LA,70809,United States, (225) 927-8820,,,,,
Michael's Clothier's,,4817 N. Sheperd,,Houston,TX,77018,United States, (713) 691-6520,,,,,
Seliga Shoes,,2530 S. Brentwood Blvd.,,St. Louis,MO,63144,United States, (314) 961-0110,,,,,
Macy's,,Concord,,Wilmington,DE,19803,United States, (302) 478-1860,,,,,
Macy's,,Cielo Vista Mall,,El Paso,TX,79925,United States, (915) 225-6200,,,,,
Macy's,,Summit Fair,,Lee's Summit,MO,64086,United States, (816) 600-3500,,,,,
Macy's,,Lycoming,,Muncy,PA,17756,United States, (570) 546-6998,,,,,
Macy's,,Nittany Mall,,State College,PA,16801,United States, (814) 235-5200,,,,,
Macy's,,Naples Coastland Center,,Naples,FL,34102,United States, (239) 434-1300,,,,,
Sock Shop and Shoe,,1515 Pacific Ave,,Santa Cruz,CA,95060,United States, (831) 429-6101,,,,,
The Shoe Box,,155 Vintage Fair Mall,,Modesto,CA,95356,United States, 209-577-1484,,,,,
Harve's Shoe Box,,98 State Road,,North Darthmouth,MA,02747,United States, (508) 997-7215,,,,,
Mens Store by Joseph,,28 W Broughton Street,,Savannah,GA,31401,United States, (912) 232-5503,,,,,
Halberstadts,,102 Broadway North,,Fargo,ND,58102,United States, (701) 364-9225,,,,,
Wein's,,66 West Park,,Butte,MT,59701,United States, (800) 982-1208,,,,,
Dillard's,,Liberty Place,,Liberty Township,OH,45069,United States, ,,,,,
Brown Shoe Fit,,315 Main St.,,Fort Morgan,CO,80701,United States, (970) 867-6462,,,,,
Aurora Boutique,,One Garden State Plaza,,Paramus,NJ,07652,United States, (201) 368-0570,,,,,
Eric's Shoe Nuf,,2590 Hempstead Turnpike,,East Meadow,NY,11554,United States, (516) 731-9696,,,,,
Orthostep,,105 River Avenue,,Lakewood,NJ,08701,United States, (732) 905-4049,,,,,
Rachelle M. Rustic House of Fashion,,132 NW 12th Avenue,,Portland,OR,97209,United States, (971) 319-6934,,,,,
Abraham's Mens,,136 N Sharpe Avenue,,Cleveland,MS,38732,United States, (662) 843-4541,,,,,
Jack's Western Wear,,114 Schwaiger Road,,Cullman,AL,35055,United States, (256) 739-3612,,,,,
Johnson's ,,814 Tennessee Avenue,,Etowah,TN,37331,United States, (423) 263-7888,,,,,
R Price & Co,,Lake Forgetful 6156 Hwy 98 W,,Hattiesburg,MS,39402,United States, (601) 264-9454,,,,,
Red Square Clothiers,,Highland Village,,Jackson,MS,39211,United States, (601) 853-8960,,,,,
The Toggery,,120 W Washington,,Paris,TN,38242,United States, (731) 642-5013,,,,,
JH & SONS,,216 S. Phillips Avenue,,Sioux Falls,SD,57104,United States, (605) 332-5088,,,,,
Austin's Shoes,,1792 US-72 E,,Corinth,MS,38834,United States, (662) 286-0195,,,,,
Michael's Toggery,,211 N. Main Street,,Mitchell,SD,57301,United States, (605) 996-3782,,,,,
Bay Street Shoes,,3940 W. 50th Street,,Edina,MN,55424,United States, (952) 922-5574,,,,,
Footstock,,35 Central Avenue,,Wellesley,MA,02482,United States, (781) 431-1655,,,,,
Heart & Sole,,77 Kensico Drive,,Mount Kisco,NY,10549,United States, ,,,,,
If The Shoe Fits,,47 Main Street,,Orleans,MA,02653,United States, (508) 240-0970,,,,,
Little's,,5850 Forbes Avenue,,Pittsburgh,PA,15217,United States, (412) 521-3530,,,,,
Shoe Horn,,317 Walnut Street,,Newton,MA,02460,United States, (617) 527-4600,,,,,
Shoe Inn,,48 N. Dean Street,,Englewood,NJ,55391,United States, (201) 568-2900,,,,,
Shoe Krazy,,241 Second Street Pike,,Southampton,PA,02460,United States, (215) 364-8848,,,,,
Shoe Market,,94 Derby Street,,Hingham,MA,18966,United States, (781) 749-5411,,,,,
Shoe Salon,,22 Market Street,,Mashpee,MA,02043,United States, (508) 428-2410,,,,,
Touch Of Class,,312 Main Street,,La Crosse,WI,54601,United States, (608) 784-2640,,,,,
Ballin's,,721 Dante Street,,New Orleans,LA,70118,United States, (504) 866-4367,,,,,
Julian Gold,,4109 McCullough,,San Antonio,TX,78212,United States, (210) 824-2493,,,,,
Madeleine Page,,1010 Parkside Commons,,Greensboro,GA,30642,United States, (706) 454-2200,,,,,
Peacock's Plume,,218 S. Front Street,,New Bern,NC,28560,United States, (252) 636-1771,,,,,
Pinner's Fine Shoes,,3411 West University Ave.,,Gainesville,FL,32607,United States, (352) 376-7001,,,,,
Sonia Says,,798 Prince Avenue,,Athens,GA,30606,United States, (706) 353-8955,,,,,
Wish,,16850 Jog Road,,Delray Beach,FL,33446,United States, (561) 638-7700,,,,,
Baudines,,32415 N. Scottsdale Rd.,,Scottsdale,AZ,85266,United States, (480) 367-0960,,,,,
Bloomingbirds,,461 E. Hopkins Avenue,,Aspen,CO,81611,United States, (970) 925-2241,,,,,
Two Sole Sisters,,1703 Pearl Street,,Boulder,CO,80302,United States, (303) 442-0404,,,,,
Entes,,35 Danbury Rd,,Wilton,CT,06897,United States, (203) 762-8052,,,,,
Farley's of Newburyport,,47 State Street,,Newburyport,MA,01950,United States, (978) 462-5401,,,,,
Formal's By Antonio,,2244 Silas Deane Highway,,Rocky Hill,CT,06067,United States, (860) 257-8626,,,,,
The Shoe Gallery,,6000 Medlock Bridge Pkwy,,Johns Creek,GA,30022,United States, (770) 476-9476,,,,,
Dillard's,,Fremaux Town Center,,Slidell,LA,70458,United States, ,,,,,
Male Image,,3550 S Washington Avenue,,Titusville,FL,32780,United States, (321) 269-4589,,,,,
Broadway Shoe Company,,West Acres Mall,,Fargo,ND,58103,United States, (701) 282-2222,,,,,
Carella's Shoes,,2431 Nottingham Way,,Mercerville,NJ,08619,United States, (609) 587-5823,,,,,
Health Village,,142-56 Roosevelt Avenue,,Flushing,NY,11354,United States, (718) 661-3366,,,,,
New Editions Fashions,,955 Flatbush Avenue,,Brooklyn,NY,11226,United States, (718) 469-6104,,,,,
Ramanis Clothiers,,470 Lewis Avenue,,Meriden,CT,06451,United States, (203) 639-8394,,,,,
Brown Shoe Fit,,210 S 25th Street,,Fort Dodge,IA,50112,United States, (641) 236-4804,,,,,
Jack & Bill's,,1628 Broadway,,Mattoon,IL,61938,United States, (217) 235-3171,,,,,
Dillard's,,University,,Sarasota,FL,34243,United States, ,,,,,
Miller's Shoe Palor,,103 West Michigan Avenue,,Jackson,MI,49201,United States, (517) 783-1258,,,,,
Kian Matthew,,12 North Dean Street,,Englewood,NJ,07631,United States, (201) 503-9191,,,,,
Eraldis,,475 First Street West,,Sonoma,CA,95476,United States, 707-996-2013,,,,,
Pedestrian Shops,,2525 Arapahoe Avenue,,Boulder,CO,80302,United States, (303) 449-7440,,,,,
Vail Boot & Shoe,,100 E. Meadow Dr.,,Vail,CO,81657,United States, (970) 476-0484,,,,,
Siegel's Clothing,,330 S Park Ave,,Winter Park,FL,32789,United States, (407) 645-3100,,,,,
J&J Menswear,,207 South Gillette Ave,,Gillette,WY,82716,United States, (307) 257-6042,,,,,
Mills Bros.,,10 S. Wenatchee Ave,,Wenatchee,WA,98801,United States, (509) 662-2650,,,,,
American Shoe,,221 East High Street,,Jefferson City,MO,65101,United States, (573) 636-8313,,,,,
Borck Brothers Clothier's,,331 Southwind Place,,Manhattan,KS,66503,United States, (785) 537-8636,,,,,
Cambridge LTD,,5505 South Mingo Road,,Tulsa,OK,74146,United States, (918) 812-5281,,,,,
Hall's,,200 East 25th Street,,Kansas City,MO,64108,United States, ,,,,,
Hutson's Clothing Co.,,3663 Bee Cave Road,,Austin,TX,78746,United States, (512) 732-0188,,,,,
Plaza Shoes,,2694 S. Glenstone Avenue,,Springfield,MO,65804,United States, (417) 881-3310,,,,,
Sheperd's Menswear,,116 East Main,,Shawnee,OK,74801,United States, (405) 275-2280,,,,,
Smith's Shoes,,5101 Twin Towers Boulevard,,Odessa,TX,79762,United States, (432) 363-4271,,,,,
Stag Menswear,,521 Frisco Avenue,,Clinton,OK,73601,United States, (580) 323-7824,,,,,
The Hicks Company,,210 Park avenue #220,,Oklahoma City,OK,73102,United States, (405) 235-4800,,,,,
Todd's Clothiers,,7052 West 135th Street,,Overland Park,KS,66223,United States, (913) 681-8633,,,,,
Dublin Sir Shop,,2034 Veterans Blvd,,Dublin,GA,31021,United States, (478) 272-7600,,,,,
Wilkinson's,,1212 Harrison Street,,Conway,AR,72032,United States, (501) 329-6819,,,,,
MH Frank,,380 College Ave,,Clemson,SC,29631,United States, (864) 654-4484,,,,,
Wooden Nickel,,401 South Washington,,Stillwater,OK,74074,United States, (405) 377-8808,,,,,
Dillard's,,Summerlin,,Las Vegas,NV,89135,United States, ,,,,,
Browns Shoe Fit,,401 North Dewey,,North Platte,NE,69101,United States, (308) 532-2094,,,,,
Felts Shoes,,107 N Muskogee Avenue,,Tahlequah,OK,74464,United States, ,,,,,
Metro Shoe Warehouse,,8802-B East 71st Street,,Tulsa,OK,74133,United States, (405) 445-6922,,,,,
Park City Clothing Co.,,558 Main Street,,Park City,UT,84060,United States, (435) 649-0555,,,,,
The Shirt Box,,32500 Northwestern Hwy,,Farmington Hills,MI,48334,United States, ,,,,,
Goodie 2 Shoes,,81 S. King St.,,Jackson Hole,WY,83001,United States, (307) 733-0233,,,,,
Brown Shoe Fit,,1935 N Turner Street,,Hobbs,NM,88240,United States, ,,,,,
J. Valintin,,723 S. Los Angeles St.,,Los Angeles,CA,90014,United States, (213) 624-7614,,,,,
Formal Education,,334 Broadway Street,,Chico,CA,91711,United States, (530) 809-1839,,,,,
Shoe Station,,30500 State Hwy 181,,Spanish Fort,AL,36527,United States, (251) 621-5652,,,,,
Macy's,,500 Los Cerritos Center,,Cerritos,CA,90701,United States, (562) 860-0411,,,,,
One Custom Clothier,,2423 Monroe Avenue,,Rochester,NY,14618,United States, (585) 203-0834,,,,,
Louis Thomas,,212 Corte Madera Town Center,,Corte Madera,CA,94925,United States, ,,,,,
Preach Supply,,"4331 E. Baseline Road, #105",,Gilbert,AZ,85234,United States, ,,,,,
Shoenique,,1006 Division Street,,Sulphur,OK,74820,United States, (580) 421-9500,,,,,
Statesboro Sir Shop II,,325 Northside Drive East,,GA,Statesboro,30458,United States, ,,,,,
Bergen Care Footwear,,1625 Lemoine Avenue #1,,Fort Lee,NJ,07024,United States, (201) 461-4646,,,,,
Lucco,,1121 Uptown Park Boulevard,,Houston,TX,77056,United States, (832) 495-8558,,,,,
Adrian's,,435 N. 1680 E #21,,St. George,UT,84790,United States, (435) 628-4223,,,,,
Backer's,,163 Boston Post Road,,Orange,CT,06477,United States, (203) 795-3399,,,,,
Red's Shoe Barn Inc.,,22 Plaistow Road,,Plaistow,NH,03865,United States, ,,,,,
Roger's Menswear,,618 West Bolling Avenue,,Monticello,AR,71655,United States, (870) 367-7277,,,,,
Cape Cod Shoe Market,,271 Main Street,,Dennis Port,MA,02639,United States, ,,,,,
Charney's Shop Inc,,3150 Erie Blvd,,Syracuse,NY,13214,United States, (315) 463-6011,,,,,
Schnee's,,35 E. Main Street,,Bozeman,MT,59715,United States, (406) 587-0981,,,,,
Ozzies,,407 Leadville Ave.,,Ketchum,ID,83440,United States, (208) 726-3604,,,,,
707 Fine Clothing,,310 East Broad Street,,Richmond,VA,23219,United States, (804) 243-0086,,,,,
Brown Shoe Fit,,425 Main Street,,Grand Junction,CO,81501,United States, (970) 242-7690,,,,,
The Valut,,361 Forest Ave,,Laguna Beach,CA,92651,United States, (949) 376-4000,,,,,
Xerxes,,319 Yale Ave.,,Claremont,CA,91711,United States, (909) 482-1111,,,,,
