store_name,store_number,address,address2,city,state,zip_code,country,phone_number,latitude,longitude,store_hours,other_fields,coming_soon
Logan's Roadhouse,448,9531 N OWASSO EXPWY,,OWASSO,OK,74055,,918-272-7017,36.2930,-95.8341,Sun - Thurs: 11:00am to 10:00pm;Fri - Sat: 11:00am to 11:00pm,,0
Logan's Roadhouse,443,209 N. RANGE LINE,,JOPLIN,MO,64801,,417-626-7181,37.0879,-94.4771,Sun - Thurs: 11:00am to 10:00pm;Fri - Sat: 11:00am to 11:00pm,,0
Logan's Roadhouse,430,9026 EAST 71ST STREET,,TULSA,OK,74133,,918-806-2828,36.0600,-95.8749,Sun - Thurs: 11:00am to 10:00pm;Fri - Sat: 11:00am to 11:00pm,,0
Logan's Roadhouse,495,7588 S. OLYMPIA AVE W.,,TULSA,OK,74132,,918-445-3700,36.0542,-96.0047,Sun - Thurs: 11:00am to 10:00pm;Fri - Sat: 11:00am to 11:00pm,,0
Logan's Roadhouse,467,353 S. ROCK ROAD,,WICHITA,KS,67207,,316-685-6000,37.6861,-97.2449,Sun - Thurs: 11:00am to 10:00pm;Fri - Sat: 11:00am to 11:00pm,,0
Logan's Roadhouse,532,530 N 47TH STREET,,ROGERS,AR,72756,,479-986-9100,36.3403,-94.1812,Sun - Thurs: 11:00am to 10:00pm;Fri - Sat: 11:00am to 11:00pm,,0
Logan's Roadhouse,460,2424 N. MAIZE RD,,WICHITA,KS,67205,,316-729-6900,37.7227,-97.4627,Sun - Thurs: 11:00am to 10:00pm;Fri - Sat: 11:00am to 11:00pm,,0
Logan's Roadhouse,412,3611N. SHILOH DR.,,FAYETTEVILLE,AR,72703,,479-251-7775,36.1161,-94.1508,Sun - Thurs: 11:00am to 10:00pm;Fri - Sat: 11:00am to 11:00pm,,0
Logan's Roadhouse,441,1110 BATTLEFIELD R.,,SPRINGFIELD,MO,65807,,417-882-0494,37.1596,-93.2773,Sun - Thurs: 11:00am to 10:00pm;Fri - Sat: 11:00am to 11:00pm,,0
Logan's Roadhouse,413,6201 ROGERS AVE,,FORT SMITH,AR,72903,,479-452-0303,35.3601,-94.3635,Sun - Thurs: 11:00am to 10:00pm;Fri - Sat: 11:00am to 11:00pm,,0
Logan's Roadhouse,462,7221 SE 29TH ST,,MIDWEST CITY,OK,73110,,405-736-9500,35.4354,-97.4040,Sun - Thurs: 11:00am to 10:00pm;Fri - Sat: 11:00am to 11:00pm,,0
Logan's Roadhouse,502,629 SHEDECK PARKWAY,,YUKON,OK,73098,,405-350-4100,35.4827,-97.7553,Sun - Thurs: 11:00am to 10:00pm;Fri - Sat: 11:00am to 11:00pm,,0
Logan's Roadhouse,480,1250 24TH AVE NW,,NORMAN,OK,73069,,405-801-3994,35.2180,-97.4852,Sun - Thurs: 11:00am to 10:00pm;Fri - Sat: 11:00am to 11:00pm,,0
Logan's Roadhouse,482,410 ELSINGER BLVD.,,CONWAY,AR,72032,,501-327-8670,35.0867,-92.4160,Sun - Thurs: 11:00am to 10:00pm;Fri - Sat: 11:00am to 11:00pm,,0
Logan's Roadhouse,408,3700 US HWY 75 NORTH,,SHERMAN,TX,75092,,903-892-8819,33.6797,-96.6072,Sun - Thurs: 11:00am to 10:00pm;Fri - Sat: 11:00am to 11:00pm,,0
Logan's Roadhouse,491,23115 I-30 SOUTH,,BRYANT,AR,72022,,501-653-0300,34.6184,-92.4972,Sun - Thurs: 11:00am to 10:00pm;Fri - Sat: 11:00am to 11:00pm,,0
Logan's Roadhouse,486,560 EAST I-30,,ROCKWALL,TX,75087,,972-722-3550,32.8973,-96.4717,Sun - Thurs: 11:00am to 10:00pm;Fri - Sat: 11:00am to 11:00pm,,0
Logan's Roadhouse,362,948 NORTH EAST LOOP 820,,HURST,TX,76053,,817-590-0261,32.8289,-97.2039,Sun - Thurs: 11:00am to 10:00pm;Fri - Sat: 11:00am to 11:00pm,,0
Logan's Roadhouse,490,5912 QUEBEC ST.,,FORT WORTH,TX,76135,,817-237-0405,32.8077,-97.4170,Sun - Thurs: 11:00am to 10:00pm;Fri - Sat: 11:00am to 11:00pm,,0
Logan's Roadhouse,516,700 NORTH I-35E,,LANCASTER,TX,75146,,972-274-3400,32.5964,-96.8215,Sun - Thurs: 11:00am to 10:00pm;Fri - Sat: 11:00am to 11:00pm,,0
Logan's Roadhouse,474,325 INTERSTATE 20 E,,WEATHERFORD,TX,76086,,817-594-5455,32.7311,-97.7888,Sun - Thurs: 11:00am to 10:00pm;Fri - Sat: 11:00am to 11:00pm,,0
Logan's Roadhouse,402,1125 NORTH BURLESON BLVD,,BURLESON,TX,76028,,817-447-3504,32.5527,-97.3200,Sun - Thurs: 11:00am to 10:00pm;Fri - Sat: 11:00am to 11:00pm,,0
Logan's Roadhouse,481,1150 W HIGHWAY 287 BYPASS,,WAXAHACHIE,TX,75165,,972-937-4511,32.4219,-96.8440,Sun - Thurs: 11:00am to 10:00pm;Fri - Sat: 11:00am to 11:00pm,,0
Logan's Roadhouse,521,2958 E. TEXAS ST,,BOSSIER CITY,LA,71111,,318-742-3221,32.5282,-93.7043,Sun - Thurs: 11:00am to 10:00pm;Fri - Sat: 11:00am to 11:00pm,,0
Logan's Roadhouse,386,3012 WILLIAM ST.,,CAPE GIRARDEAU,MO,63703,,573-651-4142,37.3009,-89.5703,Sun - Thurs: 11:00am to 10:00pm;Fri - Sat: 11:00am to 11:00pm,,0
Logan's Roadhouse,470,7519 YOUREE DR,,SHREVEPORT,LA,71105,,318-797-9855,32.4434,-93.7185,Sun - Thurs: 11:00am to 10:00pm;Fri - Sat: 11:00am to 11:00pm,,0
Logan's Roadhouse,428,6685 AIRWAYS BLVD,,SOUTHAVEN,MS,38671,,662-772-5015,34.9563,-89.9921,Sun - Thurs: 11:00am to 10:00pm;Fri - Sat: 11:00am to 11:00pm,,0
Logan's Roadhouse,498,5901 Poplar Avenue,,MEMPHIS,TN,38119,,901-684-2272,35.1024,-89.8636,Sun - Thurs: 11:00am to 10:00pm;Fri - Sat: 11:00am to 11:00pm,,0
Logan's Roadhouse,317,2710 N. GERMANTOWN PKWY,,MEMPHIS,TN,38133,,901-381-5254,35.1993,-89.7920,Sun - Thurs: 11:00am to 10:00pm;Fri - Sat: 11:00am to 11:00pm,,0
Logan's Roadhouse,416,7755 WINCHESTER RD,,MEMPHIS,TN,38125,,901-759-1430,35.0492,-89.8043,Sun - Thurs: 11:00am to 10:00pm;Fri - Sat: 11:00am to 11:00pm,,0
Logan's Roadhouse,506,931 N SERVICE E,,RUSTON,LA,71270,,318-251-8286,32.5416,-92.6273,Sun - Thurs: 11:00am to 10:00pm;Fri - Sat: 11:00am to 11:00pm,,0
Logan's Roadhouse,347,8310 I-40 WEST,,AMARILLO,TX,79106,,806-467-8015,35.1873,-101.9334,Sun - Thurs: 11:00am to 10:00pm;Fri - Sat: 11:00am to 11:00pm,,0
Logan's Roadhouse,537,1305 HALFWAY ROAD,,MARION,IL,62959,,618-993-0015,37.7429,-88.9648,Sun - Thurs: 11:00am to 10:00pm;Fri - Sat: 11:00am to 11:00pm,,0
Logan's Roadhouse,332,201 CONSTITUTION DR,,WEST MONROE,LA,71292,,318-361-9961,32.5054,-92.1588,Sun - Thurs: 11:00am to 10:00pm;Fri - Sat: 11:00am to 11:00pm,,0
Logan's Roadhouse,308,5137 HINKLEVILLE RD,,PADUCAH,KY,42001,,270-442-1939,37.0645,-88.7379,Sun - Thurs: 11:00am to 10:00pm;Fri - Sat: 11:00am to 11:00pm,,0
Logan's Roadhouse,305,604 CARRIAGE HOUSE DR,,JACKSON,TN,38305,,731-664-9902,35.6649,-88.8487,Sun - Thurs: 11:00am to 10:00pm;Fri - Sat: 11:00am to 11:00pm,,0
Logan's Roadhouse,418,2806 WEST LOOP 340,,WACO,TX,76711,,254-662-2036,31.4971,-97.1587,Sun - Thurs: 11:00am to 10:00pm;Fri - Sat: 11:00am to 11:00pm,,0
Logan's Roadhouse,446,3126 S. CLACK STREET,,ABILENE,TX,79606,,325-690-0999,32.4124,-99.7750,Sun - Thurs: 11:00am to 10:00pm;Fri - Sat: 11:00am to 11:00pm,,0
Logan's Roadhouse,464,4201 S MEDFORD DR,,LUFKIN,TX,75901,,936-632-0929,31.3123,-94.7216,Sun - Thurs: 11:00am to 10:00pm;Fri - Sat: 11:00am to 11:00pm,,0
Logan's Roadhouse,456,240 CONFERENCE CENTER DR,,EAST PEORIA,IL,61611,,309-698-3150,40.6812,-89.5918,Sun - Thurs: 11:00am to 10:00pm;Fri - Sat: 11:00am to 11:00pm,,0
Logan's Roadhouse,353,6251 SLIDE ROAD,,LUBBOCK,TX,79414,,806-780-8135,33.5376,-101.9223,Sun - Thurs: 11:00am to 10:00pm;Fri - Sat: 11:00am to 11:00pm,,0
Logan's Roadhouse,422,3100 E. CENTRAL TX EXPRESSWA,,KILLEEN,TX,76542,,254-699-5724,31.0843,-97.7075,Sun - Thurs: 11:00am to 10:00pm;Fri - Sat: 11:00am to 11:00pm,,0
Logan's Roadhouse,457,313 S. VETERANS PKWY,,NORMAL,IL,61761,,309-452-7100,40.5026,-88.9531,Sun - Thurs: 11:00am to 10:00pm;Fri - Sat: 11:00am to 11:00pm,,0
Logan's Roadhouse,387,3954 N. GLOSTER ST.,,TUPELO,MS,38804,,662-840-7552,34.3292,-88.7057,Sun - Thurs: 11:00am to 10:00pm;Fri - Sat: 11:00am to 11:00pm,,0
Logan's Roadhouse,327,2820 MACARTHUR DR,,ALEXANDRIA,LA,71301,,318-443-3550,31.2674,-92.4581,Sun - Thurs: 11:00am to 10:00pm;Fri - Sat: 11:00am to 11:00pm,,0
Logan's Roadhouse,381,5645 PEARL DR.,,EVANSVILLE,IN,47712,,812-421-0908,37.9754,-87.6390,Sun - Thurs: 11:00am to 10:00pm;Fri - Sat: 11:00am to 11:00pm,,0
Logan's Roadhouse,407,600 E. COUNTY LINE ROAD,,RIDGELAND,MS,39157,,601-957-2254,32.3998,-90.1436,Sun - Thurs: 11:00am to 10:00pm;Fri - Sat: 11:00am to 11:00pm,,0
Logan's Roadhouse,535,4320 FT. CAMPBELL BLVD,,HOPKINSVILLE,KY,42240,,270-886-4189,36.8240,-87.4731,Sun - Thurs: 11:00am to 10:00pm;Fri - Sat: 11:00am to 11:00pm,,0
Logan's Roadhouse,316,1 N. BURKHARDT,,EVANSVILLE,IN,47715,,812-471-8403,37.9768,-87.4741,Sun - Thurs: 11:00am to 10:00pm;Fri - Sat: 11:00am to 11:00pm,,0
Logan's Roadhouse,404,277 DOGWOOD BLVD,,FLOWOOD,MS,39232,,601-919-9845,32.3393,-90.0627,Sun - Thurs: 11:00am to 10:00pm;Fri - Sat: 11:00am to 11:00pm,,0
Logan's Roadhouse,508,431 RIVERWIND DR.,,PEARL,MS,39208,,601-939-5174,32.2663,-90.1426,Sun - Thurs: 11:00am to 10:00pm;Fri - Sat: 11:00am to 11:00pm,,0
Logan's Roadhouse,304,3072 WILMA RUDOLPH BLVD,,CLARKSVILLE,TN,37040,,931-645-8333,36.5968,-87.2862,Sun - Thurs: 11:00am to 10:00pm;Fri - Sat: 11:00am to 11:00pm,,0
Logan's Roadhouse,504,1345 WHITESTONE BLVD.,,CEDAR PARK,TX,78613,,512-259-8500,30.5269,-97.8130,Sun - Thurs: 11:00am to 10:00pm;Fri - Sat: 11:00am to 11:00pm,,0
Logan's Roadhouse,371,2702 B PARKER ROAD,,ROUND ROCK,TX,78681,,512-341-3860,30.4831,-97.6812,Sun - Thurs: 11:00am to 10:00pm;Fri - Sat: 11:00am to 11:00pm,,0
Logan's Roadhouse,492,130 CHANDLER DR.,,DICKSON,TN,37055,,615-441-6862,36.0198,-87.3380,Sun - Thurs: 11:00am to 10:00pm;Fri - Sat: 11:00am to 11:00pm,,0
Logan's Roadhouse,370,4384 SHERWOOD WAY,,SAN ANGELO,TX,76901,,325-224-0818,31.4368,-100.4974,Sun - Thurs: 11:00am to 10:00pm;Fri - Sat: 11:00am to 11:00pm,,0
Logan's Roadhouse,896,17176 Woodward Ave,,Muscle Shoals ,AL,35661,,256-381-8052,34.7534221,-87.6669735,Sun - Thurs: 11:00am to 10:00pm;Fri - Sat: 11:00am to 11:00pm,,0
Logan's Roadhouse,312,2890 FLORENCE BLVD,,FLORENCE,AL,35630,,256-764-5011,34.8339,-87.6127,Sun - Thurs: 11:00am to 10:00pm;Fri - Sat: 11:00am to 11:00pm,,0
Logan's Roadhouse,511,589 18TH AVE. NORTH,,COLUMBUS,MS,39705,,662-329-1117,33.5149,-88.4278,Sun - Thurs: 11:00am to 10:00pm;Fri - Sat: 11:00am to 11:00pm,,0
Logan's Roadhouse,389,4185 N. DOWLEN RD.,,BEAUMONT,TX,77706,,409-347-2977,30.1223,-94.1632,Sun - Thurs: 11:00am to 10:00pm;Fri - Sat: 11:00am to 11:00pm,,0
Logan's Roadhouse,523,9510 F.M. 1960 BYPASS,,HUMBLE,TX,77338,,281-319-4399,30.0044,-95.2803,Sun - Thurs: 11:00am to 10:00pm;Fri - Sat: 11:00am to 11:00pm,,0
Logan's Roadhouse,485,6804 CHARLOTTE PIKE,,NASHVILLE,TN,37209,,615-353-5989,36.1357,-86.8851,Sun - Thurs: 11:00am to 10:00pm;Fri - Sat: 11:00am to 11:00pm,,0
Logan's Roadhouse,471,2008 CROSSINGS CIRCLE,,SPRING HILL,TN,37174,,931-489-1020,35.7393,-86.9442,Sun - Thurs: 11:00am to 10:00pm;Fri - Sat: 11:00am to 11:00pm,,0
Logan's Roadhouse,323,2400 ELLISTON PL,,NASHVILLE,TN,37202,,615-320-1161,36.1487,-86.8072,Sun - Thurs: 11:00am to 10:00pm;Fri - Sat: 11:00am to 11:00pm,,0
Logan's Roadhouse,329,3509 GERSTNER MEMORIAL PKWY,,LAKE CHARLES,LA,70605,,337-562-2005,30.1962,-93.1799,Sun - Thurs: 11:00am to 10:00pm;Fri - Sat: 11:00am to 11:00pm,,0
Logan's Roadhouse,507,419 OLD SAN ANTONIO RD.,,BUDA,TX,78610,,512-295-5668,30.0837,-97.8231,Sun - Thurs: 11:00am to 10:00pm;Fri - Sat: 11:00am to 11:00pm,,0
Logan's Roadhouse,307,7087 BAKER&#039;S BRIDGE AVE,,FRANKLIN,TN,37064,,615-771-7288,35.9614,-86.8146,Sun - Thurs: 11:00am to 10:00pm;Fri - Sat: 11:00am to 11:00pm,,0
Logan's Roadhouse,489,727 THOMPSON LANE,,NASHVILLE,TN,37204,,615-385-7712,36.1121,-86.7667,Sun - Thurs: 11:00am to 10:00pm;Fri - Sat: 11:00am to 11:00pm,,0
Logan's Roadhouse,350,12950 N.W. FREEWAY,,HOUSTON,TX,77040,,713-895-7500,29.8431,-95.4943,Sun - Thurs: 11:00am to 10:00pm;Fri - Sat: 11:00am to 11:00pm,,0
Logan's Roadhouse,303,1715 GALLATIN PIKE NORTH,,MADISON,TN,37115,,615-860-9220,36.2949,-86.7010,Sun - Thurs: 11:00am to 10:00pm;Fri - Sat: 11:00am to 11:00pm,,0
Logan's Roadhouse,520,2506 MUSIC VALLEY DRIVE,,NASHVILLE,TN,37214,,615-871-0328,36.2240,-86.6953,Sun - Thurs: 11:00am to 10:00pm;Fri - Sat: 11:00am to 11:00pm,,0
Logan's Roadhouse,363,4609 WEST LOOP 250 NORTH,,MIDLAND,TX,79707,,432-689-6464,32.0262,-102.1476,Sun - Thurs: 11:00am to 10:00pm;Fri - Sat: 11:00am to 11:00pm,,0
Logan's Roadhouse,302,5300 HICKORY HOLLOW LN,,ANTIOCH,TN,37013,,615-731-4022,36.0492,-86.6516,Sun - Thurs: 11:00am to 10:00pm;Fri - Sat: 11:00am to 11:00pm,,0
Logan's Roadhouse,435,2920 SCOTTSVILLE RD,,BOWLING GREEN,KY,42103,,270-846-2771,36.9394,-86.4203,Sun - Thurs: 11:00am to 10:00pm;Fri - Sat: 11:00am to 11:00pm,,0
Logan's Roadhouse,390,600 SAM RIDLEY PKWY. WEST,,SMYRNA,TN,37167,,615-220-2780,35.9779,-86.5640,Sun - Thurs: 11:00am to 10:00pm;Fri - Sat: 11:00am to 11:00pm,,0
Logan's Roadhouse,365,1141 HWY. 35 NORTH,,SAN MARCOS,TX,78666,,512-805-8888,29.8871,-97.9189,Sun - Thurs: 11:00am to 10:00pm;Fri - Sat: 11:00am to 11:00pm,,0
Logan's Roadhouse,379,1007 VILLAGE GREEN CROSSING,,GALLATIN,TN,37066,,615-206-9393,36.3784,-86.4722,Sun - Thurs: 11:00am to 10:00pm;Fri - Sat: 11:00am to 11:00pm,,0
Logan's Roadhouse,451,401 S. MT. JULIET RD. STE 13,,MOUNT JULIET,TN,37122,,615-773-5505,36.1688,-86.5113,Sun - Thurs: 11:00am to 10:00pm;Fri - Sat: 11:00am to 11:00pm,,0
Logan's Roadhouse,477,16132 ATHENS LIMESTONE BLVD.,,ATHENS,AL,35611,,256-216-1880,34.7872,-86.9404,Sun - Thurs: 11:00am to 10:00pm;Fri - Sat: 11:00am to 11:00pm,,0
Logan's Roadhouse,369,2315 BELTLINE ROAD S.W.,,DECATUR,AL,35603,,256-432-2746,34.5882,-87.0284,Sun - Thurs: 11:00am to 10:00pm;Fri - Sat: 11:00am to 11:00pm,,0
Logan's Roadhouse,483,108 HWY 11 &amp; 80,,MERIDIAN,MS,39301,,601-693-3540,32.3622,-88.6726,Sun - Thurs: 11:00am to 10:00pm;Fri - Sat: 11:00am to 11:00pm,,0
Logan's Roadhouse,351,5105 E. 42ND STREET,,ODESSA,TX,79762,,432-368 5519,31.8945,-102.3287,Sun - Thurs: 11:00am to 10:00pm;Fri - Sat: 11:00am to 11:00pm,,0
Logan's Roadhouse,306,740 NW BROAD,,MURFREESBORO,TN,37129,,615-895-4419,35.8507,-86.3997,Sun - Thurs: 11:00am to 10:00pm;Fri - Sat: 11:00am to 11:00pm,,0
Logan's Roadhouse,541,1006 CUMBERLAND CENTER BLVD.,,LEBANON,TN,37087,,615-453-7007,36.1830,-86.2964,Sun - Thurs: 11:00am to 10:00pm;Fri - Sat: 11:00am to 11:00pm,,0
Logan's Roadhouse,484,3160 GULF FREEWAY SOUTH,,LEAGUE CITY,TX,77539,,281-614-0200,29.4646,-95.0877,Sun - Thurs: 11:00am to 10:00pm;Fri - Sat: 11:00am to 11:00pm,,0
Logan's Roadhouse,544,8994 MADISON BLVD,,MADISON,AL ,35758,,256-772-0960,34.6760,-86.7550,Sun - Thurs: 11:00am to 10:00pm;Fri - Sat: 11:00am to 11:00pm,,0
Logan's Roadhouse,338,3840 STATE RD 26 EAST,,LAFAYETTE,IN,47905,,765-446-1551,40.4177,-86.8437,Sun - Thurs: 11:00am to 10:00pm;Fri - Sat: 11:00am to 11:00pm,,0
Logan's Roadhouse,403,6226 UNIVERSITY DR. NW,,HUNTSVILLE,AL,35806,,256-837-7885,34.7451,-86.6805,Sun - Thurs: 11:00am to 10:00pm;Fri - Sat: 11:00am to 11:00pm,,0
Logan's Roadhouse,539,6092 ALABAMA HWY. 157 NORTH,,CULLMAN,AL,35058,,256-735-2286,34.2083,-86.8772,Sun - Thurs: 11:00am to 10:00pm;Fri - Sat: 11:00am to 11:00pm,,0
Logan's Roadhouse,318,1511 SKYLAND BLVD E,,TUSCALOOSA,AL,35403,,205-349-3554,33.1680,-87.5194,Sun - Thurs: 11:00am to 10:00pm;Fri - Sat: 11:00am to 11:00pm,,0
Logan's Roadhouse,328,4249 BALMORAL DRIVE,,HUNTSVILLE,AL,35801,,256-881-0584,34.6918,-86.5789,Sun - Thurs: 11:00am to 10:00pm;Fri - Sat: 11:00am to 11:00pm,,0
Logan's Roadhouse,463,351 S. PERRY RD,,PLAINFIELD,IN,46168,,317-838-5190,39.7174,-86.3578,Sun - Thurs: 11:00am to 10:00pm;Fri - Sat: 11:00am to 11:00pm,,0
Logan's Roadhouse,447,6147 US HWY 98,,HATTIESBURG,MS,39402,,601-268-9588,31.3224,-89.3734,Sun - Thurs: 11:00am to 10:00pm;Fri - Sat: 11:00am to 11:00pm,,0
Logan's Roadhouse,337,5229 DIXIE HWY,,LOUISVILLE,KY,40216,,502-448-0577,38.1619,-85.8317,Sun - Thurs: 11:00am to 10:00pm;Fri - Sat: 11:00am to 11:00pm,,0
Logan's Roadhouse,357,12477 I-10 WEST,,SAN ANTONIO,TX,78230,,210-641-5900,29.5563,-98.5873,Sun - Thurs: 11:00am to 10:00pm;Fri - Sat: 11:00am to 11:00pm,,0
Logan's Roadhouse,524,92 NE LOOP 410,,SAN ANTONIO,TX,78216,,210-348-6405,29.5196,-98.4850,Sun - Thurs: 11:00am to 10:00pm;Fri - Sat: 11:00am to 11:00pm,,0
Logan's Roadhouse,374,600 GREENWOOD PARK DR. NORTH,,GREENWOOD,IN,46142,,317-865-7399,39.6351,-86.1184,Sun - Thurs: 11:00am to 10:00pm;Fri - Sat: 11:00am to 11:00pm,,0
Logan's Roadhouse,530,2619 SOUTH SPORTSMAN LANE,,GONZALES,LA,70737,,225-644-9775,30.2099,-90.9494,Sun - Thurs: 11:00am to 10:00pm;Fri - Sat: 11:00am to 11:00pm,,0
Logan's Roadhouse,310,970 E LEWIS &amp; CLARK PARKWAY,,CLARKSVILLE,IN,47129,,812-288-9789,38.3078283,-85.7733676,Sun - Thurs: 11:00am to 10:00pm;Fri - Sat: 11:00am to 11:00pm,,0
Logan's Roadhouse,499,205 RELCO DRIVE,,MANCHESTER,TN,37355,,931-723-7796,35.4531,-86.0491,Sun - Thurs: 11:00am to 10:00pm;Fri - Sat: 11:00am to 11:00pm,,0
Logan's Roadhouse,488,5423 W LOOP 1604 NORTH,,SAN ANTONIO,TX,78254,,210-647-5500,29.4901,-98.7077,Sun - Thurs: 11:00am to 10:00pm;Fri - Sat: 11:00am to 11:00pm,,0
Logan's Roadhouse,475,5000 BOND BLVD.,,BESSEMER,AL,35022,,205-481-9588,33.3320,-86.9981,Sun - Thurs: 11:00am to 10:00pm;Fri - Sat: 11:00am to 11:00pm,,0
Logan's Roadhouse,479,3387 LOWERY PKWY,,FULTONDALE,AL,35068,,205-849-0313,33.6080,-86.8066,Sun - Thurs: 11:00am to 10:00pm;Fri - Sat: 11:00am to 11:00pm,,0
Logan's Roadhouse,505,1540 ALLIANT AVE,,LOUISVILLE,KY,40299,,502-266-6009,38.2210,-85.5372,Sun - Thurs: 11:00am to 10:00pm;Fri - Sat: 11:00am to 11:00pm,,0
Logan's Roadhouse,399,17065 MERCANTILE RD.,,NOBLESVILLE,IN,46060,,317-776-3901,40.0363,-85.9935,Sun - Thurs: 11:00am to 10:00pm;Fri - Sat: 11:00am to 11:00pm,,0
Logan's Roadhouse,326,7724 LUDINGTON LANE,,IRONDALE,AL,35210,,205-957-9775,33.5317,-86.7183,Sun - Thurs: 11:00am to 10:00pm;Fri - Sat: 11:00am to 11:00pm,,0
Logan's Roadhouse,397,2740 JOHN HAWKINS PKWY,,HOOVER,AL,35244,,205-682-9530,33.3603,-86.8315,Sun - Thurs: 11:00am to 10:00pm;Fri - Sat: 11:00am to 11:00pm,,0
Logan's Roadhouse,423,5083 PINNACLE SQUARE,,BIRMINGHAM,AL,35235,,205-655-7520,33.5939,-86.6481,Sun - Thurs: 11:00am to 10:00pm;Fri - Sat: 11:00am to 11:00pm,,0
Logan's Roadhouse,339,100 RESOURCE CENTER PKWY,,BIRMINGHAM,AL,35242,,205 981 9950,33.4265,-86.7057,Sun - Thurs: 11:00am to 10:00pm;Fri - Sat: 11:00am to 11:00pm,,0
Logan's Roadhouse,322,1395 INTERSTATE DR.,,COOKEVILLE,TN,38501,,931-526-9595,36.1377,-85.5131,Sun - Thurs: 11:00am to 10:00pm;Fri - Sat: 11:00am to 11:00pm,,0
Logan's Roadhouse,513,1999 VILLAGE DRIVE,,LEEDS,AL,35094,,205-640-5237,33.5678,-86.5183,Sun - Thurs: 11:00am to 10:00pm;Fri - Sat: 11:00am to 11:00pm,,0
Logan's Roadhouse,396,835 RAINBOW DR.,,GADSDEN,AL,35901,,256-543-0470,33.9997,-86.0045,Sun - Thurs: 11:00am to 10:00pm;Fri - Sat: 11:00am to 11:00pm,,0
Logan's Roadhouse,514,3592 CUMMINGS HWY,,CHATTANOOGA,TN,37419,,423-821-2948,35.017111,-85.378153,Sun - Thurs: 11:00am to 10:00pm;Fri - Sat: 11:00am to 11:00pm,,0
Logan's Roadhouse,426,1320 E. IRELAND RD.,,SOUTH BEND,IN,46614,,574-231-9644,41.6294,-86.2319,Sun - Thurs: 11:00am to 10:00pm;Fri - Sat: 11:00am to 11:00pm,,0
Logan's Roadhouse,406,15189 CROSSROADS PKWY,,GULFPORT,MS,39503,,228-539-1135,30.4409,-89.0973,Sun - Thurs: 11:00am to 10:00pm;Fri - Sat: 11:00am to 11:00pm,,0
Logan's Roadhouse,385,4225 N. MAIN ST.,,MISHAWAKA,IN,46545,,574-273-9534,41.6988,-86.1827,Sun - Thurs: 11:00am to 10:00pm;Fri - Sat: 11:00am to 11:00pm,,0
Logan's Roadhouse,388,504A NORTHGATE MALL,,CHATTANOOGA,TN,37415,,423-875-4443,35.1281,-85.2379,Sun - Thurs: 11:00am to 10:00pm;Fri - Sat: 11:00am to 11:00pm,,0
Logan's Roadhouse,536,141 BIZZACK ROAD,,FRANKFORT,KY,40601,,502-352-4630,38.1712,-84.8113,Sun - Thurs: 11:00am to 10:00pm;Fri - Sat: 11:00am to 11:00pm,,0
Logan's Roadhouse,409,2584 BATTLEFIELD PARKWAY,,FT OGLETHORPE,GA,30742,,706-858-8482,34.9463,-85.2304,Sun - Thurs: 11:00am to 10:00pm;Fri - Sat: 11:00am to 11:00pm,,0
Logan's Roadhouse,377,40 ALI WAY,,OXFORD,AL,36203,,256-835-3116,33.6168,-85.8438,Sun - Thurs: 11:00am to 10:00pm;Fri - Sat: 11:00am to 11:00pm,,0
Logan's Roadhouse,309,2119 GUNBARRELL RD,,CHATTANOOGA,TN,37421,,423-499-4339,35.0341,-85.1535,Sun - Thurs: 11:00am to 10:00pm;Fri - Sat: 11:00am to 11:00pm,,0
Logan's Roadhouse,450,140 ROJAY DR,,LEXINGTON,KY,40503,,859-273-0899,37.9863,-84.5261,Sun - Thurs: 11:00am to 10:00pm;Fri - Sat: 11:00am to 11:00pm,,0
Logan's Roadhouse,301,1250 SOUTH BROADWAY,,LEXINGTON,KY,40504,,859-252-4307,38.0349,-84.5212,Sun - Thurs: 11:00am to 10:00pm;Fri - Sat: 11:00am to 11:00pm,,0
Logan's Roadhouse,437,6835 HOUSTON RD,,FLORENCE,KY,41042,,859-525-2106,39.0114,-84.6452,Sun - Thurs: 11:00am to 10:00pm;Fri - Sat: 11:00am to 11:00pm,,0
Logan's Roadhouse,472,2775 LEGENDS PKWY,,PRATTVILLE,AL,36066,,334-285-9900,32.4600,-86.3942,Sun - Thurs: 11:00am to 10:00pm;Fri - Sat: 11:00am to 11:00pm,,0
Logan's Roadhouse,391,3940 KEITH ST.,,CLEVELAND,TN,37312,,423-478-0094,35.1941,-84.8578,Sun - Thurs: 11:00am to 10:00pm;Fri - Sat: 11:00am to 11:00pm,,0
Logan's Roadhouse,405,3250 AIRPORT RD.,,MOBILE,AL,36606,,251-473-2920,30.6782,-88.1261,Sun - Thurs: 11:00am to 10:00pm;Fri - Sat: 11:00am to 11:00pm,,0
Logan's Roadhouse,473,3720 STONE CREEK BLVD,,CINCINNATI,OH,45251,,513-923-3700,39.2527,-84.6065,Sun - Thurs: 11:00am to 10:00pm;Fri - Sat: 11:00am to 11:00pm,,0
Logan's Roadhouse,359,1908 PAVILLON WAY,,LEXINGTON,KY,40509,,859-263-4716,38.0208,-84.4181,Sun - Thurs: 11:00am to 10:00pm;Fri - Sat: 11:00am to 11:00pm,,0
Logan's Roadhouse,427,811 Walnut Square Blvd,,DALTON,GA,30721,,706-259-3220,34.760849,-84.9349962,Sun - Thurs: 11:00am to 10:00pm;Fri - Sat: 11:00am to 11:00pm,,0
Logan's Roadhouse,478,2146 LANTERN RIDGE DR,,RICHMOND,KY,40475,,859-624-9425,37.7389,-84.3245,Sun - Thurs: 11:00am to 10:00pm;Fri - Sat: 11:00am to 11:00pm,,0
Logan's Roadhouse,392,1210 ILLINOIS ROAD SOUTH,,FORT WAYNE,IN,46804,,260-434-0459,41.0744,-85.1985,Sun - Thurs: 11:00am to 10:00pm;Fri - Sat: 11:00am to 11:00pm,,0
Logan's Roadhouse,398,6617 LIMA RD.,,FORT WAYNE,IN,46818,,260-487-9944,41.1399,-85.1625,Sun - Thurs: 11:00am to 10:00pm;Fri - Sat: 11:00am to 11:00pm,,0
Logan's Roadhouse,417,30275 EASTERN SHORE CT,,SPANISH FORT,AL,36527,,251-625-0151,30.6684,-87.8526,Sun - Thurs: 11:00am to 10:00pm;Fri - Sat: 11:00am to 11:00pm,,0
Logan's Roadhouse,414,6701 S. WESTNEDGE AVE.,,PORTAGE,MI,49002,,269-324-7940,42.2200,-85.5894,Sun - Thurs: 11:00am to 10:00pm;Fri - Sat: 11:00am to 11:00pm,,0
Logan's Roadhouse,400,3299 WEST SHORE DR.,,HOLLAND,MI,49424,,616-399-9451,42.8265,-86.0909,Sun - Thurs: 11:00am to 10:00pm;Fri - Sat: 11:00am to 11:00pm,,0
Logan's Roadhouse,493,2148 MIAMISBURG-CENTERVILLE,,DAYTON,OH,45459,,937-433-1331,39.6340,-84.2096,Sun - Thurs: 11:00am to 10:00pm;Fri - Sat: 11:00am to 11:00pm,,0
Logan's Roadhouse,519,1750 MAIN ST. WEST,,TROY,OH,45373,,937-339-1590,40.0526,-84.2361,Sun - Thurs: 11:00am to 10:00pm;Fri - Sat: 11:00am to 11:00pm,,0
Logan's Roadhouse,401,5601 S. HARVEY ST.,,NORTON SHORES,MI,49441,,231-798-9830,43.1428,-86.2060,Sun - Thurs: 11:00am to 10:00pm;Fri - Sat: 11:00am to 11:00pm,,0
Logan's Roadhouse,454,5057 S. PADRE ISLAND,,CORPUS CHRISTI,TX,78411,,361-906-0123,27.7130,-97.3819,Sun - Thurs: 11:00am to 10:00pm;Fri - Sat: 11:00am to 11:00pm,,0
Logan's Roadhouse,360,9380 THE LANDING DRIVE,,DOUGLASVILLE,GA,30135,,770-942-0181,33.7274,-84.7382,Sun - Thurs: 11:00am to 10:00pm;Fri - Sat: 11:00am to 11:00pm,,0
Logan's Roadhouse,384,4425 CANAL AVENUE SW,,GRANDVILLE,MI,49418,,616-534-6385,42.8840,-85.7722,Sun - Thurs: 11:00am to 10:00pm;Fri - Sat: 11:00am to 11:00pm,,0
Logan's Roadhouse,429,2400 GATEWAY DRIVE,,OPELIKA,AL,36801,,334-742-8001,32.6167,-85.4022,Sun - Thurs: 11:00am to 10:00pm;Fri - Sat: 11:00am to 11:00pm,,0
Logan's Roadhouse,431,1651 MARKETPLACE DR SE,,CALEDONIA,MI,49316,,616-554-7044,42.8453,-85.6246,Sun - Thurs: 11:00am to 10:00pm;Fri - Sat: 11:00am to 11:00pm,,0
Logan's Roadhouse,415,4958 BAYOU BLVD,,PENSACOLA,FL,32503,,850-471-9291,30.4722,-87.2094,Sun - Thurs: 11:00am to 10:00pm;Fri - Sat: 11:00am to 11:00pm,,0
Logan's Roadhouse,393,3153 ALPINE AVE.,,WALKER,MI,49544,,616-647-4007,43.0153,-85.6890,Sun - Thurs: 11:00am to 10:00pm;Fri - Sat: 11:00am to 11:00pm,,0
Logan's Roadhouse,445,1560 PARKWAY,,SEVIERVILLE,TN,37862,,865-428-3326,35.8362,-83.5718,Sun - Thurs: 11:00am to 10:00pm;Fri - Sat: 11:00am to 11:00pm,,0
Logan's Roadhouse,313,2643 MANCHESTER,,COLUMBUS,GA,31904,,706 653 0111,32.5070,-84.9559,Sun - Thurs: 11:00am to 10:00pm;Fri - Sat: 11:00am to 11:00pm,,0
Logan's Roadhouse,419,20 MILL RD,,MCDONOUGH,GA,30253,,770-957-6030,33.4638,-84.2152,Sun - Thurs: 11:00am to 10:00pm;Fri - Sat: 11:00am to 11:00pm,,0
Logan's Roadhouse,367,5300 SAN DARIO DRIVE,,LAREDO,TX,78041,,956-728-8513,27.5505,-99.5029,Sun - Thurs: 11:00am to 10:00pm;Fri - Sat: 11:00am to 11:00pm,,0
Logan's Roadhouse,411,5800 W. SAGINAW,,LANSING,MI,48917,,517-327-4751,42.7411,-84.6335,Sun - Thurs: 11:00am to 10:00pm;Fri - Sat: 11:00am to 11:00pm,,0
Logan's Roadhouse,352,11865 GATEWAY WEST BLVD,,EL PASO,TX,79936,,915-633-9366,31.7311,-106.3152,Sun - Thurs: 11:00am to 10:00pm;Fri - Sat: 11:00am to 11:00pm,,0
Logan's Roadhouse,468,4753 MONTGOMERY HWY,,DOTHAN,AL,36303,,334-677-1990,31.2672,-85.4446,Sun - Thurs: 11:00am to 10:00pm;Fri - Sat: 11:00am to 11:00pm,,0
Logan's Roadhouse,319,3668 ATLANTA HWY,,ATHENS,GA,30606,,706-227-9890,33.9393,-83.4599,Sun - Thurs: 11:00am to 10:00pm;Fri - Sat: 11:00am to 11:00pm,,0
Logan's Roadhouse,382,2364 TAYLOR PARK DRIVE,,REYNOLDSBURG,OH,43068,,614-501-9560,39.9371,-82.7901,Sun - Thurs: 11:00am to 10:00pm;Fri - Sat: 11:00am to 11:00pm,,0
Logan's Roadhouse,311,3112 BROWNS MILL RD,,JOHNSON CITY,TN,37604,,423-915-1122,36.3620,-82.4019,Sun - Thurs: 11:00am to 10:00pm;Fri - Sat: 11:00am to 11:00pm,,0
Logan's Roadhouse,315,850 MALL RD,,BARBOURSVILLE,WV,25504,,304-736-2792,38.4235,-82.2633,Sun - Thurs: 11:00am to 10:00pm;Fri - Sat: 11:00am to 11:00pm,,0
Logan's Roadhouse,375,39605 FORD ROAD,,CANTON,MI,48187,,734-844-6067,42.3234,-83.4309,Sun - Thurs: 11:00am to 10:00pm;Fri - Sat: 11:00am to 11:00pm,,0
Logan's Roadhouse,410,2701 WATSON BLVD.,,WARNER ROBINS,GA,31093,,478-929-0252,32.6182,-83.6693,Sun - Thurs: 11:00am to 10:00pm;Fri - Sat: 11:00am to 11:00pm,,0
Logan's Roadhouse,383,2170 W. 4TH STREET,,ONTARIO,OH,44906,,419-529-8599,40.7727,-82.5918,Sun - Thurs: 11:00am to 10:00pm;Fri - Sat: 11:00am to 11:00pm,,0
Logan's Roadhouse,425,4404 MILLER RD.,,FLINT,MI,48507,,810-720-9214,42.9783,-83.7659,Sun - Thurs: 11:00am to 10:00pm;Fri - Sat: 11:00am to 11:00pm,,0
Logan's Roadhouse,211,3402 Clemsn Blvd.,,Anderson,SC,29621,,8642617366,34.545922,-82.668606,Sun - Thurs: 11:00am to 10:00pm;Fri - Sat: 11:00am to 11:00pm,,0
Logan's Roadhouse,373,3174 LINDEN DRIVE,,BRISTOL,VA,24201,,276-669-2886,36.6311,-82.1226,Sun - Thurs: 11:00am to 10:00pm;Fri - Sat: 11:00am to 11:00pm,,0
Logan's Roadhouse,378,28599 SCHOOLCRAFT RD.,,LIVONIA,MI,48150,,734-367-0767,42.3829,-83.3299,Sun - Thurs: 11:00am to 10:00pm;Fri - Sat: 11:00am to 11:00pm,,0
Logan's Roadhouse,372,13305 EUREKA ROAD,,SOUTHGATE,MI,48195,,734-281-1119,42.1993,-83.1862,Sun - Thurs: 11:00am to 10:00pm;Fri - Sat: 11:00am to 11:00pm,,0
Logan's Roadhouse,440,7135 EASTMAN AVE,,MIDLAND,MI,48642,,989-835-2501,43.6620,-84.2469,Sun - Thurs: 11:00am to 10:00pm;Fri - Sat: 11:00am to 11:00pm,,0
Logan's Roadhouse,525,2697 TITTABAWASSEE RD,,SAGINAW,MI,48604,,989-790-3803,43.4796,-83.9701,Sun - Thurs: 11:00am to 10:00pm;Fri - Sat: 11:00am to 11:00pm,,0
Logan's Roadhouse,420,7612 N. 10TH STREET,,MCALLEN,TX,78504,,956-631-7344,26.2717,-98.2183,Sun - Thurs: 11:00am to 10:00pm;Fri - Sat: 11:00am to 11:00pm,,0
Logan's Roadhouse,476,2809 W. EXPRESSWAY 83,,HARLINGEN,TX,78552,,956-440-0870,26.1861,-97.7246,Sun - Thurs: 11:00am to 10:00pm;Fri - Sat: 11:00am to 11:00pm,,0
Logan's Roadhouse,501,720 BROWN ROAD,,AUBURN HILLS,MI,48326,,248-391-7600,42.7043,-83.2889,Sun - Thurs: 11:00am to 10:00pm;Fri - Sat: 11:00am to 11:00pm,,0
Logan's Roadhouse,368,86 WEST 14 MILE ROAD,,TROY,MI,48083,,248-583-6500,42.5344,-83.1081,Sun - Thurs: 11:00am to 10:00pm;Fri - Sat: 11:00am to 11:00pm,,0
Logan's Roadhouse,201,53 Beacon Drive,,Greenville,SC,29615,,8642139444,34.858053,-82.266908,Sun - Thurs: 11:00am to 10:00pm;Fri - Sat: 11:00am to 11:00pm,,0
Logan's Roadhouse,364,2224 S. 10TH STREET,,MCALLEN,TX,78503,,956-683-0707,26.1829,-98.2337,Sun - Thurs: 11:00am to 10:00pm;Fri - Sat: 11:00am to 11:00pm,,0
Logan's Roadhouse,424,201 RHL BLVD.,,CHARLESTON,WV,25309,,304-744-4833,38.3251,-81.7164,Sun - Thurs: 11:00am to 10:00pm;Fri - Sat: 11:00am to 11:00pm,,0
Logan's Roadhouse,355,30751 GRATIOT AVENUE,,ROSEVILLE,MI,48066,,586-285-1610,42.5228,-82.9204,Sun - Thurs: 11:00am to 10:00pm;Fri - Sat: 11:00am to 11:00pm,,0
Logan's Roadhouse,439,100 9TH STREET,,VIENNA,WV,26105,,304-295-9362,39.3078,-81.5521,Sun - Thurs: 11:00am to 10:00pm;Fri - Sat: 11:00am to 11:00pm,,0
Logan's Roadhouse,512,910 WEST 7TH STREET,,TIFTON,GA,31794,,229-386-0461,31.4501,-83.5288,Sun - Thurs: 11:00am to 10:00pm;Fri - Sat: 11:00am to 11:00pm,,0
Logan's Roadhouse,436,1310 N. EISENHOWER DR,,BECKLEY,WV,25801,,304-254-0791,37.8061,-81.1846,Sun - Thurs: 11:00am to 10:00pm;Fri - Sat: 11:00am to 11:00pm,,0
Logan's Roadhouse,203,269 Robert C.Daniel Pkwy,,Augusta,GA,30909,,7067388088,33.4860842,-82.0822262,Sun - Thurs: 11:00am to 10:00pm;Fri - Sat: 11:00am to 11:00pm,,0
Logan's Roadhouse,209,2840 E. Franklin Blvd,,Gastonia,NC,28054,,7048699288,35.260906,-81.127691,Sun - Thurs: 11:00am to 10:00pm;Fri - Sat: 11:00am to 11:00pm,,0
Logan's Roadhouse,208,1071 Glenway Dr,,Statesville,NC,28625,,7048733122,35.808972,-80.87082,Sun - Thurs: 11:00am to 10:00pm;Fri - Sat: 11:00am to 11:00pm,,0
Logan's Roadhouse,534,230 CABELA DRIVE,,TRIADELPHIA,WV,26059,,304-547-1300,40.0591,-80.6013,Sun - Thurs: 11:00am to 10:00pm;Fri - Sat: 11:00am to 11:00pm,,0
Logan's Roadhouse,213,2431 Wonder Dr,,Kannapolis,NC,28083,,7047210100,35.465172,-80.5886,Sun - Thurs: 11:00am to 10:00pm;Fri - Sat: 11:00am to 11:00pm,,0
Logan's Roadhouse,212,2336 W. Roosevelt Blvd.,,Monroe,NC,28110,,7042257240,35.0096241,-80.5630187,Sun - Thurs: 11:00am to 10:00pm;Fri - Sat: 11:00am to 11:00pm,,0
Logan's Roadhouse,335,4740 VALLEY VIEW BLVD,,ROANOKE,VA,24012,,540-265-7055,37.3087,-79.9628,Sun - Thurs: 11:00am to 10:00pm;Fri - Sat: 11:00am to 11:00pm,,0
Logan's Roadhouse,206,1300 Bridford Pkwy,,Greensboro,NC,27407,,3362924950,36.0546225,-79.903164,Sun - Thurs: 11:00am to 10:00pm;Fri - Sat: 11:00am to 11:00pm,,0
Logan's Roadhouse,219,2531 Broad St,,Sumter,SC,29150,,8034696100,33.9598721,-80.3962545,Sun - Thurs: 11:00am to 10:00pm;Fri - Sat: 11:00am to 11:00pm,,0
Logan's Roadhouse,522,220 POOLER PARKWAY,,POOLER,GA,31322,,912-330-8055,32.1412,-81.2483,Sun - Thurs: 11:00am to 10:00pm;Fri - Sat: 11:00am to 11:00pm,,0
Logan's Roadhouse,380,4046 WARDS RD.,,LYNCHBURG,VA,24502,,434-832-0377,37.3435,-79.1898,Sun - Thurs: 11:00am to 10:00pm;Fri - Sat: 11:00am to 11:00pm,,0
Logan's Roadhouse,214,211 Azalea Square Blvd.,,Summerville,SC,29483,,8438518666,33.037317,-80.15879,Sun - Thurs: 11:00am to 10:00pm;Fri - Sat: 11:00am to 11:00pm,,0
Logan's Roadhouse,517,13130 CITY STATION DRIVE,,JACKSONVILLE,FL,32218,,904-751-7005,30.4762,-81.6436,Sun - Thurs: 11:00am to 10:00pm;Fri - Sat: 11:00am to 11:00pm,,0
Logan's Roadhouse,465,945 N. DOBSON RD,,MESA,AZ,85201,,480-668-5900,33.4375,-111.8696,Sun - Thurs: 11:00am to 10:00pm;Fri - Sat: 11:00am to 11:00pm,,0
Logan's Roadhouse,202,1490 Skibo Road,,Fayetteville,NC,28303,,9108645176,35.0826729,-78.9548577,Sun - Thurs: 11:00am to 10:00pm;Fri - Sat: 11:00am to 11:00pm,,0
Logan's Roadhouse,455,2501 W. HAPPY VALLEY BLDG12,,PHOENIX,AZ,85085,,623-516-7843,33.7131,-112.1123,Sun - Thurs: 11:00am to 10:00pm;Fri - Sat: 11:00am to 11:00pm,,0
Logan's Roadhouse,433,2621 SW 19TH AVE RD,,OCALA,FL,34474,,352-291-9450,29.1710,-82.1745,Sun - Thurs: 11:00am to 10:00pm;Fri - Sat: 11:00am to 11:00pm,,0
Logan's Roadhouse,215,1000 Timber Drive East,,Garner,NC,27529,,9193299340,35.6889877,-78.5808978,Sun - Thurs: 11:00am to 10:00pm;Fri - Sat: 11:00am to 11:00pm,,0
Logan's Roadhouse,496,115 RETAIL COMMONS PKWY,,MARTINSBURG,WV,25403,,304-264-1500,39.4329,-78.0443,Sun - Thurs: 11:00am to 10:00pm;Fri - Sat: 11:00am to 11:00pm,,0
Logan's Roadhouse,216,1136 Oak Forrest Dr.,,Myrtle Beach,SC,29577,,8438394666,33.7072,-78.9180293,Sun - Thurs: 11:00am to 10:00pm;Fri - Sat: 11:00am to 11:00pm,,0
Logan's Roadhouse,205,4511 Highway 17 South,,North Myrtle Beach,SC,29582,,8432723435,33.7993119,-78.73471,Sun - Thurs: 11:00am to 10:00pm;Fri - Sat: 11:00am to 11:00pm,,0
Logan's Roadhouse,210,1011 Sunburst Drive,,Goldsboro,NC,27534,,9197511700,35.3843162,-77.9437705,Sun - Thurs: 11:00am to 10:00pm;Fri - Sat: 11:00am to 11:00pm,,0
Logan's Roadhouse,346,7731 DONEGAN DRIVE,,MANASSAS,VA,20110,,703-369-0244,38.7899,-77.5170,Sun - Thurs: 11:00am to 10:00pm;Fri - Sat: 11:00am to 11:00pm,,0
Logan's Roadhouse,376,3000 SPOTSYLVANIA MALL DR.,,FREDERICKSBURG,VA,22407,,540-548-1158,38.2950,-77.5128,Sun - Thurs: 11:00am to 10:00pm;Fri - Sat: 11:00am to 11:00pm,,0
Logan's Roadhouse,218,200 Premier Blvd.,,Roanoke Rapids,NC,27870,,2525371414,36.429826,-77.632083,Sun - Thurs: 11:00am to 10:00pm;Fri - Sat: 11:00am to 11:00pm,,0
Logan's Roadhouse,515,2301 W. HUNDRED ROAD,,CHESTER,VA,23831,,804-768-0523,37.3544,-77.4076,Sun - Thurs: 11:00am to 10:00pm;Fri - Sat: 11:00am to 11:00pm,,0
Logan's Roadhouse,349,4649 W. 1ST STREET,,SANFORD,FL,32771,,407-324-4123,28.8112,-81.3339,Sun - Thurs: 11:00am to 10:00pm;Fri - Sat: 11:00am to 11:00pm,,0
Logan's Roadhouse,348,3060 W. SANDLAKE ROAD,,ORLANDO,FL,32819,,407-351-4599,28.4502,-81.4227,Sun - Thurs: 11:00am to 10:00pm;Fri - Sat: 11:00am to 11:00pm,,0
Logan's Roadhouse,342,5925 W. IRLO BRONSON HWY,,KISSIMMEE,FL,34746,,407 390 0500,28.3329,-81.5213,Sun - Thurs: 11:00am to 10:00pm;Fri - Sat: 11:00am to 11:00pm,,0
Logan's Roadhouse,207,603 SE Greenville Blvd,,Greenville,NC,27858,,2524394313,35.5839492,-77.3721078,Sun - Thurs: 11:00am to 10:00pm;Fri - Sat: 11:00am to 11:00pm,,0
Logan's Roadhouse,204,1177 Western Boulevard,,Jacksonville,NC,28546,,9109380905,34.7828951,-77.3993188,Sun - Thurs: 11:00am to 10:00pm;Fri - Sat: 11:00am to 11:00pm,,0
Logan's Roadhouse,442,2180 YORK CROSSING DR,,YORK,PA,17408,,717-767-2776,39.9652,-76.7787,Sun - Thurs: 11:00am to 10:00pm;Fri - Sat: 11:00am to 11:00pm,,0
Logan's Roadhouse,421,1020 N. MILITARY HWY,,NORFOLK,VA,23502,,757-461-6869,36.8594,-76.2097,Sun - Thurs: 11:00am to 10:00pm;Fri - Sat: 11:00am to 11:00pm,,0
Logan's Roadhouse,503,65 WILDERNESS TRAIL,,HAMBURG,PA,19526,,610-562-2055,40.5610,-76.0068,Sun - Thurs: 11:00am to 10:00pm;Fri - Sat: 11:00am to 11:00pm,,0
Logan's Roadhouse,892,13840 Baseline Ave,,Fontana,CA,92335,,9094632290,34.1215387,-117.503049,Sun - Thurs: 11:00am to 10:00pm;Fri - Sat: 11:00am to 11:00pm,,0
Logan's Roadhouse,893,3310 California Ave,,Bakersfield,CA,93304,,6618611447,35.3690441,-119.041068,Sun - Thurs: 11:00am to 10:00pm;Fri - Sat: 11:00am to 11:00pm,,0
Logan's Roadhouse,891,7507 N. Blackstone,,Fresno,CA,93720,,5594379385,36.845841,-119.791224,Sun - Thurs: 11:00am to 10:00pm;Fri - Sat: 11:00am to 11:00pm,,0
Logan's Roadhouse,890,9105 W. Stockton Blvd.,,Elk Grove,CA,95758,,9166848978,38.4270345,-121.3979992,Sun - Thurs: 11:00am to 10:00pm;Fri - Sat: 11:00am to 11:00pm,,0
Logan's Roadhouse,895,3698 North Freeway Blvd.,,Sacramento,CA,95834,,9164198100,38.6378667,-121.4945461,Sun - Thurs: 11:00am to 10:00pm;Fri - Sat: 11:00am to 11:00pm,,0
Logan's Roadhouse,889,1900 E. 20th Street,,Chico,CA,95928,,5308911098,39.728772,-121.810403,Sun - Thurs: 11:00am to 10:00pm;Fri - Sat: 11:00am to 11:00pm,,0
Logan's Roadhouse,888,1955 Hilltop Drive,,Redding,CA,96002,,5302210113,40.5797596,-122.3573363,Sun - Thurs: 11:00am to 10:00pm;Fri - Sat: 11:00am to 11:00pm,,0
