store_name,store_number,address,address2,city,state,zip_code,country,phone_number,latitude,longitude,store_hours,other_fields,coming_soon
,547,Tanger Outlet Rehobeth Beach Ii,36706 Bayside Outlet Dr. Ste. 490,Rehoboth Beach                          ,DE,19971,United States,302-227-8205,38.71507263183594,-75.1089859008789,Sun:10:00 AM-7:00 PM;Mon:9:00 AM-9:00 PM;Tue:9:00 AM-9:00 PM;Wed:9:00 AM-9:00 PM;Thu:9:00 AM-9:00 PM;Fri:9:00 AM-9:00 PM;Sat:9:00 AM-9:00 PM;,,0
,194,Tanger Outlets Surfside,35016 Midway Outlet Dr Ste 306,Rehoboth Beach                          ,DE,19971,United States,302-644-0367,38.735233306884766,-75.14012145996094,Sun:10:00 AM-7:00 PM;Mon:9:00 AM-9:00 PM;Tue:9:00 AM-9:00 PM;Wed:9:00 AM-9:00 PM;Thu:9:00 AM-9:00 PM;Fri:9:00 AM-9:00 PM;Sat:9:00 AM-9:00 PM;,,0
,179,Ocean City Factory Outlets,"12741 Ocean Gateway, Ste 970",Ocean City                              ,MD,21842,United States,410-213-7883,38.338294982910156,-75.10784912109375,Sun:10:00 AM-7:00 PM;Mon:9:00 AM-9:00 PM;Tue:9:00 AM-9:00 PM;Wed:9:00 AM-9:00 PM;Thu:9:00 AM-9:00 PM;Fri:9:00 AM-9:00 PM;Sat:9:00 AM-9:00 PM;,,0
,589,Shoppes At Cross Keys,611 Cross Keys Rd Ste 448,Sicklerville                            ,NJ,08081,United States,856-740-0788,39.733909606933594,-75.00727844238281,Sun:12:00 PM-6:00 PM;Mon:10:00 AM-9:00 PM;Tue:10:00 AM-9:00 PM;Wed:10:00 AM-9:00 PM;Thu:10:00 AM-9:00 PM;Fri:10:00 AM-9:00 PM;Sat:10:00 AM-9:00 PM;,,0
,725,Gloucester Premium Outlets,100 Premium Outlets Drive Suite 933,Blackwood                               ,NJ,08012,United States,856-302-4038,39.78499221801758,-75.05294799804688,Sun:10:00 AM-7:00 PM;Mon:10:00 AM-9:00 PM;Tue:10:00 AM-9:00 PM;Wed:10:00 AM-9:00 PM;Thu:10:00 AM-9:00 PM;Fri:10:00 AM-9:00 PM;Sat:10:00 AM-9:00 PM;,,0
,638,Westfield Annapolis,"1610 Annapolis Mall, Suite 61",Annapolis                               ,MD,21401,United States,410-897-4800,38.9896125793457,-76.54593658447266,Sun:11:00 AM-7:00 PM;Mon:10:00 AM-9:00 PM;Tue:10:00 AM-9:00 PM;Wed:10:00 AM-9:00 PM;Thu:10:00 AM-9:00 PM;Fri:10:00 AM-9:00 PM;Sat:10:00 AM-9:00 PM;,,0
,382,Tollgate Marketplace,615 Bel Air Road,Bel Air                                 ,MD,21014,United States,410-838-8926,39.52449035644531,-76.35398864746094,Sun:12:00 PM-6:00 PM;Mon:10:00 AM-9:00 PM;Tue:10:00 AM-9:00 PM;Wed:10:00 AM-9:00 PM;Thu:10:00 AM-9:00 PM;Fri:10:00 AM-9:00 PM;Sat:10:00 AM-9:00 PM;,,0
,479,Arundel Mills,7000 Arundel Mills Circle,Hanover                                 ,MD,21076,United States,410-540-9325,39.156700134277344,-76.72537231445312,Sun:11:00 AM-7:00 PM;Mon:10:00 AM-9:00 PM;Tue:10:00 AM-9:00 PM;Wed:10:00 AM-9:00 PM;Thu:10:00 AM-9:00 PM;Fri:10:00 AM-9:00 PM;Sat:10:00 AM-9:00 PM;,,0
,626,Towson Town Center Suite 2265,825 Dulaney Valley Rd,Towson                                  ,MD,21204,United States,410-494-1473,39.40427017211914,-76.59812927246094,Sun:11:00 AM-6:00 PM;Mon:10:00 AM-9:00 PM;Tue:10:00 AM-9:00 PM;Wed:10:00 AM-9:00 PM;Thu:10:00 AM-9:00 PM;Fri:10:00 AM-9:00 PM;Sat:10:00 AM-9:00 PM;,,0
,639,Fairfield Place,133 E Swedesford Rd,Exton                                   ,PA,19341,United States,610-524-8284,40.03567886352539,-75.62891387939453,Sun:11:00 AM-6:00 PM;Mon:10:00 AM-9:00 PM;Tue:10:00 AM-9:00 PM;Wed:10:00 AM-9:00 PM;Thu:10:00 AM-9:00 PM;Fri:10:00 AM-9:00 PM;Sat:10:00 AM-9:00 PM;,,0
,684,Philadelphia Mills,1239 Franklin Mills Circle,Philadelphia                            ,PA,19154,United States,215-637-6556,40.08498764038086,-74.96257781982422,Sun:11:00 AM-7:00 PM;Mon:10:00 AM-9:00 PM;Tue:10:00 AM-9:00 PM;Wed:10:00 AM-9:00 PM;Thu:10:00 AM-9:00 PM;Fri:10:00 AM-9:00 PM;Sat:10:00 AM-9:00 PM;,,0
,311,Columbia Crossing,6250 Columbia Crossing Drive Ste C,Columbia                                ,MD,21045,United States,410-312-3002,39.19819259643555,-76.81359100341797,Sun:12:00 PM-6:00 PM;Mon:10:00 AM-9:00 PM;Tue:10:00 AM-9:00 PM;Wed:10:00 AM-9:00 PM;Thu:10:00 AM-9:00 PM;Fri:10:00 AM-9:00 PM;Sat:10:00 AM-9:00 PM;,,0
,655,Willow Grove Park,2500 Moreland Road,Willow Grove                            ,PA,19090,United States,215-657-1342,40.1403694152832,-75.12456512451172,Sun:11:00 AM-6:00 PM;Mon:10:00 AM-9:00 PM;Tue:10:00 AM-9:00 PM;Wed:10:00 AM-9:00 PM;Thu:10:00 AM-9:00 PM;Fri:10:00 AM-9:00 PM;Sat:10:00 AM-9:00 PM;,,0
,332,Potomac Yard,3551 Jefferson Davis Hwy,Alexandria                              ,VA,22305,United States,703-519-3788,38.8390007019043,-77.05180358886719,Sun:11:00 AM-6:00 PM;Mon:10:00 AM-9:00 PM;Tue:10:00 AM-9:00 PM;Wed:10:00 AM-9:00 PM;Thu:10:00 AM-9:00 PM;Fri:10:00 AM-9:00 PM;Sat:10:00 AM-9:00 PM;,,0
,590,Shoppes @ Hamilton,545 Route 130 Ste 558,Hamilton                                ,NJ,08691,United States,609-585-3303,40.1855583190918,-74.65482330322266,Sun:12:00 PM-6:00 PM;Mon:10:00 AM-9:00 PM;Tue:10:00 AM-9:00 PM;Wed:10:00 AM-9:00 PM;Thu:10:00 AM-9:00 PM;Fri:10:00 AM-9:00 PM;Sat:10:00 AM-9:00 PM;,,0
,824,Rockvale Outlet Center,35 S Willowdale Dr Ste706,Lancaster                               ,PA,17602,United States,717-509-7715,40.02066421508789,-76.19454193115234,Sun:11:00 AM-5:00 PM;Mon:9:30 AM-9:00 PM;Tue:9:30 AM-9:00 PM;Wed:9:30 AM-9:00 PM;Thu:9:30 AM-9:00 PM;Fri:9:30 AM-9:00 PM;Sat:9:30 AM-9:00 PM;,,0
,695,Springfield Town Center,6500 Springfield Mall,Springfield                             ,VA,22150,United States,703-922-6520,38.77389907836914,-77.17459869384766,Sun:11:00 AM-7:00 PM;Mon:10:00 AM-9:30 PM;Tue:10:00 AM-9:30 PM;Wed:10:00 AM-9:30 PM;Thu:10:00 AM-9:30 PM;Fri:10:00 AM-9:30 PM;Sat:10:00 AM-9:30 PM;,,0
,31,Potomac Mills,2700 Potomac Mills Cir Ste 330,Woodbridge                              ,VA,22192,United States,703-490-1033,38.643218994140625,-77.29532623291016,Sun:11:00 AM-6:00 PM;Mon:10:00 AM-9:00 PM;Tue:10:00 AM-9:00 PM;Wed:10:00 AM-9:00 PM;Thu:10:00 AM-9:00 PM;Fri:10:00 AM-9:00 PM;Sat:10:00 AM-9:00 PM;,,0
,712,Fox Mill,6712 Fox Centre Pkwy,Gloucester                              ,VA,23061,United States,804-792-5011,37.39817810058594,-76.5294189453125,Sun:12:00 PM-6:00 PM;Mon:10:00 AM-9:00 PM;Tue:10:00 AM-9:00 PM;Wed:10:00 AM-9:00 PM;Thu:10:00 AM-9:00 PM;Fri:10:00 AM-9:00 PM;Sat:10:00 AM-9:00 PM;,,0
,579,The Shoppes At Wyomissing,"788 Woodland Rd, Space C-2",Wyomissing                              ,PA,19610,United States,610-373-0186,40.35007095336914,-75.9635238647461,Sun:11:00 AM-6:00 PM;Mon:10:00 AM-9:00 PM;Tue:10:00 AM-9:00 PM;Wed:10:00 AM-9:00 PM;Thu:10:00 AM-9:00 PM;Fri:10:00 AM-9:00 PM;Sat:10:00 AM-9:00 PM;,,0
,757,Clarksburg Premium Outlets,"22705 Clarksburg Rd, Suite 724",Clarksburg                              ,MD,20871,United States,301-916-4520,39.228580474853516,-77.2861328125,Sun:10:00 AM-7:00 PM;Mon:10:00 AM-9:00 PM;Tue:10:00 AM-9:00 PM;Wed:10:00 AM-9:00 PM;Thu:10:00 AM-9:00 PM;Fri:10:00 AM-9:00 PM;Sat:10:00 AM-9:00 PM;,,0
,222,Dulles Town Crossing,45575 Dulles Eastern Plz Ste 139,Dulles                                  ,VA,20166,United States,703-421-3411,39.0244140625,-77.42254638671875,Sun:12:00 PM-6:00 PM;Mon:10:00 AM-9:00 PM;Tue:10:00 AM-9:00 PM;Wed:10:00 AM-9:00 PM;Thu:10:00 AM-9:00 PM;Fri:10:00 AM-9:00 PM;Sat:10:00 AM-9:00 PM;,,0
,323,Monticello Marketplace,4640-4 Monticello Ave.,Williamsburg                            ,VA,23188,United States,757-259-9446,37.272151947021484,-76.76073455810547,Sun:12:00 PM-6:00 PM;Mon:10:00 AM-9:00 PM;Tue:10:00 AM-9:00 PM;Wed:10:00 AM-9:00 PM;Thu:10:00 AM-9:00 PM;Fri:10:00 AM-9:00 PM;Sat:10:00 AM-9:00 PM;,,0
,51,Coliseum Crossing,24 Coliseum Crossing,Hampton                                 ,VA,23666,United States,757-826-9556,37.04785919189453,-76.39334106445312,Sun:12:00 PM-6:00 PM;Mon:10:00 AM-9:00 PM;Tue:10:00 AM-9:00 PM;Wed:10:00 AM-9:00 PM;Thu:10:00 AM-9:00 PM;Fri:10:00 AM-9:00 PM;Sat:10:00 AM-9:00 PM;,,0
,482,Cosner'S Corners,9757 Jefferson Davis Highway,Fredericksburg                          ,VA,22407,United States,540-710-6907,38.22257995605469,-77.50216674804688,Sun:10:00 AM-6:00 PM;Mon:10:00 AM-9:00 PM;Tue:10:00 AM-9:00 PM;Wed:10:00 AM-9:00 PM;Thu:10:00 AM-9:00 PM;Fri:10:00 AM-9:00 PM;Sat:10:00 AM-9:00 PM;,,0
,654,Palmer Park Mall,148 Palmer Park Mall,Easton                                  ,PA,18045,United States,610-923-3627,40.69644546508789,-75.25923919677734,Sun:11:00 AM-6:00 PM;Mon:10:00 AM-9:00 PM;Tue:10:00 AM-9:00 PM;Wed:10:00 AM-9:00 PM;Thu:10:00 AM-9:00 PM;Fri:10:00 AM-9:00 PM;Sat:10:00 AM-9:00 PM;,,0
,680,Staten Island Mall,2655 Richmond Ave Space 1340,Staten Island                           ,NY,10314,United States,718-477-0417,40.58074951171875,-74.16608428955078,Sun:11:00 AM-6:00 PM;Mon:10:00 AM-9:00 PM;Tue:10:00 AM-9:00 PM;Wed:10:00 AM-9:00 PM;Thu:10:00 AM-9:00 PM;Fri:10:00 AM-9:00 PM;Sat:10:00 AM-9:00 PM;,,0
,389,Red Mill Commons,1169 Nimmo Pkwy Ste 226,Virginia Beach                          ,VA,23456,United States,757-427-9481,36.76153564453125,-76.01023864746094,Sun:11:00 AM-6:00 PM;Mon:10:00 AM-9:00 PM;Tue:10:00 AM-9:00 PM;Wed:10:00 AM-9:00 PM;Thu:10:00 AM-9:00 PM;Fri:10:00 AM-9:00 PM;Sat:10:00 AM-9:00 PM;,,0
,554,Landstown Commons,3300 Princess Anne Rd Ste 745,Virginia Beach                          ,VA,23456,United States,757-368-4414,36.772945404052734,-76.08568572998047,Sun:12:00 PM-6:00 PM;Mon:10:00 AM-9:00 PM;Tue:10:00 AM-9:00 PM;Wed:10:00 AM-9:00 PM;Thu:10:00 AM-9:00 PM;Fri:10:00 AM-9:00 PM;Sat:10:00 AM-9:00 PM;,,0
,260,Greenbrier Mall,1401 Greenbrier Parkway South,Chesapeake                              ,VA,23320,United States,757-424-7990,36.779571533203125,-76.22740173339844,Sun:12:00 PM-5:30 PM;Mon:10:00 AM-9:00 PM;Tue:10:00 AM-9:00 PM;Wed:10:00 AM-9:00 PM;Thu:10:00 AM-9:00 PM;Fri:10:00 AM-9:00 PM;Sat:10:00 AM-9:00 PM;,,0
,96,Crossways Shopping Center,1412 Greenbrier Pkwy Ste 101,Chesapeake                              ,VA,23320,United States,757-366-0280,36.77722930908203,-76.23455047607422,Sun:12:00 PM-6:00 PM;Mon:10:00 AM-9:00 PM;Tue:10:00 AM-9:00 PM;Wed:10:00 AM-9:00 PM;Thu:10:00 AM-9:00 PM;Fri:10:00 AM-9:00 PM;Sat:10:00 AM-9:00 PM;,,0
,575,White Oak Village,4501 S Laburnum Avenue  Suite 550,Richmond                                ,VA,23231,United States,804-222-5279,37.52732467651367,-77.3535385131836,Sun:12:00 PM-6:00 PM;Mon:10:00 AM-9:00 PM;Tue:10:00 AM-9:00 PM;Wed:10:00 AM-9:00 PM;Thu:10:00 AM-9:00 PM;Fri:10:00 AM-9:00 PM;Sat:10:00 AM-9:00 PM;,,0
,327,Chesapeake Square,4200 Portsmouth Blvd. Sp 752,Chesapeake                              ,VA,23321,United States,757-405-5501,36.82605743408203,-76.41566467285156,Sun:12:00 PM-6:00 PM;Mon:10:00 AM-9:00 PM;Tue:10:00 AM-9:00 PM;Wed:10:00 AM-9:00 PM;Thu:10:00 AM-9:00 PM;Fri:10:00 AM-9:00 PM;Sat:10:00 AM-9:00 PM;,,0
,129,Shops @ Willow Lawn,1601 Willow Lawn Dr Ste 103b,Richmond                                ,VA,23230,United States,804-288-7824,37.582061767578125,-77.49819946289062,Sun:12:30 PM-5:30 PM;Mon:10:00 AM-9:00 PM;Tue:10:00 AM-9:00 PM;Wed:10:00 AM-9:00 PM;Thu:10:00 AM-9:00 PM;Fri:10:00 AM-9:00 PM;Sat:10:00 AM-9:00 PM;,,0
,272,Hagerstown Premium Outlets,735 Premium Outlets Blvd,Hagerstown                              ,MD,21740,United States,301-791-5979,39.60953140258789,-77.73365020751953,Sun:10:00 AM-7:00 PM;Mon:10:00 AM-9:00 PM;Tue:10:00 AM-9:00 PM;Wed:10:00 AM-9:00 PM;Thu:10:00 AM-9:00 PM;Fri:10:00 AM-9:00 PM;Sat:10:00 AM-9:00 PM;,,0
,759,West Broad Marketplace,12228 W Broad St,Richmond                                ,VA,23233,United States,804-360-3451,37.66151428222656,-77.6338882446289,Sun:12:00 AM-6:00 PM;Mon:10:00 AM-9:00 PM;Tue:10:00 AM-9:00 PM;Wed:10:00 AM-9:00 PM;Thu:10:00 AM-9:00 PM;Fri:10:00 AM-9:00 PM;Sat:10:00 AM-9:00 PM;,,0
,393,Commonwealth Centre,4808 Commonwealth Centre Pkwy,Midlothian                              ,VA,23112,United States,804-744-5180,37.41758728027344,-77.63191223144531,Sun:12:00 PM-6:00 PM;Mon:10:00 AM-9:00 PM;Tue:10:00 AM-9:00 PM;Wed:10:00 AM-9:00 PM;Thu:10:00 AM-9:00 PM;Fri:10:00 AM-9:00 PM;Sat:10:00 AM-9:00 PM;,,0
,688,Tanglewood,"3850 Conlon Way, Ste H",Elizabeth City                          ,NC,27909,United States,252-330-4954,36.2964973449707,-76.29376220703125,Sun:12:00 PM-6:00 PM;Mon:10:00 AM-9:00 PM;Tue:10:00 AM-9:00 PM;Wed:10:00 AM-9:00 PM;Thu:10:00 AM-9:00 PM;Fri:10:00 AM-9:00 PM;Sat:10:00 AM-9:00 PM;,,0
,103,Rio Hill Shopping Center,1800 Rio Hill Center,Charlottesville                         ,VA,22901,United States,434-974-7303,38.086978912353516,-78.47404479980469,Sun:12:00 PM-6:00 PM;Mon:10:00 AM-9:00 PM;Tue:10:00 AM-9:00 PM;Wed:10:00 AM-9:00 PM;Thu:10:00 AM-9:00 PM;Fri:10:00 AM-9:00 PM;Sat:10:00 AM-9:00 PM;,,0
,632,Dare Centre,1700 North Croatan Hwy; Mile Post 7,Kill Devil Hills                        ,NC,27948,United States,252-255-1400,36.009212493896484,-75.65836334228516,Sun:12:00 PM-6:00 PM;Mon:10:00 AM-9:00 PM;Tue:10:00 AM-9:00 PM;Wed:10:00 AM-9:00 PM;Thu:10:00 AM-9:00 PM;Fri:10:00 AM-9:00 PM;Sat:10:00 AM-9:00 PM;,,0
,181,Barracks Road Shopping Center,1105 Emmett St,Charlottesville                         ,VA,22903,United States,434-293-8613,38.051666259765625,-78.50178527832031,Sun:12:00 PM-6:00 PM;Mon:10:00 AM-9:00 PM;Tue:10:00 AM-9:00 PM;Wed:10:00 AM-9:00 PM;Thu:10:00 AM-9:00 PM;Fri:10:00 AM-9:00 PM;Sat:10:00 AM-9:00 PM;,,0
,92,Tanger Factory Outlet Center,7100 S Croatan Hwy Ste 140,Nags Head                               ,NC,27959,United States,252-441-9288,35.909523010253906,-75.5996322631836,Sun:10:00 AM-7:00 PM;Mon:9:00 AM-9:00 PM;Tue:9:00 AM-9:00 PM;Wed:9:00 AM-9:00 PM;Thu:9:00 AM-9:00 PM;Fri:9:00 AM-9:00 PM;Sat:9:00 AM-9:00 PM;,,0
,286,Valley Mall,1925 E Market St Ste 420,Harrisonburg                            ,VA,22801,United States,540-432-2338,38.42795944213867,-78.84361267089844,Sun:12:30 PM-5:30 PM;Mon:10:00 AM-9:00 PM;Tue:10:00 AM-9:00 PM;Wed:10:00 AM-9:00 PM;Thu:10:00 AM-9:00 PM;Fri:10:00 AM-9:00 PM;Sat:10:00 AM-9:00 PM;,,0
,508,Waynesboro Town Center,831-A Town Center Dr,Waynesboro                              ,VA,22980,United States,540-942-5365,38.0546760559082,-78.94395446777344,Sun:12:00 PM-6:00 PM;Mon:10:00 AM-9:00 PM;Tue:10:00 AM-9:00 PM;Wed:10:00 AM-9:00 PM;Thu:10:00 AM-9:00 PM;Fri:10:00 AM-9:00 PM;Sat:10:00 AM-9:00 PM;,,0
,678,Tanger Outlet Center - Westbrook,314 Flat Rock Place,Westbrook                               ,CT,06498,United States,860-399-0072,41.28999710083008,-72.4312744140625,Sun:10:00 AM-7:00 PM;Mon:9:00 AM-9:00 PM;Tue:9:00 AM-9:00 PM;Wed:9:00 AM-9:00 PM;Thu:9:00 AM-9:00 PM;Fri:9:00 AM-9:00 PM;Sat:9:00 AM-9:00 PM;,,0
,116,Wards Crossing,4026 E Wards Rd,Lynchburg                               ,VA,24502,United States,434-237-8568,37.347572326660156,-79.19085693359375,Sun:12:00 PM-6:00 PM;Mon:10:00 AM-9:00 PM;Tue:10:00 AM-9:00 PM;Wed:10:00 AM-9:00 PM;Thu:10:00 AM-9:00 PM;Fri:10:00 AM-9:00 PM;Sat:10:00 AM-9:00 PM;,,0
,239,Greenville Mall,714 Greenville Blvd Se Ste Nw2,Greenville                              ,NC,27858,United States,252-756-3484,35.585716247558594,-77.3695297241211,Sun:12:00 PM-6:00 PM;Mon:10:00 AM-9:00 PM;Tue:10:00 AM-9:00 PM;Wed:10:00 AM-9:00 PM;Thu:10:00 AM-9:00 PM;Fri:10:00 AM-9:00 PM;Sat:10:00 AM-9:00 PM;,,0
,621,The Shoppes At Buckland Hills,194 Buckland Hills Drive,Manchester                              ,CT,06042,United States,860-648-0375,41.8072624206543,-72.54639434814453,Sun:11:00 AM-6:00 PM;Mon:10:00 AM-9:00 PM;Tue:10:00 AM-9:00 PM;Wed:10:00 AM-9:00 PM;Thu:10:00 AM-9:00 PM;Fri:10:00 AM-9:00 PM;Sat:10:00 AM-9:00 PM;,,0
,501,Heritage Crossing,3401 Raleigh Road Pkwy W Ste 2f,Wilson                                  ,NC,27896,United States,252-234-7463,35.743141174316406,-77.96381378173828,Sun:12:00 PM-6:00 PM;Mon:10:00 AM-9:00 PM;Tue:10:00 AM-9:00 PM;Wed:10:00 AM-9:00 PM;Thu:10:00 AM-9:00 PM;Fri:10:00 AM-9:00 PM;Sat:10:00 AM-9:00 PM;,,0
,699,Wake Forest Crossing Ii,12646 Capital Blvd Suite 100,Wake Forest                             ,NC,27587,United States,919-570-0021,35.9878044128418,-78.52963256835938,Sun:12:00 PM-6:00 PM;Mon:10:00 AM-9:00 PM;Tue:10:00 AM-9:00 PM;Wed:10:00 AM-9:00 PM;Thu:10:00 AM-9:00 PM;Fri:10:00 AM-9:00 PM;Sat:10:00 AM-9:00 PM;,,0
,620,Holyoke Mall,50 Holyoke Street,Holyoke                                 ,MA,01040,United States,413-536-0452,42.16930389404297,-72.64081573486328,Sun:11:00 AM-6:00 PM;Mon:10:00 AM-9:30 PM;Tue:10:00 AM-9:30 PM;Wed:10:00 AM-9:30 PM;Thu:10:00 AM-9:30 PM;Fri:10:00 AM-9:30 PM;Sat:10:00 AM-9:30 PM;,,0
,474,Shoppes At Midway Plantation,1004 E Shoppes @ Midway Drive,Knightdale                              ,NC,27545,United States,919-217-4932,35.79874801635742,-78.50840759277344,Sun:1:00 PM-6:00 PM;Mon:10:00 AM-9:00 PM;Tue:10:00 AM-9:00 PM;Wed:10:00 AM-9:00 PM;Thu:10:00 AM-9:00 PM;Fri:10:00 AM-9:00 PM;Sat:10:00 AM-9:00 PM;,,0
,184,The Danville Mall,325 Piedmont Drive Ste 535,Danville                                ,VA,24540,United States,434-792-5025,36.593814849853516,-79.42095947265625,Sun:12:00 PM-6:00 PM;Mon:10:00 AM-9:00 PM;Tue:10:00 AM-9:00 PM;Wed:10:00 AM-9:00 PM;Thu:10:00 AM-9:00 PM;Fri:10:00 AM-9:00 PM;Sat:10:00 AM-9:00 PM;,,0
,466,Goldsboro Commons,1215 N Berkeley Blvd,Goldsboro                               ,NC,27534,United States,919-778-8704,35.38337326049805,-77.9311752319336,Sun:12:00 PM-6:00 PM;Mon:10:00 AM-9:00 PM;Tue:10:00 AM-9:00 PM;Wed:10:00 AM-9:00 PM;Thu:10:00 AM-9:00 PM;Fri:10:00 AM-9:00 PM;Sat:10:00 AM-9:00 PM;,,0
,442,Crabtree Valley Mall,4325 Glenwood Ave Ste 1053,Raleigh                                 ,NC,27612,United States,919-783-8924,35.840087890625,-78.67939758300781,Sun:12:00 PM-7:00 PM;Mon:10:00 AM-9:00 PM;Tue:10:00 AM-9:00 PM;Wed:10:00 AM-9:00 PM;Thu:10:00 AM-9:00 PM;Fri:10:00 AM-9:00 PM;Sat:10:00 AM-9:00 PM;,,0
,52,Brier Creek Commons,8221 Brier Creek Pkwy,Raleigh                                 ,NC,27617,United States,919-806-2839,35.90852355957031,-78.78335571289062,Sun:1:00 PM-6:00 PM;Mon:10:00 AM-9:00 PM;Tue:10:00 AM-9:00 PM;Wed:10:00 AM-9:00 PM;Thu:10:00 AM-9:00 PM;Fri:10:00 AM-9:00 PM;Sat:10:00 AM-9:00 PM;,,0
,14,Valley View Station,4744 Valley View Blvd,Roanoke                                 ,VA,24012,United States,540-366-5174,37.3012809753418,-79.95594024658203,Sun:12:00 PM-6:00 PM;Mon:10:00 AM-9:00 PM;Tue:10:00 AM-9:00 PM;Wed:10:00 AM-9:00 PM;Thu:10:00 AM-9:00 PM;Fri:10:00 AM-9:00 PM;Sat:10:00 AM-9:00 PM;,,0
,264,White Oak Crossing,135 Shenstone Blvd,Garner                                  ,NC,27529,United States,919-773-2274,35.69511413574219,-78.58071899414062,Sun:12:00 PM-7:00 PM;Mon:10:00 AM-9:00 PM;Tue:10:00 AM-9:00 PM;Wed:10:00 AM-9:00 PM;Thu:10:00 AM-9:00 PM;Fri:10:00 AM-9:00 PM;Sat:10:00 AM-9:00 PM;,,0
,262,Carolina Premium Outlets,1025 Outlet Center Dr Ste 940,Smithfield                              ,NC,27577,United States,919-934-4222,35.51041030883789,-78.31184387207031,Sun:11:00 AM-7:00 PM;Mon:10:00 AM-9:00 PM;Tue:10:00 AM-9:00 PM;Wed:10:00 AM-9:00 PM;Thu:10:00 AM-9:00 PM;Fri:10:00 AM-9:00 PM;Sat:10:00 AM-9:00 PM;,,0
,66,Hunting Hills Plaza,4210 Franklin Rd Sw Suite C,Roanoke                                 ,VA,24014,United States,540-774-4827,37.22443389892578,-79.96625518798828,Sun:12:00 PM-6:00 PM;Mon:10:00 AM-9:00 PM;Tue:10:00 AM-9:00 PM;Wed:10:00 AM-9:00 PM;Thu:10:00 AM-9:00 PM;Fri:10:00 AM-9:00 PM;Sat:10:00 AM-9:00 PM;,,0
,219,Cary Towne Center,1105 Walnut St  Ste G-1168,Cary                                    ,NC,27511,United States,919-460-9950,35.77277374267578,-78.76089477539062,Sun:12:00 PM-6:00 PM;Mon:10:00 AM-9:00 PM;Tue:10:00 AM-9:00 PM;Wed:10:00 AM-9:00 PM;Thu:10:00 AM-9:00 PM;Fri:10:00 AM-9:00 PM;Sat:10:00 AM-9:00 PM;,,0
,618,Park West Village,3017 Market Center Drive,Morrisville                             ,NC,27560,United States,919-481-3931,35.808677673339844,-78.8155746459961,Sun:11:00 AM-6:00 PM;Mon:10:00 AM-9:00 PM;Tue:10:00 AM-9:00 PM;Wed:10:00 AM-9:00 PM;Thu:10:00 AM-9:00 PM;Fri:10:00 AM-9:00 PM;Sat:10:00 AM-9:00 PM;,,0
,134,Crossroads Plaza,318 Crossroads Blvd,Cary                                    ,NC,27518,United States,919-233-2031,35.75970458984375,-78.73902130126953,Sun:12:00 PM-6:00 PM;Mon:10:00 AM-9:00 PM;Tue:10:00 AM-9:00 PM;Wed:10:00 AM-9:00 PM;Thu:10:00 AM-9:00 PM;Fri:10:00 AM-9:00 PM;Sat:10:00 AM-9:00 PM;,,0
,42,The Streets At Southpoint,6910 Fayetteville Rd Ste 199,Durham                                  ,NC,27713,United States,919-806-5131,35.90311813354492,-78.94168853759766,Sun:12:00 PM-7:00 PM;Mon:10:00 AM-9:00 PM;Tue:10:00 AM-9:00 PM;Wed:10:00 AM-9:00 PM;Thu:10:00 AM-9:00 PM;Fri:10:00 AM-9:00 PM;Sat:10:00 AM-9:00 PM;,,0
,738,Cypress Bay Plaza,5167 Hwy 70 W Ste 30,Morehead City                           ,NC,28557,United States,252-240-0002,34.73639678955078,-76.80685424804688,Sun:12:00 PM-6:00 PM;Mon:10:00 AM-9:00 PM;Tue:10:00 AM-9:00 PM;Wed:10:00 AM-9:00 PM;Thu:10:00 AM-9:00 PM;Fri:10:00 AM-9:00 PM;Sat:10:00 AM-9:00 PM;,,0
,611,Piedmont Outlet Center,"4000 Arrowhead Blvd, Ste 660",Mebane                                  ,NC,27302,United States,919-563-2027,36.07526397705078,-79.26579284667969,Sun:11:00 AM-7:00 PM;Mon:9:00 AM-9:00 PM;Tue:9:00 AM-9:00 PM;Wed:9:00 AM-9:00 PM;Thu:9:00 AM-9:00 PM;Fri:9:00 AM-9:00 PM;Sat:9:00 AM-9:00 PM;,,0
,625,Providence Place,138 Providence Place Suite 4210,Providence                              ,RI,02903,United States,401-270-7536,41.8264045715332,-71.41661834716797,Sun:11:00 AM-6:00 PM;Mon:10:00 AM-9:00 PM;Tue:10:00 AM-9:00 PM;Wed:10:00 AM-9:00 PM;Thu:10:00 AM-9:00 PM;Fri:10:00 AM-9:00 PM;Sat:10:00 AM-9:00 PM;,,0
,708,Tanger Outlet Center Pittsburgh,2200 Tanger Blvd,Washington                              ,PA,15301,United States,724-222-3784,40.2158317565918,-80.2133560180664,Sun:10:00 AM-7:00 PM;Mon:09:00 AM-09:00 PM;Tue:09:00 AM-09:00 PM;Wed:09:00 AM-09:00 PM;Thu:09:00 AM-09:00 PM;Fri:09:00 AM-09:00 PM;Sat:09:00 AM-09:00 PM;,,0
,79,Village Of Martinsville,240 Commonwealth Blvd W Spc 310,Martinsville                            ,VA,24112,United States,276-790-0332,36.69859313964844,-79.87855529785156,Sun:12:00 PM-6:00 PM;Mon:10:00 AM-9:00 PM;Tue:10:00 AM-9:00 PM;Wed:10:00 AM-9:00 PM;Thu:10:00 AM-9:00 PM;Fri:10:00 AM-9:00 PM;Sat:10:00 AM-9:00 PM;,,0
,722,Colette-Jackson,1112 Hampton Inn Way Ste 100,Jacksonville                            ,NC,28546,United States,910-937-0059,34.787635803222656,-77.40694427490234,Sun:12:00 PM-6:00 PM;Mon:10:00 AM-9:00 PM;Tue:10:00 AM-9:00 PM;Wed:10:00 AM-9:00 PM;Thu:10:00 AM-9:00 PM;Fri:10:00 AM-9:00 PM;Sat:10:00 AM-9:00 PM;,,0
,468,University Commons,1451 University Dr Ste B,Burlington                              ,NC,27215,United States,336-538-1698,36.06636428833008,-79.5186996459961,Sun:12:00 PM-6:00 PM;Mon:10:00 AM-9:00 PM;Tue:10:00 AM-9:00 PM;Wed:10:00 AM-9:00 PM;Thu:10:00 AM-9:00 PM;Fri:10:00 AM-9:00 PM;Sat:10:00 AM-9:00 PM;,,0
,119,Spradlin Farms Shopping Center,170 Conston Ave,Christiansburg                          ,VA,24073,United States,540-381-2092,37.15873336791992,-80.42475128173828,Sun:12:00 PM-6:00 PM;Mon:9:30 AM-9:00 PM;Tue:9:30 AM-9:00 PM;Wed:9:30 AM-9:00 PM;Thu:9:30 AM-9:00 PM;Fri:9:30 AM-9:00 PM;Sat:9:30 AM-9:00 PM;,,0
,39,Northwest Centre,2809 Battleground Ave,Greensboro                              ,NC,27408,United States,336-282-5640,36.110496520996094,-79.83050537109375,Sun:12:00 PM-6:00 PM;Mon:10:00 AM-9:00 PM;Tue:10:00 AM-9:00 PM;Wed:10:00 AM-9:00 PM;Thu:10:00 AM-9:00 PM;Fri:10:00 AM-9:00 PM;Sat:10:00 AM-9:00 PM;,,0
,300,Friendly Center,620 Friendly Center Road,Greensboro                              ,NC,27408,United States,336-218-0680,36.084014892578125,-79.83025360107422,Sun:12:00 PM-6:00 PM;Mon:10:00 AM-9:00 PM;Tue:10:00 AM-9:00 PM;Wed:10:00 AM-9:00 PM;Thu:10:00 AM-9:00 PM;Fri:10:00 AM-9:00 PM;Sat:10:00 AM-9:00 PM;,,0
,670,Shops At Cameron Place,3044 S Horner Blvd,Sanford                                 ,NC,27332,United States,919-718-9030,35.449668884277344,-79.1374282836914,Sun:12:00 PM-7:00 PM;Mon:10:00 AM-9:00 PM;Tue:10:00 AM-9:00 PM;Wed:10:00 AM-9:00 PM;Thu:10:00 AM-9:00 PM;Fri:10:00 AM-9:00 PM;Sat:10:00 AM-9:00 PM;,,0
,365,Jefferson Village,1610 Highwoods Blvd Ste F109,Greensboro                              ,NC,27410,United States,336-299-7314,36.112918853759766,-79.87857818603516,Sun:12:00 PM-6:00 PM;Mon:10:00 AM-9:00 PM;Tue:10:00 AM-9:00 PM;Wed:10:00 AM-9:00 PM;Thu:10:00 AM-9:00 PM;Fri:10:00 AM-9:00 PM;Sat:10:00 AM-9:00 PM;,,0
,735,Four Seasons Town Centre,410 Four Seasons Blvd,Greensboro                              ,NC,27427,United States,336-547-9357,36.03954315185547,-79.83799743652344,Sun:12:00 PM-6:00 PM;Mon:10:00 AM-9:00 PM;Tue:10:00 AM-9:00 PM;Wed:10:00 AM-9:00 PM;Thu:10:00 AM-9:00 PM;Fri:10:00 AM-9:00 PM;Sat:10:00 AM-9:00 PM;,,0
,488,Southside Square,1022-C South Main St,Kernersville                            ,NC,27284,United States,336-993-2501,36.10939025878906,-80.09803771972656,Sun:12:00 PM-6:00 PM;Mon:10:00 AM-9:00 PM;Tue:10:00 AM-9:00 PM;Wed:10:00 AM-9:00 PM;Thu:10:00 AM-9:00 PM;Fri:10:00 AM-9:00 PM;Sat:10:00 AM-9:00 PM;,,0
,10,High Point Mall,265 Eastchester Dr Ste 126,High Point                              ,NC,27262,United States,336-889-3686,35.9843864440918,-80.01873779296875,Sun:12:00 PM-6:00 PM;Mon:10:00 AM-9:00 PM;Tue:10:00 AM-9:00 PM;Wed:10:00 AM-9:00 PM;Thu:10:00 AM-9:00 PM;Fri:10:00 AM-9:00 PM;Sat:10:00 AM-9:00 PM;,,0
,13,Fayetteville Pavillion,2065 Skibo Rd Unit 1,Fayetteville                            ,NC,28314,United States,910-868-4244,35.053871154785156,-78.9725341796875,Sun:11:00 AM-6:00 PM;Mon:10:00 AM-9:00 PM;Tue:10:00 AM-9:00 PM;Wed:10:00 AM-9:00 PM;Thu:10:00 AM-9:00 PM;Fri:10:00 AM-9:00 PM;Sat:10:00 AM-9:00 PM;,,0
,67,Thruway Shopping Center,220 S Stratford Rd,Winston-Salem                           ,NC,27103,United States,336-721-9444,36.09312438964844,-80.28168487548828,Sun:12:00 PM-6:00 PM;Mon:10:00 AM-9:00 PM;Tue:10:00 AM-9:00 PM;Wed:10:00 AM-9:00 PM;Thu:10:00 AM-9:00 PM;Fri:10:00 AM-9:00 PM;Sat:10:00 AM-9:00 PM;,,0
,15,Hanes Mall,3320 Silas Creek Pkwy Ste 6608,Winston-Salem                           ,NC,27103,United States,336-768-6401,36.07094955444336,-80.29983520507812,Sun:12:00 PM-6:00 PM;Mon:10:00 AM-9:00 PM;Tue:10:00 AM-9:00 PM;Wed:10:00 AM-9:00 PM;Thu:10:00 AM-9:00 PM;Fri:10:00 AM-9:00 PM;Sat:10:00 AM-9:00 PM;,,0
,18,Aberdeen Commons,11088 N Us Highway 15 501 Unit 400,Aberdeen                                ,NC,28315,United States,910-246-0055,35.15598678588867,-79.41959381103516,Sun:12:00 PM-6:00 PM;Mon:10:00 AM-9:00 PM;Tue:10:00 AM-9:00 PM;Wed:10:00 AM-9:00 PM;Thu:10:00 AM-9:00 PM;Fri:10:00 AM-9:00 PM;Sat:10:00 AM-9:00 PM;,,0
,7,Mayfair Town Center,6876 Main St Bldg Cd-106,Wilmington                              ,NC,28405,United States,910-256-8728,34.242122650146484,-77.82911682128906,Sun:12:00 PM-6:00 PM;Mon:10:00 AM-9:00 PM;Tue:10:00 AM-9:00 PM;Wed:10:00 AM-9:00 PM;Thu:10:00 AM-9:00 PM;Fri:10:00 AM-9:00 PM;Sat:10:00 AM-9:00 PM;,,0
,622,Northshore Mall,210 Andover Street,Peabody                                 ,MA,01960,United States,978-977-2792,42.541656494140625,-70.94506072998047,Sun:11:00 AM-6:00 PM;Mon:10:00 AM-9:00 PM;Tue:10:00 AM-9:00 PM;Wed:10:00 AM-9:00 PM;Thu:10:00 AM-9:00 PM;Fri:10:00 AM-9:00 PM;Sat:10:00 AM-9:00 PM;,,0
,223,Independence Mall,3500 Oleander Dr Ste 6e And 7e,Wilmington                              ,NC,28403,United States,910-395-8460,34.21459197998047,-77.9065170288086,Sun:1:00 PM-6:00 PM;Mon:10:00 AM-9:00 PM;Tue:10:00 AM-9:00 PM;Wed:10:00 AM-9:00 PM;Thu:10:00 AM-9:00 PM;Fri:10:00 AM-9:00 PM;Sat:10:00 AM-9:00 PM;,,0
,728,Charleston Town Center,3000 Charleston Town Center Sp2057,Charleston                              ,WV,25389,United States,304-345-7076,38.353214263916016,-81.6379165649414,Sun:12:30 PM-6:00 PM;Mon:10:00 AM-9:00 PM;Tue:10:00 AM-9:00 PM;Wed:10:00 AM-9:00 PM;Thu:10:00 AM-9:00 PM;Fri:10:00 AM-9:00 PM;Sat:10:00 AM-9:00 PM;,,0
,201,Salisbury,230 Faith Road,Salisbury                               ,NC,28146,United States,704-647-0576,35.65256118774414,-80.45781707763672,Sun:12:00 PM-6:00 PM;Mon:10:00 AM-9:00 PM;Tue:10:00 AM-9:00 PM;Wed:10:00 AM-9:00 PM;Thu:10:00 AM-9:00 PM;Fri:10:00 AM-9:00 PM;Sat:9:00 AM-9:00 PM;,,0
,700,Olive Place Shopping Center,780c Leonard Ave,Albemarle                               ,NC,28001,United States,704-983-6158,35.33946990966797,-80.1784439086914,Sun:12:00 PM-7:00 PM;Mon:10:00 AM-9:00 PM;Tue:10:00 AM-9:00 PM;Wed:10:00 AM-9:00 PM;Thu:10:00 AM-9:00 PM;Fri:10:00 AM-9:00 PM;Sat:10:00 AM-9:00 PM;,,0
,814,Newtowne Plaza,1537 East Broad Street,Statesville                             ,NC,28625,United States,704-883-9667,35.79216766357422,-80.85980987548828,Sun:12:00 PM-7:00 PM;Mon:10:00 AM-8:00 PM;Tue:10:00 AM-8:00 PM;Wed:10:00 AM-8:00 PM;Thu:10:00 AM-8:00 PM;Fri:10:00 AM-8:00 PM;Sat:10:00 AM-8:00 PM;,,0
,499,Afton Ridge,6230 Bayfield Pkwy Ste 600,Concord                                 ,NC,28027,United States,704-786-4374,35.41598129272461,-80.6794204711914,Sun:12:00 PM-6:00 PM;Mon:10:00 AM-9:00 PM;Tue:10:00 AM-9:00 PM;Wed:10:00 AM-9:00 PM;Thu:10:00 AM-9:00 PM;Fri:10:00 AM-9:00 PM;Sat:10:00 AM-9:00 PM;,,0
,429,Winslow Bay Commons,598-F River Hwy,Mooresville                             ,NC,28117,United States,704-799-9912,35.59829330444336,-80.87377166748047,Sun:11:00 AM-6:00 PM;Mon:9:00 AM-9:00 PM;Tue:9:00 AM-9:00 PM;Wed:9:00 AM-9:00 PM;Thu:9:00 AM-9:00 PM;Fri:9:00 AM-9:00 PM;Sat:9:00 AM-9:00 PM;,,0
,358,Concord Mills,8111 Concord Mills Blvd Ste 346,Concord                                 ,NC,28027,United States,704-979-7225,35.368858337402344,-80.72036743164062,Sun:12:00 PM-7:00 PM;Mon:10:00 AM-9:00 PM;Tue:10:00 AM-9:00 PM;Wed:10:00 AM-9:00 PM;Thu:10:00 AM-9:00 PM;Fri:10:00 AM-9:00 PM;Sat:10:00 AM-9:00 PM;,,0
,200,Northcross Shopping Center,9815 Sam Furr Road Ste A,Huntersville                            ,NC,28078,United States,704-895-0205,35.44257736206055,-80.86162567138672,Sun:11:00 AM-6:00 PM;Mon:10:00 AM-9:00 PM;Tue:10:00 AM-9:00 PM;Wed:10:00 AM-9:00 PM;Thu:10:00 AM-9:00 PM;Fri:10:00 AM-9:00 PM;Sat:9:00 AM-9:00 PM;,,0
,661,Coastal North Town Center,"1558 Hwy 17 N, Suite C1",North Myrtle Beach                      ,SC,29582,United States,843-663-1615,33.8421516418457,-78.65934753417969,Sun:12:00 PM-6:00 PM;Mon:10:00 AM-9:00 PM;Tue:10:00 AM-9:00 PM;Wed:10:00 AM-9:00 PM;Thu:10:00 AM-9:00 PM;Fri:10:00 AM-9:00 PM;Sat:10:00 AM-9:00 PM;,,0
,1,The Shoppes At University Place,"8708 Jw Clay Blvd, Suite 2",Charlotte                               ,NC,28262,United States,704-510-0037,35.31087875366211,-80.75083923339844,Sun:12:00 PM-6:00 PM;Mon:10:00 AM-9:00 PM;Tue:10:00 AM-9:00 PM;Wed:10:00 AM-9:00 PM;Thu:10:00 AM-9:00 PM;Fri:10:00 AM-9:00 PM;Sat:10:00 AM-9:00 PM;,,0
,218,Myrtle Beach Mall,10177 N Kings Hwy Unit 26,Myrtle Beach                            ,SC,29572,United States,843-272-6076,33.7924919128418,-78.76725769042969,Sun:12:00 PM-6:00 PM;Mon:10:00 AM-9:00 PM;Tue:10:00 AM-9:00 PM;Wed:10:00 AM-9:00 PM;Thu:10:00 AM-9:00 PM;Fri:10:00 AM-9:00 PM;Sat:10:00 AM-9:00 PM;,,0
,490,Poplin Place,3029 W Highway 74,Monroe                                  ,NC,28110,United States,704-289-8232,35.02140808105469,-80.58251190185547,Sun:12:00 PM-6:00 PM;Mon:10:00 AM-9:00 PM;Tue:10:00 AM-9:00 PM;Wed:10:00 AM-9:00 PM;Thu:10:00 AM-9:00 PM;Fri:10:00 AM-9:00 PM;Sat:10:00 AM-9:00 PM;,,0
,45,Matthews Festival,1819 Matthews Township Parkway,Matthews                                ,NC,28105,United States,704-847-8738,35.1257209777832,-80.7085189819336,Sun:12:00 PM-6:00 PM;Mon:10:00 AM-9:00 PM;Tue:10:00 AM-9:00 PM;Wed:10:00 AM-9:00 PM;Thu:10:00 AM-9:00 PM;Fri:10:00 AM-9:00 PM;Sat:10:00 AM-9:00 PM;,,0
,108,Tanger Outlet Center - Hwy. 17,10835 Kings Rd Ste 230,Myrtle Beach                            ,SC,29572,United States,843-497-0050,33.78512954711914,-78.77327728271484,Sun:10:00 AM-7:00 PM;Mon:9:00 AM-9:00 PM;Tue:9:00 AM-9:00 PM;Wed:9:00 AM-9:00 PM;Thu:9:00 AM-9:00 PM;Fri:9:00 AM-9:00 PM;Sat:9:00 AM-9:00 PM;,,0
,232,Ohio Station Outlets,9911 Avon Lake Rd Unit 500,Burbank                                 ,OH,44214,United States,330-948-8012,40.99991226196289,-81.98652648925781,Sun:10:00 AM-6:00 PM;Mon:10:00 AM-9:00 PM;Tue:10:00 AM-9:00 PM;Wed:10:00 AM-9:00 PM;Thu:10:00 AM-9:00 PM;Fri:10:00 AM-9:00 PM;Sat:10:00 AM-9:00 PM;,,0
,526,Valley Corners Shopping Center,2183 Us Highway 70 Se,Hickory                                 ,NC,28602,United States,828-304-1041,35.7050895690918,-81.29757690429688,Sun:12:00 PM-6:00 PM;Mon:10:00 AM-9:00 PM;Tue:10:00 AM-9:00 PM;Wed:10:00 AM-9:00 PM;Thu:10:00 AM-9:00 PM;Fri:10:00 AM-9:00 PM;Sat:10:00 AM-9:00 PM;,,0
,83,The Arboretum,8036 Providence Rd Ste 400,Charlotte                               ,NC,28277,United States,704-543-4622,35.09716033935547,-80.78057098388672,Sun:12:00 PM-6:00 PM;Mon:10:00 AM-9:00 PM;Tue:10:00 AM-9:00 PM;Wed:10:00 AM-9:00 PM;Thu:10:00 AM-9:00 PM;Fri:10:00 AM-9:00 PM;Sat:10:00 AM-9:00 PM;,,0
,593,The Village Commons,6340 Weddington Rd Ste B1,Wesley Chapel                           ,NC,28104,United States,704-843-3800,34.99998092651367,-80.69624328613281,Sun:12:00 PM-6:00 PM;Mon:10:00 AM-9:00 PM;Tue:10:00 AM-9:00 PM;Wed:10:00 AM-9:00 PM;Thu:10:00 AM-9:00 PM;Fri:10:00 AM-9:00 PM;Sat:10:00 AM-9:00 PM;,,0
,361,Tanger Outlets,310 Shoppes On The Pkwy Ste 6,Blowing Rock                            ,NC,28605,United States,828-295-3523,36.140296936035156,-81.67086791992188,Sun:10:00 AM-7:00 PM;Mon:9:00 AM-9:00 PM;Tue:9:00 AM-9:00 PM;Wed:9:00 AM-9:00 PM;Thu:9:00 AM-9:00 PM;Fri:9:00 AM-9:00 PM;Sat:9:00 AM-9:00 PM;,,0
,12,Tanger Outlet Center - Hwy. 501,4618 Factory Stores Blvd Ste L120,Myrtle Beach                            ,SC,29579,United States,843-236-5917,33.75199890136719,-78.95973205566406,Sun:10:00 AM-7:00 PM;Mon:9:00 AM-9:00 PM;Tue:9:00 AM-9:00 PM;Wed:9:00 AM-9:00 PM;Thu:9:00 AM-9:00 PM;Fri:9:00 AM-9:00 PM;Sat:9:00 AM-9:00 PM;,,0
,294,Broadway At The Beach,1201 Celebrity Circle  Sp Qs-6,Myrtle Beach                            ,SC,29577,United States,843-916-8354,33.71482849121094,-78.88018035888672,Sun:10:00 AM-6:00 PM;Mon:10:00 AM-6:00 PM;Tue:10:00 AM-6:00 PM;Wed:10:00 AM-6:00 PM;Thu:10:00 AM-6:00 PM;Fri:10:00 AM-6:00 PM;Sat:10:00 AM-6:00 PM;,,0
,120,Carolina Place Mall,11025 Carolina Place Pkwy Ste D39,Pineville                               ,NC,28134,United States,704-542-8716,35.08142852783203,-80.87561798095703,Sun:12:00 PM-6:00 PM;Mon:10:00 AM-9:00 PM;Tue:10:00 AM-9:00 PM;Wed:10:00 AM-9:00 PM;Thu:10:00 AM-9:00 PM;Fri:10:00 AM-9:00 PM;Sat:10:00 AM-9:00 PM;,,0
,658,Charlotte Premium Outlets,5512 New Fashion Way Ste 972,Charlotte                               ,NC,28278,United States,704-588-4699,35.1700325012207,-80.97108459472656,Sun:10:00 AM-7:00 PM;Mon:10:00 AM-9:00 PM;Tue:10:00 AM-9:00 PM;Wed:10:00 AM-9:00 PM;Thu:10:00 AM-9:00 PM;Fri:10:00 AM-9:00 PM;Sat:10:00 AM-9:00 PM;,,0
,458,Coastal Grand Mall,2000 Coastal Grand Cir Space 320,Myrtle Beach                            ,SC,29577,United States,843-839-3254,33.701595306396484,-78.92493438720703,Sun:12:00 PM-6:00 PM;Mon:10:00 AM-9:00 PM;Tue:10:00 AM-9:00 PM;Wed:10:00 AM-9:00 PM;Thu:10:00 AM-9:00 PM;Fri:10:00 AM-9:00 PM;Sat:10:00 AM-9:00 PM;,,0
,109,Commons At Magnolia,2875 David H Mcleod Blvd Spc 30,Florence                                ,SC,29501,United States,843-661-2342,34.19183349609375,-79.8389663696289,Sun:12:00 PM-6:00 PM;Mon:10:00 AM-9:00 PM;Tue:10:00 AM-9:00 PM;Wed:10:00 AM-9:00 PM;Thu:10:00 AM-9:00 PM;Fri:10:00 AM-9:00 PM;Sat:10:00 AM-9:00 PM;,,0
,376,Ashland Town Center,500 Winchester Ave Ste 578,Ashland                                 ,KY,41101,United States,606-325-8041,38.48328399658203,-82.65325164794922,Sun:12:00 PM-6:00 PM;Mon:10:00 AM-9:00 PM;Tue:10:00 AM-9:00 PM;Wed:10:00 AM-9:00 PM;Thu:10:00 AM-9:00 PM;Fri:10:00 AM-9:00 PM;Sat:10:00 AM-9:00 PM;,,0
,478,Rivergate Crossing,"12840 Walker Branch Dr, Ste 100",Charlotte                               ,NC,28273,United States,704-504-0239,35.10091018676758,-80.98592376708984,Sun:12:00 PM-6:00 PM;Mon:10:00 AM-9:00 PM;Tue:10:00 AM-9:00 PM;Wed:10:00 AM-9:00 PM;Thu:10:00 AM-9:00 PM;Fri:10:00 AM-9:00 PM;Sat:10:00 AM-9:00 PM;,,0
,690,Sayebrook Town Center,130 Sayebrook Pkwy Unit3 Bldg6,Myrtle Beach                            ,SC,29588,United States,843-293-2910,33.65990447998047,-78.9808578491211,Sun:12:00 PM-6:00 PM;Mon:10:00 AM-9:00 PM;Tue:10:00 AM-9:00 PM;Wed:10:00 AM-9:00 PM;Thu:10:00 AM-9:00 PM;Fri:10:00 AM-9:00 PM;Sat:10:00 AM-9:00 PM;,,0
,651,Pikeville Commons,120 Justice Way Unit 110,Pikeville                               ,KY,41501,United States,606-437-5632,37.50732421875,-82.54278564453125,Sun:12:00 PM-6:00 PM;Mon:10:00 AM-9:00 PM;Tue:10:00 AM-9:00 PM;Wed:10:00 AM-9:00 PM;Thu:10:00 AM-9:00 PM;Fri:10:00 AM-9:00 PM;Sat:10:00 AM-9:00 PM;,,0
,20,Rock Hill Galleria,2331 Dave Lyle Blvd,Rock Hill                               ,SC,29730,United States,803-329-9899,34.9413948059082,-80.96402740478516,Sun:12:00 PM-6:00 PM;Mon:10:00 AM-9:00 PM;Tue:10:00 AM-9:00 PM;Wed:10:00 AM-9:00 PM;Thu:10:00 AM-9:00 PM;Fri:10:00 AM-9:00 PM;Sat:10:00 AM-9:00 PM;,,0
,662,The Pinnacle,554 Pinnacle Parkway Unit 733,Bristol                                 ,TN,37620,United States,423-652-0580,36.592350006103516,-82.25732421875,Sun:12:00 PM-6:00 PM;Mon:10:00 AM-9:00 PM;Tue:10:00 AM-9:00 PM;Wed:10:00 AM-9:00 PM;Thu:10:00 AM-9:00 PM;Fri:10:00 AM-9:00 PM;Sat:10:00 AM-9:00 PM;,,0
,17,The Mall At Johnson City,"2011 N. Roan Street, Space D3",Johnson City                            ,TN,37601,United States,423-854-9145,36.33835220336914,-82.3775863647461,Sun:12:00 PM-6:00 PM;Mon:10:00 AM-9:00 PM;Tue:10:00 AM-9:00 PM;Wed:10:00 AM-9:00 PM;Thu:10:00 AM-9:00 PM;Fri:10:00 AM-9:00 PM;Sat:10:00 AM-9:00 PM;,,0
,706,Tanger Outlet Center,400 S Wilson Rd Ste 870,Sunbury                                 ,OH,43074,United States,740-965-3238,40.26276779174805,-82.92564392089844,Sun:10:00 AM-7:00 PM;Mon:09:00 AM-9:00 PM;Tue:09:00 AM-9:00 PM;Wed:09:00 AM-9:00 PM;Thu:09:00 AM-9:00 PM;Fri:09:00 AM-9:00 PM;Sat:09:00 AM-9:00 PM;,,0
,225,East Stone Commons,2003 N Eastman Rd Ste 100,Kingsport                               ,TN,37660,United States,423-246-6495,36.54433059692383,-82.51639556884766,Sun:12:00 PM-6:00 PM;Mon:10:00 AM-9:00 PM;Tue:10:00 AM-9:00 PM;Wed:10:00 AM-9:00 PM;Thu:10:00 AM-9:00 PM;Fri:10:00 AM-9:00 PM;Sat:10:00 AM-9:00 PM;,,0
,275,Gaffney Premium Outlets,425 Factory Shops Blvd,Gaffney                                 ,SC,29341,United States,864-488-1607,35.08216857910156,-81.71162414550781,Sun:1:30 PM-7:00 PM;Mon:10:00 AM-9:00 PM;Tue:10:00 AM-9:00 PM;Wed:10:00 AM-9:00 PM;Thu:10:00 AM-9:00 PM;Fri:10:00 AM-9:00 PM;Sat:10:00 AM-9:00 PM;,,0
,610,Village @ Sandhill,661-11 Promenade Place,Columbia                                ,SC,29229,United States,803-788-9228,34.12822723388672,-80.87975311279297,Sun:12:00 PM-6:00 PM;Mon:10:00 AM-9:00 PM;Tue:10:00 AM-9:00 PM;Wed:10:00 AM-9:00 PM;Thu:10:00 AM-9:00 PM;Fri:10:00 AM-9:00 PM;Sat:10:00 AM-9:00 PM;,,0
,485,Hillcrest Market Place,1985 E Main St Ste 1,Spartanburg                             ,SC,29307,United States,864-597-0722,34.96931457519531,-81.88700866699219,Sun:12:00 PM-6:00 PM;Mon:10:00 AM-9:00 PM;Tue:10:00 AM-9:00 PM;Wed:10:00 AM-9:00 PM;Thu:10:00 AM-9:00 PM;Fri:10:00 AM-9:00 PM;Sat:10:00 AM-9:00 PM;,,0
,75,Westgate Crossing Shopping Center,660 Spartan Blvd #100,Spartanburg                             ,SC,29301,United States,864-587-8605,34.943260192871094,-81.99700927734375,Sun:12:00 PM-6:00 PM;Mon:10:00 AM-9:00 PM;Tue:10:00 AM-9:00 PM;Wed:10:00 AM-9:00 PM;Thu:10:00 AM-9:00 PM;Fri:10:00 AM-9:00 PM;Sat:10:00 AM-9:00 PM;,,0
,333,Columbiana Center,"100 Columbiana Circle, Sp. 1376",Columbia                                ,SC,29212,United States,803-407-1326,34.078487396240234,-81.1570816040039,Sun:12:00 PM-6:00 PM;Mon:10:00 AM-9:00 PM;Tue:10:00 AM-9:00 PM;Wed:10:00 AM-9:00 PM;Thu:10:00 AM-9:00 PM;Fri:10:00 AM-9:00 PM;Sat:10:00 AM-9:00 PM;,,0
,469,Southridge Shopping Center,6 Mckenna Rd,Arden                                   ,NC,28704,United States,828-684-8591,35.44660949707031,-82.53567504882812,Sun:12:00 PM-6:00 PM;Mon:10:00 AM-9:00 PM;Tue:10:00 AM-9:00 PM;Wed:10:00 AM-9:00 PM;Thu:10:00 AM-9:00 PM;Fri:10:00 AM-9:00 PM;Sat:10:00 AM-9:00 PM;,,0
,691,Asheville Outlets,800 Brevard Road Ste 332,Asheville                               ,NC,28806,United States,828-665-4561,35.528114318847656,-82.6033935546875,Sun:12:00 PM-6:00 PM;Mon:10:00 AM-9:00 PM;Tue:10:00 AM-9:00 PM;Wed:10:00 AM-9:00 PM;Thu:10:00 AM-9:00 PM;Fri:10:00 AM-9:00 PM;Sat:10:00 AM-9:00 PM;,,0
,319,Lexington Place Ii,5454 Sunset Blvd.  Suite I,Lexington                               ,SC,29072,United States,803-356-2699,34.00008773803711,-81.21812438964844,Sun:12:00 PM-6:00 PM;Mon:10:00 AM-9:00 PM;Tue:10:00 AM-9:00 PM;Wed:10:00 AM-9:00 PM;Thu:10:00 AM-9:00 PM;Fri:10:00 AM-9:00 PM;Sat:10:00 AM-9:00 PM;,,0
,433,Crossroads Square,130 Terrace Ln Ste 2,Morristown                              ,TN,37813,United States,423-581-3686,36.22471618652344,-83.25965118408203,Sun:12:00 PM-6:00 PM;Mon:10:00 AM-9:00 PM;Tue:10:00 AM-9:00 PM;Wed:10:00 AM-9:00 PM;Thu:10:00 AM-9:00 PM;Fri:10:00 AM-9:00 PM;Sat:10:00 AM-9:00 PM;,,0
,247,Haywood Mall,700 Haywood Road Space 2119-A,Greenville                              ,SC,29607,United States,864-234-7659,34.85015106201172,-82.33187866210938,Sun:12:30 PM-6:00 PM;Mon:10:00 AM-9:00 PM;Tue:10:00 AM-9:00 PM;Wed:10:00 AM-9:00 PM;Thu:10:00 AM-9:00 PM;Fri:10:00 AM-9:00 PM;Sat:10:00 AM-9:00 PM;,,0
,29,Fairview Corners,357 Harrison Bridge Rd,Simpsonville                            ,SC,29680,United States,864-228-2000,34.70315933227539,-82.25698852539062,Sun:12:00 PM-6:00 PM;Mon:10:00 AM-9:00 PM;Tue:10:00 AM-9:00 PM;Wed:10:00 AM-9:00 PM;Thu:10:00 AM-9:00 PM;Fri:10:00 AM-9:00 PM;Sat:10:00 AM-9:00 PM;,,0
,245,Northwoods Mall,2150 Northwoods Blvd Unit F52,North Charleston                        ,SC,29406,United States,843-797-0191,32.94511413574219,-80.0433349609375,Sun:12:00 PM-6:00 PM;Mon:10:00 AM-9:00 PM;Tue:10:00 AM-9:00 PM;Wed:10:00 AM-9:00 PM;Thu:10:00 AM-9:00 PM;Fri:10:00 AM-9:00 PM;Sat:10:00 AM-9:00 PM;,,0
,390,Mt. Pleasant Town Center,1736 Towne Centre Way,Mount Pleasant                          ,SC,29464,United States,843-971-0244,32.828834533691406,-79.8307876586914,Sun:12:00 PM-6:00 PM;Mon:10:00 AM-9:00 PM;Tue:10:00 AM-9:00 PM;Wed:10:00 AM-9:00 PM;Thu:10:00 AM-9:00 PM;Fri:10:00 AM-9:00 PM;Sat:10:00 AM-9:00 PM;,,0
,656,Tanger Outlets - Charleston,4840 Tanger Outlet Blvd Ste 966,Charleston                              ,SC,29418,United States,843-745-0074,32.87241744995117,-80.0177230834961,Sun:11:00 AM-6:00 PM;Mon:10:00 AM-9:00 PM;Tue:10:00 AM-9:00 PM;Wed:10:00 AM-9:00 PM;Thu:10:00 AM-9:00 PM;Fri:10:00 AM-9:00 PM;Sat:10:00 AM-9:00 PM;,,0
,629,The Corner At Westcott,9500 Dorchester Rd,North Charleston                        ,SC,29485,United States,843-695-1552,32.93639373779297,-80.14338684082031,Sun:11:00 AM-6:00 PM;Mon:10:00 AM-9:00 PM;Tue:10:00 AM-9:00 PM;Wed:10:00 AM-9:00 PM;Thu:10:00 AM-9:00 PM;Fri:10:00 AM-9:00 PM;Sat:10:00 AM-9:00 PM;,,0
,630,Waynesville Commons,235 Town Center Loop,Waynesville                             ,NC,28786,United States,828-456-7024,35.46717834472656,-83.00891876220703,Sun:11:00 AM-7:00 PM;Mon:10:00 AM-9:00 PM;Tue:10:00 AM-9:00 PM;Wed:10:00 AM-9:00 PM;Thu:10:00 AM-9:00 PM;Fri:10:00 AM-9:00 PM;Sat:10:00 AM-9:00 PM;,,0
,615,King Street,245 King Street,Charleston                              ,SC,29401,United States,843-577-5922,32.78147888183594,-79.9334945678711,Sun:12:00 PM-6:00 PM;Mon:10:00 AM-7:00 PM;Tue:10:00 AM-7:00 PM;Wed:10:00 AM-7:00 PM;Thu:10:00 AM-8:00 PM;Fri:10:00 AM-8:00 PM;Sat:10:00 AM-8:00 PM;,,0
,398,Town And Country Shopping Ctr,6101 Calhoun Memorial Hwy Ste Ff,Easley                                  ,SC,29640,United States,864-859-2054,34.82203674316406,-82.57878875732422,Sun:12:00 PM-6:00 PM;Mon:10:00 AM-9:00 PM;Tue:10:00 AM-9:00 PM;Wed:10:00 AM-9:00 PM;Thu:10:00 AM-9:00 PM;Fri:10:00 AM-9:00 PM;Sat:10:00 AM-9:00 PM;,,0
,152,Greenwood Commons,525a Bypass 72 Nw,Greenwood                               ,SC,29649,United States,864-223-5228,34.20454406738281,-82.1934585571289,Sun:12:00 PM-6:00 PM;Mon:10:00 AM-9:00 PM;Tue:10:00 AM-9:00 PM;Wed:10:00 AM-9:00 PM;Thu:10:00 AM-9:00 PM;Fri:10:00 AM-9:00 PM;Sat:10:00 AM-9:00 PM;,,0
,555,Trademart Shopping Center,14659 North Us Hwy 25 E,Corbin                                  ,KY,40701,United States,606-258-9400,36.95560836791992,-84.07438659667969,Sun:12:00 PM-6:00 PM;Mon:10:00 AM-9:00 PM;Tue:10:00 AM-9:00 PM;Wed:10:00 AM-9:00 PM;Thu:10:00 AM-9:00 PM;Fri:10:00 AM-9:00 PM;Sat:10:00 AM-9:00 PM;,,0
,553,Richmond Centre,"2169 Lantern Ridge Dr, Sp G",Richmond                                ,KY,40475,United States,859-623-8454,37.73955535888672,-84.32737731933594,Sun:12:00 PM-6:00 PM;Mon:10:00 AM-9:00 PM;Tue:10:00 AM-9:00 PM;Wed:10:00 AM-9:00 PM;Thu:10:00 AM-9:00 PM;Fri:10:00 AM-9:00 PM;Sat:10:00 AM-9:00 PM;,,0
,456,Tanger Factory Outlets @Five Oaks,"1645 Parkway, Ste. 810",Sevierville                             ,TN,37862,United States,865-453-1401,35.83164596557617,-83.56736755371094,Sun:10:00 AM-7:00 PM;Mon:9:00 AM-9:00 PM;Tue:9:00 AM-9:00 PM;Wed:9:00 AM-9:00 PM;Thu:9:00 AM-9:00 PM;Fri:9:00 AM-9:00 PM;Sat:9:00 AM-9:00 PM;,,0
,309,Pigeon Forge Factory Outlet,2850 Parkway Ste 8,Pigeon Forge                            ,TN,37863,United States,865-908-0920,35.79713821411133,-83.56825256347656,Sun:10:00 AM-5:00 PM;Mon:10:00 AM-9:00 PM;Tue:10:00 AM-9:00 PM;Wed:10:00 AM-9:00 PM;Thu:10:00 AM-9:00 PM;Fri:10:00 AM-9:00 PM;Sat:10:00 AM-9:00 PM;,,0
,76,Belz Factory Outlet Mall,2624 Teaster Lane,Pigeon Forge                            ,TN,37863,United States,865-453-0025,35.805667877197266,-83.5732192993164,Sun:10:00 AM-6:00 PM;Mon:9:00 AM-9:00 PM;Tue:9:00 AM-9:00 PM;Wed:9:00 AM-9:00 PM;Thu:9:00 AM-9:00 PM;Fri:9:00 AM-9:00 PM;Sat:9:00 AM-9:00 PM;,,0
,174,Hamburg Pavilion,1972 Pavillon Way,Lexington                               ,KY,40509,United States,859-543-8060,38.024261474609375,-84.41629791259766,Sun:12:00 PM-6:00 PM;Mon:10:00 AM-9:00 PM;Tue:10:00 AM-9:00 PM;Wed:10:00 AM-9:00 PM;Thu:10:00 AM-9:00 PM;Fri:10:00 AM-9:00 PM;Sat:10:00 AM-9:00 PM;,,0
,164,Anderson Mall,3101 N Main St Ste Q06a,Anderson                                ,SC,29621,United States,864-226-6157,34.539161682128906,-82.67115020751953,Sun:12:30 PM-6:00 PM;Mon:10:00 AM-9:00 PM;Tue:10:00 AM-9:00 PM;Wed:10:00 AM-9:00 PM;Thu:10:00 AM-9:00 PM;Fri:10:00 AM-9:00 PM;Sat:10:00 AM-9:00 PM;,,0
,238,Factory Stores Of America,401 Outlet Center Dr Ste 310,Georgetown                              ,KY,40324,United States,502-863-5654,38.21857833862305,-84.53814697265625,Sun:12:00 PM-6:00 PM;Mon:10:00 AM-8:00 PM;Tue:10:00 AM-8:00 PM;Wed:10:00 AM-8:00 PM;Thu:10:00 AM-8:00 PM;Fri:10:00 AM-8:00 PM;Sat:10:00 AM-8:00 PM;,,0
,190,Fayette Mall,3401 Nicholasville Rd. Sp. D-406,Lexington                               ,KY,40503,United States,859-273-5570,37.98936462402344,-84.52755737304688,Sun:12:00 PM-6:00 PM;Mon:10:00 AM-9:00 PM;Tue:10:00 AM-9:00 PM;Wed:10:00 AM-9:00 PM;Thu:10:00 AM-9:00 PM;Fri:10:00 AM-9:00 PM;Sat:10:00 AM-9:00 PM;,,0
,513,Hitchcock Plaza,423 Fabian Dr,Aiken                                   ,SC,29803,United States,803-644-4041,33.51871871948242,-81.72452545166016,Sun:12:00 PM-6:00 PM;Mon:10:00 AM-9:00 PM;Tue:10:00 AM-9:00 PM;Wed:10:00 AM-9:00 PM;Thu:10:00 AM-9:00 PM;Fri:10:00 AM-9:00 PM;Sat:10:00 AM-9:00 PM;,,0
,30,West Town Mall,7600 Kingston Pike Ste 1182,Knoxville                               ,TN,37919,United States,865-539-4713,35.92477798461914,-84.03826904296875,Sun:12:00 PM-6:00 PM;Mon:10:00 AM-9:00 PM;Tue:10:00 AM-9:00 PM;Wed:10:00 AM-9:00 PM;Thu:10:00 AM-9:00 PM;Fri:10:00 AM-9:00 PM;Sat:10:00 AM-9:00 PM;,,0
,652,Parkside,7800 John Davis Dr Ste 700,Frankfort                               ,KY,40601,United States,502-234-5131,38.1766242980957,-84.81983184814453,Sun:12:00 PM-6:00 PM;Mon:10:00 AM-9:00 PM;Tue:10:00 AM-9:00 PM;Wed:10:00 AM-9:00 PM;Thu:10:00 AM-9:00 PM;Fri:10:00 AM-9:00 PM;Sat:10:00 AM-9:00 PM;,,0
,315,Augusta Exchange,213 Robert C. Daniel Jr. Pkwy.,Augusta                                 ,GA,30909,United States,706-733-8486,33.489200592041016,-82.07999420166016,Sun:11:00 AM-7:00 PM;Mon:10:00 AM-9:00 PM;Tue:10:00 AM-9:00 PM;Wed:10:00 AM-9:00 PM;Thu:10:00 AM-9:00 PM;Fri:10:00 AM-9:00 PM;Sat:10:00 AM-9:00 PM;,,0
,476,Mullins Crossing,4219 Washington Rd # 3,Evans                                   ,GA,30809,United States,706-651-9586,33.525943756103516,-82.11756134033203,Sun:12:00 PM-6:00 PM;Mon:10:00 AM-9:00 PM;Tue:10:00 AM-9:00 PM;Wed:10:00 AM-9:00 PM;Thu:10:00 AM-9:00 PM;Fri:10:00 AM-9:00 PM;Sat:10:00 AM-9:00 PM;,,0
,748,Ridgefield Sc,2900 S Danville Bypass Ste 122,Danville                                ,KY,40422,United States,859-236-9798,37.61827850341797,-84.77969360351562,Sun:12:00 PM-6:00 PM;Mon:10:00 AM-9:00 PM;Tue:10:00 AM-9:00 PM;Wed:10:00 AM-9:00 PM;Thu:10:00 AM-9:00 PM;Fri:10:00 AM-9:00 PM;Sat:10:00 AM-9:00 PM;,,0
,715,Grand Central Place,2835 S Hwy 27,Somerset                                ,KY,42503,United States,606-676-9821,37.0545539855957,-84.62738037109375,Sun:12:00 PM-6:00 PM;Mon:10:00 AM-9:00 PM;Tue:10:00 AM-9:00 PM;Wed:10:00 AM-9:00 PM;Thu:10:00 AM-9:00 PM;Fri:10:00 AM-9:00 PM;Sat:10:00 AM-9:00 PM;,,0
,73,Turkey Creek Pavillion,10984 Parkside Dr,Knoxville                               ,TN,37934,United States,865-671-1414,35.902225494384766,-84.14918518066406,Sun:11:00 AM-6:00 PM;Mon:10:00 AM-9:00 PM;Tue:10:00 AM-9:00 PM;Wed:10:00 AM-9:00 PM;Thu:10:00 AM-9:00 PM;Fri:10:00 AM-9:00 PM;Sat:10:00 AM-9:00 PM;,,0
,698,Oak Ridge Center,S. Illinois Ave & S. Tulane Ave,Oak Ridge                               ,TN,37830,United States,-,36.0117301940918,-84.25436401367188,,,0
,355,Tanger Outlet Center #2,1414 Fording Island Rd,Bluffton                                ,SC,29910,United States,843-836-2551,32.23915481567383,-80.8189926147461,Sun:10:00 AM-7:00 PM;Mon:9:00 AM-9:00 PM;Tue:9:00 AM-9:00 PM;Wed:9:00 AM-9:00 PM;Thu:9:00 AM-9:00 PM;Fri:9:00 AM-9:00 PM;Sat:9:00 AM-9:00 PM;,,0
,637,The Outlet Shoppes Of The Bluegrass,1155 Buck Creek Rd Ste F622,Simpsonville                            ,KY,40067,United States,502-722-5154,38.205936431884766,-85.35222625732422,Sun:10:00 AM-7:00 PM;Mon:10:00 AM-9:00 PM;Tue:10:00 AM-9:00 PM;Wed:10:00 AM-9:00 PM;Thu:10:00 AM-9:00 PM;Fri:10:00 AM-9:00 PM;Sat:10:00 AM-9:00 PM;,,0
,252,Tanger Factory Stores,800 Steven B Tanger Blvd Ste 1110,Commerce                                ,GA,30529,United States,706-335-9330,34.24951171875,-83.4747085571289,Sun:10:00 AM-7:00 PM;Mon:9:00 AM-9:00 PM;Tue:9:00 AM-9:00 PM;Wed:9:00 AM-9:00 PM;Thu:9:00 AM-9:00 PM;Fri:9:00 AM-9:00 PM;Sat:9:00 AM-9:00 PM;,,0
,674,Middletown Commons,13401 Shelbyville Rd Ste. 118,Louisville                              ,KY,40223,United States,502-245-1318,38.24399948120117,-85.50630950927734,Sun:12:00 PM-6:00 PM;Mon:10:00 AM-9:00 PM;Tue:10:00 AM-9:00 PM;Wed:10:00 AM-9:00 PM;Thu:10:00 AM-9:00 PM;Fri:10:00 AM-9:00 PM;Sat:10:00 AM-9:00 PM;,,0
,636,Beechwood Promenade,196 Alps Rd Suite 27,Athens                                  ,GA,30606,United States,706-425-8960,33.94472122192383,-83.41114807128906,Sun:11:00 AM-7:00 PM;Mon:10:00 AM-9:00 PM;Tue:10:00 AM-9:00 PM;Wed:10:00 AM-9:00 PM;Thu:10:00 AM-9:00 PM;Fri:10:00 AM-9:00 PM;Sat:10:00 AM-9:00 PM;,,0
,430,Stonybrook South,3590 S Hurstbourne Parkway,Louisville                              ,KY,40299,United States,502-499-8564,38.19681167602539,-85.6047592163086,Sun:12:00 PM-6:00 PM;Mon:10:00 AM-9:00 PM;Tue:10:00 AM-9:00 PM;Wed:10:00 AM-9:00 PM;Thu:10:00 AM-9:00 PM;Fri:10:00 AM-9:00 PM;Sat:10:00 AM-9:00 PM;,,0
,694,Oxmoor Center,7900 Shelbyville Rd Ste J-10,Louisville                              ,KY,40222,United States,502-412-9394,38.246253967285156,-85.61058044433594,Sun:10:00 AM-8:00 PM;Mon:10:00 AM-9:00 PM;Tue:10:00 AM-9:00 PM;Wed:10:00 AM-9:00 PM;Thu:10:00 AM-9:00 PM;Fri:10:00 AM-9:00 PM;Sat:10:00 AM-9:00 PM;,,0
,642,Village @ Pooler Parkway,252 Pooler Pkwy.,Pooler                                  ,GA,31322,United States,912-748-4935,32.14239501953125,-81.24952697753906,Sun:12:00 PM-6:00 PM;Mon:10:00 AM-9:00 PM;Tue:10:00 AM-9:00 PM;Wed:10:00 AM-9:00 PM;Thu:10:00 AM-9:00 PM;Fri:10:00 AM-9:00 PM;Sat:10:00 AM-9:00 PM;,,0
,644,Tanger Outlets Savannah,200 Tanger Outlet Blvd  Suite 431,Pooler                                  ,GA,31322,United States,912-450-1257,32.13560104370117,-81.24329376220703,Sun:10:00 AM-7:00 PM;Mon:9:00 AM-9:00 PM;Tue:9:00 AM-9:00 PM;Wed:9:00 AM-9:00 PM;Thu:9:00 AM-9:00 PM;Fri:9:00 AM-9:00 PM;Sat:9:00 AM-9:00 PM;,,0
,532,Statesboro Crossing,299 Henry Blvd. Space C-1,Statesboro                              ,GA,30458,United States,912-489-6117,32.43080520629883,-81.75720977783203,Sun:12:00 PM-6:00 PM;Mon:10:00 AM-9:00 PM;Tue:10:00 AM-9:00 PM;Wed:10:00 AM-9:00 PM;Thu:10:00 AM-9:00 PM;Fri:10:00 AM-9:00 PM;Sat:10:00 AM-9:00 PM;,,0
,53,Savannah Centre,"7400 Abercorn St., Unit 16",Savannah                                ,GA,31406,United States,912-352-3546,32.00712966918945,-81.11235046386719,Sun:12:00 PM-6:00 PM;Mon:10:00 AM-9:00 PM;Tue:10:00 AM-9:00 PM;Wed:10:00 AM-9:00 PM;Thu:10:00 AM-9:00 PM;Fri:10:00 AM-9:00 PM;Sat:10:00 AM-9:00 PM;,,0
,653,Mcever Corners,975 Dawsonville Hwy Ste 13,Gainesville                             ,GA,30501,United States,770-534-1808,34.29988479614258,-83.86001586914062,Sun:11:00 AM-7:00 PM;Mon:10:00 AM-9:00 PM;Tue:10:00 AM-9:00 PM;Wed:10:00 AM-9:00 PM;Thu:10:00 AM-9:00 PM;Fri:10:00 AM-9:00 PM;Sat:10:00 AM-9:00 PM;,,0
,216,Oglethorpe Mall,7804 Abercorn Ext. Space 124,Savannah                                ,GA,31406,United States,912-354-1845,32.00279235839844,-81.11659240722656,Sun:12:00 PM-6:00 PM;Mon:10:00 AM-9:00 PM;Tue:10:00 AM-9:00 PM;Wed:10:00 AM-9:00 PM;Thu:10:00 AM-9:00 PM;Fri:10:00 AM-9:00 PM;Sat:10:00 AM-9:00 PM;,,0
,258,Crossville Outlet Center,228 Interstate Dr Ste 126,Crossville                              ,TN,38555,United States,931-456-9488,35.9836540222168,-85.01915740966797,Sun:11:00 AM-6:00 PM;Mon:9:00 AM-8:00 PM;Tue:9:00 AM-8:00 PM;Wed:9:00 AM-8:00 PM;Thu:9:00 AM-8:00 PM;Fri:9:00 AM-9:00 PM;Sat:9:00 AM-9:00 PM;,,0
,74,The Shoppes Of Savannah,"11 Gateway Blvd. S., Suite 50",Savannah                                ,GA,31419,United States,912-925-3090,32.000160217285156,-81.28495025634766,Sun:11:00 AM-6:00 PM;Mon:10:00 AM-8:00 PM;Tue:10:00 AM-8:00 PM;Wed:10:00 AM-8:00 PM;Thu:10:00 AM-8:00 PM;Fri:10:00 AM-8:00 PM;Sat:10:00 AM-8:00 PM;,,0
,281,North Georgia Premium Outlets,800 Hwy 400 South Ste 830,Dawsonville                             ,GA,30534,United States,706-214-4322,34.35707092285156,-84.04766082763672,Sun:11:00 AM-7:00 PM;Mon:10:00 AM-9:00 PM;Tue:10:00 AM-9:00 PM;Wed:10:00 AM-9:00 PM;Thu:10:00 AM-9:00 PM;Fri:10:00 AM-9:00 PM;Sat:10:00 AM-9:00 PM;,,0
,673,Dixie Valley Sc,10441 Dixie Hwy,Louisville                              ,KY,40272,United States,502-933-8500,38.103206634521484,-85.8662109375,Sun:12:00 PM-6:00 PM;Mon:10:00 AM-9:00 PM;Tue:10:00 AM-9:00 PM;Wed:10:00 AM-9:00 PM;Thu:10:00 AM-9:00 PM;Fri:10:00 AM-9:00 PM;Sat:10:00 AM-9:00 PM;,,0
,578,Hamilton Towne Center,"14002 Hoard Drive, Suite 200",Noblesville                             ,IN,46060,United States,317-773-2597,39.991058349609375,-85.93153381347656,Sun:11:00 AM-6:00 PM;Mon:10:00 AM-9:00 PM;Tue:10:00 AM-9:00 PM;Wed:10:00 AM-9:00 PM;Thu:10:00 AM-9:00 PM;Fri:10:00 AM-9:00 PM;Sat:10:00 AM-9:00 PM;,,0
,682,Mall Of Georgia Crossing,3205 Woodward Crossings Blvd,Buford                                  ,GA,30519,United States,678-482-2009,34.0701789855957,-83.97960662841797,Sun:11:00 AM-7:00 PM;Mon:10:00 AM-9:00 PM;Tue:10:00 AM-9:00 PM;Wed:10:00 AM-9:00 PM;Thu:10:00 AM-9:00 PM;Fri:10:00 AM-9:00 PM;Sat:10:00 AM-9:00 PM;,,0
,423,Cumming Market Place,1625 Market Place Blvd Ste A,Cumming                                 ,GA,30041,United States,770-886-6422,34.18888854980469,-84.13349151611328,Sun:11:00 AM-6:00 PM;Mon:10:00 AM-9:00 PM;Tue:10:00 AM-9:00 PM;Wed:10:00 AM-9:00 PM;Thu:10:00 AM-9:00 PM;Fri:10:00 AM-9:00 PM;Sat:10:00 AM-9:00 PM;,,0
,354,Hickory Grove Shopping Center,265 Paul Huff Pkwy N/W,Cleveland                               ,TN,37312,United States,423-472-2403,35.205570220947266,-84.85181427001953,Sun:12:00 PM-6:00 PM;Mon:10:00 AM-9:00 PM;Tue:10:00 AM-9:00 PM;Wed:10:00 AM-9:00 PM;Thu:10:00 AM-9:00 PM;Fri:10:00 AM-9:00 PM;Sat:10:00 AM-9:00 PM;,,0
,503,Castleton Square Mall,6020 East 82nd Street Ste 642a,Indianapolis                            ,IN,46250,United States,317-842-3850,39.90887451171875,-86.06761169433594,Sun:11:00 AM-6:00 PM;Mon:10:00 AM-9:00 PM;Tue:10:00 AM-9:00 PM;Wed:10:00 AM-9:00 PM;Thu:10:00 AM-9:00 PM;Fri:10:00 AM-9:00 PM;Sat:10:00 AM-9:00 PM;,,0
,199,Greenwood Park Mall,"1251 Us Hwy 31 N, Box 64",Greenwood                               ,IN,46142,United States,317-888-0095,39.633052825927734,-86.12084197998047,Sun:11:00 AM-6:00 PM;Mon:10:00 AM-9:00 PM;Tue:10:00 AM-9:00 PM;Wed:10:00 AM-9:00 PM;Thu:10:00 AM-9:00 PM;Fri:10:00 AM-9:00 PM;Sat:10:00 AM-9:00 PM;,,0
,510,The Collection At Forsyth,"410 Peachtree Parkway, Suite 226",Cumming                                 ,GA,30041,United States,678-341-6873,34.15382766723633,-84.17806243896484,Sun:12:00 PM-6:00 PM;Mon:10:00 AM-9:00 PM;Tue:10:00 AM-9:00 PM;Wed:10:00 AM-9:00 PM;Thu:10:00 AM-9:00 PM;Fri:10:00 AM-9:00 PM;Sat:10:00 AM-9:00 PM;,,0
,411,Sugarloaf Mills,5900 Sugarloaf Parkway Sp 632,Lawrenceville                           ,GA,30043,United States,678-847-5818,33.97990417480469,-84.08256530761719,Sun:12:00 PM-6:00 PM;Mon:10:00 AM-9:00 PM;Tue:10:00 AM-9:00 PM;Wed:10:00 AM-9:00 PM;Thu:10:00 AM-9:00 PM;Fri:10:00 AM-9:00 PM;Sat:10:00 AM-9:00 PM;,,0
,528,Milledgeville Mall,"2400 N. Columbia Street, Suite A5",Milledgeville                           ,GA,31061,United States,478-452-0741,33.108909606933594,-83.25765991210938,Sun:1:00 PM-6:00 PM;Mon:10:00 AM-9:00 PM;Tue:10:00 AM-9:00 PM;Wed:10:00 AM-9:00 PM;Thu:10:00 AM-9:00 PM;Fri:10:00 AM-9:00 PM;Sat:10:00 AM-9:00 PM;,,0
,261,Snellville Pavilion,"2059 Scenic Hwy., Suite D",Snellville                              ,GA,30078,United States,770-982-0724,33.86600112915039,-84.01679992675781,Sun:12:00 PM-6:00 PM;Mon:10:00 AM-9:00 PM;Tue:10:00 AM-9:00 PM;Wed:10:00 AM-9:00 PM;Thu:10:00 AM-9:00 PM;Fri:10:00 AM-9:00 PM;Sat:10:00 AM-9:00 PM;,,0
,326,Jackson Plaza,"377 W Jackson St, Ste 7d",Cookeville                              ,TN,38501,United States,931-525-6414,36.15724182128906,-85.51838684082031,Sun:12:00 PM-6:00 PM;Mon:10:00 AM-9:00 PM;Tue:10:00 AM-9:00 PM;Wed:10:00 AM-9:00 PM;Thu:10:00 AM-9:00 PM;Fri:10:00 AM-9:00 PM;Sat:10:00 AM-9:00 PM;,,0
,677,Markland Mall,1114 17th St. Ste. G05c,Kokomo                                  ,IN,46902,United States,765-457-7604,40.47419738769531,-86.10960388183594,Sun:12:00 PM-6:00 PM;Mon:10:00 AM-9:00 PM;Tue:10:00 AM-9:00 PM;Wed:10:00 AM-9:00 PM;Thu:10:00 AM-9:00 PM;Fri:10:00 AM-9:00 PM;Sat:10:00 AM-9:00 PM;,,0
,117,Stone Mountain Square,5370 Highway 78 Suite 100,Stone Mountain                          ,GA,30087,United States,770-498-6426,33.821250915527344,-84.11776733398438,Sun:12:00 PM-6:00 PM;Mon:10:00 AM-9:00 PM;Tue:10:00 AM-9:00 PM;Wed:10:00 AM-9:00 PM;Thu:10:00 AM-9:00 PM;Fri:10:00 AM-9:00 PM;Sat:10:00 AM-9:00 PM;,,0
,531,Canton Marketplace,"1810 Cumming Hwy, Suite 650",Canton                                  ,GA,30115,United States,770-479-7310,34.236236572265625,-84.46160888671875,Sun:12:00 PM-6:00 PM;Mon:10:00 AM-9:00 PM;Tue:10:00 AM-9:00 PM;Wed:10:00 AM-9:00 PM;Thu:10:00 AM-9:00 PM;Fri:10:00 AM-9:00 PM;Sat:10:00 AM-9:00 PM;,,0
,289,Conyers Crossroads Phase Ii,1462b Dogwood Dr Se,Conyers                                 ,GA,30013,United States,770-483-3964,33.65079879760742,-83.99500274658203,Sun:12:00 PM-6:00 PM;Mon:10:00 AM-9:00 PM;Tue:10:00 AM-9:00 PM;Wed:10:00 AM-9:00 PM;Thu:10:00 AM-9:00 PM;Fri:10:00 AM-9:00 PM;Sat:10:00 AM-9:00 PM;,,0
,421,Roswell Corners S/C,1125 Woodstock Rd Ste 530 Bldg D,Roswell                                 ,GA,30075,United States,678-795-9683,34.06269836425781,-84.39559936523438,Sun:12:00 PM-6:00 PM;Mon:10:00 AM-9:00 PM;Tue:10:00 AM-9:00 PM;Wed:10:00 AM-9:00 PM;Thu:10:00 AM-9:00 PM;Fri:10:00 AM-9:00 PM;Sat:10:00 AM-9:00 PM;,,0
,155,Hamilton Place,2100 Hamilton Place Blvd,Chattanooga                             ,TN,37421,United States,423-894-4359,35.0344352722168,-85.1589126586914,Sun:12:00 PM-6:00 PM;Mon:10:00 AM-9:00 PM;Tue:10:00 AM-9:00 PM;Wed:10:00 AM-9:00 PM;Thu:10:00 AM-9:00 PM;Fri:10:00 AM-9:00 PM;Sat:10:00 AM-9:00 PM;,,0
,102,Dalton Outlet Shops,1001 Market St Ste 15,Dalton                                  ,GA,30720,United States,706-226-9554,34.7588005065918,-84.99909973144531,Sun:12:00 PM-6:00 PM;Mon:10:00 AM-9:00 PM;Tue:10:00 AM-9:00 PM;Wed:10:00 AM-9:00 PM;Thu:10:00 AM-9:00 PM;Fri:10:00 AM-9:00 PM;Sat:10:00 AM-9:00 PM;,,0
,40,Providence Square,4101 Roswell Rd Ste 402,Marietta                                ,GA,30062,United States,770-977-3223,33.98169708251953,-84.43333435058594,Sun:12:00 PM-6:00 PM;Mon:10:00 AM-9:00 PM;Tue:10:00 AM-9:00 PM;Wed:10:00 AM-9:00 PM;Thu:10:00 AM-9:00 PM;Fri:10:00 AM-9:00 PM;Sat:10:00 AM-9:00 PM;,,0
,750,Woodstock Square,126  Woodstock Square Ave,Woodstock                               ,GA,30189,United States,678-494-9791,34.083534240722656,-84.54639434814453,Sun:11:00 AM-6:00 PM;Mon:10:00 AM-9:00 PM;Tue:10:00 AM-9:00 PM;Wed:10:00 AM-9:00 PM;Thu:10:00 AM-9:00 PM;Fri:10:00 AM-9:00 PM;Sat:10:00 AM-9:00 PM;,,0
,676,Parkway Plaza,205 Parkway Drive,Fort Oglethorpe                         ,GA,30742,United States,706-858-8772,34.93754196166992,-85.21898651123047,Sun:12:00 PM-6:00 PM;Mon:10:00 AM-9:00 PM;Tue:10:00 AM-9:00 PM;Wed:10:00 AM-9:00 PM;Thu:10:00 AM-9:00 PM;Fri:10:00 AM-9:00 PM;Sat:10:00 AM-9:00 PM;,,0
,616,Town Center @ Cobb,400 Ernest Barrett Parkway,Kennesaw                                ,GA,30144,United States,770-795-1288,34.017581939697266,-84.56558990478516,Sun:12:00 PM-6:00 PM;Mon:10:00 AM-9:00 PM;Tue:10:00 AM-9:00 PM;Wed:10:00 AM-9:00 PM;Thu:10:00 AM-9:00 PM;Fri:10:00 AM-9:00 PM;Sat:10:00 AM-9:00 PM;,,0
,614,Calhoun Premium Outlets,455 Belwood Road,Calhoun                                 ,GA,30701,United States,706-602-9229,34.46006774902344,-84.9184799194336,Sun:11:00 AM-7:00 PM;Mon:10:00 AM-9:00 PM;Tue:10:00 AM-9:00 PM;Wed:10:00 AM-9:00 PM;Thu:10:00 AM-9:00 PM;Fri:10:00 AM-9:00 PM;Sat:10:00 AM-9:00 PM;,,0
,352,Tanger Outlet,1000 Tanger Dr Ste 606,Locust Grove                            ,GA,30248,United States,770-914-1789,33.35165023803711,-84.12145233154297,Sun:12:00 PM-6:00 PM;Mon:9:00 AM-9:00 PM;Tue:9:00 AM-9:00 PM;Wed:9:00 AM-9:00 PM;Thu:9:00 AM-9:00 PM;Fri:9:00 AM-9:00 PM;Sat:9:00 AM-9:00 PM;,,0
,205,Southlake Mall,1257 Southlake Mall,Morrow                                  ,GA,30260,United States,770-961-1211,33.57572937011719,-84.35089111328125,Sun:11:00 AM-6:00 PM;Mon:10:00 AM-9:00 PM;Tue:10:00 AM-9:00 PM;Wed:10:00 AM-9:00 PM;Thu:10:00 AM-9:00 PM;Fri:10:00 AM-9:00 PM;Sat:10:00 AM-9:00 PM;,,0
,743,Parkside West Cobb,"3805 Dallas Hwy Sw, Ste 500",Marietta                                ,GA,30064,United States,770-919-0390,33.9502067565918,-84.66370391845703,Sun:11:00 AM-6:00 PM;Mon:10:00 AM-9:00 PM;Tue:10:00 AM-9:00 PM;Wed:10:00 AM-9:00 PM;Thu:10:00 AM-9:00 PM;Fri:10:00 AM-9:00 PM;Sat:10:00 AM-9:00 PM;,,0
,115,East West Crossing,1825 East West Connector Sw,Austell                                 ,GA,30106,United States,770-944-3497,33.85328674316406,-84.60772705078125,Sun:12:00 PM-6:00 PM;Mon:10:00 AM-9:00 PM;Tue:10:00 AM-9:00 PM;Wed:10:00 AM-9:00 PM;Thu:10:00 AM-9:00 PM;Fri:10:00 AM-9:00 PM;Sat:10:00 AM-9:00 PM;,,0
,826,Summit At The Mall,3755 Bloomfield Rd #10,Macon                                   ,GA,31206,United States,478-474-2047,32.82096862792969,-83.69772338867188,Sun:12:00 PM-6:00 PM;Mon:10:00 AM-9:00 PM;Tue:10:00 AM-9:00 PM;Wed:10:00 AM-9:00 PM;Thu:10:00 AM-9:00 PM;Fri:10:00 AM-9:00 PM;Sat:10:00 AM-9:00 PM;,,0
,437,Golden Isles Plaza,145 Golden Isles Plaza,Brunswick                               ,GA,31520,United States,912-466-0780,31.21285057067871,-81.49187469482422,Sun:12:00 PM-6:00 PM;Mon:10:00 AM-9:00 PM;Tue:10:00 AM-9:00 PM;Wed:10:00 AM-9:00 PM;Thu:10:00 AM-9:00 PM;Fri:10:00 AM-9:00 PM;Sat:10:00 AM-9:00 PM;,,0
,402,Hiram Pavilion,4794 Jimmy Lee Smith Pkwy Ste 102,Hiram                                   ,GA,30141,United States,678-567-5040,33.88664245605469,-84.74059295654297,Sun:12:00 PM-6:00 PM;Mon:10:00 AM-9:00 PM;Tue:10:00 AM-9:00 PM;Wed:10:00 AM-9:00 PM;Thu:10:00 AM-9:00 PM;Fri:10:00 AM-9:00 PM;Sat:10:00 AM-9:00 PM;,,0
,288,Fayette Pavilion,120 Pavilion Parkway,Fayetteville                            ,GA,30214,United States,770-716-8320,33.47990036010742,-84.43669891357422,Sun:11:00 AM-7:00 PM;Mon:10:00 AM-9:00 PM;Tue:10:00 AM-9:00 PM;Wed:10:00 AM-9:00 PM;Thu:10:00 AM-9:00 PM;Fri:10:00 AM-9:00 PM;Sat:10:00 AM-9:00 PM;,,0
,151,Mt Berry Mall,229 Mount Berry Sq Ne,Rome                                    ,GA,30165,United States,706-235-9309,34.3021354675293,-85.17127990722656,Sun:12:00 PM-6:00 PM;Mon:10:00 AM-9:00 PM;Tue:10:00 AM-9:00 PM;Wed:10:00 AM-9:00 PM;Thu:10:00 AM-9:00 PM;Fri:10:00 AM-9:00 PM;Sat:10:00 AM-9:00 PM;,,0
,273,Tippecanoe Mall,"2415 Sagamore Parkway S, Sp.F9",Lafayette                               ,IN,47905,United States,765-447-8994,40.39261245727539,-86.85069274902344,Sun:12:00 PM-6:00 PM;Mon:10:00 AM-9:00 PM;Tue:10:00 AM-9:00 PM;Wed:10:00 AM-9:00 PM;Thu:10:00 AM-9:00 PM;Fri:10:00 AM-9:00 PM;Sat:10:00 AM-9:00 PM;,,0
,331,Lebanon Premium Outlets,440 Outlet Village Blvd,Lebanon                                 ,TN,37090,United States,615-444-1551,36.18220138549805,-86.29900360107422,Sun:10:00 AM-7:00 PM;Mon:10:00 AM-9:00 PM;Tue:10:00 AM-9:00 PM;Wed:10:00 AM-9:00 PM;Thu:10:00 AM-9:00 PM;Fri:10:00 AM-9:00 PM;Sat:10:00 AM-9:00 PM;,,0
,761,Warner Robins Place,2724 Watson Blvd,Warner Robins                           ,GA,31093,United States,478-953-6359,32.62025451660156,-83.67473602294922,Sun:11:00 AM-6:00 PM;Mon:10:00 AM-9:00 PM;Tue:10:00 AM-9:00 PM;Wed:10:00 AM-9:00 PM;Thu:10:00 AM-9:00 PM;Fri:10:00 AM-9:00 PM;Sat:10:00 AM-9:00 PM;,,0
,416,Avenue At Peachtree City,200 City Circle   Ste 100,Peachtree City                          ,GA,30269,United States,678-364-1157,33.397098541259766,-84.5905990600586,Sun:12:00 PM-6:00 PM;Mon:10:00 AM-9:00 PM;Tue:10:00 AM-9:00 PM;Wed:10:00 AM-9:00 PM;Thu:10:00 AM-9:00 PM;Fri:10:00 AM-9:00 PM;Sat:10:00 AM-9:00 PM;,,0
,506,Providence Marketplace,401 S Mount Juliet Rd Ste 406,Mount Juliet                            ,TN,37122,United States,615-773-2580,36.166648864746094,-86.50935363769531,Sun:11:00 AM-7:00 PM;Mon:9:30 AM-9:00 PM;Tue:9:30 AM-9:00 PM;Wed:9:30 AM-9:00 PM;Thu:9:30 AM-9:00 PM;Fri:9:30 AM-9:00 PM;Sat:9:30 AM-9:00 PM;,,0
,561,Streets At Indian Lake,300 Indian Lake Blvd Bldg D Ste 160,Hendersonville                          ,TN,37075,United States,615-824-9883,36.329769134521484,-86.59197235107422,Sun:11:00 AM-6:00 PM;Mon:10:00 AM-9:00 PM;Tue:10:00 AM-9:00 PM;Wed:10:00 AM-9:00 PM;Thu:10:00 AM-9:00 PM;Fri:10:00 AM-9:00 PM;Sat:10:00 AM-9:00 PM;,,0
,363,Newnan Crossings,557 Bullsboro Drive,Newnan                                  ,GA,30265,United States,770-252-3293,33.39383316040039,-84.75801086425781,Sun:11:00 AM-7:00 PM;Mon:10:00 AM-9:00 PM;Tue:10:00 AM-9:00 PM;Wed:10:00 AM-9:00 PM;Thu:10:00 AM-9:00 PM;Fri:10:00 AM-9:00 PM;Sat:10:00 AM-9:00 PM;,,0
,702,The Avenues,2615 Medical Center Parkway,Murfreesboro                            ,TN,37129,United States,615-907-1839,35.85831069946289,-86.44451141357422,Sun:12:00 PM-6:00 PM;Mon:10:00 AM-9:00 PM;Tue:10:00 AM-9:00 PM;Wed:10:00 AM-9:00 PM;Thu:10:00 AM-9:00 PM;Fri:10:00 AM-9:00 PM;Sat:10:00 AM-9:00 PM;,,0
,203,Rivergate Mall,1000 Rivergate Parkway Ste. 1050,Goodlettsville                          ,TN,37072,United States,615-859-7994,36.30387496948242,-86.69706726074219,Sun:12:00 PM-6:00 PM;Mon:10:00 AM-9:00 PM;Tue:10:00 AM-9:00 PM;Wed:10:00 AM-9:00 PM;Thu:10:00 AM-9:00 PM;Fri:10:00 AM-9:00 PM;Sat:10:00 AM-9:00 PM;,,0
,617,Opry Mills,331 Opry Mills Drive,Nashville                               ,TN,37214,United States,615-600-4545,36.20349884033203,-86.69210052490234,Sun:12:00 PM-6:00 PM;Mon:10:00 AM-9:00 PM;Tue:10:00 AM-9:00 PM;Wed:10:00 AM-9:00 PM;Thu:10:00 AM-9:00 PM;Fri:10:00 AM-9:00 PM;Sat:10:00 AM-9:00 PM;,,0
,721,The Mall At Waycross,2215 Memorial Dr,Waycross                                ,GA,31501,United States,912-285-8033,31.200204849243164,-82.32347869873047,Sun:1:00 PM-6:00 PM;Mon:10:00 AM-9:00 PM;Tue:10:00 AM-9:00 PM;Wed:10:00 AM-9:00 PM;Thu:10:00 AM-9:00 PM;Fri:10:00 AM-9:00 PM;Sat:10:00 AM-9:00 PM;,,0
,494,Cool Springs Galleria,1800 Galleria Blvd Ste 2250,Franklin                                ,TN,37067,United States,615-778-9612,35.95844268798828,-86.81330871582031,Sun:12:00 PM-6:00 PM;Mon:10:00 AM-9:00 PM;Tue:10:00 AM-9:00 PM;Wed:10:00 AM-9:00 PM;Thu:10:00 AM-9:00 PM;Fri:10:00 AM-9:00 PM;Sat:10:00 AM-9:00 PM;,,0
,462,River City Marketplace,13221 City Station Dr Ste 121,Jacksonville                            ,FL,32218,United States,904-714-4184,30.480300903320312,-81.64070129394531,Sun:11:00 AM-6:00 PM;Mon:10:00 AM-9:00 PM;Tue:10:00 AM-9:00 PM;Wed:10:00 AM-9:00 PM;Thu:10:00 AM-9:00 PM;Fri:10:00 AM-9:00 PM;Sat:10:00 AM-9:00 PM;,,0
,196,Governor'S Square,2801 Wilma Rudolph Blvd Ste 735,Clarksville                             ,TN,37040,United States,931-647-7738,36.58926010131836,-87.28661346435547,Sun:11:00 AM-6:00 PM;Mon:10:00 AM-9:00 PM;Tue:10:00 AM-9:00 PM;Wed:10:00 AM-9:00 PM;Thu:10:00 AM-9:00 PM;Fri:10:00 AM-9:00 PM;Sat:10:00 AM-9:00 PM;,,0
,524,The Crossings Of Spring Hill,1026 Crossings Blvd,Spring Hill                             ,TN,37174,United States,931-486-2400,35.73966598510742,-86.94022369384766,Sun:12:00 PM-6:00 PM;Mon:10:00 AM-9:00 PM;Tue:10:00 AM-9:00 PM;Wed:10:00 AM-9:00 PM;Thu:10:00 AM-9:00 PM;Fri:10:00 AM-9:00 PM;Sat:10:00 AM-9:00 PM;,,0
,153,South Beach Parkway Shopping Ctr.,602 Marsh Landing Pkwy,Jacksonville Beach                      ,FL,32250,United States,904-285-6006,30.253793716430664,-81.39154815673828,Sun:11:00 AM-6:00 PM;Mon:10:00 AM-9:00 PM;Tue:10:00 AM-9:00 PM;Wed:10:00 AM-9:00 PM;Thu:10:00 AM-9:00 PM;Fri:10:00 AM-9:00 PM;Sat:10:00 AM-9:00 PM;,,0
,679,Village At Elizabeth St,"301 Elizabeth St, Ste 348",Boaz                                    ,AL,35957,United States,256-840-6336,34.19636154174805,-86.1603775024414,Sun:12:00 PM-6:00 PM;Mon:10:00 AM-8:00 PM;Tue:10:00 AM-8:00 PM;Wed:10:00 AM-8:00 PM;Thu:10:00 AM-8:00 PM;Fri:10:00 AM-8:00 PM;Sat:10:00 AM-8:00 PM;,,0
,716,Shoppes At Albertville,7360 Us Hwy 431 Ste 5,Albertville                             ,AL,35950,United States,256-878-1549,34.27931594848633,-86.20635986328125,Sun:12:00 PM-6:00 PM;Mon:10:00 AM-9:00 PM;Tue:10:00 AM-9:00 PM;Wed:10:00 AM-9:00 PM;Thu:10:00 AM-9:00 PM;Fri:10:00 AM-9:00 PM;Sat:10:00 AM-9:00 PM;,,0
,489,Oxford Exchange,150 Oxford Exchange Blvd,Oxford                                  ,AL,36203,United States,256-831-1709,33.607666015625,-85.78377532958984,Sun:12:00 PM-6:00 PM;Mon:10:00 AM-9:00 PM;Tue:10:00 AM-9:00 PM;Wed:10:00 AM-9:00 PM;Thu:10:00 AM-9:00 PM;Fri:10:00 AM-9:00 PM;Sat:10:00 AM-9:00 PM;,,0
,299,Roosevelt Square,4495 Roosevelt Blvd. Ste F-1,Jacksonville                            ,FL,32210,United States,904-389-2010,30.27829933166504,-81.72019958496094,Sun:11:00 AM-6:00 PM;Mon:10:00 AM-9:00 PM;Tue:10:00 AM-9:00 PM;Wed:10:00 AM-9:00 PM;Thu:10:00 AM-9:00 PM;Fri:10:00 AM-9:00 PM;Sat:10:00 AM-9:00 PM;,,0
,484,Columbia Marketplace,821 S James Campbell Blvd Ste D,Columbia                                ,TN,38401,United States,931-490-9137,35.597023010253906,-87.0599136352539,Sun:11:00 AM-6:00 PM;Mon:9:30 AM-9:00 PM;Tue:9:30 AM-9:00 PM;Wed:9:30 AM-9:00 PM;Thu:9:30 AM-9:00 PM;Fri:9:30 AM-9:00 PM;Sat:9:30 AM-9:00 PM;,,0
,210,The Avenues,10300 Southside Blvd. Rm 2030,Jacksonville                            ,FL,32256,United States,904-464-0426,30.183429718017578,-81.5538558959961,Sun:12:00 PM-6:00 PM;Mon:10:00 AM-9:00 PM;Tue:10:00 AM-9:00 PM;Wed:10:00 AM-9:00 PM;Thu:10:00 AM-9:00 PM;Fri:10:00 AM-9:00 PM;Sat:10:00 AM-9:00 PM;,,0
,454,River Place S/C,"11111 San Jose Blvd, Ste 27",Jacksonville                            ,FL,32223,United States,904-268-7442,30.173309326171875,-81.6253890991211,Sun:11:00 AM-6:00 PM;Mon:10:00 AM-9:00 PM;Tue:10:00 AM-9:00 PM;Wed:10:00 AM-9:00 PM;Thu:10:00 AM-9:00 PM;Fri:10:00 AM-9:00 PM;Sat:10:00 AM-9:00 PM;,,0
,446,Columbus Park Crossing,5555 Whittlesey Blvd Bldg 2220,Columbus                                ,GA,31909,United States,706-494-1155,32.5468635559082,-84.94693756103516,Sun:11:00 AM-7:00 PM;Mon:10:00 AM-9:00 PM;Tue:10:00 AM-9:00 PM;Wed:10:00 AM-9:00 PM;Thu:10:00 AM-9:00 PM;Fri:10:00 AM-9:00 PM;Sat:10:00 AM-9:00 PM;,,0
,284,Orange Park Mall,1910 Wells Road Sp J-05,Orange Park                             ,FL,32073,United States,904-264-5005,30.184627532958984,-81.73567199707031,Sun:12:00 PM-6:00 PM;Mon:10:00 AM-9:00 PM;Tue:10:00 AM-9:00 PM;Wed:10:00 AM-9:00 PM;Thu:10:00 AM-9:00 PM;Fri:10:00 AM-9:00 PM;Sat:10:00 AM-9:00 PM;,,0
,628,The Shoppes Of Madison,8201 Hwy 72 West Suite B,Madison                                 ,AL,35758,United States,256-721-9919,34.74984359741211,-86.75690460205078,Sun:12:00 PM-6:00 PM;Mon:10:00 AM-9:00 PM;Tue:10:00 AM-9:00 PM;Wed:10:00 AM-9:00 PM;Thu:10:00 AM-9:00 PM;Fri:10:00 AM-9:00 PM;Sat:10:00 AM-9:00 PM;,,0
,609,St. Augustine Premium Outletsxl,"2700 State Road 16, Ste 415",Saint Augustine                         ,FL,32092,United States,904-829-8752,29.92581558227539,-81.41902160644531,Sun:10:00 AM-6:00 PM;Mon:9:00 AM-9:00 PM;Tue:9:00 AM-9:00 PM;Wed:9:00 AM-9:00 PM;Thu:9:00 AM-9:00 PM;Fri:9:00 AM-9:00 PM;Sat:9:00 AM-9:00 PM;,,0
,504,Tiger Town,2594 Enterprise Drive,Opelika                                 ,AL,36801,United States,334-737-0595,32.61824035644531,-85.4108657836914,Sun:11:00 AM-7:00 PM;Mon:9:00 AM-9:00 PM;Tue:9:00 AM-9:00 PM;Wed:9:00 AM-9:00 PM;Thu:9:00 AM-9:00 PM;Fri:9:00 AM-9:00 PM;Sat:9:00 AM-9:00 PM;,,0
,263,Valdosta Corners Center,1200e North St. Augustine Rd.,Valdosta                                ,GA,31601,United States,229-259-0220,30.840791702270508,-83.32653045654297,Sun:11:00 AM-6:00 PM;Mon:10:00 AM-9:00 PM;Tue:10:00 AM-9:00 PM;Wed:10:00 AM-9:00 PM;Thu:10:00 AM-9:00 PM;Fri:10:00 AM-9:00 PM;Sat:10:00 AM-9:00 PM;,,0
,169,Lake Park Outlets,5141 Mill Store Rd,Lake Park                               ,GA,31636,United States,229-559-0292,30.67915916442871,-83.21925354003906,Sun:11:00 AM-6:00 PM;Mon:9:00 AM-8:00 PM;Tue:9:00 AM-8:00 PM;Wed:9:00 AM-8:00 PM;Thu:9:00 AM-8:00 PM;Fri:9:00 AM-8:00 PM;Sat:9:00 AM-8:00 PM;,,0
,825,Lake Park Outlets,5145 Mill Store Rd,Lake Park                               ,GA,31636,United States,229-559-9409,30.67914581298828,-83.21985626220703,Sun:11:00 AM-6:00 PM;Mon:9:00 AM-8:00 PM;Tue:9:00 AM-8:00 PM;Wed:9:00 AM-8:00 PM;Thu:9:00 AM-8:00 PM;Fri:9:00 AM-8:00 PM;Sat:9:00 AM-8:00 PM;,,0
,381,Promenade At Tutwiler Farms,1636 Gasden Hwy Ste 100,Birmingham                              ,AL,35235,United States,205-655-4243,33.60190963745117,-86.63851928710938,Sun:12:00 PM-6:00 PM;Mon:10:00 AM-9:00 PM;Tue:10:00 AM-9:00 PM;Wed:10:00 AM-9:00 PM;Thu:10:00 AM-9:00 PM;Fri:10:00 AM-9:00 PM;Sat:10:00 AM-9:00 PM;,,0
,279,Volusia Mall  Sp 392,1700 W International Speedway Blvd,Daytona Beach                           ,FL,32114,United States,386-252-3338,29.19670295715332,-81.06452941894531,Sun:12:00 PM-6:00 PM;Mon:10:00 AM-9:00 PM;Tue:10:00 AM-9:00 PM;Wed:10:00 AM-9:00 PM;Thu:10:00 AM-9:00 PM;Fri:10:00 AM-9:00 PM;Sat:10:00 AM-9:00 PM;,,0
,705,Tanger Outlet Center - Daytona,1100 Cornerstone Blvd. Suite 220,Daytona Beach                           ,FL,32117,United States,386-274-1468,29.21477508544922,-81.09869384765625,Sun:10:00 AM-7:00 PM;Mon:9:00 AM-9:00 PM;Tue:9:00 AM-9:00 PM;Wed:9:00 AM-9:00 PM;Thu:9:00 AM-9:00 PM;Fri:9:00 AM-9:00 PM;Sat:9:00 AM-9:00 PM;,,0
,195,Brook Highland Plaza,5287 Hwy 280 South Suite 231,Birmingham                              ,AL,35242,United States,205-980-5750,33.42218017578125,-86.68174743652344,Sun:1:00 PM-6:00 PM;Mon:10:00 AM-9:00 PM;Tue:10:00 AM-9:00 PM;Wed:10:00 AM-9:00 PM;Thu:10:00 AM-9:00 PM;Fri:10:00 AM-9:00 PM;Sat:10:00 AM-9:00 PM;,,0
,565,Pavilion At Port Orange,5517 S Williamson Blvd,Port Orange                             ,FL,32128,United States,386-760-6440,29.111839294433594,-81.0338134765625,Sun:12:00 PM-6:00 PM;Mon:10:00 AM-9:00 PM;Tue:10:00 AM-9:00 PM;Wed:10:00 AM-9:00 PM;Thu:10:00 AM-9:00 PM;Fri:10:00 AM-9:00 PM;Sat:10:00 AM-9:00 PM;,,0
,265,Riverchase Galleria,2000 Riverchase Galleria Sp 299a,Hoover                                  ,AL,35244,United States,205-988-3499,33.37879943847656,-86.80850219726562,Sun:12:00 PM-6:00 PM;Mon:10:00 AM-9:00 PM;Tue:10:00 AM-9:00 PM;Wed:10:00 AM-9:00 PM;Thu:10:00 AM-9:00 PM;Fri:10:00 AM-9:00 PM;Sat:10:00 AM-9:00 PM;,,0
,185,Butler Plaza West,3958 S W Archer  Road,Gainesville                             ,FL,32608,United States,352-377-4813,29.62166976928711,-82.38308715820312,Sun:12:00 PM-6:00 PM;Mon:10:00 AM-9:00 PM;Tue:10:00 AM-9:00 PM;Wed:10:00 AM-9:00 PM;Thu:10:00 AM-9:00 PM;Fri:10:00 AM-9:00 PM;Sat:10:00 AM-9:00 PM;,,0
,496,Colonial Property Alabaster Ph Ii,320 South Colonial Dr Ste 3100,Alabaster                               ,AL,35007,United States,205-664-9322,33.22769546508789,-86.80428314208984,Sun:12:00 PM-6:00 PM;Mon:10:00 AM-9:00 PM;Tue:10:00 AM-9:00 PM;Wed:10:00 AM-9:00 PM;Thu:10:00 AM-9:00 PM;Fri:10:00 AM-9:00 PM;Sat:10:00 AM-9:00 PM;,,0
,157,The Shoppes @ Eastchase,2448 Berryhill Rd,Montgomery                              ,AL,36117,United States,334-273-5510,32.357608795166016,-86.16094970703125,Sun:11:00 AM-7:00 PM;Mon:10:00 AM-9:00 PM;Tue:10:00 AM-9:00 PM;Wed:10:00 AM-9:00 PM;Thu:10:00 AM-9:00 PM;Fri:10:00 AM-9:00 PM;Sat:10:00 AM-9:00 PM;,,0
,497,Prattville Town Center,2758 Legends Pkwy,Prattville                              ,AL,36066,United States,334-285-9942,32.45734786987305,-86.39521026611328,Sun:10:00 AM-8:00 PM;Mon:9:00 AM-9:00 PM;Tue:9:00 AM-9:00 PM;Wed:9:00 AM-9:00 PM;Thu:9:00 AM-9:00 PM;Fri:9:00 AM-9:00 PM;Sat:9:00 AM-9:00 PM;,,0
,254,Seminole Towne Center,104 Towne Center Circle,Sanford                                 ,FL,32771,United States,407-323-7411,28.805782318115234,-81.33980560302734,Sun:12:00 PM-6:00 PM;Mon:10:00 AM-9:00 PM;Tue:10:00 AM-9:00 PM;Wed:10:00 AM-9:00 PM;Thu:10:00 AM-9:00 PM;Fri:10:00 AM-9:00 PM;Sat:10:00 AM-9:00 PM;,,0
,672,Target Center,2110 Apalachee Parkway,Tallahassee                             ,FL,32301,United States,850-402-9324,30.431608200073242,-84.24563598632812,Sun:12:00 PM-6:00 PM;Mon:10:00 AM-9:00 PM;Tue:10:00 AM-9:00 PM;Wed:10:00 AM-9:00 PM;Thu:10:00 AM-9:00 PM;Fri:10:00 AM-9:00 PM;Sat:10:00 AM-9:00 PM;,,0
,268,Paddock Mall,3100 College Road Room 112,Ocala                                   ,FL,34474,United States,352-861-0380,29.158367156982422,-82.17377471923828,Sun:12:00 PM-5:30 PM;Mon:10:00 AM-9:00 PM;Tue:10:00 AM-9:00 PM;Wed:10:00 AM-9:00 PM;Thu:10:00 AM-9:00 PM;Fri:10:00 AM-9:00 PM;Sat:10:00 AM-9:00 PM;,,0
,240,Wiregrass Commons Mall,900 Commons Drive Ste 812,Dothan                                  ,AL,36303,United States,334-671-1318,31.254499435424805,-85.4255142211914,Sun:12:00 PM-6:00 PM;Mon:10:00 AM-9:00 PM;Tue:10:00 AM-9:00 PM;Wed:10:00 AM-9:00 PM;Thu:10:00 AM-9:00 PM;Fri:10:00 AM-9:00 PM;Sat:10:00 AM-9:00 PM;,,0
,313,Merritt Square,777 E Merritt Is. Causeway Sp H3,Merritt Island                          ,FL,32952,United States,321-456-5905,28.354339599609375,-80.68675231933594,Sun:11:00 AM-6:00 PM;Mon:10:00 AM-9:00 PM;Tue:10:00 AM-9:00 PM;Wed:10:00 AM-9:00 PM;Thu:10:00 AM-9:00 PM;Fri:10:00 AM-9:00 PM;Sat:10:00 AM-9:00 PM;,,0
,388,Waterford Lakes Town Center,671 Alafaya Trail,Orlando                                 ,FL,32828,United States,407-281-9324,28.55483627319336,-81.20335388183594,Sun:11:00 AM-6:00 PM;Mon:10:00 AM-9:30 PM;Tue:10:00 AM-9:30 PM;Wed:10:00 AM-9:30 PM;Thu:10:00 AM-9:30 PM;Fri:10:00 AM-9:30 PM;Sat:10:00 AM-9:30 PM;,,0
,369,The Columns Of Jackson,"1081 Van Drive, Ste 110",Jackson                                 ,TN,38305,United States,731-664-9948,35.66785430908203,-88.8608627319336,Sun:12:00 PM-6:00 PM;Mon:10:00 AM-9:00 PM;Tue:10:00 AM-9:00 PM;Wed:10:00 AM-9:00 PM;Thu:10:00 AM-9:00 PM;Fri:10:00 AM-9:00 PM;Sat:10:00 AM-9:00 PM;,,0
,213,Orlando Fashion Square,3201 E Colonial Dr Ste D50,Orlando                                 ,FL,32803,United States,407-895-1931,28.557111740112305,-81.33995819091797,Sun:11:00 AM-6:00 PM;Mon:10:00 AM-9:00 PM;Tue:10:00 AM-9:00 PM;Wed:10:00 AM-9:00 PM;Thu:10:00 AM-9:00 PM;Fri:10:00 AM-9:00 PM;Sat:10:00 AM-9:00 PM;,,0
,540,Midtown Village,"1800 Mcfarland Blvd. East, Ste 512",Tuscaloosa                              ,AL,35404,United States,205-343-1836,33.195106506347656,-87.52790832519531,Sun:1:00 PM-6:00 PM;Mon:10:00 AM-9:00 PM;Tue:10:00 AM-9:00 PM;Wed:10:00 AM-9:00 PM;Thu:10:00 AM-9:00 PM;Fri:10:00 AM-9:00 PM;Sat:10:00 AM-9:00 PM;,,0
,580,Orlando Premium Outlets - Intl,4967 International Dr Ste 3a-13,Orlando                                 ,FL,32819,United States,407-264-2852,28.475955963134766,-81.45132446289062,Sun:10:00 AM-9:00 PM;Mon:10:00 AM-11:00 PM;Tue:10:00 AM-11:00 PM;Wed:10:00 AM-11:00 PM;Thu:10:00 AM-11:00 PM;Fri:10:00 AM-11:00 PM;Sat:10:00 AM-11:00 PM;,,0
,233,Melbourne Square Shopping Ctr,1700 W New Haven Ave Ste 729,Melbourne                               ,FL,32904,United States,321-726-8773,28.081680297851562,-80.6504898071289,Sun:12:00 PM-6:00 PM;Mon:10:00 AM-9:00 PM;Tue:10:00 AM-9:00 PM;Wed:10:00 AM-9:00 PM;Thu:10:00 AM-9:00 PM;Fri:10:00 AM-9:00 PM;Sat:10:00 AM-9:00 PM;,,0
,558,Orlando Vineland Premium Outlets,"8158 Vineland Ave, Suite 1699b",Orlando                                 ,FL,32821,United States,407-239-0044,28.3879337310791,-81.49019622802734,Sun:10:00 AM-9:00 PM;Mon:10:00 AM-11:00 PM;Tue:10:00 AM-11:00 PM;Wed:10:00 AM-11:00 PM;Thu:10:00 AM-11:00 PM;Fri:10:00 AM-11:00 PM;Sat:10:00 AM-11:00 PM;,,0
,420,Lake Buena Vista,15649 S Apopka Vineland Rd,Orlando                                 ,FL,32821,United States,407-238-1214,28.349849700927734,-81.48615264892578,Sun:10:00 AM-7:00 PM;Mon:10:00 AM-9:00 PM;Tue:10:00 AM-9:00 PM;Wed:10:00 AM-9:00 PM;Thu:10:00 AM-9:00 PM;Fri:10:00 AM-9:00 PM;Sat:10:00 AM-9:00 PM;,,0
,189,Between Markers 13 And 14,4677 W Irlo Bronson Memorial Hwy,Kissimmee                               ,FL,34746,United States,407-397-7682,28.31903839111328,-81.46951293945312,Sun:10:00 AM-8:00 PM;Mon:9:00 AM-9:00 PM;Tue:9:00 AM-9:00 PM;Wed:9:00 AM-9:00 PM;Thu:9:00 AM-9:00 PM;Fri:9:00 AM-9:00 PM;Sat:9:00 AM-9:00 PM;,,0
,737,Vero Beach Outlets,1695 94th Dr Sp F120,Vero Beach                              ,FL,32966,United States,772-562-6698,27.63434410095215,-80.52104949951172,Sun:11:00 AM-6:00 PM;Mon:9:00 AM-8:00 PM;Tue:9:00 AM-8:00 PM;Wed:9:00 AM-8:00 PM;Thu:9:00 AM-8:00 PM;Fri:9:00 AM-8:00 PM;Sat:9:00 AM-8:00 PM;,,0
,255,Eagle  Ridge Mall,739 Eagle Ridge Dr Ste 314,Lake Wales                              ,FL,33859,United States,863-676-0766,27.95482063293457,-81.61495208740234,Sun:12:00 PM-6:00 PM;Mon:10:00 AM-9:00 PM;Tue:10:00 AM-9:00 PM;Wed:10:00 AM-9:00 PM;Thu:10:00 AM-9:00 PM;Fri:10:00 AM-9:00 PM;Sat:10:00 AM-9:00 PM;,,0
,72,Lakeland Square Mall,3800 Us Hwy 98 North Ste 541,Lakeland                                ,FL,33809,United States,863-859-7088,28.090288162231445,-81.97801208496094,Sun:12:00 PM-6:00 PM;Mon:10:00 AM-9:00 PM;Tue:10:00 AM-9:00 PM;Wed:10:00 AM-9:00 PM;Thu:10:00 AM-9:00 PM;Fri:10:00 AM-9:00 PM;Sat:10:00 AM-9:00 PM;,,0
,562,The Shops At Wiregrass,"28347 Paseo Dr, #120",Wesley Chapel                           ,FL,33543,United States,813-994-4386,28.18903160095215,-82.34900665283203,Sun:12:00 PM-6:00 PM;Mon:10:00 AM-9:00 PM;Tue:10:00 AM-9:00 PM;Wed:10:00 AM-9:00 PM;Thu:10:00 AM-9:00 PM;Fri:10:00 AM-9:00 PM;Sat:10:00 AM-9:00 PM;,,0
,59,Merchants Walk,3615 S Florida Ave Ste 840,Lakeland                                ,FL,33803,United States,863-647-3892,27.999584197998047,-81.95967864990234,Sun:12:00 PM-6:00 PM;Mon:10:00 AM-9:00 PM;Tue:10:00 AM-9:00 PM;Wed:10:00 AM-9:00 PM;Thu:10:00 AM-9:00 PM;Fri:10:00 AM-9:00 PM;Sat:10:00 AM-9:00 PM;,,0
,665,Tampa Premium Outlets,2224 Grand Cypress Dr Ste 715,Lutz                                    ,FL,33559,United States,813-778-0374,28.188613891601562,-82.39122009277344,Sun:10:00 AM-7:00 PM;Mon:10:00 AM-9:00 PM;Tue:10:00 AM-9:00 PM;Wed:10:00 AM-9:00 PM;Thu:10:00 AM-9:00 PM;Fri:10:00 AM-9:00 PM;Sat:10:00 AM-9:00 PM;,,0
,647,St. Louis Premium Outlets,"18527 Outlet Blvd, Spc 754",Chesterfield                            ,MO,63005,United States,636-778-1514,38.67805862426758,-90.66154479980469,Sun:10:00 AM-7:00 PM;Mon:10:00 AM-9:00 PM;Tue:10:00 AM-9:00 PM;Wed:10:00 AM-9:00 PM;Thu:10:00 AM-9:00 PM;Fri:10:00 AM-9:00 PM;Sat:10:00 AM-9:00 PM;,,0
,235,Gulf View Square Shopping Ctr.,9409 Us Hwy 19 Ste 307,Port Richey                             ,FL,34668,United States,727-843-0780,28.294769287109375,-82.71244812011719,Sun:12:00 PM-5:30 PM;Mon:10:00 AM-9:00 PM;Tue:10:00 AM-9:00 PM;Wed:10:00 AM-9:00 PM;Thu:10:00 AM-9:00 PM;Fri:10:00 AM-9:00 PM;Sat:10:00 AM-9:00 PM;,,0
,266,Wolfchase Galleria,2760 N Germantown Pkwy Ste 201,Memphis                                 ,TN,38133,United States,901-377-1151,35.2006950378418,-89.78759765625,Sun:12:00 PM-6:00 PM;Mon:10:00 AM-9:00 PM;Tue:10:00 AM-9:00 PM;Wed:10:00 AM-9:00 PM;Thu:10:00 AM-9:00 PM;Fri:10:00 AM-9:00 PM;Sat:10:00 AM-9:00 PM;,,0
,259,Treasure Coast Square,3336 Nw Federal Hwy.,Jensen Beach                            ,FL,34957,United States,772-692-0227,27.243526458740234,-80.27536010742188,Sun:12:00 PM-6:00 PM;Mon:10:00 AM-9:00 PM;Tue:10:00 AM-9:00 PM;Wed:10:00 AM-9:00 PM;Thu:10:00 AM-9:00 PM;Fri:10:00 AM-9:00 PM;Sat:10:00 AM-9:00 PM;,,0
,419,Gallina Centro,3609 Houston Levee Rd Ste 101-103,Collierville                            ,TN,38017,United States,901-853-5450,35.049652099609375,-89.73526763916016,Sun:12:00 PM-6:00 PM;Mon:10:00 AM-9:00 PM;Tue:10:00 AM-9:00 PM;Wed:10:00 AM-9:00 PM;Thu:10:00 AM-9:00 PM;Fri:10:00 AM-9:00 PM;Sat:10:00 AM-9:00 PM;,,0
,287,The Commons,8075 Giacosa Pl Ste 103,Memphis                                 ,TN,38133,United States,901-372-8818,35.197566986083984,-89.79417419433594,Sun:12:00 PM-6:00 PM;Mon:10:00 AM-9:00 PM;Tue:10:00 AM-9:00 PM;Wed:10:00 AM-9:00 PM;Thu:10:00 AM-9:00 PM;Fri:10:00 AM-9:00 PM;Sat:10:00 AM-9:00 PM;,,0
,215,University Mall,12257 University Mall Ct,Tampa                                   ,FL,33612,United States,813-972-1110,28.05535125732422,-82.4347152709961,Sun:12:00 PM-6:00 PM;Mon:10:30 AM-8:30 PM;Tue:10:30 AM-8:30 PM;Wed:10:30 AM-8:30 PM;Thu:10:30 AM-8:30 PM;Fri:10:30 AM-9:00 PM;Sat:10:00 AM-9:00 PM;,,0
,714,Shops @ Millington Farms,"8540 Us Hwy 51 N, Suite 103",Millington                              ,TN,38053,United States,901-873-0783,35.358829498291016,-89.89083862304688,Sun:12:00 PM-6:00 PM;Mon:10:00 AM-9:00 PM;Tue:10:00 AM-9:00 PM;Wed:10:00 AM-9:00 PM;Thu:10:00 AM-9:00 PM;Fri:10:00 AM-9:00 PM;Sat:10:00 AM-9:00 PM;,,0
,577,Pier Park,"205 Bluefish Drive, Suite 115",Panama City Beach                       ,FL,32413,United States,850-230-3051,30.219560623168945,-85.87037658691406,Sun:12:00 PM-7:00 PM;Mon:10:00 AM-9:00 PM;Tue:10:00 AM-9:00 PM;Wed:10:00 AM-9:00 PM;Thu:10:00 AM-9:00 PM;Fri:10:00 AM-9:00 PM;Sat:10:00 AM-9:00 PM;,,0
,148,Stuart Centre,2399 Se Federal Hwy,Stuart                                  ,FL,34994,United States,772-288-1778,27.175579071044922,-80.23426818847656,Sun:11:00 AM-6:00 PM;Mon:10:00 AM-9:00 PM;Tue:10:00 AM-9:00 PM;Wed:10:00 AM-9:00 PM;Thu:10:00 AM-9:00 PM;Fri:10:00 AM-9:00 PM;Sat:10:00 AM-9:00 PM;,,0
,167,Germantown Village Square,7690 Poplar Ave,Germantown                              ,TN,38138,United States,901-754-2565,35.092796325683594,-89.806396484375,Sun:12:00 PM-6:00 PM;Mon:10:00 AM-9:00 PM;Tue:10:00 AM-9:00 PM;Wed:10:00 AM-9:00 PM;Thu:10:00 AM-9:00 PM;Fri:10:00 AM-9:00 PM;Sat:10:00 AM-9:00 PM;,,0
,324,Westfield Citrus Park,7803 Citrus Park Twn Ctr Mall Sp650,Tampa                                   ,FL,33625,United States,813-920-1591,28.06863021850586,-82.57417297363281,Sun:12:00 PM-6:00 PM;Mon:10:00 AM-9:00 PM;Tue:10:00 AM-9:00 PM;Wed:10:00 AM-9:00 PM;Thu:10:00 AM-9:00 PM;Fri:10:00 AM-9:00 PM;Sat:10:00 AM-9:00 PM;,,0
,187,Westfield Brandon,314 Brandon Town Center Mall,Brandon                                 ,FL,33511,United States,813-653-2260,27.931400299072266,-82.32440185546875,Sun:11:00 AM-6:00 PM;Mon:10:00 AM-9:00 PM;Tue:10:00 AM-9:00 PM;Wed:10:00 AM-9:00 PM;Thu:10:00 AM-9:00 PM;Fri:10:00 AM-9:00 PM;Sat:10:00 AM-9:00 PM;,,0
,154,Eastgate Shopping Center,5110 Park Ave,Memphis                                 ,TN,38117,United States,901-682-1584,35.10771942138672,-89.8912582397461,Sun:12:00 PM-6:00 PM;Mon:10:00 AM-9:00 PM;Tue:10:00 AM-9:00 PM;Wed:10:00 AM-9:00 PM;Thu:10:00 AM-9:00 PM;Fri:10:00 AM-9:00 PM;Sat:10:00 AM-9:00 PM;,,0
,572,Oxford Galleria,"2305 West Jackson Ave, Suite 213",Oxford                                  ,MS,38655,United States,662-236-3412,34.3642578125,-89.56314086914062,Sun:12:00 PM-6:00 PM;Mon:10:00 AM-9:00 PM;Tue:10:00 AM-9:00 PM;Wed:10:00 AM-9:00 PM;Thu:10:00 AM-9:00 PM;Fri:10:00 AM-9:00 PM;Sat:10:00 AM-9:00 PM;,,0
,146,Lakeshore Mall,901 Us Highway 27 N Ste 32,Sebring                                 ,FL,33870,United States,863-382-2731,27.490575790405273,-81.48747253417969,Sun:12:00 PM-6:00 PM;Mon:10:00 AM-9:00 PM;Tue:10:00 AM-9:00 PM;Wed:10:00 AM-9:00 PM;Thu:10:00 AM-9:00 PM;Fri:10:00 AM-9:00 PM;Sat:10:00 AM-9:00 PM;,,0
,747,Westshore Plaza,129 Westshore Plaza,Tampa                                   ,FL,33609,United States,813-282-9089,27.9468994140625,-82.52791595458984,Sun:12:00 PM-6:00 PM;Mon:10:00 AM-9:00 PM;Tue:10:00 AM-9:00 PM;Wed:10:00 AM-9:00 PM;Thu:10:00 AM-9:00 PM;Fri:10:00 AM-9:00 PM;Sat:10:00 AM-9:00 PM;,,0
,624,Wedgewood Commons,5060 Goodman Road,Olive Branch                            ,MS,38654,United States,662-890-7001,34.96259689331055,-89.89968872070312,Sun:12:00 PM-6:00 PM;Mon:10:00 AM-9:00 PM;Tue:10:00 AM-9:00 PM;Wed:10:00 AM-9:00 PM;Thu:10:00 AM-9:00 PM;Fri:10:00 AM-9:00 PM;Sat:10:00 AM-9:00 PM;,,0
,230,Westfield  Countryside Mall,27001 Us Hwy 19 N Ste 2001,Clearwater                              ,FL,33761,United States,727-724-9780,28.017263412475586,-82.73501586914062,Sun:12:00 PM-6:00 PM;Mon:10:00 AM-9:00 PM;Tue:10:00 AM-9:00 PM;Wed:10:00 AM-9:00 PM;Thu:10:00 AM-9:00 PM;Fri:10:00 AM-9:00 PM;Sat:10:00 AM-9:00 PM;,,0
,356,Silver Sands Outlet,10406 Emerald Coast Pkwy. Ste. 86a,Destin                                  ,FL,32550,United States,850-269-3225,30.378490447998047,-86.351806640625,Sun:10:00 AM-6:00 PM;Mon:10:00 AM-9:00 PM;Tue:10:00 AM-9:00 PM;Wed:10:00 AM-9:00 PM;Thu:10:00 AM-9:00 PM;Fri:10:00 AM-9:00 PM;Sat:10:00 AM-9:00 PM;,,0
,396,Southaven Town Center,6510 Towne Center Loop,Southaven                               ,MS,38671,United States,662-536-1968,34.955360412597656,-89.99577331542969,Sun:12:00 PM-6:00 PM;Mon:10:00 AM-9:00 PM;Tue:10:00 AM-9:00 PM;Wed:10:00 AM-9:00 PM;Thu:10:00 AM-9:00 PM;Fri:10:00 AM-9:00 PM;Sat:10:00 AM-9:00 PM;,,0
,730,Tanger - Memphis,5205 Airways Blvd Bldg 1 Ste 120,Southaven                               ,MS,38671,United States,662-349-6304,34.9362907409668,-89.99200439453125,Sun:10:00 AM-7:00 PM;Mon:9:00 AM-9:00 PM;Tue:9:00 AM-9:00 PM;Wed:9:00 AM-9:00 PM;Thu:9:00 AM-9:00 PM;Fri:9:00 AM-9:00 PM;Sat:9:00 AM-9:00 PM;,,0
,84,Largo Mall,10500 Ulmerton Rd Ste 626,Largo                                   ,FL,33771,United States,727-585-6603,27.89170265197754,-82.78303527832031,Sun:12:00 PM-6:00 PM;Mon:10:00 AM-9:00 PM;Tue:10:00 AM-9:00 PM;Wed:10:00 AM-9:00 PM;Thu:10:00 AM-9:00 PM;Fri:10:00 AM-9:00 PM;Sat:10:00 AM-9:00 PM;,,0
,749,Seminole City Center,7943 113th St N,Seminole                                ,FL,33772,United States,727-319-0018,27.844459533691406,-82.79320526123047,Sun:12:00 PM-6:00 PM;Mon:10:00 AM-9:00 PM;Tue:10:00 AM-9:00 PM;Wed:10:00 AM-9:00 PM;Thu:10:00 AM-9:00 PM;Fri:10:00 AM-9:00 PM;Sat:10:00 AM-9:00 PM;,,0
,236,Tyrone Square Shopping Center,6714 Tyrone Square  Suite 288,Saint Petersburg                        ,FL,33710,United States,727-344-8550,27.792882919311523,-82.7318115234375,Sun:11:00 AM-7:00 PM;Mon:10:00 AM-9:00 PM;Tue:10:00 AM-9:00 PM;Wed:10:00 AM-9:00 PM;Thu:10:00 AM-9:00 PM;Fri:10:00 AM-9:00 PM;Sat:10:00 AM-9:00 PM;,,0
,762,Tri-Lakes Village,105 John R Lovelace Dr,Batesville                              ,MS,38606,United States,662-563-1832,34.308536529541016,-89.91294860839844,Sun:12:00 PM-6:00 PM;Mon:10:00 AM-9:00 PM;Tue:10:00 AM-9:00 PM;Wed:10:00 AM-9:00 PM;Thu:10:00 AM-9:00 PM;Fri:10:00 AM-9:00 PM;Sat:10:00 AM-9:00 PM;,,0
,641,Palm Beach Fashion Outlets,1721 Palm Beach Lakes Blvd Ste E405,West Palm Beach                         ,FL,33401,United States,561-687-9371,26.72507095336914,-80.08818054199219,Sun:12:00 PM-7:00 PM;Mon:10:00 AM-9:00 PM;Tue:10:00 AM-9:00 PM;Wed:10:00 AM-9:00 PM;Thu:10:00 AM-9:00 PM;Fri:10:00 AM-9:00 PM;Sat:10:00 AM-9:00 PM;,,0
,439,Caraway Plaza,1225 Caraway Road,Jonesboro                               ,AR,72401,United States,870-933-2537,35.829498291015625,-90.6792984008789,Sun:12:00 PM-6:00 PM;Mon:10:00 AM-9:00 PM;Tue:10:00 AM-9:00 PM;Wed:10:00 AM-9:00 PM;Thu:10:00 AM-9:00 PM;Fri:10:00 AM-9:00 PM;Sat:9:30 AM-9:00 PM;,,0
,138,Ellenton Premium Outlets,5443 Factory Shops Blvd Ste 220,Ellenton                                ,FL,34222,United States,941-723-2225,27.53415870666504,-82.5068359375,Sun:10:00 AM-7:00 PM;Mon:10:00 AM-9:00 PM;Tue:10:00 AM-9:00 PM;Wed:10:00 AM-9:00 PM;Thu:10:00 AM-9:00 PM;Fri:10:00 AM-9:00 PM;Sat:10:00 AM-9:00 PM;,,0
,556,Southern Palm Crossing,11051 Southern Blvd. Ste. 16,Royal Palm Beach                        ,FL,33411,United States,561-791-9517,26.68114471435547,-80.21935272216797,Sun:11:00 AM-6:00 PM;Mon:10:00 AM-9:00 PM;Tue:10:00 AM-9:00 PM;Wed:10:00 AM-9:00 PM;Thu:10:00 AM-9:00 PM;Fri:10:00 AM-9:00 PM;Sat:10:00 AM-9:00 PM;,,0
,237,Desoto Square Mall,303 Us Highway 301 Blvd W Ste 449,Bradenton                               ,FL,34205,United States,941-749-5572,27.46586036682129,-82.56680297851562,Sun:12:00 PM-6:00 PM;Mon:10:00 AM-9:00 PM;Tue:10:00 AM-9:00 PM;Wed:10:00 AM-9:00 PM;Thu:10:00 AM-9:00 PM;Fri:10:00 AM-9:00 PM;Sat:10:00 AM-9:00 PM;,,0
,303,Boynton Beach Mall,"801 N. Congress Ave., Room141",Boynton Beach                           ,FL,33426,United States,561-738-9986,26.536535263061523,-80.09580993652344,Sun:12:00 PM-6:00 PM;Mon:10:00 AM-9:00 PM;Tue:10:00 AM-9:00 PM;Wed:10:00 AM-9:00 PM;Thu:10:00 AM-9:00 PM;Fri:10:00 AM-9:00 PM;Sat:10:00 AM-9:00 PM;,,0
,68,The Shoppes At University Town Cent,8107 Cooper Creek Blvd,University Park                         ,FL,34201,United States,941-359-2847,27.390005111694336,-82.45269012451172,Sun:11:00 AM-6:00 PM;Mon:10:00 AM-9:00 PM;Tue:10:00 AM-9:00 PM;Wed:10:00 AM-9:00 PM;Thu:10:00 AM-9:00 PM;Fri:10:00 AM-9:00 PM;Sat:10:00 AM-9:00 PM;,,0
,130,The Plaza At Delray Beach,1678 S Federal Hwy,Delray Beach                            ,FL,33483,United States,561-278-8810,26.441110610961914,-80.07259368896484,Sun:11:00 AM-6:00 PM;Mon:10:00 AM-9:30 PM;Tue:10:00 AM-9:30 PM;Wed:10:00 AM-9:30 PM;Thu:10:00 AM-9:30 PM;Fri:10:00 AM-9:30 PM;Sat:10:00 AM-9:30 PM;,,0
,211,Westfield Sarasota Square,8201 S Tamiami Trl Unit 38,Sarasota                                ,FL,34238,United States,941-925-7746,27.234193801879883,-82.4932861328125,Sun:12:00 PM-6:00 PM;Mon:10:00 AM-9:00 PM;Tue:10:00 AM-9:00 PM;Wed:10:00 AM-9:00 PM;Thu:10:00 AM-9:00 PM;Fri:10:00 AM-9:00 PM;Sat:10:00 AM-9:00 PM;,,0
,248,Port Charlotte Town Center,"1441 Tamiami Trail, Suite 555",Port Charlotte                          ,FL,33948,United States,941-255-1113,27.00897216796875,-82.14815521240234,Sun:12:00 PM-6:00 PM;Mon:10:00 AM-9:00 PM;Tue:10:00 AM-9:00 PM;Wed:10:00 AM-9:00 PM;Thu:10:00 AM-9:00 PM;Fri:10:00 AM-9:00 PM;Sat:10:00 AM-9:00 PM;,,0
,467,Pompano Citi Centre,"2201 N. Federal Hwy, Ste. C-102",Pompano Beach                           ,FL,33062,United States,954-946-4906,26.256738662719727,-80.10235595703125,Sun:12:00 PM-6:00 PM;Mon:10:00 AM-9:00 PM;Tue:10:00 AM-9:00 PM;Wed:10:00 AM-9:00 PM;Thu:10:00 AM-9:00 PM;Fri:10:00 AM-9:00 PM;Sat:10:00 AM-9:00 PM;,,0
,372,Lakewood S/C,5317 W Atlantic Blvd,Margate                                 ,FL,33063,United States,954-917-5856,26.23673439025879,-80.19844055175781,Sun:12:00 PM-6:00 PM;Mon:10:00 AM-9:00 PM;Tue:10:00 AM-9:00 PM;Wed:10:00 AM-9:00 PM;Thu:10:00 AM-9:00 PM;Fri:10:00 AM-9:00 PM;Sat:10:00 AM-9:00 PM;,,0
,156,Tanger Outlet Center,2601 S Mckenzie St. Space A,Foley                                   ,AL,36535,United States,251-971-2525,30.37631607055664,-87.68077087402344,Sun:10:00 AM-7:00 PM;Mon:9:00 AM-9:00 PM;Tue:9:00 AM-9:00 PM;Wed:9:00 AM-9:00 PM;Thu:9:00 AM-9:00 PM;Fri:9:00 AM-9:00 PM;Sat:9:00 AM-9:00 PM;,,0
,126,Sawgrass Mills,"12801 W. Sunrise Blvd., Suite 293",Sunrise                                 ,FL,33323,United States,954-846-9253,26.150484085083008,-80.32337188720703,Sun:11:00 AM-8:00 PM;Mon:10:00 AM-9:30 PM;Tue:10:00 AM-9:30 PM;Wed:10:00 AM-9:30 PM;Thu:10:00 AM-9:30 PM;Fri:10:00 AM-9:30 PM;Sat:10:00 AM-9:30 PM;,,0
,729,Westfield Broward Mall,8000 W Broward Blvd Spc 1218&1220,Plantation                              ,FL,33388,United States,954-472-4104,26.11760902404785,-80.25486755371094,Sun:11:00 AM-6:00 PM;Mon:10:00 AM-9:00 PM;Tue:10:00 AM-9:00 PM;Wed:10:00 AM-9:00 PM;Thu:10:00 AM-9:00 PM;Fri:10:00 AM-9:00 PM;Sat:10:00 AM-9:00 PM;,,0
,549,The Forum @ Ft. Myers,3242 Forum Blvd. Suite 405,Fort Myers                              ,FL,33905,United States,239-275-6493,26.61376190185547,-81.79924774169922,Sun:11:00 AM-6:00 PM;Mon:10:00 AM-9:00 PM;Tue:10:00 AM-9:00 PM;Wed:10:00 AM-9:00 PM;Thu:10:00 AM-9:00 PM;Fri:10:00 AM-9:00 PM;Sat:10:00 AM-9:00 PM;,,0
,328,Edison Mall,4125 Cleveland Ave Unit #1603,Fort Myers                              ,FL,33901,United States,239-939-1377,26.600919723510742,-81.86862182617188,Sun:11:30 AM-5:30 PM;Mon:10:00 AM-9:00 PM;Tue:10:00 AM-9:00 PM;Wed:10:00 AM-9:00 PM;Thu:10:00 AM-9:00 PM;Fri:10:00 AM-9:00 PM;Sat:10:00 AM-9:00 PM;,,0
,278,Pembroke Crossing,11860 Pines Blvd Bldg E-2,Pembroke Pines                          ,FL,33026,United States,954-433-2154,26.00620460510254,-80.3082504272461,Sun:11:00 AM-6:00 PM;Mon:10:00 AM-9:00 PM;Tue:10:00 AM-9:00 PM;Wed:10:00 AM-9:00 PM;Thu:10:00 AM-9:00 PM;Fri:10:00 AM-9:00 PM;Sat:10:00 AM-9:00 PM;,,0
,427,Gulf Coast Town Centere,9918 Gulf Coast Main St Spc B-110,Fort Myers                              ,FL,33913,United States,239-267-5819,26.486812591552734,-81.7872543334961,Sun:11:00 AM-6:00 PM;Mon:10:00 AM-9:00 PM;Tue:10:00 AM-9:00 PM;Wed:10:00 AM-9:00 PM;Thu:10:00 AM-9:00 PM;Fri:10:00 AM-9:00 PM;Sat:10:00 AM-9:00 PM;,,0
,377,Miromar Outlets,10801 Corkscrew Road Unit 364,Estero                                  ,FL,33928,United States,239-498-4566,26.437116622924805,-81.77438354492188,Sun:11:00 AM-6:00 PM;Mon:10:00 AM-9:00 PM;Tue:10:00 AM-9:00 PM;Wed:10:00 AM-9:00 PM;Thu:10:00 AM-9:00 PM;Fri:10:00 AM-9:00 PM;Sat:10:00 AM-9:00 PM;,,0
,142,Sanibel Factory Stores,20350 Summerlin Rd Ste 5125,Fort Myers                              ,FL,33908,United States,239-466-5444,26.493574142456055,-81.97203063964844,Sun:10:00 AM-6:00 PM;Mon:9:00 AM-9:00 PM;Tue:9:00 AM-9:00 PM;Wed:9:00 AM-9:00 PM;Thu:9:00 AM-9:00 PM;Fri:9:00 AM-9:00 PM;Sat:9:00 AM-9:00 PM;,,0
,320,Mall Of The Americas,7795 W Flagler St Ste 25a,Miami                                   ,FL,33144,United States,305-267-2420,25.774702072143555,-80.32221984863281,Sun:12:00 PM-7:00 PM;Mon:10:00 AM-9:00 PM;Tue:10:00 AM-9:00 PM;Wed:10:00 AM-9:00 PM;Thu:10:00 AM-9:00 PM;Fri:10:00 AM-9:00 PM;Sat:10:00 AM-9:00 PM;,,0
,253,Northpark Mall,"1200 E County Line Rd., Ste 201",Ridgeland                               ,MS,39157,United States,601-957-0556,32.40251541137695,-90.1283187866211,Sun:12:00 PM-6:00 PM;Mon:10:00 AM-9:00 PM;Tue:10:00 AM-9:00 PM;Wed:10:00 AM-9:00 PM;Thu:10:00 AM-9:00 PM;Fri:10:00 AM-9:00 PM;Sat:10:00 AM-9:00 PM;,,0
,539,Osage Beach Premium Outlets,4540 Highway 54 Ste D1,Osage Beach                             ,MO,65065,United States,573-302-4542,38.14482116699219,-92.62781524658203,Sun:10:00 PM-7:00 PM;Mon:10:00 AM-9:00 PM;Tue:10:00 AM-9:00 PM;Wed:10:00 AM-9:00 PM;Thu:10:00 AM-9:00 PM;Fri:10:00 AM-9:00 PM;Sat:10:00 AM-9:00 PM;,,0
,249,Coastland Center Mall,1886 Tamiami Trl N,Naples                                  ,FL,34102,United States,239-403-0441,26.17005729675293,-81.79389190673828,Sun:12:00 PM-6:00 PM;Mon:10:00 AM-9:00 PM;Tue:10:00 AM-9:00 PM;Wed:10:00 AM-9:00 PM;Thu:10:00 AM-9:00 PM;Fri:10:00 AM-9:00 PM;Sat:10:00 AM-9:00 PM;,,0
,305,Colonial Palms Plaza,13609 South Dixie Highway,Miami                                   ,FL,33176,United States,305-256-9749,25.643447875976562,-80.3329849243164,Sun:11:00 AM-6:00 PM;Mon:10:00 AM-9:00 PM;Tue:10:00 AM-9:00 PM;Wed:10:00 AM-9:00 PM;Thu:10:00 AM-9:00 PM;Fri:10:00 AM-9:00 PM;Sat:10:00 AM-9:00 PM;,,0
,147,Naples Outlet Center,6050 Collier Blvd Ste 160,Naples                                  ,FL,34114,United States,239-775-2992,26.045501708984375,-81.6998519897461,Sun:11:00 AM-6:00 PM;Mon:10:00 AM-8:00 PM;Tue:10:00 AM-8:00 PM;Wed:10:00 AM-8:00 PM;Thu:10:00 AM-8:00 PM;Fri:10:00 AM-8:00 PM;Sat:10:00 AM-8:00 PM;,,0
,631,Outlets Of Mississippi,200 Bass Pro Drive Ste 260,Pearl                                   ,MS,39208,United States,601-939-9232,32.274322509765625,-90.1533432006836,Sun:12:00 PM-7:00 PM;Mon:10:00 AM-9:00 PM;Tue:10:00 AM-9:00 PM;Wed:10:00 AM-9:00 PM;Thu:10:00 AM-9:00 PM;Fri:10:00 AM-9:00 PM;Sat:10:00 AM-9:00 PM;,,0
,573,Hometown Commons,1072 Hometown Commons,Mountain Home                           ,AR,72653,United States,870-492-2162,36.358436584472656,-92.33642578125,Sun:12:00 PM-6:00 PM;Mon:9:00 AM-9:00 PM;Tue:9:00 AM-9:00 PM;Wed:9:00 AM-9:00 PM;Thu:9:00 AM-9:00 PM;Fri:9:00 AM-9:00 PM;Sat:9:00 AM-9:00 PM;,,0
,608,Homestead Pavilion,2465 Ne 10 Court,Homestead                               ,FL,33033,United States,305-245-7724,25.480302810668945,-80.44293975830078,Sun:11:00 AM-6:00 PM;Mon:10:00 AM-9:00 PM;Tue:10:00 AM-9:00 PM;Wed:10:00 AM-9:00 PM;Thu:10:00 AM-9:00 PM;Fri:10:00 AM-9:00 PM;Sat:10:00 AM-9:00 PM;,,0
,182,Florida Keys Outlet Center,250 East Palm Dr. Suite 415,Florida City                            ,FL,33034,United States,305-245-2446,25.45232391357422,-80.472412109375,Sun:11:00 AM-6:00 PM;Mon:10:00 AM-9:00 PM;Tue:10:00 AM-9:00 PM;Wed:10:00 AM-9:00 PM;Thu:10:00 AM-9:00 PM;Fri:10:00 AM-9:00 PM;Sat:10:00 AM-9:00 PM;,,0
,739,Gulfport Premium Outlets,10000 Factory Shop Blvd Ste 630,Gulfport                                ,MS,39503,United States,228-865-4395,30.429006576538086,-89.10018920898438,Sun:11:00 AM-6:00 PM;Mon:10:00 AM-9:00 PM;Tue:10:00 AM-9:00 PM;Wed:10:00 AM-9:00 PM;Thu:10:00 AM-9:00 PM;Fri:10:00 AM-9:00 PM;Sat:10:00 AM-9:00 PM;,,0
,537,Battlefield Mall,2825 S Glenstone Space Eo4d,Springfield                             ,MO,65804,United States,417-890-9274,37.16305160522461,-93.26622772216797,Sun:12:00 PM-6:00 PM;Mon:10:00 AM-9:00 PM;Tue:10:00 AM-9:00 PM;Wed:10:00 AM-9:00 PM;Thu:10:00 AM-9:00 PM;Fri:10:00 AM-9:00 PM;Sat:10:00 AM-9:00 PM;,,0
,515,Shackleford Crossing,2610 S Shackleford Rd Suite A,Little Rock                             ,AR,72205,United States,501-716-9130,34.73210906982422,-92.3978042602539,Sun:12:00 PM-6:00 PM;Mon:10:00 AM-9:00 PM;Tue:10:00 AM-9:00 PM;Wed:10:00 AM-9:00 PM;Thu:10:00 AM-9:00 PM;Fri:10:00 AM-9:00 PM;Sat:10:00 AM-9:00 PM;,,0
,696,Outlets At Little Rock,"11201 Bass Pro Pwky, Sp  A-2 E125",Little Rock                             ,AR,72209,United States,501-455-4084,34.661956787109375,-92.40840911865234,Sun:11:00 AM-6:00 PM;Mon:10:00 AM-9:00 PM;Tue:10:00 AM-9:00 PM;Wed:10:00 AM-9:00 PM;Thu:10:00 AM-9:00 PM;Fri:10:00 AM-9:00 PM;Sat:10:00 AM-9:00 PM;,,0
,475,Branson Landing,615 Branson Landing,Branson                                 ,MO,65616,United States,417-239-2774,36.6468391418457,-93.21424865722656,Sun:10:00 AM-8:00 PM;Mon:10:00 AM-9:00 PM;Tue:10:00 AM-9:00 PM;Wed:10:00 AM-9:00 PM;Thu:10:00 AM-9:00 PM;Fri:10:00 AM-9:00 PM;Sat:10:00 AM-9:00 PM;,,0
,434,Tanger Outlet Center,"300 Tanger Blvd, Ste 114a",Branson                                 ,MO,65616,United States,417-239-1469,36.64479446411133,-93.26567077636719,Sun:10:00 AM-7:00 PM;Mon:9:00 AM-9:00 PM;Tue:9:00 AM-9:00 PM;Wed:9:00 AM-9:00 PM;Thu:9:00 AM-9:00 PM;Fri:9:00 AM-9:00 PM;Sat:9:00 AM-9:00 PM;,,0
,633,Fremaux Town Center,350 Town Center Parkway,Slidell                                 ,LA,70458,United States,985-643-0080,30.266510009765625,-89.76261138916016,Sun:11:00 AM-7:00 PM;Mon:9:30 AM-9:00 PM;Tue:9:30 AM-9:00 PM;Wed:9:30 AM-9:00 PM;Thu:9:30 AM-9:00 PM;Fri:9:30 AM-9:00 PM;Sat:9:30 AM-9:00 PM;,,0
,337,Premier Centre,"3450 Hwy 190, Ste 4",Mandeville                              ,LA,70471,United States,985-626-7328,30.390884399414062,-90.08667755126953,Sun:11:00 AM-6:00 PM;Mon:9:30 AM-9:00 PM;Tue:9:30 AM-9:00 PM;Wed:9:30 AM-9:00 PM;Thu:9:30 AM-9:00 PM;Fri:9:30 AM-9:00 PM;Sat:9:30 AM-9:00 PM;,,0
,371,Scottsdale Center Ii,271 North 46th St,Rogers                                  ,AR,72756,United States,479-636-1950,36.33769989013672,-94.18009948730469,Sun:12:00 PM-6:00 PM;Mon:10:00 AM-9:00 PM;Tue:10:00 AM-9:00 PM;Wed:10:00 AM-9:00 PM;Thu:10:00 AM-9:00 PM;Fri:10:00 AM-9:00 PM;Sat:10:00 AM-9:00 PM;,,0
,582,Northwest Arkansas Mall,4201 North Shiloh Drive #1325,Fayetteville                            ,AR,72703,United States,479-444-6194,36.12980651855469,-94.14617919921875,Sun:12:00 PM-6:00 PM;Mon:10:00 AM-9:00 PM;Tue:10:00 AM-9:00 PM;Wed:10:00 AM-9:00 PM;Thu:10:00 AM-9:00 PM;Fri:10:00 AM-9:00 PM;Sat:10:00 AM-9:00 PM;,,0
,334,Tanger Outlet Center,2200 Tanger Blvd.,Gonzales                                ,LA,70737,United States,225-647-4347,30.213891983032227,-90.95086669921875,Sun:11:00 AM-7:00 PM;Mon:9:00 AM-9:00 PM;Tue:9:00 AM-9:00 PM;Wed:9:00 AM-9:00 PM;Thu:9:00 AM-9:00 PM;Fri:9:00 AM-9:00 PM;Sat:9:00 AM-9:00 PM;,,0
,538,West Ridge Mall,1801 Sw Wanamaker Rd Ste A4,Topeka                                  ,KS,66604,United States,785-272-6003,39.033355712890625,-95.76602935791016,Sun:12:00 PM-6:00 PM;Mon:10:00 AM-9:00 PM;Tue:10:00 AM-9:00 PM;Wed:10:00 AM-9:00 PM;Thu:10:00 AM-9:00 PM;Fri:10:00 AM-9:00 PM;Sat:10:00 AM-9:00 PM;,,0
,521,Stirling Lafayette S/C,"3001 Louisiana Ave, Ste 100",Lafayette                               ,LA,70501,United States,337-234-4673,30.26579475402832,-91.99278259277344,Sun:12:00 PM-6:00 PM;Mon:10:00 AM-9:00 PM;Tue:10:00 AM-9:00 PM;Wed:10:00 AM-9:00 PM;Thu:10:00 AM-9:00 PM;Fri:10:00 AM-9:00 PM;Sat:10:00 AM-9:00 PM;,,0
,362,Louisiana Boardwalk,515 Boardwalk Blvd,Bossier City                            ,LA,71111,United States,318-746-2062,32.51969909667969,-93.74089813232422,Sun:11:00 AM-7:00 PM;Mon:10:00 AM-9:00 PM;Tue:10:00 AM-9:00 PM;Wed:10:00 AM-9:00 PM;Thu:10:00 AM-9:00 PM;Fri:10:00 AM-10:00 PM;Sat:10:00 AM-10:00 PM;,,0
,448,River Marketplace,4401 Ambassador Caffery B8 Ste 300,Lafayette                               ,LA,70508,United States,337-981-9989,30.159605026245117,-92.04854583740234,Sun:12:00 PM-6:00 PM;Mon:10:00 AM-9:00 PM;Tue:10:00 AM-9:00 PM;Wed:10:00 AM-9:00 PM;Thu:10:00 AM-9:00 PM;Fri:10:00 AM-9:00 PM;Sat:10:00 AM-9:00 PM;,,0
,386,University Place,7090 Youree Drive,Shreveport                              ,LA,71105,United States,318-524-0290,32.4404296875,-93.7201919555664,Sun:12:00 PM-6:00 PM;Mon:10:00 AM-9:00 PM;Tue:10:00 AM-9:00 PM;Wed:10:00 AM-9:00 PM;Thu:10:00 AM-9:00 PM;Fri:10:00 AM-9:00 PM;Sat:10:00 AM-9:00 PM;,,0
,671,Nebraska Crossing Outlets,21407 Nebraska Crossing Dr Ste J-10,Gretna                                  ,NE,68028,United States,402-332-5467,41.09856033325195,-96.25257110595703,Sun:11:00 AM-6:00 PM;Mon:10:00 AM-9:00 PM;Tue:10:00 AM-9:00 PM;Wed:10:00 AM-9:00 PM;Thu:10:00 AM-9:00 PM;Fri:10:00 AM-9:00 PM;Sat:10:00 AM-9:00 PM;,,0
,517,Tulsa Hills Shopping Center,7403 S. Olympia Ave,Tulsa                                   ,OK,74132,United States,918-447-8846,36.05629348754883,-96.00111389160156,Sun:12:00 PM-6:00 PM;Mon:10:00 AM-9:00 PM;Tue:10:00 AM-9:00 PM;Wed:10:00 AM-9:00 PM;Thu:10:00 AM-9:00 PM;Fri:10:00 AM-9:00 PM;Sat:10:00 AM-9:00 PM;,,0
,395,Prien Lake Plaza,1760 W Prien Lake Road,Lake Charles                            ,LA,70601,United States,337-480-0474,30.200056076049805,-93.24707794189453,Sun:11:00 AM-6:00 PM;Mon:9:30 AM-9:30 PM;Tue:9:30 AM-9:30 PM;Wed:9:30 AM-9:30 PM;Thu:9:30 AM-9:30 PM;Fri:9:30 AM-9:30 PM;Sat:9:30 AM-9:30 PM;,,0
,461,Lakeview Pointe,2120 N Perkins Rd,Stillwater                              ,OK,74075,United States,405-533-1513,36.14310073852539,-97.0538558959961,Sun:12:00 PM-6:00 PM;Mon:10:00 AM-9:00 PM;Tue:10:00 AM-9:00 PM;Wed:10:00 AM-9:00 PM;Thu:10:00 AM-9:00 PM;Fri:10:00 AM-9:00 PM;Sat:10:00 AM-9:00 PM;,,0
,347,Cameron Crossing,1751 N Central Expy Ste F,Mckinney                                ,TX,75070,United States,972-542-7155,33.21379852294922,-96.6395034790039,Sun:12:00 PM-6:00 PM;Mon:10:00 AM-9:00 PM;Tue:10:00 AM-9:00 PM;Wed:10:00 AM-9:00 PM;Thu:10:00 AM-9:00 PM;Fri:10:00 AM-9:00 PM;Sat:10:00 AM-9:00 PM;,,0
,348,Rockwall Market Center,2833 Market Center Dr,Rockwall                                ,TX,75032,United States,972-722-3747,32.895774841308594,-96.46253967285156,Sun:12:00 PM-6:00 PM;Mon:10:00 AM-9:00 PM;Tue:10:00 AM-9:00 PM;Wed:10:00 AM-9:00 PM;Thu:10:00 AM-9:00 PM;Fri:10:00 AM-9:00 PM;Sat:10:00 AM-9:00 PM;,,0
,541,Outlet Shoppes @ Oklahoma City,7642 W. Reno Ave. Spc D-540,Oklahoma City                           ,OK,73127,United States,405-789-0351,35.462276458740234,-97.64803314208984,Sun:1:00 PM-6:00 PM;Mon:10:00 AM-9:00 PM;Tue:10:00 AM-9:00 PM;Wed:10:00 AM-9:00 PM;Thu:10:00 AM-9:00 PM;Fri:10:00 AM-9:00 PM;Sat:10:00 AM-9:00 PM;,,0
,470,Allen Premium Outlets,820 W Stacy Rd Ste 318,Allen                                   ,TX,75013,United States,972-678-4560,33.1311149597168,-96.6609115600586,Sun:11:00 AM-6:00 PM;Mon:10:00 AM-9:00 PM;Tue:10:00 AM-9:00 PM;Wed:10:00 AM-9:00 PM;Thu:10:00 AM-9:00 PM;Fri:10:00 AM-9:00 PM;Sat:10:00 AM-9:00 PM;,,0
,585,Woodbridge Crossing,3420 W Fm544 Ste 780,Wylie                                   ,TX,75098,United States,972-429-1387,33.011253356933594,-96.59550476074219,Sun:12:00 PM-6:00 PM;Mon:10:00 AM-9:00 PM;Tue:10:00 AM-9:00 PM;Wed:10:00 AM-9:00 PM;Thu:10:00 AM-9:00 PM;Fri:10:00 AM-9:00 PM;Sat:10:00 AM-9:00 PM;,,0
,550,Liberty Grove Crossing,5703 Liberty Grove Road,Rowlett                                 ,TX,75089,United States,214-607-1670,32.91074752807617,-96.55775451660156,Sun:12:00 PM-6:00 PM;Mon:10:00 AM-9:00 PM;Tue:10:00 AM-9:00 PM;Wed:10:00 AM-9:00 PM;Thu:10:00 AM-9:00 PM;Fri:10:00 AM-9:00 PM;Sat:10:00 AM-9:00 PM;,,0
,736,Czech Hall Commons,12444 Nw 10th St Bldg B,Oklahoma City                           ,OK,73099,United States,405-324-2291,35.475093841552734,-97.74695587158203,Sun:11:00 AM-6:00 PM;Mon:10:00 AM-9:00 PM;Tue:10:00 AM-9:00 PM;Wed:10:00 AM-9:00 PM;Thu:10:00 AM-9:00 PM;Fri:10:00 AM-9:00 PM;Sat:10:00 AM-9:00 PM;,,0
,659,Prestonwood Town Center,5301 Belt Line Road,Dallas                                  ,TX,75254,United States,972-385-8329,32.95641326904297,-96.81591796875,Sun:11:00 AM-7:00 PM;Mon:10:00 AM-9:00 PM;Tue:10:00 AM-9:00 PM;Wed:10:00 AM-9:00 PM;Thu:10:00 AM-9:00 PM;Fri:10:00 AM-9:00 PM;Sat:10:00 AM-9:00 PM;,,0
,764,Ravenwood Village,"229 Ih-45 South, Ste C",Huntsville                              ,TX,77340,United States,936-295-3189,30.708478927612305,-95.56758117675781,Sun:11:00 AM-6:00 PM;Mon:10:00 AM-9:00 PM;Tue:10:00 AM-9:00 PM;Wed:10:00 AM-9:00 PM;Thu:10:00 AM-9:00 PM;Fri:10:00 AM-9:00 PM;Sat:10:00 AM-9:00 PM;,,0
,343,Mcarthur Park Shopping Ctr,7727 North Macarthur Blvd,Irving                                  ,TX,75063,United States,972-831-8766,32.91045379638672,-96.96144104003906,Sun:1:00 PM-6:00 PM;Mon:10:00 AM-9:00 PM;Tue:10:00 AM-9:00 PM;Wed:10:00 AM-9:00 PM;Thu:10:00 AM-9:00 PM;Fri:10:00 AM-9:00 PM;Sat:10:00 AM-9:00 PM;,,0
,276,Grapevine Mills,"3000 Grapevine Mills Pkwy, Ste 128",Grapevine                               ,TX,76051,United States,972-539-2818,32.96492385864258,-97.0423812866211,Sun:11:00 AM-7:00 PM;Mon:10:00 AM-9:00 PM;Tue:10:00 AM-9:00 PM;Wed:10:00 AM-9:00 PM;Thu:10:00 AM-9:00 PM;Fri:10:00 AM-9:00 PM;Sat:10:00 AM-9:00 PM;,,0
,574,Irving Mall,3712 Irving Mall Ste Eo3b,Irving                                  ,TX,75062,United States,972-255-1384,32.84114074707031,-96.99446105957031,Sun:12:00 PM-6:00 PM;Mon:10:00 AM-9:00 PM;Tue:10:00 AM-9:00 PM;Wed:10:00 AM-9:00 PM;Thu:10:00 AM-9:00 PM;Fri:10:00 AM-9:00 PM;Sat:10:00 AM-9:00 PM;,,0
,487,Conroe Marketplace,2912 Interstate 45 N Ste 700,Conroe                                  ,TX,77303,United States,936-788-6138,30.34710121154785,-95.48072814941406,Sun:12:00 PM-6:00 PM;Mon:10:00 AM-9:00 PM;Tue:10:00 AM-9:00 PM;Wed:10:00 AM-9:00 PM;Thu:10:00 AM-9:00 PM;Fri:10:00 AM-9:00 PM;Sat:10:00 AM-9:00 PM;,,0
,551,Shoppes @ Stone Park,5930 E. Sam Houston Parkway N.,Houston                                 ,TX,77049,United States,281-458-3405,29.811492919921875,-95.16151428222656,Sun:12:00 PM-6:00 PM;Mon:10:00 AM-9:00 PM;Tue:10:00 AM-9:00 PM;Wed:10:00 AM-9:00 PM;Thu:10:00 AM-9:00 PM;Fri:10:00 AM-9:00 PM;Sat:10:00 AM-9:00 PM;,,0
,623,"Paragon Outlets, Grand Prairie",2950 W I-20 Ste 720,Grand Prairie                           ,TX,75052,United States,972-522-1697,32.67924880981445,-97.05306243896484,Sun:11:00 AM-6:00 PM;Mon:10:00 AM-9:00 PM;Tue:10:00 AM-9:00 PM;Wed:10:00 AM-9:00 PM;Thu:10:00 AM-9:00 PM;Fri:10:00 AM-9:00 PM;Sat:10:00 AM-9:00 PM;,,0
,464,Lincoln Square,400 Lincoln Sq,Arlington                               ,TX,76011,United States,817-801-8595,32.7577018737793,-97.09850311279297,Sun:12:00 PM-6:00 PM;Mon:10:00 AM-9:00 PM;Tue:10:00 AM-9:00 PM;Wed:10:00 AM-9:00 PM;Thu:10:00 AM-9:00 PM;Fri:10:00 AM-9:00 PM;Sat:10:00 AM-9:00 PM;,,0
,686,Pinecroft Center,1240 Lake Woodlands Drive,The Woodlands                           ,TX,77380,United States,281-419-1773,30.169700622558594,-95.4551010131836,Sun:11:00 AM-7:00 PM;Mon:10:00 AM-9:00 PM;Tue:10:00 AM-9:00 PM;Wed:10:00 AM-9:00 PM;Thu:10:00 AM-9:00 PM;Fri:10:00 AM-9:00 PM;Sat:10:00 AM-9:00 PM;,,0
,444,Fairway Plaza,5762 Fairmont Parkway,Pasadena                                ,TX,77505,United States,281-998-2782,29.647891998291016,-95.15284729003906,Sun:12:00 PM-6:00 PM;Mon:10:00 AM-9:00 PM;Tue:10:00 AM-9:00 PM;Wed:10:00 AM-9:00 PM;Thu:10:00 AM-9:00 PM;Fri:10:00 AM-9:00 PM;Sat:10:00 AM-9:00 PM;,,0
,519,Alliance Town Center,9520 Sage Meadow Trail,Fort Worth                              ,TX,76177,United States,817-750-0400,32.91111373901367,-97.31416320800781,Sun:12:00 PM-6:00 PM;Mon:10:00 AM-9:00 PM;Tue:10:00 AM-9:00 PM;Wed:10:00 AM-9:00 PM;Thu:10:00 AM-9:00 PM;Fri:10:00 AM-9:00 PM;Sat:10:00 AM-9:00 PM;,,0
,669,Center @ Pearland Pkwy,"2650 Pearland Parkway, Suite 140",Pearland                                ,TX,77581,United States,281-997-7253,29.55820083618164,-95.26506042480469,Sun:12:00 PM-6:00 PM;Mon:10:00 AM-9:00 PM;Tue:10:00 AM-9:00 PM;Wed:10:00 AM-9:00 PM;Thu:10:00 AM-9:00 PM;Fri:10:00 AM-9:00 PM;Sat:10:00 AM-9:00 PM;,,0
,498,Lake Worth Marketplace,6046 Azle Ave Ste 200,Lake Worth                              ,TX,76135,United States,817-237-5338,32.81590270996094,-97.41580200195312,Sun:12:00 PM-6:00 PM;Mon:10:00 AM-9:00 PM;Tue:10:00 AM-9:00 PM;Wed:10:00 AM-9:00 PM;Thu:10:00 AM-9:00 PM;Fri:10:00 AM-9:00 PM;Sat:10:00 AM-9:00 PM;,,0
,336,Meyerland Plaza,240 Meyerland Plaza,Houston                                 ,TX,77096,United States,713-664-0704,29.68574333190918,-95.46129608154297,Sun:12:00 PM-6:00 PM;Mon:10:00 AM-9:00 PM;Tue:10:00 AM-9:00 PM;Wed:10:00 AM-9:00 PM;Thu:10:00 AM-9:00 PM;Fri:10:00 AM-9:00 PM;Sat:10:00 AM-9:00 PM;,,0
,523,Pearland Town Center,11200 Broadway Suite 1030,Pearland                                ,TX,77584,United States,713-436-4834,29.5535945892334,-95.39126586914062,Sun:11:00 AM-7:00 PM;Mon:10:00 AM-9:00 PM;Tue:10:00 AM-9:00 PM;Wed:10:00 AM-9:00 PM;Thu:10:00 AM-9:00 PM;Fri:10:00 AM-9:00 PM;Sat:10:00 AM-9:00 PM;,,0
,583,Bryan Towne Center,"3121 Wildflower Drive, Suite 200",Bryan                                   ,TX,77802,United States,979-776-6215,30.665075302124023,-96.32373809814453,Sun:12:00 PM-6:00 PM;Mon:10:00 AM-9:00 PM;Tue:10:00 AM-9:00 PM;Wed:10:00 AM-9:00 PM;Thu:10:00 AM-9:00 PM;Fri:10:00 AM-9:00 PM;Sat:10:00 AM-9:00 PM;,,0
,295,The Fountains On The Lake,12642 Fountain Lake Cir,Stafford                                ,TX,77477,United States,281-494-5858,29.637895584106445,-95.58612823486328,Sun:12:00 PM-6:00 PM;Mon:10:00 AM-9:00 PM;Tue:10:00 AM-9:00 PM;Wed:10:00 AM-9:00 PM;Thu:10:00 AM-9:00 PM;Fri:10:00 AM-9:00 PM;Sat:10:00 AM-9:00 PM;,,0
,341,Katy Mills,5000 Katy Mills Circle Sp 401,Katy                                    ,TX,77494,United States,281-644-4606,29.77730941772461,-95.8094482421875,Sun:11:00 AM-6:00 PM;Mon:10:00 AM-9:00 PM;Tue:10:00 AM-9:00 PM;Wed:10:00 AM-9:00 PM;Thu:10:00 AM-9:00 PM;Fri:10:00 AM-9:00 PM;Sat:10:00 AM-9:00 PM;,,0
,431,Weatherford Marketplace,138 E Interstate 20 Ste 180,Weatherford                             ,TX,76087,United States,817-599-9860,32.728004455566406,-97.78257751464844,Sun:12:00 PM-6:00 PM;Mon:10:00 AM-9:00 PM;Tue:10:00 AM-9:00 PM;Wed:10:00 AM-9:00 PM;Thu:10:00 AM-9:00 PM;Fri:10:00 AM-9:00 PM;Sat:10:00 AM-9:00 PM;,,0
,535,Brazos Town Center,24001 Brazos Town Crossing,Rosenberg                               ,TX,77471,United States,281-232-5217,29.542755126953125,-95.74832153320312,Sun:12:00 PM-6:00 PM;Mon:10:00 AM-9:00 PM;Tue:10:00 AM-9:00 PM;Wed:10:00 AM-9:00 PM;Thu:10:00 AM-9:00 PM;Fri:10:00 AM-9:00 PM;Sat:10:00 AM-9:00 PM;,,0
,460,Central Marketplace,2424 West Loop 340,Waco                                    ,TX,76711,United States,254-662-3766,31.49903106689453,-97.15739440917969,Sun:12:00 PM-6:00 PM;Mon:10:00 AM-9:00 PM;Tue:10:00 AM-9:00 PM;Wed:10:00 AM-9:00 PM;Thu:10:00 AM-9:00 PM;Fri:10:00 AM-9:00 PM;Sat:10:00 AM-9:00 PM;,,0
,483,Brazos Mall,100 Highway 332 W Ste 1200,Lake Jackson                            ,TX,77566,United States,979-285-3900,29.050899505615234,-95.45939636230469,Sun:12:00 PM-6:00 PM;Mon:10:00 AM-9:00 PM;Tue:10:00 AM-9:00 PM;Wed:10:00 AM-9:00 PM;Thu:10:00 AM-9:00 PM;Fri:10:00 AM-9:00 PM;Sat:10:00 AM-9:00 PM;,,0
,552,The Shops Of Granbury,"301 Hwy. 377 East, Suite 104",Granbury                                ,TX,76048,United States,817-579-1400,32.43227767944336,-97.7861328125,Sun:12:00 PM-6:00 PM;Mon:10:00 AM-9:00 PM;Tue:10:00 AM-9:00 PM;Wed:10:00 AM-9:00 PM;Thu:10:00 AM-9:00 PM;Fri:10:00 AM-9:00 PM;Sat:10:00 AM-9:00 PM;,,0
,441,Wolf Ranch Shopping Center,1019 W University Ave Ste 1001,Georgetown                              ,TX,78628,United States,512-819-9951,30.629426956176758,-97.6969223022461,Sun:12:00 PM-6:00 PM;Mon:10:00 AM-9:00 PM;Tue:10:00 AM-9:00 PM;Wed:10:00 AM-9:00 PM;Thu:10:00 AM-9:00 PM;Fri:10:00 AM-9:00 PM;Sat:10:00 AM-9:00 PM;,,0
,640,Burleson Crossing,"773 Hwy 71 West, Suite B",Bastrop                                 ,TX,78602,United States,512-321-2192,30.112035751342773,-97.35296630859375,Sun:12:00 PM-6:00 PM;Mon:10:00 AM-9:00 PM;Tue:10:00 AM-9:00 PM;Wed:10:00 AM-9:00 PM;Thu:10:00 AM-9:00 PM;Fri:10:00 AM-9:00 PM;Sat:10:00 AM-9:00 PM;,,0
,543,Stone Hill T/C Suite 400,18700 Limestone Commercial Dr,Pflugerville                            ,TX,78660,United States,512-990-0265,30.468334197998047,-97.59788513183594,Sun:12:00 PM-6:00 PM;Mon:10:00 AM-9:00 PM;Tue:10:00 AM-9:00 PM;Wed:10:00 AM-9:00 PM;Thu:10:00 AM-9:00 PM;Fri:10:00 AM-9:00 PM;Sat:10:00 AM-9:00 PM;,,0
,349,La Frontera Village,2701 Parker Rd Bldg A  Ste 600,Round Rock                              ,TX,78681,United States,512-600-0106,30.481359481811523,-97.67864227294922,Sun:12:00 PM-6:00 PM;Mon:10:00 AM-9:00 PM;Tue:10:00 AM-9:00 PM;Wed:10:00 AM-9:00 PM;Thu:10:00 AM-9:00 PM;Fri:10:00 AM-9:00 PM;Sat:10:00 AM-9:00 PM;,,0
,445,Southpark Meadows,9600 S Interstate 35 Ste N100,Austin                                  ,TX,78748,United States,512-292-1995,30.15985107421875,-97.79312133789062,Sun:12:00 PM-6:00 PM;Mon:10:00 AM-9:00 PM;Tue:10:00 AM-9:00 PM;Wed:10:00 AM-9:00 PM;Thu:10:00 AM-9:00 PM;Fri:10:00 AM-9:00 PM;Sat:10:00 AM-9:00 PM;,,0
,591,Kyle Crossing Shopping Center,5132 Kyle Center Dr Ste 110,Kyle                                    ,TX,78640,United States,512-268-1815,30.012252807617188,-97.86595153808594,Sun:12:00 PM-6:00 PM;Mon:10:00 AM-9:00 PM;Tue:10:00 AM-9:00 PM;Wed:10:00 AM-9:00 PM;Thu:10:00 AM-9:00 PM;Fri:10:00 AM-9:00 PM;Sat:10:00 AM-9:00 PM;,,0
,465,Tanger Outlets,4015 Ih 35 S Ste 326,San Marcos                              ,TX,78666,United States,512-392-1642,29.824121475219727,-97.9853286743164,Sun:10:00 AM-7:00 PM;Mon:9:00 AM-9:00 PM;Tue:9:00 AM-9:00 PM;Wed:9:00 AM-9:00 PM;Thu:9:00 AM-9:00 PM;Fri:9:00 AM-9:00 PM;Sat:9:00 AM-9:00 PM;,,0
,683,Town Center At Creekside,243 Creekside Crossing,New Braunfels                           ,TX,78130,United States,830-629-2396,29.724950790405273,-98.07396697998047,Sun:12:00 PM-6:00 PM;Mon:10:00 AM-9:00 PM;Tue:10:00 AM-9:00 PM;Wed:10:00 AM-9:00 PM;Thu:10:00 AM-9:00 PM;Fri:10:00 AM-9:00 PM;Sat:10:00 AM-9:00 PM;,,0
,544,Wood Lake Crossing,6230 Wood Glen Dr Ste #101,San Antonio                             ,TX,78244,United States,210-310-1758,29.483272552490234,-98.34963989257812,Sun:12:00 PM-6:00 PM;Mon:10:00 AM-9:00 PM;Tue:10:00 AM-9:00 PM;Wed:10:00 AM-9:00 PM;Thu:10:00 AM-9:00 PM;Fri:10:00 AM-9:00 PM;Sat:10:00 AM-9:00 PM;,,0
,342,Northwoods S/C,18030 Us Hwy 281 North Ste116,San Antonio                             ,TX,78232,United States,210-402-3155,29.60433006286621,-98.46755981445312,Sun:12:00 PM-6:00 PM;Mon:10:00 AM-9:00 PM;Tue:10:00 AM-9:00 PM;Wed:10:00 AM-9:00 PM;Thu:10:00 AM-9:00 PM;Fri:10:00 AM-9:00 PM;Sat:10:00 AM-9:00 PM;,,0
,634,Terrell Plaza,1231 Austin Hwy Ste 108 Bldg C,San Antonio                             ,TX,78209,United States,210-822-0470,29.489425659179688,-98.44610595703125,Sun:12:00 PM-6:00 PM;Mon:10:00 AM-9:00 PM;Tue:10:00 AM-9:00 PM;Wed:10:00 AM-9:00 PM;Thu:10:00 AM-9:00 PM;Fri:10:00 AM-9:00 PM;Sat:10:00 AM-9:00 PM;,,0
,277,Alamo Quarry Market,"255 E. Basse Rd, Ste 104",San Antonio                             ,TX,78209,United States,210-822-5890,29.492393493652344,-98.48103332519531,Sun:12:00 PM-6:00 PM;Mon:10:00 AM-9:00 PM;Tue:10:00 AM-9:00 PM;Wed:10:00 AM-9:00 PM;Thu:10:00 AM-9:00 PM;Fri:10:00 AM-9:00 PM;Sat:10:00 AM-9:00 PM;,,0
,370,Bandera Pointe,11667 Bandera Road,San Antonio                             ,TX,78250,United States,210-682-3627,29.550212860107422,-98.66703796386719,Sun:12:00 PM-6:00 PM;Mon:10:00 AM-9:00 PM;Tue:10:00 AM-9:00 PM;Wed:10:00 AM-9:00 PM;Thu:10:00 AM-9:00 PM;Fri:10:00 AM-9:00 PM;Sat:10:00 AM-9:00 PM;,,0
,344,Ingram Park Mall,6301 Nw Loop 410 #523c,San Antonio                             ,TX,78238,United States,210-684-9638,29.46809959411621,-98.62039947509766,Sun:12:00 PM-6:00 PM;Mon:10:00 AM-9:00 PM;Tue:10:00 AM-9:00 PM;Wed:10:00 AM-9:00 PM;Thu:10:00 AM-9:00 PM;Fri:10:00 AM-9:00 PM;Sat:10:00 AM-9:00 PM;,,0
,438,Westover Marketplace,8219 State Highway 151 Ste 122,San Antonio                             ,TX,78245,United States,210-680-9158,29.435199737548828,-98.64569854736328,Sun:12:00 PM-6:00 PM;Mon:10:00 AM-9:00 PM;Tue:10:00 AM-9:00 PM;Wed:10:00 AM-9:00 PM;Thu:10:00 AM-9:00 PM;Fri:10:00 AM-9:00 PM;Sat:10:00 AM-9:00 PM;,,0
,533,Alamo Ranch Market Place,"5347 W. Loop, 1604 North, Ste 126",San Antonio                             ,TX,78253,United States,210-680-5878,29.491342544555664,-98.71068572998047,Sun:12:00 PM-6:00 PM;Mon:10:00 AM-9:00 PM;Tue:10:00 AM-9:00 PM;Wed:10:00 AM-9:00 PM;Thu:10:00 AM-9:00 PM;Fri:10:00 AM-9:00 PM;Sat:10:00 AM-9:00 PM;,,0
,646,Outlets At Corpus Chiristi Bay,"500 N Ih 69, Unit 210",Robstown                                ,TX,78380,United States,361-387-0120,27.792896270751953,-97.65099334716797,Sun:12:00 PM-6:00 PM;Mon:10:00 AM-9:00 PM;Tue:10:00 AM-9:00 PM;Wed:10:00 AM-9:00 PM;Thu:10:00 AM-9:00 PM;Fri:10:00 AM-9:00 PM;Sat:10:00 AM-9:00 PM;,,0
,486,Canyon West,5017 Milwaukee Ave. Ste 200,Lubbock                                 ,TX,79407,United States,806-771-9531,33.54597091674805,-101.95538330078125,Sun:12:00 PM-6:00 PM;Mon:10:00 AM-9:00 PM;Tue:10:00 AM-9:00 PM;Wed:10:00 AM-9:00 PM;Thu:10:00 AM-9:00 PM;Fri:10:00 AM-9:00 PM;Sat:10:00 AM-9:00 PM;,,0
,378,Sunrise Mall,2370 N Expressway  Sp1394,Brownsville                             ,TX,78521,United States,956-546-2630,25.95365333557129,-97.50289916992188,Sun:12:00 PM-7:00 PM;Mon:10:00 AM-9:00 PM;Tue:10:00 AM-9:00 PM;Wed:10:00 AM-9:00 PM;Thu:10:00 AM-9:00 PM;Fri:10:00 AM-9:00 PM;Sat:10:00 AM-9:00 PM;,,0
,822,Valle Vista Mall,2020 S. Expressway 83,Harlingen                               ,TX,78552,United States,956-428-6000,26.184551239013672,-97.71910095214844,Sun:12:00 PM-6:00 PM;Mon:10:00 AM-9:00 PM;Tue:10:00 AM-9:00 PM;Wed:10:00 AM-9:00 PM;Thu:10:00 AM-9:00 PM;Fri:10:00 AM-9:00 PM;Sat:10:00 AM-9:00 PM;,,0
,339,Trenton Crossing,7600 North 10th St. Ste 600 B,Mcallen                                 ,TX,78504,United States,956-928-1299,26.270523071289062,-98.21583557128906,Sun:12:00 PM-6:00 PM;Mon:10:00 AM-9:00 PM;Tue:10:00 AM-9:00 PM;Wed:10:00 AM-9:00 PM;Thu:10:00 AM-9:00 PM;Fri:10:00 AM-9:00 PM;Sat:10:00 AM-9:00 PM;,,0
,713,Outlets At Castle Rock,5050 Factory Shops Blvd,Castle Rock                             ,CO,80108,United States,303-660-1707,39.41688919067383,-104.87474060058594,Sun:11:00 AM-6:00 PM;Mon:10:00 AM-8:00 PM;Tue:10:00 AM-8:00 PM;Wed:10:00 AM-8:00 PM;Thu:10:00 AM-8:00 PM;Fri:10:00 AM-8:00 PM;Sat:10:00 AM-8:00 PM;,,0
,520,Palms Crossing,3300 Exwy 83 Ste 190,Mcallen                                 ,TX,78501,United States,956-683-0433,26.197078704833984,-98.25890350341797,Sun:12:00 PM-6:00 PM;Mon:10:00 AM-9:00 PM;Tue:10:00 AM-9:00 PM;Wed:10:00 AM-9:00 PM;Thu:10:00 AM-9:00 PM;Fri:10:00 AM-9:00 PM;Sat:10:00 AM-9:00 PM;,,0
,660,Independence Plaza,"2450 Monarch Dr, Suite 3e",Laredo                                  ,TX,78045,United States,956-727-2012,27.609500885009766,-99.47149658203125,Sun:11:00 AM-6:00 PM;Mon:10:00 AM-9:00 PM;Tue:10:00 AM-9:00 PM;Wed:10:00 AM-9:00 PM;Thu:10:00 AM-9:00 PM;Fri:10:00 AM-9:00 PM;Sat:10:00 AM-9:00 PM;,,0
,512,Crossroads Center,2014 E 42nd St,Odessa                                  ,TX,79762,United States,432-362-3040,31.88818359375,-102.35305786132812,Sun:12:00 PM-6:00 PM;Mon:10:00 AM-9:00 PM;Tue:10:00 AM-9:00 PM;Wed:10:00 AM-9:00 PM;Thu:10:00 AM-9:00 PM;Fri:10:00 AM-9:00 PM;Sat:10:00 AM-9:00 PM;,,0
,600,Colorado Mills,"14500 W. Colfax Avenue, Suite 146",Lakewood                                ,CO,80401,United States,303-278-6625,39.731502532958984,-105.160888671875,Sun:11:00 AM-6:00 PM;Mon:10:00 AM-9:00 PM;Tue:10:00 AM-9:00 PM;Wed:10:00 AM-9:00 PM;Thu:10:00 AM-9:00 PM;Fri:10:00 AM-9:00 PM;Sat:10:00 AM-9:00 PM;,,0
,689,Outlet Shoppes @ Laredo,1600 Water St. Ste A150,Laredo                                  ,TX,78040,United States,956-721-2719,27.501813888549805,-99.511474609375,Sun:11:00 AM-7:00 PM;Mon:10:00 AM-9:00 PM;Tue:10:00 AM-9:00 PM;Wed:10:00 AM-9:00 PM;Thu:10:00 AM-9:00 PM;Fri:10:00 AM-9:00 PM;Sat:10:00 AM-9:00 PM;,,0
,472,Plaza Del Sol,2205 Veterans Blvd Ste G10-11,Del Rio                                 ,TX,78840,United States,830-774-2907,29.39020347595215,-100.90320587158203,Sun:12:00 PM-7:00 PM;Mon:10:00 AM-9:00 PM;Tue:10:00 AM-9:00 PM;Wed:10:00 AM-9:00 PM;Thu:10:00 AM-9:00 PM;Fri:10:00 AM-9:00 PM;Sat:10:00 AM-9:00 PM;,,0
,492,Roswell Mall,4501 N Main St,Roswell                                 ,NM,88201,United States,575-622-1547,33.45050048828125,-104.52088928222656,Sun:12:00 PM-6:00 PM;Mon:10:00 AM-9:00 PM;Tue:10:00 AM-9:00 PM;Wed:10:00 AM-9:00 PM;Thu:10:00 AM-9:00 PM;Fri:10:00 AM-9:00 PM;Sat:10:00 AM-9:00 PM;,,0
,428,Pavilions @ San Mateo,4900 Cutler Ave Ne Ste F2,Albuquerque                             ,NM,87110,United States,505-888-5464,35.10463333129883,-106.59037017822266,Sun:11:00 AM-6:00 PM;Mon:9:00 AM-9:00 PM;Tue:9:00 AM-9:00 PM;Wed:9:00 AM-9:00 PM;Thu:9:00 AM-9:00 PM;Fri:9:00 AM-9:00 PM;Sat:9:00 AM-9:00 PM;,,0
,425,Las Palmas Marketplace,11917 Gateway West Suite B,El Paso                                 ,TX,79936,United States,915-594-2910,31.722707748413086,-106.30644226074219,Sun:11:00 AM-6:00 PM;Mon:10:00 AM-9:00 PM;Tue:10:00 AM-9:00 PM;Wed:10:00 AM-9:00 PM;Thu:10:00 AM-9:00 PM;Fri:10:00 AM-9:00 PM;Sat:10:00 AM-9:00 PM;,,0
,685,North Hills Crossing,10771 Gateway S. Blvd South Bldg E,El Paso                                 ,TX,79934,United States,915-822-2582,31.925521850585938,-106.43938446044922,Sun:12:00 PM-6:00 PM;Mon:10:00 AM-9:00 PM;Tue:10:00 AM-9:00 PM;Wed:10:00 AM-9:00 PM;Thu:10:00 AM-9:00 PM;Fri:10:00 AM-9:00 PM;Sat:10:00 AM-9:00 PM;,,0
,627,Fountains At Farah,"8889 Gateway Blvd. W, Ste 580",El Paso                                 ,TX,79925,United States,915-591-0653,31.770376205444336,-106.37153625488281,Sun:12:00 PM-6:00 PM;Mon:10:00 AM-9:00 PM;Tue:10:00 AM-9:00 PM;Wed:10:00 AM-9:00 PM;Thu:10:00 AM-9:00 PM;Fri:10:00 AM-9:00 PM;Sat:10:00 AM-9:00 PM;,,0
,471,Bassett Place Mall,"6101 Gateway West, Suite 440",El Paso                                 ,TX,79925,United States,915-843-2699,31.78219985961914,-106.41100311279297,Sun:12:00 PM-6:00 PM;Mon:10:00 AM-9:00 PM;Tue:10:00 AM-9:00 PM;Wed:10:00 AM-9:00 PM;Thu:10:00 AM-9:00 PM;Fri:10:00 AM-9:00 PM;Sat:10:00 AM-9:00 PM;,,0
,426,Laguna Seca S/C,3050 E. Lohman Avenue Ste E,Las Cruces                              ,NM,88011,United States,575-532-9088,32.3159065246582,-106.74134063720703,Sun:11:00 AM-6:00 PM;Mon:10:00 AM-9:00 PM;Tue:10:00 AM-9:00 PM;Wed:10:00 AM-9:00 PM;Thu:10:00 AM-9:00 PM;Fri:10:00 AM-9:00 PM;Sat:10:00 AM-9:00 PM;,,0
,500,Outlet Shoppes At El Paso,7051 South Desert Blvd Ste D-453,Canutillo                               ,TX,79835,United States,915-877-3692,31.91374397277832,-106.58602905273438,Sun:11:00 AM-7:00 PM;Mon:10:00 AM-9:00 PM;Tue:10:00 AM-9:00 PM;Wed:10:00 AM-9:00 PM;Thu:10:00 AM-9:00 PM;Fri:10:00 AM-9:00 PM;Sat:10:00 AM-9:00 PM;,,0
,607,Flagstaff Mall,4650 N. Highway 89 Space B038,Flagstaff                               ,AZ,86004,United States,928-527-3794,35.22312545776367,-111.58196258544922,Sun:11:00 AM-6:00 PM;Mon:10:00 AM-9:00 PM;Tue:10:00 AM-9:00 PM;Wed:10:00 AM-9:00 PM;Thu:10:00 AM-9:00 PM;Fri:10:00 AM-9:00 PM;Sat:10:00 AM-9:00 PM;,,0
,703,Tucson Premium Outlets,6401 W. Marana Center Blvd Ste 907,Tucson                                  ,AZ,85742,United States,520-744-7712,32.37497329711914,-111.10148620605469,Sun:10:00 AM-7:00 PM;Mon:10:00 AM-9:00 PM;Tue:10:00 AM-9:00 PM;Wed:10:00 AM-9:00 PM;Thu:10:00 AM-9:00 PM;Fri:10:00 AM-9:00 PM;Sat:10:00 AM-9:00 PM;,,0
,436,Outlets At Anthem,4250 W Anthem Way Ste 800,Phoenix                                 ,AZ,85086,United States,623-465-0281,33.872440338134766,-112.15057373046875,Sun:10:00 AM-7:00 PM;Mon:10:00 AM-8:00 PM;Tue:10:00 AM-8:00 PM;Wed:10:00 AM-8:00 PM;Thu:10:00 AM-8:00 PM;Fri:10:00 AM-8:00 PM;Sat:10:00 AM-8:00 PM;,,0
,405,Arizona Mills,5000 Arizona Mills Cir  Sp 522,Tempe                                   ,AZ,85282,United States,480-777-5978,33.384178161621094,-111.96451568603516,Sun:11:00 AM-6:00 PM;Mon:10:00 AM-9:00 PM;Tue:10:00 AM-9:00 PM;Wed:10:00 AM-9:00 PM;Thu:10:00 AM-9:00 PM;Fri:10:00 AM-9:00 PM;Sat:10:00 AM-9:00 PM;,,0
,650,Phoenix Premium Outlets,4976 Premium Outlets Way Suite 732,Chandler                                ,AZ,85226,United States,480-639-1913,33.288822174072266,-111.97370147705078,Sun:10:00 AM-7:00 PM;Mon:10:00 AM-9:00 PM;Tue:10:00 AM-9:00 PM;Wed:10:00 AM-9:00 PM;Thu:10:00 AM-9:00 PM;Fri:10:00 AM-9:00 PM;Sat:10:00 AM-9:00 PM;,,0
,635,Outlets At Westgate,6800 N 95th Ave Ste 540,Glendale                                ,AZ,85305,United States,623-872-6120,33.53498840332031,-112.26697540283203,Sun:10:00 AM-7:00 PM;Mon:9:00 AM-9:00 PM;Tue:9:00 AM-9:00 PM;Wed:9:00 AM-9:00 PM;Thu:9:00 AM-9:00 PM;Fri:9:00 AM-9:00 PM;Sat:9:00 AM-9:00 PM;,,0
,493,Gateway Crossing,9945 W. Mcdowell Rd Ste 116,Avondale                                ,AZ,85392,United States,623-936-2226,33.46337890625,-112.2749252319336,Sun:11:00 AM-6:00 PM;Mon:9:00 AM-9:00 PM;Tue:9:00 AM-9:00 PM;Wed:9:00 AM-9:00 PM;Thu:9:00 AM-9:00 PM;Fri:9:00 AM-9:00 PM;Sat:9:00 AM-9:00 PM;,,0
,455,Las Vegas South Premium Outlets,7400 S Las Vegas Blvd Sp 238 Ab,Las Vegas                               ,NV,89123,United States,702-260-4117,36.05175018310547,-115.1690673828125,Sun:9:00 AM-8:00 PM;Mon:9:00 AM-9:00 PM;Tue:9:00 AM-9:00 PM;Wed:9:00 AM-9:00 PM;Thu:9:00 AM-9:00 PM;Fri:9:00 AM-9:00 PM;Sat:9:00 AM-9:00 PM;,,0
,612,Fashion Outlets Of Las Vegas,"32100 Las Vegas Blvd,S,Suite 320",Primm                                   ,NV,89019,United States,702-874-0011,35.607547760009766,-115.38772583007812,Sun:10:00 AM-8:00 PM;Mon:10:00 AM-8:00 PM;Tue:10:00 AM-8:00 PM;Wed:10:00 AM-8:00 PM;Thu:10:00 AM-8:00 PM;Fri:10:00 AM-8:00 PM;Sat:10:00 AM-8:00 PM;,,0
,463,Imperial Valley Mall,3451 S Dogwood Rd Ste 1016,El Centro                               ,CA,92243,United States,760-312-9922,32.76603698730469,-115.53404235839844,Sun:11:00 AM-7:00 PM;Mon:10:00 AM-9:00 PM;Tue:10:00 AM-9:00 PM;Wed:10:00 AM-9:00 PM;Thu:10:00 AM-9:00 PM;Fri:10:00 AM-9:00 PM;Sat:10:00 AM-9:00 PM;,,0
,645,Gran Plaza Outlets,"840 2nd Street, Ste K 160",Calexico                                ,CA,92231,United States,760-768-2251,32.66529083251953,-115.50677490234375,Sun:10:00 AM-7:00 PM;Mon:10:00 AM-9:00 PM;Tue:10:00 AM-9:00 PM;Wed:10:00 AM-9:00 PM;Thu:10:00 AM-9:00 PM;Fri:10:00 AM-9:00 PM;Sat:10:00 AM-9:00 PM;,,0
,648,Outlets At The Border,4463 Camino De Laplaza Ste 121,San Ysidro                              ,CA,92173,United States,619-651-8499,32.54336929321289,-117.03755950927734,Sun:10:00 AM-7:00 PM;Mon:10:00 AM-9:00 PM;Tue:10:00 AM-9:00 PM;Wed:10:00 AM-9:00 PM;Thu:10:00 AM-9:00 PM;Fri:10:00 AM-9:00 PM;Sat:10:00 AM-9:00 PM;,,0
,693,Bend Factory Stores,61334 S. Hwy 97,Bend                                    ,OR,97702,United States,541-382-2697,44.026702880859375,-121.31260681152344,Sun:11:00 AM-6:00 PM;Mon:9:30 AM-8:00 PM;Tue:9:30 AM-8:00 PM;Wed:9:30 AM-8:00 PM;Thu:9:30 AM-8:00 PM;Fri:9:30 AM-8:00 PM;Sat:9:30 AM-8:00 PM;,,0
,667,Tulare Outlet Center,1401 Retherford Street,Tulare                                  ,CA,93274,United States,559-686-2591,36.22799301147461,-119.33477783203125,Sun:10:00 AM-7:00 PM;Mon:10:00 AM-9:00 PM;Tue:10:00 AM-9:00 PM;Wed:10:00 AM-9:00 PM;Thu:10:00 AM-9:00 PM;Fri:10:00 AM-9:00 PM;Sat:10:00 AM-9:00 PM;,,0
,649,Outlets At Tejon Parkway,5701 Outlets At Tejon Pkwy Ste 470,Arvin                                   ,CA,93203,United States,661-858-2771,34.98822784423828,-118.93760681152344,Sun:10:00 AM-8:00 PM;Mon:10:00 AM-9:00 PM;Tue:10:00 AM-9:00 PM;Wed:10:00 AM-9:00 PM;Thu:10:00 AM-9:00 PM;Fri:10:00 AM-9:00 PM;Sat:10:00 AM-9:00 PM;,,0
,664,Columbia Gorge Outlets,450 Nw 257th Ave,Troutdale                               ,OR,97060,United States,503-669-8449,45.542640686035156,-122.38905334472656,Sun:10:00 AM-7:00 PM;Mon:10:00 AM-9:00 PM;Tue:10:00 AM-9:00 PM;Wed:10:00 AM-9:00 PM;Thu:10:00 AM-9:00 PM;Fri:10:00 AM-9:00 PM;Sat:10:00 AM-9:00 PM;,,0
,559,The Promenade @ Camarillo Outlets,"500 Ventura Blvd., Suite 1506",Camarillo                               ,CA,93010,United States,805-383-6404,34.21503448486328,-119.06871032714844,Sun:10:00 AM-8:00 PM;Mon:10:00 AM-9:00 PM;Tue:10:00 AM-9:00 PM;Wed:10:00 AM-9:00 PM;Thu:10:00 AM-9:00 PM;Fri:10:00 AM-9:00 PM;Sat:10:00 AM-9:00 PM;,,0
,720,Folsom Premium Outlets,13000 Folsom Blvd Ste 1002,Folsom                                  ,CA,95630,United States,916-985-4431,38.643943786621094,-121.18738555908203,Sun:10:00 AM-7:00 PM;Mon:10:00 AM-9:00 PM;Tue:10:00 AM-9:00 PM;Wed:10:00 AM-9:00 PM;Thu:10:00 AM-9:00 PM;Fri:10:00 AM-9:00 PM;Sat:10:00 AM-9:00 PM;,,0
,663,Woodburn Premium Outlets,"1001 Arney Rd, Ste 212",Woodburn                                ,OR,97071,United States,503-981-2198,45.1553840637207,-122.87940979003906,Sun:10:00 AM-7:00 PM;Mon:10:00 AM-9:00 PM;Tue:10:00 AM-9:00 PM;Wed:10:00 AM-9:00 PM;Thu:10:00 AM-9:00 PM;Fri:10:00 AM-9:00 PM;Sat:10:00 AM-9:00 PM;,,0
,732,Monte Vista Crossings,2697 Countryside Drive,Turlock                                 ,CA,95380,United States,209-634-4159,37.51504898071289,-120.87992095947266,Sun:11:00 AM-7:00 PM;Mon:10:00 AM-9:00 PM;Tue:10:00 AM-9:00 PM;Wed:10:00 AM-9:00 PM;Thu:10:00 AM-9:00 PM;Fri:10:00 AM-9:00 PM;Sat:10:00 AM-9:00 PM;,,0
,724,Gateway Mall,3000 Gateway St Spc 108,Springfield                             ,OR,97477,United States,541-744-3062,44.07292556762695,-123.04566955566406,Sun:11:00 AM-7:00 PM;Mon:10:00 AM-9:00 PM;Tue:10:00 AM-9:00 PM;Wed:10:00 AM-9:00 PM;Thu:10:00 AM-9:00 PM;Fri:10:00 AM-9:00 PM;Sat:10:00 AM-9:00 PM;,,0
,668,Seaside Factory Outlet Center,1111 North Roosevelt Dr,Seaside                                 ,OR,97138,United States,503-738-4047,46.00041198730469,-123.91567993164062,Sun:10:00 AM-6:00 PM;Mon:10:00 AM-8:00 PM;Tue:10:00 AM-8:00 PM;Wed:10:00 AM-8:00 PM;Thu:10:00 AM-8:00 PM;Fri:10:00 AM-8:00 PM;Sat:10:00 AM-8:00 PM;,,0
,704,San Francisco Premium Outlets,3632 Livermore Outlets Dr,Livermore                               ,CA,94551,United States,925-606-1277,37.698673248291016,-121.84558868408203,Sun:10:00 AM-7:00 PM;Mon:10:00 AM-9:00 PM;Tue:10:00 AM-9:00 PM;Wed:10:00 AM-9:00 PM;Thu:10:00 AM-9:00 PM;Fri:10:00 AM-9:00 PM;Sat:10:00 AM-9:00 PM;,,0
,675,Lincoln City Outlet Center Ste 109,1500 Se East Devils Lake Rd,Lincoln City                            ,OR,97367,United States,541-557-1994,44.95907974243164,-124.01228332519531,Sun:10:00 AM-6:00 PM;Mon:10:00 AM-8:00 PM;Tue:10:00 AM-8:00 PM;Wed:10:00 AM-8:00 PM;Thu:10:00 AM-8:00 PM;Fri:10:00 AM-8:00 PM;Sat:10:00 AM-8:00 PM;,,0
