store_name,store_number,address,address2,city,state,zip_code,country,phone_number,latitude,longitude,store_hours,other_fields,coming_soon
ROSES ,,4215 NORTH GEORGE STREET EXT,,MANCHESTER,Pennsylvania,,United States, 717-266-4734,40.9042486,-77.8280624,Sunday - 10:00AM - 8:00PM  ;Monday - 9:00AM - 9:00PM   ;Tuesday - 9:00AM - 9:00PM   ;Wednesday - 9:00AM - 9:00PM   ;Thursday - 9:00AM - 9:00PM   ;Friday - 9:00AM - 9:00PM   ;Saturday - 9:00AM - 9:00PM,,0
ROSES ,,50 QUEEN CITY DR,,CUMBERLAND,Pennsylvania,,United States, 301-724-1345,40.9042486,-77.8280624,Sunday - 10:00AM - 8:00PM  ;Monday - 9:00AM - 9:00PM   ;Tuesday - 9:00AM - 9:00PM   ;Wednesday - 9:00AM - 9:00PM   ;Thursday - 9:00AM - 9:00PM   ;Friday - 9:00AM - 9:00PM   ;Saturday - 9:00AM - 9:00PM,,0
ROSES ,,501 ADAMS AVENUE,,UNIT 1B,Pennsylvania,,United States, 215-745-1641,40.9042486,-77.8280624,Sunday - 10:00AM - 8:00PM  ;Monday - 9:00AM - 9:00PM   ;Tuesday - 9:00AM - 9:00PM   ;Wednesday - 9:00AM - 9:00PM   ;Thursday - 9:00AM - 9:00PM   ;Friday - 9:00AM - 9:00PM   ;Saturday - 9:00AM - 9:00PM,,0
ROSES ,,3450 OLD ANNAPOLIS RD,,BALTIMORE,Pennsylvania,,United States, 410-636-7947,40.9042486,-77.8280624,Sunday - 10:00AM - 8:00PM  ;Monday - 9:00AM - 9:00PM   ;Tuesday - 9:00AM - 9:00PM   ;Wednesday - 9:00AM - 9:00PM   ;Thursday - 9:00AM - 9:00PM   ;Friday - 9:00AM - 9:00PM   ;Saturday - 9:00AM - 9:00PM,,0
ROSES ,,3221 LEECHBURG ROAD,,LOWER BURRELL,Pennsylvania,,United States, 724-339-5520,40.9042486,-77.8280624,Sunday - 10:00AM - 8:00PM  ;Monday - 9:00AM - 9:00PM   ;Tuesday - 9:00AM - 9:00PM   ;Wednesday - 9:00AM - 9:00PM   ;Thursday - 9:00AM - 9:00PM   ;Friday - 9:00AM - 9:00PM   ;Saturday - 9:00AM - 9:00PM,,0
ROSES ,,5105 RITCHIE HIGHWAY,,BROOKLYN,Pennsylvania,,United States, 410-636-3001,40.9042486,-77.8280624,Sunday - 10:00AM - 8:00PM  ;Monday - 9:00AM - 9:00PM   ;Tuesday - 9:00AM - 9:00PM   ;Wednesday - 9:00AM - 9:00PM   ;Thursday - 9:00AM - 9:00PM   ;Friday - 9:00AM - 9:00PM   ;Saturday - 9:00AM - 9:00PM,,0
ROSES ,,10701 NEW GEORGES CREEK ROAD SW,,FROSTBURG,Pennsylvania,,United States, 301-687-0247,40.9042486,-77.8280624,Sunday - 10:00AM - 8:00PM  ;Monday - 9:00AM - 9:00PM   ;Tuesday - 9:00AM - 9:00PM   ;Wednesday - 9:00AM - 9:00PM   ;Thursday - 9:00AM - 9:00PM   ;Friday - 9:00AM - 9:00PM   ;Saturday - 9:00AM - 9:00PM,,0
ROSES ,,7387 BALTIMORE-ANNAPOLIS BLVD.,,GLEN BURNIE,Pennsylvania,,United States, 410-863-7256,40.9042486,-77.8280624,Sunday - 10:00AM - 8:00PM  ;Monday - 9:00AM - 9:00PM   ;Tuesday - 9:00AM - 9:00PM   ;Wednesday - 9:00AM - 9:00PM   ;Thursday - 9:00AM - 9:00PM   ;Friday - 9:00AM - 9:00PM   ;Saturday - 9:00AM - 9:00PM,,0
ROSES ,,1258 HOFFMAN BOULEVARD,,WEST MIFFLIN,Pennsylvania,,United States, 412-461-6423,40.9042486,-77.8280624,Sunday - 10:00AM - 8:00PM  ;Monday - 9:00AM - 9:00PM   ;Tuesday - 9:00AM - 9:00PM   ;Wednesday - 9:00AM - 9:00PM   ;Thursday - 9:00AM - 9:00PM   ;Friday - 9:00AM - 9:00PM   ;Saturday - 9:00AM - 9:00PM,,0
ROSES EXPRESS ,,84 GLENWOOD AVE,,SMYRNA,Pennsylvania,,United States, 302-653-0834,40.9042486,-77.8280624,Sunday - 10:00AM - 8:00PM  ;Monday - 9:00AM - 9:00PM   ;Tuesday - 9:00AM - 9:00PM   ;Wednesday - 9:00AM - 9:00PM   ;Thursday - 9:00AM - 9:00PM   ;Friday - 9:00AM - 9:00PM   ;Saturday - 9:00AM - 9:00PM,,0
ROSES ,,7706 MARLBORO PIKE,,FORESTVILLE,Pennsylvania,,United States, 301-420-1150,40.9042486,-77.8280624,Sunday - 10:00AM - 8:00PM  ;Monday - 8:00AM - 9:00PM   ;Tuesday - 8:00AM - 9:00PM   ;Wednesday - 8:00AM - 9:00PM   ;Thursday - 8:00AM - 9:00PM   ;Friday - 8:00AM - 9:00PM   ;Saturday - 8:00AM - 9:00PM,,0
ROSES ,,3737 BRANCH AVE,,HILLCREST HEIGHTS,Pennsylvania,,United States, 301-899-1903,40.9042486,-77.8280624,Sunday - 10:00AM - 8:00PM  ;Monday - 9:00AM - 9:00PM   ;Tuesday - 9:00AM - 9:00PM   ;Wednesday - 9:00AM - 9:00PM   ;Thursday - 9:00AM - 9:00PM   ;Friday - 9:00AM - 9:00PM   ;Saturday - 9:00AM - 9:00PM,,0
ROSES ,,1501 E. DUBLIN ROAD,,COLUMBUS,Ohio,,United States, 614-785-4660,40.4149297,-82.7119975,Sunday - 10:00AM - 8:00PM  ;Monday - 9:00AM - 9:00PM   ;Tuesday - 9:00AM - 9:00PM   ;Wednesday - 9:00AM - 9:00PM   ;Thursday - 9:00AM - 9:00PM   ;Friday - 9:00AM - 9:00PM   ;Saturday - 9:00AM - 9:00PM,,0
ROSES ,,4691 MORSE CENTRE DRIVE,,COLUMBUS,Ohio,,United States, 614-985-1690,40.4149297,-82.7119975,Sunday - 10:00AM - 8:00PM  ;Monday - 9:00AM - 9:00PM   ;Tuesday - 9:00AM - 9:00PM   ;Wednesday - 9:00AM - 9:00PM   ;Thursday - 9:00AM - 9:00PM   ;Friday - 9:00AM - 9:00PM   ;Saturday - 9:00AM - 9:00PM,,0
ROSES ,,4632 EAST MAIN STREET,,WHITEHALL,Ohio,,United States, 614-501-1634,40.4149297,-82.7119975,Sunday - 10:00AM - 8:00PM  ;Monday - 9:00AM - 9:00PM   ;Tuesday - 9:00AM - 9:00PM   ;Wednesday - 9:00AM - 9:00PM   ;Thursday - 9:00AM - 9:00PM   ;Friday - 9:00AM - 9:00PM   ;Saturday - 9:00AM - 9:00PM,,0
ROSES ,,2960 DERR RD,,SPRINGFIELD,Ohio,,United States, 937-342-1426,40.4149297,-82.7119975,Sunday - 10:00AM - 8:00PM  ;Monday - 9:00AM - 9:00PM   ;Tuesday - 9:00AM - 9:00PM   ;Wednesday - 9:00AM - 9:00PM   ;Thursday - 9:00AM - 9:00PM   ;Friday - 9:00AM - 9:00PM   ;Saturday - 9:00AM - 9:00PM,,0
ROSES ,,1544 COVINGTON AVE,,PIQUA,Ohio,,United States, 937-773-8027,40.4149297,-82.7119975,Sunday - 10:00AM - 8:00PM  ;Monday - 9:00AM - 9:00PM   ;Tuesday - 9:00AM - 9:00PM   ;Wednesday - 9:00AM - 9:00PM   ;Thursday - 9:00AM - 9:00PM   ;Friday - 9:00AM - 9:00PM   ;Saturday - 9:00AM - 9:00PM,,0
ROSES ,,3243 WEST SIEBENTHALER ROAD,,DAYTON,Ohio,,United States, 937-277-0870,40.4149297,-82.7119975,Sunday - 10:00AM - 8:00PM  ;Monday - 9:00AM - 9:00PM   ;Tuesday - 9:00AM - 9:00PM   ;Wednesday - 9:00AM - 9:00PM   ;Thursday - 9:00AM - 9:00PM   ;Friday - 9:00AM - 9:00PM   ;Saturday - 9:00AM - 9:00PM,,0
ROSES ,,1536 WHIPPLE AVE.,,NW,Ohio,,United States, 330-479-8872,40.4149297,-82.7119975,Sunday - 10:00AM - 8:00PM  ;Monday - 9:00AM - 9:00PM   ;Tuesday - 9:00AM - 9:00PM   ;Wednesday - 9:00AM - 9:00PM   ;Thursday - 9:00AM - 9:00PM   ;Friday - 9:00AM - 9:00PM   ;Saturday - 9:00AM - 9:00PM,,0
ROSES EXPRESS ,,1400 SOUTH ARLINGTON STREET,,AKRON,Ohio,,United States, 330-785-9129,40.4149297,-82.7119975,Sunday - 10:00AM - 8:00PM  ;Monday - 9:00AM - 9:00PM   ;Tuesday - 9:00AM - 9:00PM   ;Wednesday - 9:00AM - 9:00PM   ;Thursday - 9:00AM - 9:00PM   ;Friday - 9:00AM - 9:00PM   ;Saturday - 9:00AM - 9:00PM,,0
ROSES ,,1886 BUCHHOLZER BLVD,,AKRON,Ohio,,United States, 330-634-9617,40.4149297,-82.7119975,Sunday - 10:00AM - 8:00PM  ;Monday - 9:00AM - 9:00PM   ;Tuesday - 9:00AM - 9:00PM   ;Wednesday - 9:00AM - 9:00PM   ;Thursday - 9:00AM - 9:00PM   ;Friday - 9:00AM - 9:00PM   ;Saturday - 9:00AM - 9:00PM,,0
ROSES ,,5837 SMITH ROAD,,UNIT 350,Ohio,,United States, 216-265-7952,40.4149297,-82.7119975,Sunday - 10:00AM - 8:00PM  ;Monday - 9:00AM - 9:00PM   ;Tuesday - 9:00AM - 9:00PM   ;Wednesday - 9:00AM - 9:00PM   ;Thursday - 9:00AM - 9:00PM   ;Friday - 9:00AM - 9:00PM   ;Saturday - 9:00AM - 9:00PM,,0
ROSES ,,3250 WEST 65TH STREET,,CLEVELAND,Ohio,,United States, 216-651-0627,40.4149297,-82.7119975,Sunday - 10:00AM - 8:00PM  ;Monday - 9:00AM - 9:00PM   ;Tuesday - 9:00AM - 9:00PM   ;Wednesday - 9:00AM - 9:00PM   ;Thursday - 9:00AM - 9:00PM   ;Friday - 9:00AM - 9:00PM   ;Saturday - 9:00AM - 9:00PM,,0
ROSES EXPRESS ,,6601 HARVARD AVE,,CLEVELAND,Ohio,,United States, 216-441-4198,40.4149297,-82.7119975,Sunday - 10:00AM - 8:00PM  ;Monday - 9:00AM - 9:00PM   ;Tuesday - 9:00AM - 9:00PM   ;Wednesday - 9:00AM - 9:00PM   ;Thursday - 9:00AM - 9:00PM   ;Friday - 9:00AM - 9:00PM   ;Saturday - 9:00AM - 9:00PM,,0
ROSES ,,4601 NORTHFIELD ROAD,,NORTH RANDALL,Ohio,,United States, 216-662-6691,40.4149297,-82.7119975,Sunday - 10:00AM - 8:00PM  ;Monday - 9:00AM - 9:00PM   ;Tuesday - 9:00AM - 9:00PM   ;Wednesday - 9:00AM - 9:00PM   ;Thursday - 9:00AM - 9:00PM   ;Friday - 9:00AM - 9:00PM   ;Saturday - 9:00AM - 9:00PM,,0
ROSES EXPRESS ,,1450 HAYDEN AVE,,CLEVELAND,Ohio,,United States, 216-761-0413,40.4149297,-82.7119975,Sunday - 10:00AM - 8:00PM  ;Monday - 9:00AM - 9:00PM   ;Tuesday - 9:00AM - 9:00PM   ;Wednesday - 9:00AM - 9:00PM   ;Thursday - 9:00AM - 9:00PM   ;Friday - 9:00AM - 9:00PM   ;Saturday - 9:00AM - 9:00PM,,0
ROSES ,,1838 SEYMOUR AVE,,CINCINNATI,Ohio,,United States, 513-351-2537,40.4149297,-82.7119975,Sunday - 10:00AM - 8:00PM  ;Monday - 9:00AM - 9:00PM   ;Tuesday - 9:00AM - 9:00PM   ;Wednesday - 9:00AM - 9:00PM   ;Thursday - 9:00AM - 9:00PM   ;Friday - 9:00AM - 9:00PM   ;Saturday - 9:00AM - 9:00PM,,0
ROSES ,,1537 WEST GALBRAITH ROAD,,CINCINNATI,Ohio,,United States, 513-521-3168,40.4149297,-82.7119975,Sunday - 10:00AM - 8:00PM  ;Monday - 9:00AM - 9:00PM   ;Tuesday - 9:00AM - 9:00PM   ;Wednesday - 9:00AM - 9:00PM   ;Thursday - 9:00AM - 9:00PM   ;Friday - 9:00AM - 9:00PM   ;Saturday - 9:00AM - 9:00PM,,0
ROSES ,,1129 N. BALDWIN AVE,,MARION,Ohio,,United States, 765-662-1617,40.4149297,-82.7119975,Sunday - 10:00AM - 8:00PM  ;Monday - 9:00AM - 9:00PM   ;Tuesday - 9:00AM - 9:00PM   ;Wednesday - 9:00AM - 9:00PM   ;Thursday - 9:00AM - 9:00PM   ;Friday - 9:00AM - 9:00PM   ;Saturday - 9:00AM - 9:00PM,,0
ROSES ,,1804 SCATTERFIELD ROAD,,ANDERSON,Ohio,,United States, 765-683-0412,40.4149297,-82.7119975,Sunday - 10:00AM - 8:00PM  ;Monday - 9:00AM - 9:00PM   ;Tuesday - 9:00AM - 9:00PM   ;Wednesday - 9:00AM - 9:00PM   ;Thursday - 9:00AM - 9:00PM   ;Friday - 9:00AM - 9:00PM   ;Saturday - 9:00AM - 9:00PM,,0
ROSES ,,7201 PENDLETON PIKE,,INDIANAPOLIS,Ohio,,United States, 317-546-7208,40.4149297,-82.7119975,Sunday - 10:00AM - 8:00PM  ;Monday - 9:00AM - 9:00PM   ;Tuesday - 9:00AM - 9:00PM   ;Wednesday - 9:00AM - 9:00PM   ;Thursday - 9:00AM - 9:00PM   ;Friday - 9:00AM - 9:00PM   ;Saturday - 9:00AM - 9:00PM,,0
ROSES ,,5615 WEST 38TH STREET,,INDIANAPOLIS,Ohio,,United States, 317-297-7055,40.4149297,-82.7119975,Sunday - 10:00AM - 8:00PM  ;Monday - 9:00AM - 9:00PM   ;Tuesday - 9:00AM - 9:00PM   ;Wednesday - 9:00AM - 9:00PM   ;Thursday - 9:00AM - 9:00PM   ;Friday - 9:00AM - 9:00PM   ;Saturday - 9:00AM - 9:00PM,,0
ROSES ,,1301 WINCHESTER RD,,SUITE 181,Ohio,,United States, 859-226-5040,40.4149297,-82.7119975,Sunday - 10:00AM - 8:00PM  ;Monday - 9:00AM - 9:00PM   ;Tuesday - 9:00AM - 9:00PM   ;Wednesday - 9:00AM - 9:00PM   ;Thursday - 9:00AM - 9:00PM   ;Friday - 9:00AM - 9:00PM   ;Saturday - 9:00AM - 9:00PM,,0
ROSES ,,22940 SUSSEX HWY,,SEAFORD,Maryland,,United States, 302-629-0589,38.9466584,-76.6744939,Sunday - 10:00AM - 8:00PM  ;Monday - 9:00AM - 9:00PM   ;Tuesday - 9:00AM - 9:00PM   ;Wednesday - 9:00AM - 9:00PM   ;Thursday - 9:00AM - 9:00PM   ;Friday - 9:00AM - 9:00PM   ;Saturday - 9:00AM - 9:00PM,,0
ROSES ,,320 CYPRUS ST,,SALISBURY,Maryland,,United States, 410-341-0010,38.9466584,-76.6744939,Sunday - 10:00AM - 8:00PM  ;Monday - 9:00AM - 9:00PM   ;Tuesday - 9:00AM - 9:00PM   ;Wednesday - 9:00AM - 9:00PM   ;Thursday - 9:00AM - 9:00PM   ;Friday - 9:00AM - 9:00PM   ;Saturday - 9:00AM - 9:00PM,,0
ROSES ,,ROUTE 113,,MILLSBORO,Maryland,,United States, 302-934-6755,38.9466584,-76.6744939,Sunday - 10:00AM - 8:00PM  ;Monday - 9:00AM - 9:00PM   ;Tuesday - 9:00AM - 9:00PM   ;Wednesday - 9:00AM - 9:00PM   ;Thursday - 9:00AM - 9:00PM   ;Friday - 9:00AM - 9:00PM   ;Saturday - 9:00AM - 9:00PM,,0
ROSES EXPRESS ,,537 MADISON RD,,ORANGE,Maryland,,United States, 540-661-0389,38.9466584,-76.6744939,Sunday - 10:00AM - 8:00PM  ;Monday - 9:00AM - 9:00PM   ;Tuesday - 9:00AM - 9:00PM   ;Wednesday - 9:00AM - 9:00PM   ;Thursday - 9:00AM - 9:00PM   ;Friday - 9:00AM - 9:00PM   ;Saturday - 9:00AM - 9:00PM,,0
ROSES ,,200 94TH ST,,OCEAN CITY,Maryland,,United States, 410-723-2666,38.9466584,-76.6744939,Sunday - 10:00AM - 8:00PM  ;Monday - 9:00AM - 9:00PM   ;Tuesday - 9:00AM - 9:00PM   ;Wednesday - 9:00AM - 9:00PM   ;Thursday - 9:00AM - 9:00PM   ;Friday - 9:00AM - 9:00PM   ;Saturday - 9:00AM - 9:00PM,,0
ROSES ,,101 JUNCTION DR,,ASHLAND,Maryland,,United States, 804-798-0522,38.9466584,-76.6744939,Sunday - 10:00AM - 8:00PM  ;Monday - 9:00AM - 9:00PM   ;Tuesday - 9:00AM - 9:00PM   ;Wednesday - 9:00AM - 9:00PM   ;Thursday - 9:00AM - 9:00PM   ;Friday - 9:00AM - 9:00PM   ;Saturday - 9:00AM - 9:00PM,,0
ROSES ,,25274 LANKFORD HWY,,ONLEY,Maryland,,United States, 757-787-4547,38.9466584,-76.6744939,Sunday - 10:00AM - 8:00PM  ;Monday - 9:00AM - 9:00PM   ;Tuesday - 9:00AM - 9:00PM   ;Wednesday - 9:00AM - 9:00PM   ;Thursday - 9:00AM - 9:00PM   ;Friday - 9:00AM - 9:00PM   ;Saturday - 9:00AM - 9:00PM,,0
ROSES ,,3000 MECHANICSVILLE TURNPIKE,,RICHMOND,Maryland,,United States, 804-782-6851,38.9466584,-76.6744939,Sunday - 10:00AM - 8:00PM  ;Monday - 9:00AM - 9:00PM   ;Tuesday - 9:00AM - 9:00PM   ;Wednesday - 9:00AM - 9:00PM   ;Thursday - 9:00AM - 9:00PM   ;Friday - 9:00AM - 9:00PM   ;Saturday - 9:00AM - 9:00PM,,0
ROSES EXPRESS ,,4750 N SOUTHSIDE PLAZA ST,,RICHMOND,Maryland,,United States, 804-232-7377,38.9466584,-76.6744939,Sunday - 10:00AM - 8:00PM  ;Monday - 9:00AM - 9:00PM   ;Tuesday - 9:00AM - 9:00PM   ;Wednesday - 9:00AM - 9:00PM   ;Thursday - 9:00AM - 9:00PM   ;Friday - 9:00AM - 9:00PM   ;Saturday - 9:00AM - 9:00PM,,0
ROSES ,,400 PANTOPS CENTER,,CHARLOTTESVILLE,Maryland,,United States, 434-296-0707,38.9466584,-76.6744939,Sunday - 10:00AM - 8:00PM  ;Monday - 9:00AM - 9:00PM   ;Tuesday - 9:00AM - 9:00PM   ;Wednesday - 9:00AM - 9:00PM   ;Thursday - 9:00AM - 9:00PM   ;Friday - 9:00AM - 9:00PM   ;Saturday - 9:00AM - 9:00PM,,0
ROSES ,,4211 BEULAH ROAD,,NORTH CHESTERFIELD,Maryland,,United States, 804-271-6292,38.9466584,-76.6744939,Sunday - 10:00AM - 8:00PM  ;Monday - 9:00AM - 9:00PM   ;Tuesday - 9:00AM - 9:00PM   ;Wednesday - 9:00AM - 9:00PM   ;Thursday - 9:00AM - 9:00PM   ;Friday - 9:00AM - 9:00PM   ;Saturday - 9:00AM - 9:00PM,,0
ROSES ,,450 N MASON ST,,HARRISONBURG,Maryland,,United States, 540-433-9186,38.9466584,-76.6744939,Sunday - 10:00AM - 8:00PM  ;Monday - 9:00AM - 9:00PM   ;Tuesday - 9:00AM - 9:00PM   ;Wednesday - 9:00AM - 9:00PM   ;Thursday - 9:00AM - 9:00PM   ;Friday - 9:00AM - 9:00PM   ;Saturday - 9:00AM - 9:00PM,,0
ROSES ,,105 CAVALIER SQUARE,,HOPEWELL,Maryland,,United States, 804-458-1246,38.9466584,-76.6744939,Sunday - 10:00AM - 8:00PM  ;Monday - 9:00AM - 9:00PM   ;Tuesday - 9:00AM - 9:00PM   ;Wednesday - 9:00AM - 9:00PM   ;Thursday - 9:00AM - 9:00PM   ;Friday - 9:00AM - 9:00PM   ;Saturday - 9:00AM - 9:00PM,,0
ROSES ,,5130 GEORGE WASH. MEM. HWY,,GRAFTON,Maryland,,United States, 757-898-6797,38.9466584,-76.6744939,Sunday - 10:00AM - 8:00PM  ;Monday - 9:00AM - 9:00PM   ;Tuesday - 9:00AM - 9:00PM   ;Wednesday - 9:00AM - 9:00PM   ;Thursday - 9:00AM - 9:00PM   ;Friday - 9:00AM - 9:00PM   ;Saturday - 9:00AM - 9:00PM,,0
ROSES ,,901 WEST BROAD STREET STE I,,WAYNESBORO,Maryland,,United States, 540-941-3428,38.9466584,-76.6744939,Sunday - 10:00AM - 8:00PM  ;Monday - 9:00AM - 9:00PM   ;Tuesday - 9:00AM - 9:00PM   ;Wednesday - 9:00AM - 9:00PM   ;Thursday - 9:00AM - 9:00PM   ;Friday - 9:00AM - 9:00PM   ;Saturday - 9:00AM - 9:00PM,,0
ROSES EXPRESS ,,3330 S CRATER ROAD,,UNIT 1,Maryland,,United States, ,38.9466584,-76.6744939,Sunday - Please Call  ;Monday - 8:00AM - 9:00PM   ;Tuesday - 8:00AM - 9:00PM   ;Wednesday - 8:00AM - 9:00PM   ;Thursday - 8:00AM - 9:00PM   ;Friday - 8:00AM - 9:00PM   ;Saturday - 8:00AM - 9:00PM,,0
ROSES ,,605 NEWMARKET DR,,NEWPORT NEWS,Maryland,,United States, 757-838-3240,38.9466584,-76.6744939,Sunday - 10:00AM - 8:00PM  ;Monday - 9:00AM - 9:00PM   ;Tuesday - 9:00AM - 9:00PM   ;Wednesday - 9:00AM - 9:00PM   ;Thursday - 9:00AM - 9:00PM   ;Friday - 9:00AM - 9:00PM   ;Saturday - 9:00AM - 9:00PM,,0
ROSES EXPRESS ,,1286 SMITHFIELD PLAZA,,RTE 10,Maryland,,United States, 757-357-5845,38.9466584,-76.6744939,Sunday - 10:00AM - 8:00PM  ;Monday - 9:00AM - 9:00PM   ;Tuesday - 9:00AM - 9:00PM   ;Wednesday - 9:00AM - 9:00PM   ;Thursday - 9:00AM - 9:00PM   ;Friday - 9:00AM - 9:00PM   ;Saturday - 9:00AM - 9:00PM,,0
ROSES ,,853 CHIMNEY HILL CENTER,,VIRGINIA BEACH,Maryland,,United States, 757-340-4795,38.9466584,-76.6744939,Sunday - 10:00AM - 8:00PM  ;Monday - 9:00AM - 9:00PM   ;Tuesday - 9:00AM - 9:00PM   ;Wednesday - 9:00AM - 9:00PM   ;Thursday - 9:00AM - 9:00PM   ;Friday - 9:00AM - 9:00PM   ;Saturday - 9:00AM - 9:00PM,,0
ROSES ,,3100 AIRLINE BLVD,,PORTSMOUTH,Maryland,,United States, 757-465-1060,38.9466584,-76.6744939,Sunday - 10:00AM - 8:00PM  ;Monday - 9:00AM - 9:00PM   ;Tuesday - 9:00AM - 9:00PM   ;Wednesday - 9:00AM - 9:00PM   ;Thursday - 9:00AM - 9:00PM   ;Friday - 9:00AM - 9:00PM   ;Saturday - 9:00AM - 9:00PM,,0
ROSES ,,3142 WESTERN BRANCH BLVD,,CHESAPEAKE,Maryland,,United States, 757-484-3996,38.9466584,-76.6744939,Sunday - 10:00AM - 8:00PM  ;Monday - 9:00AM - 9:00PM   ;Tuesday - 9:00AM - 9:00PM   ;Wednesday - 9:00AM - 9:00PM   ;Thursday - 9:00AM - 9:00PM   ;Friday - 9:00AM - 9:00PM   ;Saturday - 9:00AM - 9:00PM,,0
ROSES ,,6529 COLLEGE PARK SQUARE,,VIRGINIA BEACH,Maryland,,United States, 757-424-5890,38.9466584,-76.6744939,Sunday - 10:00AM - 8:00PM  ;Monday - 9:00AM - 9:00PM   ;Tuesday - 9:00AM - 9:00PM   ;Wednesday - 9:00AM - 9:00PM   ;Thursday - 9:00AM - 9:00PM   ;Friday - 9:00AM - 9:00PM   ;Saturday - 9:00AM - 9:00PM,,0
ROSES ,,701-Z N BATTLEFIELD BLVD,,CHESAPEAKE,Maryland,,United States, 757-436-1505,38.9466584,-76.6744939,Sunday - 10:00AM - 8:00PM  ;Monday - 9:00AM - 9:00PM   ;Tuesday - 9:00AM - 9:00PM   ;Wednesday - 9:00AM - 9:00PM   ;Thursday - 9:00AM - 9:00PM   ;Friday - 9:00AM - 9:00PM   ;Saturday - 9:00AM - 9:00PM,,0
ROSES ,,1390 ARMORY DR,,FRANKLIN,Maryland,,United States, 757 569 8100,38.9466584,-76.6744939,Sunday - 10:00AM - 8:00PM  ;Monday - 9:00AM - 9:00PM   ;Tuesday - 9:00AM - 9:00PM   ;Wednesday - 9:00AM - 9:00PM   ;Thursday - 9:00AM - 9:00PM   ;Friday - 9:00AM - 9:00PM   ;Saturday - 9:00AM - 9:00PM,,0
ROSES EXPRESS ,,538 N MAIN ST,,EMPORIA,Maryland,,United States, 434-634-6561,38.9466584,-76.6744939,Sunday - 10:00AM - 8:00PM  ;Monday - 9:00AM - 9:00PM   ;Tuesday - 9:00AM - 9:00PM   ;Wednesday - 9:00AM - 9:00PM   ;Thursday - 9:00AM - 9:00PM   ;Friday - 9:00AM - 9:00PM   ;Saturday - 9:00AM - 9:00PM,,0
ROSES EXPRESS ,,2323 MEMORIAL AVE,,SUITE 10A,Maryland,,United States, 434-528-3229,38.9466584,-76.6744939,Sunday - 10:00AM - 8:00PM  ;Monday - 9:00AM - 9:00PM   ;Tuesday - 9:00AM - 9:00PM   ;Wednesday - 9:00AM - 9:00PM   ;Thursday - 9:00AM - 9:00PM   ;Friday - 9:00AM - 9:00PM   ;Saturday - 9:00AM - 9:00PM,,0
ROSES ,,830 E ATLANTIC ST,,SOUTH HILL,Maryland,,United States, 434-447-2505,38.9466584,-76.6744939,Sunday - 10:00AM - 8:00PM  ;Monday - 9:00AM - 9:00PM   ;Tuesday - 9:00AM - 9:00PM   ;Wednesday - 9:00AM - 9:00PM   ;Thursday - 9:00AM - 9:00PM   ;Friday - 9:00AM - 9:00PM   ;Saturday - 9:00AM - 9:00PM,,0
ROSES EXPRESS ,,883 E SECOND ST,,CHASE CITY,Maryland,,United States, (434) 372-3144,38.9466584,-76.6744939,Sunday - 10:00AM - 8:00PM  ;Monday - 9:00AM - 9:00PM   ;Tuesday - 9:00AM - 9:00PM   ;Wednesday - 9:00AM - 9:00PM   ;Thursday - 9:00AM - 9:00PM   ;Friday - 9:00AM - 9:00PM   ;Saturday - 9:00AM - 9:00PM,,0
ROSES EXPRESS ,,682 SOUTH HARRIS STREET,,SANDERSVILLE,Georgia,,United States, 478-552-0280,32.629384,-83.4232125,Sunday - Please Call  ;Monday - 8:00AM - 9:00PM   ;Tuesday - 8:00AM - 9:00PM   ;Wednesday - 8:00AM - 9:00PM   ;Thursday - 8:00AM - 9:00PM   ;Friday - 8:00AM - 9:00PM   ;Saturday - 8:00AM - 9:00PM,,0
ROSES ,,3856 PIO NONO AVE,,MACON,Georgia,,United States, 478-781-1276,32.629384,-83.4232125,Sunday - 10:00AM - 8:00PM  ;Monday - 9:00AM - 9:00PM   ;Tuesday - 9:00AM - 9:00PM   ;Wednesday - 9:00AM - 9:00PM   ;Thursday - 9:00AM - 9:00PM   ;Friday - 9:00AM - 9:00PM   ;Saturday - 9:00AM - 9:00PM,,0
ROSES ,,652 SHURLING DR,,MACON,Georgia,,United States, 478-746-5626,32.629384,-83.4232125,Sunday - 10:00AM - 8:00PM  ;Monday - 9:00AM - 9:00PM   ;Tuesday - 9:00AM - 9:00PM   ;Wednesday - 9:00AM - 9:00PM   ;Thursday - 9:00AM - 9:00PM   ;Friday - 9:00AM - 9:00PM   ;Saturday - 9:00AM - 9:00PM,,0
ROSES EXPRESS ,,506-H SPAULDING RD,,MONTEZUMA,Georgia,,United States, 478-458-0084,32.629384,-83.4232125,Sunday - 10:00AM - 8:00PM  ;Monday - 9:00AM - 9:00PM   ;Tuesday - 9:00AM - 9:00PM   ;Wednesday - 9:00AM - 9:00PM   ;Thursday - 9:00AM - 9:00PM   ;Friday - 9:00AM - 9:00PM   ;Saturday - 9:00AM - 9:00PM,,0
ROSES ,,2285 US HWY 341 N.,,FORT VALLEY,Georgia,,United States, 478-825-2144,32.629384,-83.4232125,Sunday - 10:00AM - 8:00PM  ;Monday - 9:00AM - 9:00PM   ;Tuesday - 9:00AM - 9:00PM   ;Wednesday - 9:00AM - 9:00PM   ;Thursday - 9:00AM - 9:00PM   ;Friday - 9:00AM - 9:00PM   ;Saturday - 9:00AM - 9:00PM,,0
ROSES EXPRESS ,,1031 S WAYNE ST,,MILLEDGEVILLE,Georgia,,United States, 478-452-4138,32.629384,-83.4232125,Sunday - 10:00AM - 8:00PM  ;Monday - 9:00AM - 9:00PM   ;Tuesday - 9:00AM - 9:00PM   ;Wednesday - 9:00AM - 9:00PM   ;Thursday - 9:00AM - 9:00PM   ;Friday - 9:00AM - 9:00PM   ;Saturday - 9:00AM - 9:00PM,,0
ROSES EXPRESS ,,1506 EAST FORSYTH STREET,,AMERICUS,Georgia,,United States, 229-928-8312,32.629384,-83.4232125,Sunday - 10:00AM - 8:00PM  ;Monday - 9:00AM - 9:00PM   ;Tuesday - 9:00AM - 9:00PM   ;Wednesday - 9:00AM - 9:00PM   ;Thursday - 9:00AM - 9:00PM   ;Friday - 9:00AM - 9:00PM   ;Saturday - 9:00AM - 9:00PM,,0
ROSES ,,1620 OGLETHORPE BLVD,,ALBANY,Georgia,,United States, 229-436-0119,32.629384,-83.4232125,Sunday - 10:00AM - 8:00PM  ;Monday - 9:00AM - 9:00PM   ;Tuesday - 9:00AM - 9:00PM   ;Wednesday - 9:00AM - 9:00PM   ;Thursday - 9:00AM - 9:00PM   ;Friday - 9:00AM - 9:00PM   ;Saturday - 9:00AM - 9:00PM,,0
ROSES EXPRESS ,,1125 W OGEECHE ST,,SYLVANIA,Georgia,,United States, 912-564-7856,32.629384,-83.4232125,Sunday - 10:00AM - 8:00PM  ;Monday - 9:00AM - 9:00PM   ;Tuesday - 9:00AM - 9:00PM   ;Wednesday - 9:00AM - 9:00PM   ;Thursday - 9:00AM - 9:00PM   ;Friday - 9:00AM - 9:00PM   ;Saturday - 9:00AM - 9:00PM,,0
ROSES ,,215 SIXTH ST,,MOULTRIE,Georgia,,United States, 229-985-1363,32.629384,-83.4232125,Sunday - 10:00AM - 8:00PM  ;Monday - 9:00AM - 9:00PM   ;Tuesday - 9:00AM - 9:00PM   ;Wednesday - 9:00AM - 9:00PM   ;Thursday - 9:00AM - 9:00PM   ;Friday - 9:00AM - 9:00PM   ;Saturday - 9:00AM - 9:00PM,,0
ROSES ,,904 VETERANS PARKWAY,,BARNESVILLE,Georgia,,United States, 770-358-2400,32.629384,-83.4232125,Sunday - 10:00AM - 8:00PM  ;Monday - 9:00AM - 9:00PM   ;Tuesday - 9:00AM - 9:00PM   ;Wednesday - 9:00AM - 9:00PM   ;Thursday - 9:00AM - 9:00PM   ;Friday - 9:00AM - 9:00PM   ;Saturday - 9:00AM - 9:00PM,,0
ROSES ,,1631 GORDON HWY,,SUITE 1A,Georgia,,United States, 706-798-1140,32.629384,-83.4232125,Sunday - 10:00AM - 8:00PM  ;Monday - 9:00AM - 9:00PM   ;Tuesday - 9:00AM - 9:00PM   ;Wednesday - 9:00AM - 9:00PM   ;Thursday - 9:00AM - 9:00PM   ;Friday - 9:00AM - 9:00PM   ;Saturday - 9:00AM - 9:00PM,,0
ROSES ,,2115 WINDSOR SPRINGS ROAD,,SUITE 9,Georgia,,United States, 706-796-7017,32.629384,-83.4232125,Sunday - 10:00AM - 8:00PM  ;Monday - 9:00AM - 9:00PM   ;Tuesday - 9:00AM - 9:00PM   ;Wednesday - 9:00AM - 9:00PM   ;Thursday - 9:00AM - 9:00PM   ;Friday - 9:00AM - 9:00PM   ;Saturday - 9:00AM - 9:00PM,,0
ROSES EXPRESS ,,403 HWY 80 W,,GARDEN CITY,Georgia,,United States, 912-965-1300,32.629384,-83.4232125,Sunday - 10:00AM - 8:00PM  ;Monday - 9:00AM - 9:00PM   ;Tuesday - 9:00AM - 9:00PM   ;Wednesday - 9:00AM - 9:00PM   ;Thursday - 9:00AM - 9:00PM   ;Friday - 9:00AM - 9:00PM   ;Saturday - 9:00AM - 9:00PM,,0
MAXWAY ,,1919 GLYNN AVE,,STE 68,Georgia,,United States, 912-267-0570,32.629384,-83.4232125,Sunday - 10:00AM - 8:00PM  ;Monday - 9:00AM - 9:00PM   ;Tuesday - 9:00AM - 9:00PM   ;Wednesday - 9:00AM - 9:00PM   ;Thursday - 9:00AM - 9:00PM   ;Friday - 9:00AM - 9:00PM   ;Saturday - 9:00AM - 9:00PM,,0
ROSES ,,1108 ZEBULON RD,,GRIFFIN,Georgia,,United States, 770-228-4806,32.629384,-83.4232125,Sunday - 10:00AM - 8:00PM  ;Monday - 9:00AM - 9:00PM   ;Tuesday - 9:00AM - 9:00PM   ;Wednesday - 9:00AM - 9:00PM   ;Thursday - 9:00AM - 9:00PM   ;Friday - 9:00AM - 9:00PM   ;Saturday - 9:00AM - 9:00PM,,0
ROSES ,,179 EDGEWOOD DRIVE - UNIT 400,,NORTH AUGUSTA,Georgia,,United States, 803-279-6768,32.629384,-83.4232125,Sunday - 10:00AM - 8:00PM  ;Monday - 9:00AM - 9:00PM   ;Tuesday - 9:00AM - 9:00PM   ;Wednesday - 9:00AM - 9:00PM   ;Thursday - 9:00AM - 9:00PM   ;Friday - 9:00AM - 9:00PM   ;Saturday - 9:00AM - 9:00PM,,0
ROSES ,,2830 EAST PINETREE BLVD,,THOMASVILLE,Georgia,,United States, 229-226-3411,32.629384,-83.4232125,Sunday - 10:00AM - 8:00PM  ;Monday - 9:00AM - 9:00PM   ;Tuesday - 9:00AM - 9:00PM   ;Wednesday - 9:00AM - 9:00PM   ;Thursday - 9:00AM - 9:00PM   ;Friday - 9:00AM - 9:00PM   ;Saturday - 9:00AM - 9:00PM,,0
ROSES EXPRESS ,,1130 WARM SPRINGS HWY,,MANCHESTER,Georgia,,United States, 706-846-2678,32.629384,-83.4232125,Sunday - 10:00AM - 8:00PM  ;Monday - 9:00AM - 9:00PM   ;Tuesday - 9:00AM - 9:00PM   ;Wednesday - 9:00AM - 9:00PM   ;Thursday - 9:00AM - 9:00PM   ;Friday - 9:00AM - 9:00PM   ;Saturday - 9:00AM - 9:00PM,,0
ROSES ,,1630 RICHLAND AVE W,,AIKEN,Georgia,,United States, 803-649-0596,32.629384,-83.4232125,Sunday - 10:00AM - 8:00PM  ;Monday - 9:00AM - 9:00PM   ;Tuesday - 9:00AM - 9:00PM   ;Wednesday - 9:00AM - 9:00PM   ;Thursday - 9:00AM - 9:00PM   ;Friday - 9:00AM - 9:00PM   ;Saturday - 9:00AM - 9:00PM,,0
ROSES EXPRESS ,,786 WEST SPRING STREET,,MONROE,Georgia,,United States, 770-266-0120,32.629384,-83.4232125,Sunday - 10:00AM - 8:00PM  ;Monday - 9:00AM - 9:00PM   ;Tuesday - 9:00AM - 9:00PM   ;Wednesday - 9:00AM - 9:00PM   ;Thursday - 9:00AM - 9:00PM   ;Friday - 9:00AM - 9:00PM   ;Saturday - 9:00AM - 9:00PM,,0
ROSES ,,7965 TARA BLVD,,JONESBORO,Georgia,,United States, 770-472-0553,32.629384,-83.4232125,Sunday - 10:00AM - 8:00PM  ;Monday - 9:00AM - 9:00PM   ;Tuesday - 9:00AM - 9:00PM   ;Wednesday - 9:00AM - 9:00PM   ;Thursday - 9:00AM - 9:00PM   ;Friday - 9:00AM - 9:00PM   ;Saturday - 9:00AM - 9:00PM,,0
ROSES ,,18201 HERITAGE HWY,,DENMARK,Georgia,,United States, 803-793-6245,32.629384,-83.4232125,Sunday - 10:00AM - 8:00PM  ;Monday - 9:00AM - 9:00PM   ;Tuesday - 9:00AM - 9:00PM   ;Wednesday - 9:00AM - 9:00PM   ;Thursday - 9:00AM - 9:00PM   ;Friday - 9:00AM - 9:00PM   ;Saturday - 9:00AM - 9:00PM,,0
ROSES EXPRESS ,,4851 JONESBORO RD,,FOREST PARK,Georgia,,United States, 404-361-2659,32.629384,-83.4232125,Sunday - 10:00AM - 8:00PM  ;Monday - 9:00AM - 9:00PM   ;Tuesday - 9:00AM - 9:00PM   ;Wednesday - 9:00AM - 9:00PM   ;Thursday - 9:00AM - 9:00PM   ;Friday - 9:00AM - 9:00PM   ;Saturday - 9:00AM - 9:00PM,,0
ROSES ,,2732 CANDLER RD,,DECATUR,Georgia,,United States, 404-241-2957,32.629384,-83.4232125,Sunday - 10:00AM - 8:00PM  ;Monday - 9:00AM - 9:00PM   ;Tuesday - 9:00AM - 9:00PM   ;Wednesday - 9:00AM - 9:00PM   ;Thursday - 9:00AM - 9:00PM   ;Friday - 9:00AM - 9:00PM   ;Saturday - 9:00AM - 9:00PM,,0
ROSES EXPRESS ,,1400 E SHOTWELL STREET STE 20,,BAINBRIDGE,Georgia,,United States, 229-248-0033,32.629384,-83.4232125,Sunday - 10:00AM - 8:00PM  ;Monday - 9:00AM - 9:00PM   ;Tuesday - 9:00AM - 9:00PM   ;Wednesday - 9:00AM - 9:00PM   ;Thursday - 9:00AM - 9:00PM   ;Friday - 9:00AM - 9:00PM   ;Saturday - 9:00AM - 9:00PM,,0
ROSES EXPRESS ,,225 ROBERTSON BLVD,,WALTERBORO,Georgia,,United States, 843-549-5205,32.629384,-83.4232125,Sunday - 10:00AM - 8:00PM  ;Monday - 9:00AM - 9:00PM   ;Tuesday - 9:00AM - 9:00PM   ;Wednesday - 9:00AM - 9:00PM   ;Thursday - 9:00AM - 9:00PM   ;Friday - 9:00AM - 9:00PM   ;Saturday - 9:00AM - 9:00PM,,0
ROSES EXPRESS ,,248 W COLUMBIA AVE,,BATESBURG,Georgia,,United States, 803-532-5622,32.629384,-83.4232125,Sunday - 10:00AM - 8:00PM  ;Monday - 9:00AM - 9:00PM   ;Tuesday - 9:00AM - 9:00PM   ;Wednesday - 9:00AM - 9:00PM   ;Thursday - 9:00AM - 9:00PM   ;Friday - 9:00AM - 9:00PM   ;Saturday - 9:00AM - 9:00PM,,0
ROSES ,,9459 LEM TURNER RD,,JACKSONVILLE,Georgia,,United States, 904-924-3929,32.629384,-83.4232125,Sunday - 10:00AM - 8:00PM  ;Monday - 9:00AM - 9:00PM   ;Tuesday - 9:00AM - 9:00PM   ;Wednesday - 9:00AM - 9:00PM   ;Thursday - 9:00AM - 9:00PM   ;Friday - 9:00AM - 9:00PM   ;Saturday - 9:00AM - 9:00PM,,0
ROSES EXPRESS ,,7900 103RD ST,,JACKSONVILLE,Georgia,,United States, 904-772-1653,32.629384,-83.4232125,Sunday - 10:00AM - 8:00PM  ;Monday - 9:00AM - 9:00PM   ;Tuesday - 9:00AM - 9:00PM   ;Wednesday - 9:00AM - 9:00PM   ;Thursday - 9:00AM - 9:00PM   ;Friday - 9:00AM - 9:00PM   ;Saturday - 9:00AM - 9:00PM,,0
ROSES ,,966 NORTH ARLINGTON ROAD,,JACKSONVILLE,Georgia,,United States, 904-805-6291,32.629384,-83.4232125,Sunday - 10:00AM - 8:00PM  ;Monday - 9:00AM - 9:00PM   ;Tuesday - 9:00AM - 9:00PM   ;Wednesday - 9:00AM - 9:00PM   ;Thursday - 9:00AM - 9:00PM   ;Friday - 9:00AM - 9:00PM   ;Saturday - 9:00AM - 9:00PM,,0
ROSES ,,1175 ORANGEBURG MALL,,ORANGEBURG,Georgia,,United States, 803-536-2770,32.629384,-83.4232125,Sunday - 10:00AM - 8:00PM  ;Monday - 9:00AM - 9:00PM   ;Tuesday - 9:00AM - 9:00PM   ;Wednesday - 9:00AM - 9:00PM   ;Thursday - 9:00AM - 9:00PM   ;Friday - 9:00AM - 9:00PM   ;Saturday - 9:00AM - 9:00PM,,0
ROSES EXPRESS ,,1323 WEST CRAWFORD STREET,,QUINCY,Georgia,,United States, 850-627-1741,32.629384,-83.4232125,Sunday - 10:00AM - 8:00PM  ;Monday - 9:00AM - 9:00PM   ;Tuesday - 9:00AM - 9:00PM   ;Wednesday - 9:00AM - 9:00PM   ;Thursday - 9:00AM - 9:00PM   ;Friday - 9:00AM - 9:00PM   ;Saturday - 9:00AM - 9:00PM,,0
ROSES ,,2214 ROSS CLARK CIRCLE STE #3,,DOTHAN,Georgia,,United States, 334-792-4321,32.629384,-83.4232125,Sunday - Please Call  ;Monday - 8:00AM - 9:00PM   ;Tuesday - 8:00AM - 9:00PM   ;Wednesday - 8:00AM - 9:00PM   ;Thursday - 8:00AM - 9:00PM   ;Friday - 8:00AM - 9:00PM   ;Saturday - 8:00AM - 9:00PM,,0
ROSES EXPRESS ,,1004 BANKHEAD HWY,,SUITE A-1,Georgia,,United States, 770-832-0124,32.629384,-83.4232125,Sunday - 10:00AM - 8:00PM  ;Monday - 9:00AM - 9:00PM   ;Tuesday - 9:00AM - 9:00PM   ;Wednesday - 9:00AM - 9:00PM   ;Thursday - 9:00AM - 9:00PM   ;Friday - 9:00AM - 9:00PM   ;Saturday - 9:00AM - 9:00PM,,0
ROSES EXPRESS ,,4739 HIGHWAY 90 UNIT 39,,MARIANNA,Georgia,,United States, 850-526-1399,32.629384,-83.4232125,Sunday - Please Call  ;Monday - 8:00AM - 9:00PM   ;Tuesday - 8:00AM - 9:00PM   ;Wednesday - 8:00AM - 9:00PM   ;Thursday - 8:00AM - 9:00PM   ;Friday - 8:00AM - 9:00PM   ;Saturday - 8:00AM - 9:00PM,,0
ROSES EXPRESS ,,202 S ELM ST,,TUSKEGEE,Georgia,,United States, 334-727-6611,32.629384,-83.4232125,Sunday - 10:00AM - 8:00PM  ;Monday - 9:00AM - 9:00PM   ;Tuesday - 9:00AM - 9:00PM   ;Wednesday - 9:00AM - 9:00PM   ;Thursday - 9:00AM - 9:00PM   ;Friday - 9:00AM - 9:00PM   ;Saturday - 9:00AM - 9:00PM,,0
ROSES ,,817 ST. ANDREWS RD #102B,,COLUMBIA,Georgia,,United States, 803-798-2086,32.629384,-83.4232125,Sunday - 10:00AM - 8:00PM  ;Monday - 9:00AM - 9:00PM   ;Tuesday - 9:00AM - 9:00PM   ;Wednesday - 9:00AM - 9:00PM   ;Thursday - 9:00AM - 9:00PM   ;Friday - 9:00AM - 9:00PM   ;Saturday - 9:00AM - 9:00PM,,0
ROSES ,,3219 MARTIN L KING JR BLVD,,ANDERSON,Georgia,,United States, 864-332-0596,32.629384,-83.4232125,Sunday - 10:00AM - 8:00PM  ;Monday - 9:00AM - 9:00PM   ;Tuesday - 9:00AM - 9:00PM   ;Wednesday - 9:00AM - 9:00PM   ;Thursday - 9:00AM - 9:00PM   ;Friday - 9:00AM - 9:00PM   ;Saturday - 9:00AM - 9:00PM,,0
ROSES EXPRESS ,,241 HILLCREST DRIVE,,LAURENS,Georgia,,United States, 864-681-1650,32.629384,-83.4232125,Sunday - 10:00AM - 8:00PM  ;Monday - 9:00AM - 9:00PM   ;Tuesday - 9:00AM - 9:00PM   ;Wednesday - 9:00AM - 9:00PM   ;Thursday - 9:00AM - 9:00PM   ;Friday - 9:00AM - 9:00PM   ;Saturday - 9:00AM - 9:00PM,,0
ROSES ,,1177 E. ANDREWS DR.,,OZARK,Georgia,,United States, 334-445-0021,32.629384,-83.4232125,Sunday - 10:00AM - 8:00PM  ;Monday - 9:00AM - 9:00PM   ;Tuesday - 9:00AM - 9:00PM   ;Wednesday - 9:00AM - 9:00PM   ;Thursday - 9:00AM - 9:00PM   ;Friday - 9:00AM - 9:00PM   ;Saturday - 9:00AM - 9:00PM,,0
ROSES EXPRESS ,,5341 DORCHESTER RD,,N. CHARLESTON,Georgia,,United States, 843-329-0290,32.629384,-83.4232125,Sunday - 10:00AM - 8:00PM  ;Monday - 9:00AM - 9:00PM   ;Tuesday - 9:00AM - 9:00PM   ;Wednesday - 9:00AM - 9:00PM   ;Thursday - 9:00AM - 9:00PM   ;Friday - 9:00AM - 9:00PM   ;Saturday - 9:00AM - 9:00PM,,0
ROSES ,,705 ALEX CITY SHOPPING CTR DR,,ALEXANDER CITY,Georgia,,United States, 256-234-7007,32.629384,-83.4232125,Sunday - 10:00AM - 8:00PM  ;Monday - 9:00AM - 9:00PM   ;Tuesday - 9:00AM - 9:00PM   ;Wednesday - 9:00AM - 9:00PM   ;Thursday - 9:00AM - 9:00PM   ;Friday - 9:00AM - 9:00PM   ;Saturday - 9:00AM - 9:00PM,,0
ROSES ,,705 ALEX CITY SHOPPING CTR DR ,,,Georgia,,United States, 256-234-7007      ,32.629384,-83.4232125,Sunday - 10:00AM  -  8:00PM  ;Monday - 9:00AM  -  9:00PM   ;Tuesday - 9:00AM  -  9:00PM   ;Wednesday - 9:00AM  -  9:00PM   ;Thursday - 9:00AM  -  9:00PM   ;Friday - 9:00AM  -  9:00PM   ;Saturday - 9:00AM  -  9:00PM   ,,0
ROSES EXPRESS ,,82 US HWY 321 BYPASS,,WINNSBORO,Georgia,,United States, 803-635-9942,32.629384,-83.4232125,Sunday - 10:00AM - 8:00PM  ;Monday - 9:00AM - 9:00PM   ;Tuesday - 9:00AM - 9:00PM   ;Wednesday - 9:00AM - 9:00PM   ;Thursday - 9:00AM - 9:00PM   ;Friday - 9:00AM - 9:00PM   ;Saturday - 9:00AM - 9:00PM,,0
ROSES EXPRESS ,,638 S STATE ST,,CLARKSDALE,Arkansas,,United States, 662-624-8678,34.8955256,-92.4446262,Sunday - 10:00AM - 8:00PM  ;Monday - 9:00AM - 9:00PM   ;Tuesday - 9:00AM - 9:00PM   ;Wednesday - 9:00AM - 9:00PM   ;Thursday - 9:00AM - 9:00PM   ;Friday - 9:00AM - 9:00PM   ;Saturday - 9:00AM - 9:00PM,,0
ROSES ,,1833 SOUTH 3RD STREET,,MEMPHIS,Arkansas,,United States, 901-775-9319,34.8955256,-92.4446262,Sunday - 10:00AM - 8:00PM  ;Monday - 9:00AM - 9:00PM   ;Tuesday - 9:00AM - 9:00PM   ;Wednesday - 9:00AM - 9:00PM   ;Thursday - 9:00AM - 9:00PM   ;Friday - 9:00AM - 9:00PM   ;Saturday - 9:00AM - 9:00PM,,0
ROSES ,,4075 ELVIS PRESLEY BLVD,,MEMPHIS,Arkansas,,United States, 901-332-3635,34.8955256,-92.4446262,Sunday - 10:00AM - 8:00PM  ;Monday - 9:00AM - 9:00PM   ;Tuesday - 9:00AM - 9:00PM   ;Wednesday - 9:00AM - 9:00PM   ;Thursday - 9:00AM - 9:00PM   ;Friday - 9:00AM - 9:00PM   ;Saturday - 9:00AM - 9:00PM,,0
ROSES ,,3560 MENDENHALL RD,,MEMPHIS,Arkansas,,United States, 901-794-3809,34.8955256,-92.4446262,Sunday - 10:00AM - 8:00PM  ;Monday - 9:00AM - 9:00PM   ;Tuesday - 9:00AM - 9:00PM   ;Wednesday - 9:00AM - 9:00PM   ;Thursday - 9:00AM - 9:00PM   ;Friday - 9:00AM - 9:00PM   ;Saturday - 9:00AM - 9:00PM,,0
ROSES ,,6994 SHELBY DRIVE,,MEMPHIS,Arkansas,,United States, 901-754-1604,34.8955256,-92.4446262,Sunday - 10:00AM - 8:00PM  ;Monday - 9:00AM - 9:00PM   ;Tuesday - 9:00AM - 9:00PM   ;Wednesday - 9:00AM - 9:00PM   ;Thursday - 9:00AM - 9:00PM   ;Friday - 9:00AM - 9:00PM   ;Saturday - 9:00AM - 9:00PM,,0
ROSES EXPRESS ,,703 WEST PARK AVENUE,,GREENWOOD,Arkansas,,United States, 662-453-8866,34.8955256,-92.4446262,Sunday - 10:00AM - 8:00PM  ;Monday - 9:00AM - 9:00PM   ;Tuesday - 9:00AM - 9:00PM   ;Wednesday - 9:00AM - 9:00PM   ;Thursday - 9:00AM - 9:00PM   ;Friday - 9:00AM - 9:00PM   ;Saturday - 9:00AM - 9:00PM,,0
ROSES EXPRESS ,,832 HWY 19 N,,STE 564,Mississippi,,United States, 601-693-8543,32.6864655,-89.6561493,Sunday - 10:00AM - 8:00PM  ;Monday - 9:00AM - 9:00PM   ;Tuesday - 9:00AM - 9:00PM   ;Wednesday - 9:00AM - 9:00PM   ;Thursday - 9:00AM - 9:00PM   ;Friday - 9:00AM - 9:00PM   ;Saturday - 9:00AM - 9:00PM,,0
ROSES ,,3033 HWY 80 E,,PEARL,Mississippi,,United States, 601-939-8282,32.6864655,-89.6561493,Sunday - 10:00AM - 8:00PM  ;Monday - 9:00AM - 9:00PM   ;Tuesday - 9:00AM - 9:00PM   ;Wednesday - 9:00AM - 9:00PM   ;Thursday - 9:00AM - 9:00PM   ;Friday - 9:00AM - 9:00PM   ;Saturday - 9:00AM - 9:00PM,,0
ROSES ,,946 N 16TH AVE,,LAUREL,Mississippi,,United States, 601-428-0436,32.6864655,-89.6561493,Sunday - 10:00AM - 8:00PM  ;Monday - 9:00AM - 9:00PM   ;Tuesday - 9:00AM - 9:00PM   ;Wednesday - 9:00AM - 9:00PM   ;Thursday - 9:00AM - 9:00PM   ;Friday - 9:00AM - 9:00PM   ;Saturday - 9:00AM - 9:00PM,,0
ROSES ,,2889 TERRY RD,,JACKSON,Mississippi,,United States, 601-373-6811,32.6864655,-89.6561493,Sunday - 10:00AM - 8:00PM  ;Monday - 9:00AM - 9:00PM   ;Tuesday - 9:00AM - 9:00PM   ;Wednesday - 9:00AM - 9:00PM   ;Thursday - 9:00AM - 9:00PM   ;Friday - 9:00AM - 9:00PM   ;Saturday - 9:00AM - 9:00PM,,0
ROSES EXPRESS ,,201-C ALABAMA ST,,COLUMBUS,Mississippi,,United States, 662-327-7025,32.6864655,-89.6561493,Sunday - 10:00AM - 8:00PM  ;Monday - 9:00AM - 9:00PM   ;Tuesday - 9:00AM - 9:00PM   ;Wednesday - 9:00AM - 9:00PM   ;Thursday - 9:00AM - 9:00PM   ;Friday - 9:00AM - 9:00PM   ;Saturday - 9:00AM - 9:00PM,,0
ROSES EXPRESS ,,436 HIGHWAY 61,,UNIT 6,Mississippi,,United States, 601-446-5020,32.6864655,-89.6561493,Sunday - 10:00AM - 8:00PM  ;Monday - 9:00AM - 9:00PM   ;Tuesday - 9:00AM - 9:00PM   ;Wednesday - 9:00AM - 9:00PM   ;Thursday - 9:00AM - 9:00PM   ;Friday - 9:00AM - 9:00PM   ;Saturday - 9:00AM - 9:00PM,,0
ROSES EXPRESS ,,223 CLAIBORNE ST,,CAMDEN,Mississippi,,United States, 334-682-4803,32.6864655,-89.6561493,Sunday - 10:00AM - 8:00PM  ;Monday - 9:00AM - 8:00PM   ;Tuesday - 9:00AM - 8:00PM   ;Wednesday - 9:00AM - 8:00PM   ;Thursday - 9:00AM - 8:00PM   ;Friday - 9:00AM - 8:00PM   ;Saturday - 9:00AM - 8:00PM,,0
ROSES EXPRESS ,,3053 DAUPHIN ST,,MOBILE,Mississippi,,United States, 251-473-6844,32.6864655,-89.6561493,Sunday - 10:00AM - 8:00PM  ;Monday - 9:00AM - 9:00PM   ;Tuesday - 9:00AM - 9:00PM   ;Wednesday - 9:00AM - 9:00PM   ;Thursday - 9:00AM - 9:00PM   ;Friday - 9:00AM - 9:00PM   ;Saturday - 9:00AM - 9:00PM,,0
ROSES EXPRESS ,,250 MAIN STREET,,BAKER,Mississippi,,United States, 225-778-1125,32.6864655,-89.6561493,Sunday - Please Call  ;Monday - 8:00AM - 9:00PM   ;Tuesday - 8:00AM - 9:00PM   ;Wednesday - 8:00AM - 9:00PM   ;Thursday - 8:00AM - 9:00PM   ;Friday - 8:00AM - 9:00PM   ;Saturday - 8:00AM - 9:00PM,,0
ROSES ,,5905 FLORIDA BLVD - STE 3,,BATON ROUGE,Mississippi,,United States, 225-929-9626,32.6864655,-89.6561493,Sunday - 10:00AM - 8:00PM  ;Monday - 9:00AM - 9:00PM   ;Tuesday - 9:00AM - 9:00PM   ;Wednesday - 9:00AM - 9:00PM   ;Thursday - 9:00AM - 9:00PM   ;Friday - 9:00AM - 9:00PM   ;Saturday - 9:00AM - 9:00PM,,0
ROSES EXPRESS ,,885 DENNISON AVE.,,SUITE 102,Mississippi,,United States, 205-226-0967,32.6864655,-89.6561493,Sunday - 10:00AM - 8:00PM  ;Monday - 9:00AM - 9:00PM   ;Tuesday - 9:00AM - 9:00PM   ;Wednesday - 9:00AM - 9:00PM   ;Thursday - 9:00AM - 9:00PM   ;Friday - 9:00AM - 9:00PM   ;Saturday - 9:00AM - 9:00PM,,0
ROSES EXPRESS ,,1948 VETERANS MEMORIAL HWY,,BIRMINGHAM,Mississippi,,United States, 205-791-4505,32.6864655,-89.6561493,Sunday - Please Call  ;Monday - 8:00AM - 9:00PM   ;Tuesday - 8:00AM - 9:00PM   ;Wednesday - 8:00AM - 9:00PM   ;Thursday - 8:00AM - 9:00PM   ;Friday - 8:00AM - 9:00PM   ;Saturday - 8:00AM - 9:00PM,,0
ROSES EXPRESS ,,7517 CRESTWOOD BLVD,,BIRMINGHAM,Mississippi,,United States, 205-595-5864,32.6864655,-89.6561493,Sunday - 10:00AM - 8:00PM  ;Monday - 9:00AM - 9:00PM   ;Tuesday - 9:00AM - 9:00PM   ;Wednesday - 9:00AM - 9:00PM   ;Thursday - 9:00AM - 9:00PM   ;Friday - 9:00AM - 9:00PM   ;Saturday - 9:00AM - 9:00PM,,0
ROSES ,,4001 EASTERN BLVD,,MONTGOMERY,Mississippi,,United States, 334-281-9181,32.6864655,-89.6561493,Sunday - 10:00AM - 8:00PM  ;Monday - 9:00AM - 9:00PM   ;Tuesday - 9:00AM - 9:00PM   ;Wednesday - 9:00AM - 9:00PM   ;Thursday - 9:00AM - 9:00PM   ;Friday - 9:00AM - 9:00PM   ;Saturday - 9:00AM - 9:00PM,,0
ROSES ,,1336 STAFFORD DR,,PRINCETON,West Virginia,,United States, 304-425-2137,38.6472854,-80.6183274,Sunday - 10:00AM - 8:00PM  ;Monday - 9:00AM - 9:00PM   ;Tuesday - 9:00AM - 9:00PM   ;Wednesday - 9:00AM - 9:00PM   ;Thursday - 9:00AM - 9:00PM   ;Friday - 9:00AM - 9:00PM   ;Saturday - 9:00AM - 9:00PM,,0
ROSES ,,261 MERCER MALL ROAD,,SUITE 4,West Virginia,,United States, 304-324-2208,38.6472854,-80.6183274,Sunday - 10:00AM - 8:00PM  ;Monday - 9:00AM - 9:00PM   ;Tuesday - 9:00AM - 9:00PM   ;Wednesday - 9:00AM - 9:00PM   ;Thursday - 9:00AM - 9:00PM   ;Friday - 9:00AM - 9:00PM   ;Saturday - 9:00AM - 9:00PM,,0
ROSES ,,890 TANYARD RD,,ROCKY MOUNT,West Virginia,,United States, 540-483-7416,38.6472854,-80.6183274,Sunday - 10:00AM - 8:00PM  ;Monday - 9:00AM - 9:00PM   ;Tuesday - 9:00AM - 9:00PM   ;Wednesday - 9:00AM - 9:00PM   ;Thursday - 9:00AM - 9:00PM   ;Friday - 9:00AM - 9:00PM   ;Saturday - 9:00AM - 9:00PM,,0
ROSES EXPRESS ,,1301 N. MAIN STREET,,ALTAVISTA,West Virginia,,United States, 434-369-1245,38.6472854,-80.6183274,Sunday - Please Call  ;Monday - 8:00AM - 9:00PM   ;Tuesday - 8:00AM - 9:00PM   ;Wednesday - 8:00AM - 9:00PM   ;Thursday - 8:00AM - 9:00PM   ;Friday - 8:00AM - 9:00PM   ;Saturday - 8:00AM - 9:00PM,,0
ROSES ,,2940 CLINCH ST,,RICHLANDS,West Virginia,,United States, 276-964-9616,38.6472854,-80.6183274,Sunday - 10:00AM - 8:00PM  ;Monday - 9:00AM - 9:00PM   ;Tuesday - 9:00AM - 9:00PM   ;Wednesday - 9:00AM - 9:00PM   ;Thursday - 9:00AM - 9:00PM   ;Friday - 9:00AM - 9:00PM   ;Saturday - 9:00AM - 9:00PM,,0
ROSES ,,600 COMMONWEALTH BLVD.,,MARTINSVILLE,West Virginia,,United States, 276-632-3036,38.6472854,-80.6183274,Sunday - 10:00AM - 8:00PM  ;Monday - 9:00AM - 9:00PM   ;Tuesday - 9:00AM - 9:00PM   ;Wednesday - 9:00AM - 9:00PM   ;Thursday - 9:00AM - 9:00PM   ;Friday - 9:00AM - 9:00PM   ;Saturday - 9:00AM - 9:00PM,,0
ROSES EXPRESS ,,US RTE 29 AT 703,,CHATHAM,West Virginia,,United States, 434-432-1464,38.6472854,-80.6183274,Sunday - 10:00AM - 8:00PM  ;Monday - 9:00AM - 9:00PM   ;Tuesday - 9:00AM - 9:00PM   ;Wednesday - 9:00AM - 9:00PM   ;Thursday - 9:00AM - 9:00PM   ;Friday - 9:00AM - 9:00PM   ;Saturday - 9:00AM - 9:00PM,,0
ROSES ,,544-D E STUART DR,,STE F,West Virginia,,United States, 276-236-7138,38.6472854,-80.6183274,Sunday - 10:00AM - 8:00PM  ;Monday - 9:00AM - 9:00PM   ;Tuesday - 9:00AM - 9:00PM   ;Wednesday - 9:00AM - 9:00PM   ;Thursday - 9:00AM - 9:00PM   ;Friday - 9:00AM - 9:00PM   ;Saturday - 9:00AM - 9:00PM,,0
ROSES ,,695 INDEPENDENCE BLVD,,MT. AIRY,West Virginia,,United States, 336-789-6583,38.6472854,-80.6183274,Sunday - 10:00AM - 8:00PM  ;Monday - 9:00AM - 9:00PM   ;Tuesday - 9:00AM - 9:00PM   ;Wednesday - 9:00AM - 9:00PM   ;Thursday - 9:00AM - 9:00PM   ;Friday - 9:00AM - 9:00PM   ;Saturday - 9:00AM - 9:00PM,,0
ROSES ,,751 E MAIN ST,,ABINGDON,West Virginia,,United States, 276-628-3154,38.6472854,-80.6183274,Sunday - 10:00AM - 8:00PM  ;Monday - 9:00AM - 9:00PM   ;Tuesday - 9:00AM - 9:00PM   ;Wednesday - 9:00AM - 9:00PM   ;Thursday - 9:00AM - 9:00PM   ;Friday - 9:00AM - 9:00PM   ;Saturday - 9:00AM - 9:00PM,,0
ROSES EXPRESS ,,653 W MAIN ST,,DANVILLE,West Virginia,,United States, 434-792-0370,38.6472854,-80.6183274,Sunday - 10:00AM - 8:00PM  ;Monday - 9:00AM - 9:00PM   ;Tuesday - 9:00AM - 9:00PM   ;Wednesday - 9:00AM - 9:00PM   ;Thursday - 9:00AM - 9:00PM   ;Friday - 9:00AM - 9:00PM   ;Saturday - 9:00AM - 9:00PM,,0
ROSES EXPRESS ,,3338 HALIFAX RD,,SOUTH BOSTON,West Virginia,,United States, 434-575-5117,38.6472854,-80.6183274,Sunday - 10:00AM - 8:00PM  ;Monday - 9:00AM - 9:00PM   ;Tuesday - 9:00AM - 9:00PM   ;Wednesday - 9:00AM - 9:00PM   ;Thursday - 9:00AM - 9:00PM   ;Friday - 9:00AM - 9:00PM   ;Saturday - 9:00AM - 9:00PM,,0
ROSES ,,16427 WISE ST,,SAINT PAUL,West Virginia,,United States, 276-762-0171,38.6472854,-80.6183274,Sunday - 10:00AM - 8:00PM  ;Monday - 9:00AM - 9:00PM   ;Tuesday - 9:00AM - 9:00PM   ;Wednesday - 9:00AM - 9:00PM   ;Thursday - 9:00AM - 9:00PM   ;Friday - 9:00AM - 9:00PM   ;Saturday - 9:00AM - 9:00PM,,0
ROSES ,,1601 S SCALES ST,,REIDSVILLE,West Virginia,,United States, 336-342-2392,38.6472854,-80.6183274,Sunday - 10:00AM - 8:00PM  ;Monday - 9:00AM - 9:00PM   ;Tuesday - 9:00AM - 9:00PM   ;Wednesday - 9:00AM - 9:00PM   ;Thursday - 9:00AM - 9:00PM   ;Friday - 9:00AM - 9:00PM   ;Saturday - 9:00AM - 9:00PM,,0
ROSES ,,822 E MAIN ST,,JEFFERSON,West Virginia,,United States, 336-246-4552,38.6472854,-80.6183274,Sunday - 10:00AM - 8:00PM  ;Monday - 9:00AM - 9:00PM   ;Tuesday - 9:00AM - 9:00PM   ;Wednesday - 9:00AM - 9:00PM   ;Thursday - 9:00AM - 9:00PM   ;Friday - 9:00AM - 9:00PM   ;Saturday - 9:00AM - 9:00PM,,0
ROSES ,,3030 OLD HOLLOW RD,,WALKERTOWN,West Virginia,,United States, 336-595-2183,38.6472854,-80.6183274,Sunday - 10:00AM - 8:00PM  ;Monday - 9:00AM - 9:00PM   ;Tuesday - 9:00AM - 9:00PM   ;Wednesday - 9:00AM - 9:00PM   ;Thursday - 9:00AM - 9:00PM   ;Friday - 9:00AM - 9:00PM   ;Saturday - 9:00AM - 9:00PM,,0
ROSES EXPRESS ,,3571 N PATTERSON AVE,,WINSTON SALEM,West Virginia,,United States, 336-767-0684,38.6472854,-80.6183274,Sunday - 10:00AM - 8:00PM  ;Monday - 9:00AM - 9:00PM   ;Tuesday - 9:00AM - 9:00PM   ;Wednesday - 9:00AM - 9:00PM   ;Thursday - 9:00AM - 9:00PM   ;Friday - 9:00AM - 9:00PM   ;Saturday - 9:00AM - 9:00PM,,0
ROSES ,,1029 N MADISON BLVD,,ROXBORO,West Virginia,,United States, 336-597-2267,38.6472854,-80.6183274,Sunday - 10:00AM - 8:00PM  ;Monday - 9:00AM - 9:00PM   ;Tuesday - 9:00AM - 9:00PM   ;Wednesday - 9:00AM - 9:00PM   ;Thursday - 9:00AM - 9:00PM   ;Friday - 9:00AM - 9:00PM   ;Saturday - 9:00AM - 9:00PM,,0
ROSES ,,1421 CONE BLVD,,GREENSBORO,West Virginia,,United States, 336-954-5063,38.6472854,-80.6183274,Sunday - 10:00AM - 8:00PM  ;Monday - 9:00AM - 9:00PM   ;Tuesday - 9:00AM - 9:00PM   ;Wednesday - 9:00AM - 9:00PM   ;Thursday - 9:00AM - 9:00PM   ;Friday - 9:00AM - 9:00PM   ;Saturday - 9:00AM - 9:00PM,,0
ROSES EXPRESS ,,531 W MEADOWVIEW,,GREENSBORO,West Virginia,,United States, 336-274-3010,38.6472854,-80.6183274,Sunday - 10:00AM - 8:00PM  ;Monday - 9:00AM - 9:00PM   ;Tuesday - 9:00AM - 9:00PM   ;Wednesday - 9:00AM - 9:00PM   ;Thursday - 9:00AM - 9:00PM   ;Friday - 9:00AM - 9:00PM   ;Saturday - 9:00AM - 9:00PM,,0
ROSES ,,3707 FARMINGTON DR,,GREENSBORO,West Virginia,,United States, 336-299-0474,38.6472854,-80.6183274,Sunday - 10:00AM - 8:00PM  ;Monday - 9:00AM - 9:00PM   ;Tuesday - 9:00AM - 9:00PM   ;Wednesday - 9:00AM - 9:00PM   ;Thursday - 9:00AM - 9:00PM   ;Friday - 9:00AM - 9:00PM   ;Saturday - 9:00AM - 9:00PM,,0
ROSES EXPRESS ,,4647 WEST MARKET STREET,,GREENSBORO,West Virginia,,United States, 336-315-3975,38.6472854,-80.6183274,Sunday - 10:00AM - 8:00PM  ;Monday - 9:00AM - 9:00PM   ;Tuesday - 9:00AM - 9:00PM   ;Wednesday - 9:00AM - 9:00PM   ;Thursday - 9:00AM - 9:00PM   ;Friday - 9:00AM - 9:00PM   ;Saturday - 9:00AM - 9:00PM,,0
ROSES ,,2236 N CHURCH ST,,BURLINGTON,West Virginia,,United States, 336-227-5364,38.6472854,-80.6183274,Sunday - 10:00AM - 8:00PM  ;Monday - 9:00AM - 9:00PM   ;Tuesday - 9:00AM - 9:00PM   ;Wednesday - 9:00AM - 9:00PM   ;Thursday - 9:00AM - 9:00PM   ;Friday - 9:00AM - 9:00PM   ;Saturday - 9:00AM - 9:00PM,,0
ROSES ,,2850 SOUTH MAIN ST SUITE 102,,HIGH POINT,West Virginia,,United States, 336-383-1743,38.6472854,-80.6183274,Sunday - 10:00AM - 8:00PM  ;Monday - 9:00AM - 9:00PM   ;Tuesday - 9:00AM - 9:00PM   ;Wednesday - 9:00AM - 9:00PM   ;Thursday - 9:00AM - 9:00PM   ;Friday - 9:00AM - 9:00PM   ;Saturday - 9:00AM - 9:00PM,,0
ROSES ,,714 GRANVILLE CORNERS,,OXFORD,West Virginia,,United States, 919-692-0040,38.6472854,-80.6183274,Sunday - 10:00AM - 8:00PM  ;Monday - 9:00AM - 9:00PM   ;Tuesday - 9:00AM - 9:00PM   ;Wednesday - 9:00AM - 9:00PM   ;Thursday - 9:00AM - 9:00PM   ;Friday - 9:00AM - 9:00PM   ;Saturday - 9:00AM - 9:00PM,,0
ROSES ,,370 S HWY 27,,STE 13,Kentucky,,United States, 606-678-4125,37.5336807,-85.2929841,Sunday - 10:00AM - 8:00PM  ;Monday - 9:00AM - 9:00PM   ;Tuesday - 9:00AM - 9:00PM   ;Wednesday - 9:00AM - 9:00PM   ;Thursday - 9:00AM - 9:00PM   ;Friday - 9:00AM - 9:00PM   ;Saturday - 9:00AM - 9:00PM,,0
ROSES ,,10 HELMWOOD PLAZA S/C,,ELIZABETHTOWN,Kentucky,,United States, 270-769-3371,37.5336807,-85.2929841,Sunday - 10:00AM - 8:00PM  ;Monday - 9:00AM - 9:00PM   ;Tuesday - 9:00AM - 9:00PM   ;Wednesday - 9:00AM - 9:00PM   ;Thursday - 9:00AM - 9:00PM   ;Friday - 9:00AM - 9:00PM   ;Saturday - 9:00AM - 9:00PM,,0
ROSES ,,3220 CRUMS LANE,,LOUISVILLE,Kentucky,,United States, 502-449-1499,37.5336807,-85.2929841,Sunday - 10:00AM - 8:00PM  ;Monday - 9:00AM - 9:00PM   ;Tuesday - 9:00AM - 9:00PM   ;Wednesday - 9:00AM - 9:00PM   ;Thursday - 9:00AM - 9:00PM   ;Friday - 9:00AM - 9:00PM   ;Saturday - 9:00AM - 9:00PM,,0
ROSES ,,905 N 12TH ST,,MIDDLESBORO,Kentucky,,United States, 606-248-7575,37.5336807,-85.2929841,Sunday - 10:00AM - 8:00PM  ;Monday - 9:00AM - 9:00PM   ;Tuesday - 9:00AM - 9:00PM   ;Wednesday - 9:00AM - 9:00PM   ;Thursday - 9:00AM - 9:00PM   ;Friday - 9:00AM - 9:00PM   ;Saturday - 9:00AM - 9:00PM,,0
ROSES ,,1901 RUSSELLVILLE RD,,BOWLING GREEN,Kentucky,,United States, 270-781-1583,37.5336807,-85.2929841,Sunday - 10:00AM - 8:00PM  ;Monday - 9:00AM - 9:00PM   ;Tuesday - 9:00AM - 9:00PM   ;Wednesday - 9:00AM - 9:00PM   ;Thursday - 9:00AM - 9:00PM   ;Friday - 9:00AM - 9:00PM   ;Saturday - 9:00AM - 9:00PM,,0
ROSES ,,1410 SPARTA STREET,,SUITE #4,Kentucky,,United States, 931-473-5140,37.5336807,-85.2929841,Sunday - 10:00AM - 8:00PM  ;Monday - 9:00AM - 9:00PM   ;Tuesday - 9:00AM - 9:00PM   ;Wednesday - 9:00AM - 9:00PM   ;Thursday - 9:00AM - 9:00PM   ;Friday - 9:00AM - 9:00PM   ;Saturday - 9:00AM - 9:00PM,,0
ROSES ,,120 RESERVOIR ROAD,,BURNSVILLE,Kentucky,,United States, 828-682-9025,37.5336807,-85.2929841,Sunday - 10:00AM - 8:00PM  ;Monday - 9:00AM - 9:00PM   ;Tuesday - 9:00AM - 9:00PM   ;Wednesday - 9:00AM - 9:00PM   ;Thursday - 9:00AM - 9:00PM   ;Friday - 9:00AM - 9:00PM   ;Saturday - 9:00AM - 9:00PM,,0
ROSES ,,50 MADISON SQUARE DRIVE,,MADISONVILLE,Kentucky,,United States, 270-825-8032,37.5336807,-85.2929841,Sunday - 10:00AM - 8:00PM  ;Monday - 9:00AM - 9:00PM   ;Tuesday - 9:00AM - 9:00PM   ;Wednesday - 9:00AM - 9:00PM   ;Thursday - 9:00AM - 9:00PM   ;Friday - 9:00AM - 9:00PM   ;Saturday - 9:00AM - 9:00PM,,0
ROSES EXPRESS ,,HWY 194 AT VALE RD,,NEWLAND,Kentucky,,United States, 828-733-2734,37.5336807,-85.2929841,Sunday - 10:00AM - 8:00PM  ;Monday - 9:00AM - 9:00PM   ;Tuesday - 9:00AM - 9:00PM   ;Wednesday - 9:00AM - 9:00PM   ;Thursday - 9:00AM - 9:00PM   ;Friday - 9:00AM - 9:00PM   ;Saturday - 9:00AM - 9:00PM,,0
ROSES ,,297 JACKSON PLAZA,,SYLVA,Kentucky,,United States, 828-586-8965,37.5336807,-85.2929841,Sunday - 10:00AM - 8:00PM  ;Monday - 9:00AM - 9:00PM   ;Tuesday - 9:00AM - 9:00PM   ;Wednesday - 9:00AM - 9:00PM   ;Thursday - 9:00AM - 9:00PM   ;Friday - 9:00AM - 9:00PM   ;Saturday - 9:00AM - 9:00PM,,0
ROSES ,,160 MALABAR RD SW STE 101,,PALM BAY,Florida,,United States, 321-674-1527,28.4574302,-82.4091478,Sunday - 10:00AM - 8:00PM  ;Monday - 9:00AM - 9:00PM   ;Tuesday - 9:00AM - 9:00PM   ;Wednesday - 9:00AM - 9:00PM   ;Thursday - 9:00AM - 9:00PM   ;Friday - 9:00AM - 9:00PM   ;Saturday - 9:00AM - 9:00PM,,0
ROSES ,,2103 AMERICANA BLVD,,ORLANDO,Florida,,United States, 407-856-9633,28.4574302,-82.4091478,Sunday - 10:00AM - 8:00PM  ;Monday - 9:00AM - 9:00PM   ;Tuesday - 9:00AM - 9:00PM   ;Wednesday - 9:00AM - 9:00PM   ;Thursday - 9:00AM - 9:00PM   ;Friday - 9:00AM - 9:00PM   ;Saturday - 9:00AM - 9:00PM,,0
ROSES ,,2724 N HIAWASSEE ROAD,,SUITE 200,Florida,,United States, 407-293-0248,28.4574302,-82.4091478,Sunday - 10:00AM - 8:00PM  ;Monday - 9:00AM - 9:00PM   ;Tuesday - 9:00AM - 9:00PM   ;Wednesday - 9:00AM - 9:00PM   ;Thursday - 9:00AM - 9:00PM   ;Friday - 9:00AM - 9:00PM   ;Saturday - 9:00AM - 9:00PM,,0
ROSES EXPRESS ,,882 NORTH NOVA ROAD,,DAYTONA BEACH,Florida,,United States, 386-239-5107,28.4574302,-82.4091478,Sunday - Please Call  ;Monday - 8:00AM - 9:00PM   ;Tuesday - 8:00AM - 9:00PM   ;Wednesday - 8:00AM - 9:00PM   ;Thursday - 8:00AM - 9:00PM   ;Friday - 8:00AM - 9:00PM   ;Saturday - 8:00AM - 9:00PM,,0
ROSES ,,225 S. TYNDALL PARKWAY,,CALLAWAY,Alabama,,United States, 850-763-4356,32.7396323,-86.8434593,Sunday - 10:00AM - 8:00PM  ;Monday - 9:00AM - 9:00PM   ;Tuesday - 9:00AM - 9:00PM   ;Wednesday - 9:00AM - 9:00PM   ;Thursday - 9:00AM - 9:00PM   ;Friday - 9:00AM - 9:00PM   ;Saturday - 9:00AM - 9:00PM,,0
ROSES ,,200 OAKWOOD VILLAGE,,SUITE G,Alabama,,United States, 256-536-3305,32.7396323,-86.8434593,Sunday - 10:00AM - 8:00PM  ;Monday - 9:00AM - 9:00PM   ;Tuesday - 9:00AM - 9:00PM   ;Wednesday - 9:00AM - 9:00PM   ;Thursday - 9:00AM - 9:00PM   ;Friday - 9:00AM - 9:00PM   ;Saturday - 9:00AM - 9:00PM,,0
ROSES ,,2535 N BROAD ST,,CAMDEN,South Carolina,,United States, 803-713-0220,33.8741769,-80.8542699,Sunday - 10:00AM - 8:00PM  ;Monday - 9:00AM - 9:00PM   ;Tuesday - 9:00AM - 9:00PM   ;Wednesday - 9:00AM - 9:00PM   ;Thursday - 9:00AM - 9:00PM   ;Friday - 9:00AM - 9:00PM   ;Saturday - 9:00AM - 9:00PM,,0
ROSES ,,1057 BROAD STREET,,SUITE C,South Carolina,,United States, 803-773-0334,33.8741769,-80.8542699,Sunday - 12:00PM - 6:00PM  ;Monday - 10:00AM - 9:00PM   ;Tuesday - 10:00AM - 9:00PM   ;Wednesday - 10:00AM - 9:00PM   ;Thursday - 10:00AM - 9:00PM   ;Friday - 10:00AM - 9:00PM   ;Saturday - 10:00AM - 9:00PM,,0
ROSES EXPRESS ,,493 N GUIGNARD DR,,SUMTER,South Carolina,,United States, 803-418-0464,33.8741769,-80.8542699,Sunday - 10:00AM - 8:00PM  ;Monday - 9:00AM - 9:00PM   ;Tuesday - 9:00AM - 9:00PM   ;Wednesday - 9:00AM - 9:00PM   ;Thursday - 9:00AM - 9:00PM   ;Friday - 9:00AM - 9:00PM   ;Saturday - 9:00AM - 9:00PM,,0
ROSES EXPRESS ,,727 ALBRIGHT RD,,ROCK HILL,South Carolina,,United States, 803-981-5263,33.8741769,-80.8542699,Sunday - 10:00AM - 8:00PM  ;Monday - 9:00AM - 9:00PM   ;Tuesday - 9:00AM - 9:00PM   ;Wednesday - 9:00AM - 9:00PM   ;Thursday - 9:00AM - 9:00PM   ;Friday - 9:00AM - 9:00PM   ;Saturday - 9:00AM - 9:00PM,,0
ROSES ,,819 S FIFTH ST,,HARTSVILLE,South Carolina,,United States, 843-332-1173,33.8741769,-80.8542699,Sunday - 10:00AM - 8:00PM  ;Monday - 9:00AM - 9:00PM   ;Tuesday - 9:00AM - 9:00PM   ;Wednesday - 9:00AM - 9:00PM   ;Thursday - 9:00AM - 9:00PM   ;Friday - 9:00AM - 9:00PM   ;Saturday - 9:00AM - 9:00PM,,0
ROSES EXPRESS ,,25 N WILLIAMSBURG COUNTY HWY,,KINGSTREE,South Carolina,,United States, 843-354-9174,33.8741769,-80.8542699,Sunday - 10:00AM - 8:00PM  ;Monday - 9:00AM - 9:00PM   ;Tuesday - 9:00AM - 9:00PM   ;Wednesday - 9:00AM - 9:00PM   ;Thursday - 9:00AM - 9:00PM   ;Friday - 9:00AM - 9:00PM   ;Saturday - 9:00AM - 9:00PM,,0
ROSES EXPRESS ,,505-D S PEARL ST,,PAGELAND,South Carolina,,United States, 843-672-2053,33.8741769,-80.8542699,Sunday - 10:00AM - 8:00PM  ;Monday - 9:00AM - 9:00PM   ;Tuesday - 9:00AM - 9:00PM   ;Wednesday - 9:00AM - 9:00PM   ;Thursday - 9:00AM - 9:00PM   ;Friday - 9:00AM - 9:00PM   ;Saturday - 9:00AM - 9:00PM,,0
ROSES EXPRESS ,,502 PEARL ST,,DARLINGTON,South Carolina,,United States, 843-395-2632,33.8741769,-80.8542699,Sunday - 10:00AM - 8:00PM  ;Monday - 9:00AM - 9:00PM   ;Tuesday - 9:00AM - 9:00PM   ;Wednesday - 9:00AM - 9:00PM   ;Thursday - 9:00AM - 9:00PM   ;Friday - 9:00AM - 9:00PM   ;Saturday - 9:00AM - 9:00PM,,0
ROSES ,,230 KELLEY STREET,,LAKE CITY,South Carolina,,United States, 843-394-0678,33.8741769,-80.8542699,Sunday - 10:00AM - 8:00PM  ;Monday - 9:00AM - 9:00PM   ;Tuesday - 9:00AM - 9:00PM   ;Wednesday - 9:00AM - 9:00PM   ;Thursday - 9:00AM - 9:00PM   ;Friday - 9:00AM - 9:00PM   ;Saturday - 9:00AM - 9:00PM,,0
ROSES ,,1508 S IRBY ST,,FLORENCE,South Carolina,,United States, 843-665-5641,33.8741769,-80.8542699,Sunday - 10:00AM - 8:00PM  ;Monday - 9:00AM - 9:00PM   ;Tuesday - 9:00AM - 9:00PM   ;Wednesday - 9:00AM - 9:00PM   ;Thursday - 9:00AM - 9:00PM   ;Friday - 9:00AM - 9:00PM   ;Saturday - 9:00AM - 9:00PM,,0
ROSES EXPRESS ,,1000 N PINE ST,,20B,South Carolina,,United States, 864-577-0052,33.8741769,-80.8542699,Sunday - 10:00AM - 8:00PM  ;Monday - 9:00AM - 9:00PM   ;Tuesday - 9:00AM - 9:00PM   ;Wednesday - 9:00AM - 9:00PM   ;Thursday - 9:00AM - 9:00PM   ;Friday - 9:00AM - 9:00PM   ;Saturday - 9:00AM - 9:00PM,,0
ROSES EXPRESS ,,524 CHESTERFIELD HWY,,CHERAW,South Carolina,,United States, 843-537-2131,33.8741769,-80.8542699,Sunday - 10:00AM - 8:00PM  ;Monday - 9:00AM - 9:00PM   ;Tuesday - 9:00AM - 9:00PM   ;Wednesday - 9:00AM - 9:00PM   ;Thursday - 9:00AM - 9:00PM   ;Friday - 9:00AM - 9:00PM   ;Saturday - 9:00AM - 9:00PM,,0
ROSES ,,2927 FREEDOM DRIVE,,CHARLOTTE,South Carolina,,United States, 704-394-4851,33.8741769,-80.8542699,Sunday - 10:00AM - 8:00PM  ;Monday - 9:00AM - 9:00PM   ;Tuesday - 9:00AM - 9:00PM   ;Wednesday - 9:00AM - 9:00PM   ;Thursday - 9:00AM - 9:00PM   ;Friday - 9:00AM - 9:00PM   ;Saturday - 9:00AM - 9:00PM,,0
ROSES ,,1314 SHELBY RD,,KINGS MOUNTAIN,South Carolina,,United States, 704-734-5415,33.8741769,-80.8542699,Sunday - 10:00AM - 8:00PM  ;Monday - 9:00AM - 9:00PM   ;Tuesday - 9:00AM - 9:00PM   ;Wednesday - 9:00AM - 9:00PM   ;Thursday - 9:00AM - 9:00PM   ;Friday - 9:00AM - 9:00PM   ;Saturday - 9:00AM - 9:00PM,,0
ROSES ,,605 PARK ST,,BELMONT,South Carolina,,United States, 704-825-3749,33.8741769,-80.8542699,Sunday - 10:00AM - 8:00PM  ;Monday - 9:00AM - 9:00PM   ;Tuesday - 9:00AM - 9:00PM   ;Wednesday - 9:00AM - 9:00PM   ;Thursday - 9:00AM - 9:00PM   ;Friday - 9:00AM - 9:00PM   ;Saturday - 9:00AM - 9:00PM,,0
ROSES ,,2100-C WADE HAMPTON BLVD,,GREENVILLE,South Carolina,,United States, 864-268-2063,33.8741769,-80.8542699,Sunday - 10:00AM - 8:00PM  ;Monday - 9:00AM - 9:00PM   ;Tuesday - 9:00AM - 9:00PM   ;Wednesday - 9:00AM - 9:00PM   ;Thursday - 9:00AM - 9:00PM   ;Friday - 9:00AM - 9:00PM   ;Saturday - 9:00AM - 9:00PM,,0
ROSES ,,4525-A THE PLAZA,,CHARLOTTE,South Carolina,,United States, 704-568-8550,33.8741769,-80.8542699,Sunday - 10:00AM - 8:00PM  ;Monday - 9:00AM - 9:00PM   ;Tuesday - 9:00AM - 9:00PM   ;Wednesday - 9:00AM - 9:00PM   ;Thursday - 9:00AM - 9:00PM   ;Friday - 9:00AM - 9:00PM   ;Saturday - 9:00AM - 9:00PM,,0
ROSES EXPRESS ,,17 FARRS BRIDGE RD,,GREENVILLE,South Carolina,,United States, 864-246-5300,33.8741769,-80.8542699,Sunday - 10:00AM - 8:00PM  ;Monday - 9:00AM - 9:00PM   ;Tuesday - 9:00AM - 9:00PM   ;Wednesday - 9:00AM - 9:00PM   ;Thursday - 9:00AM - 9:00PM   ;Friday - 9:00AM - 9:00PM   ;Saturday - 9:00AM - 9:00PM,,0
ROSES EXPRESS ,,1305 E BROAD AVE,,SUITE 24,South Carolina,,United States, 910-895-3652,33.8741769,-80.8542699,Sunday - 10:00AM - 8:00PM  ;Monday - 9:00AM - 9:00PM   ;Tuesday - 9:00AM - 9:00PM   ;Wednesday - 9:00AM - 9:00PM   ;Thursday - 9:00AM - 9:00PM   ;Friday - 9:00AM - 9:00PM   ;Saturday - 9:00AM - 9:00PM,,0
ROSES ,,2270 HWY 74,,STE 125,South Carolina,,United States, 828-245-6641,33.8741769,-80.8542699,Sunday - 10:00AM - 8:00PM  ;Monday - 9:00AM - 9:00PM   ;Tuesday - 9:00AM - 9:00PM   ;Wednesday - 9:00AM - 9:00PM   ;Thursday - 9:00AM - 9:00PM   ;Friday - 9:00AM - 9:00PM   ;Saturday - 9:00AM - 9:00PM,,0
ROSES ,,413 RADFORD BOULEVARD,,DILLON,South Carolina,,United States, 843-774-7518,33.8741769,-80.8542699,Sunday - 10:00AM - 8:00PM  ;Monday - 9:00AM - 9:00PM   ;Tuesday - 9:00AM - 9:00PM   ;Wednesday - 9:00AM - 9:00PM   ;Thursday - 9:00AM - 9:00PM   ;Friday - 9:00AM - 9:00PM   ;Saturday - 9:00AM - 9:00PM,,0
ROSES EXPRESS ,,429 W MCINTYRE ST,,MULLINS,South Carolina,,United States, 843-464-6233,33.8741769,-80.8542699,Sunday - 10:00AM - 8:00PM  ;Monday - 9:00AM - 9:00PM   ;Tuesday - 9:00AM - 9:00PM   ;Wednesday - 9:00AM - 9:00PM   ;Thursday - 9:00AM - 9:00PM   ;Friday - 9:00AM - 9:00PM   ;Saturday - 9:00AM - 9:00PM,,0
ROSES ,,924 CLOVERLEAF PLAZA,,KANNAPOLIS,South Carolina,,United States, 704-721-6010,33.8741769,-80.8542699,Sunday - 10:00AM - 8:00PM  ;Monday - 9:00AM - 9:00PM   ;Tuesday - 9:00AM - 9:00PM   ;Wednesday - 9:00AM - 9:00PM   ;Thursday - 9:00AM - 9:00PM   ;Friday - 9:00AM - 9:00PM   ;Saturday - 9:00AM - 9:00PM,,0
ROSES ,,2300 CHURCH STREET,,CONWAY,South Carolina,,United States, 843-369-1690,33.8741769,-80.8542699,Sunday - 10:00AM - 8:00PM  ;Monday - 9:00AM - 9:00PM   ;Tuesday - 9:00AM - 9:00PM   ;Wednesday - 9:00AM - 9:00PM   ;Thursday - 9:00AM - 9:00PM   ;Friday - 9:00AM - 9:00PM   ;Saturday - 9:00AM - 9:00PM,,0
ROSES EXPRESS ,,118 N WALNUT ST,,FAIRMONT,South Carolina,,United States, 910-628-5258,33.8741769,-80.8542699,Sunday - 10:00AM - 8:00PM  ;Monday - 9:00AM - 9:00PM   ;Tuesday - 9:00AM - 9:00PM   ;Wednesday - 9:00AM - 9:00PM   ;Thursday - 9:00AM - 9:00PM   ;Friday - 9:00AM - 9:00PM   ;Saturday - 9:00AM - 9:00PM,,0
ROSES ,,1149 HWY 64-70 SW,,HICKORY,South Carolina,,United States, 828-328-9353,33.8741769,-80.8542699,Sunday - 10:00AM - 8:00PM  ;Monday - 9:00AM - 9:00PM   ;Tuesday - 9:00AM - 9:00PM   ;Wednesday - 9:00AM - 9:00PM   ;Thursday - 9:00AM - 9:00PM   ;Friday - 9:00AM - 9:00PM   ;Saturday - 9:00AM - 9:00PM,,0
ROSES ,,203 E 24TH ST,,LUMBERTON,South Carolina,,United States, 910-739-8341,33.8741769,-80.8542699,Sunday - 10:00AM - 8:00PM  ;Monday - 9:00AM - 9:00PM   ;Tuesday - 9:00AM - 9:00PM   ;Wednesday - 9:00AM - 9:00PM   ;Thursday - 9:00AM - 9:00PM   ;Friday - 9:00AM - 9:00PM   ;Saturday - 9:00AM - 9:00PM,,0
ROSES EXPRESS ,,900 WEST BLVD,,LAURINBURG,South Carolina,,United States, 910-276-2837,33.8741769,-80.8542699,Sunday - 10:00AM - 8:00PM  ;Monday - 9:00AM - 9:00PM   ;Tuesday - 9:00AM - 9:00PM   ;Wednesday - 9:00AM - 9:00PM   ;Thursday - 9:00AM - 9:00PM   ;Friday - 9:00AM - 9:00PM   ;Saturday - 9:00AM - 9:00PM,,0
ROSES EXPRESS ,,230 S MAIN ST,,RAEFORD,South Carolina,,United States, 910-875-2768,33.8741769,-80.8542699,Sunday - 10:00AM - 8:00PM  ;Monday - 9:00AM - 9:00PM   ;Tuesday - 9:00AM - 9:00PM   ;Wednesday - 9:00AM - 9:00PM   ;Thursday - 9:00AM - 9:00PM   ;Friday - 9:00AM - 9:00PM   ;Saturday - 9:00AM - 9:00PM,,0
ROSES ,,600 N MAIN ST,,MARION,South Carolina,,United States, 828-652-6266,33.8741769,-80.8542699,Sunday - 10:00AM - 8:00PM  ;Monday - 9:00AM - 9:00PM   ;Tuesday - 9:00AM - 9:00PM   ;Wednesday - 9:00AM - 9:00PM   ;Thursday - 9:00AM - 9:00PM   ;Friday - 9:00AM - 9:00PM   ;Saturday - 9:00AM - 9:00PM,,0
ROSES ,,288 N TALBERT BLVD,,LEXINGTON,South Carolina,,United States, 336-243-5400,33.8741769,-80.8542699,Sunday - 10:00AM - 8:00PM  ;Monday - 9:00AM - 9:00PM   ;Tuesday - 9:00AM - 9:00PM   ;Wednesday - 9:00AM - 9:00PM   ;Thursday - 9:00AM - 9:00PM   ;Friday - 9:00AM - 9:00PM   ;Saturday - 9:00AM - 9:00PM,,0
ROSES ,,1326 SOUTH MADISON STREET,,WHITEVILLE,South Carolina,,United States, 910-640-1692,33.8741769,-80.8542699,Sunday - 10:00AM - 8:00PM  ;Monday - 9:00AM - 9:00PM   ;Tuesday - 9:00AM - 9:00PM   ;Wednesday - 9:00AM - 9:00PM   ;Thursday - 9:00AM - 9:00PM   ;Friday - 9:00AM - 9:00PM   ;Saturday - 9:00AM - 9:00PM,,0
ROSES ,,112 E FLEMING DR,,MORGANTON,South Carolina,,United States, 828-437-1914,33.8741769,-80.8542699,Sunday - 10:00AM - 8:00PM  ;Monday - 9:00AM - 9:00PM   ;Tuesday - 9:00AM - 9:00PM   ;Wednesday - 9:00AM - 9:00PM   ;Thursday - 9:00AM - 9:00PM   ;Friday - 9:00AM - 9:00PM   ;Saturday - 9:00AM - 9:00PM,,0
ROSES ,,3500 HWY 17 S,,NORTH MYRTLE BEACH,South Carolina,,United States, 843-272-1654,33.8741769,-80.8542699,Sunday - 10:00AM - 8:00PM  ;Monday - 9:00AM - 9:00PM   ;Tuesday - 9:00AM - 9:00PM   ;Wednesday - 9:00AM - 9:00PM   ;Thursday - 9:00AM - 9:00PM   ;Friday - 9:00AM - 9:00PM   ;Saturday - 9:00AM - 9:00PM,,0
ROSES ,,3020 N MAIN ST,,STE 300,South Carolina,,United States, 910-424-8020,33.8741769,-80.8542699,Sunday - 10:00AM - 8:00PM  ;Monday - 9:00AM - 9:00PM   ;Tuesday - 9:00AM - 9:00PM   ;Wednesday - 9:00AM - 9:00PM   ;Thursday - 9:00AM - 9:00PM   ;Friday - 9:00AM - 9:00PM   ;Saturday - 9:00AM - 9:00PM,,0
ROSES ,,125 WESTWOOD S/C,,FAYETTEVILLE,South Carolina,,United States, 910-868-6041,33.8741769,-80.8542699,Sunday - 10:00AM - 8:00PM  ;Monday - 9:00AM - 9:00PM   ;Tuesday - 9:00AM - 9:00PM   ;Wednesday - 9:00AM - 9:00PM   ;Thursday - 9:00AM - 9:00PM   ;Friday - 9:00AM - 9:00PM   ;Saturday - 9:00AM - 9:00PM,,0
ROSES EXPRESS ,,336 N. EASTERN BLVD.,,SUITE 3,South Carolina,,United States, 910-484-1254,33.8741769,-80.8542699,Sunday - 10:00AM - 8:00PM  ;Monday - 9:00AM - 9:00PM   ;Tuesday - 9:00AM - 9:00PM   ;Wednesday - 9:00AM - 9:00PM   ;Thursday - 9:00AM - 9:00PM   ;Friday - 9:00AM - 9:00PM   ;Saturday - 9:00AM - 9:00PM,,0
ROSES ,,1015 SPRING LANE,,SANFORD,South Carolina,,United States, 919-774-1500,33.8741769,-80.8542699,Sunday - 10:00AM - 8:00PM  ;Monday - 9:00AM - 9:00PM   ;Tuesday - 9:00AM - 9:00PM   ;Wednesday - 9:00AM - 9:00PM   ;Thursday - 9:00AM - 9:00PM   ;Friday - 9:00AM - 9:00PM   ;Saturday - 9:00AM - 9:00PM,,0
ROSES EXPRESS ,,313 FAYETTEVILLE HWY,,ROSEBORO,South Carolina,,United States, 910-525-4390,33.8741769,-80.8542699,Sunday - 10:00AM - 8:00PM  ;Monday - 9:00AM - 9:00PM   ;Tuesday - 9:00AM - 9:00PM   ;Wednesday - 9:00AM - 9:00PM   ;Thursday - 9:00AM - 9:00PM   ;Friday - 9:00AM - 9:00PM   ;Saturday - 9:00AM - 9:00PM,,0
ROSES ,,1817 WEST CUMBERLAND ST,,DUNN,South Carolina,,United States, 910-892-6185,33.8741769,-80.8542699,Sunday - 10:00AM - 8:00PM  ;Monday - 9:00AM - 9:00PM   ;Tuesday - 9:00AM - 9:00PM   ;Wednesday - 9:00AM - 9:00PM   ;Thursday - 9:00AM - 9:00PM   ;Friday - 9:00AM - 9:00PM   ;Saturday - 9:00AM - 9:00PM,,0
ROSES ,,1300 N MAIN ST,,FUQUAY VARINA,South Carolina,,United States, 919-552-8382,33.8741769,-80.8542699,Sunday - 10:00AM - 8:00PM  ;Monday - 9:00AM - 9:00PM   ;Tuesday - 9:00AM - 9:00PM   ;Wednesday - 9:00AM - 9:00PM   ;Thursday - 9:00AM - 9:00PM   ;Friday - 9:00AM - 9:00PM   ;Saturday - 9:00AM - 9:00PM,,0
ROSES ,,403 SOUTH EAST BLVD,,CLINTON,South Carolina,,United States, 910-299-0016,33.8741769,-80.8542699,Sunday - 10:00AM - 8:00PM  ;Monday - 9:00AM - 9:00PM   ;Tuesday - 9:00AM - 9:00PM   ;Wednesday - 9:00AM - 9:00PM   ;Thursday - 9:00AM - 9:00PM   ;Friday - 9:00AM - 9:00PM   ;Saturday - 9:00AM - 9:00PM,,0
ROSES ,,2638 CAROLINA BEACH BLVD,,WILMINGTON,South Carolina,,United States, 910-392-2825,33.8741769,-80.8542699,Sunday - 10:00AM - 8:00PM  ;Monday - 9:00AM - 9:00PM   ;Tuesday - 9:00AM - 9:00PM   ;Wednesday - 9:00AM - 9:00PM   ;Thursday - 9:00AM - 9:00PM   ;Friday - 9:00AM - 9:00PM   ;Saturday - 9:00AM - 9:00PM,,0
ROSES ,,612 MADISON STREET,,SHELBYVILLE,Tennessee,,United States, 931-684-1433,35.8585639,-86.3493573,Sunday - 10:00AM - 8:00PM  ;Monday - 9:00AM - 9:00PM   ;Tuesday - 9:00AM - 9:00PM   ;Wednesday - 9:00AM - 9:00PM   ;Thursday - 9:00AM - 9:00PM   ;Friday - 9:00AM - 9:00PM   ;Saturday - 9:00AM - 9:00PM,,0
ROSES ,,5725 APPALACHIAN HWY.,,BLUE RIDGE,Tennessee,,United States, 706-632-8158,35.8585639,-86.3493573,Sunday - 10:00AM - 8:00PM  ;Monday - 9:00AM - 9:00PM   ;Tuesday - 9:00AM - 9:00PM   ;Wednesday - 9:00AM - 9:00PM   ;Thursday - 9:00AM - 9:00PM   ;Friday - 9:00AM - 9:00PM   ;Saturday - 9:00AM - 9:00PM,,0
ROSES ,,1217 JULIAN A ALLSBROOK HWY,,ROANOKE RAPIDS,District of Columbia,,United States, 252-535-1374,38.9041485,-77.0170942,Sunday - 10:00AM - 8:00PM  ;Monday - 9:00AM - 9:00PM   ;Tuesday - 9:00AM - 9:00PM   ;Wednesday - 9:00AM - 9:00PM   ;Thursday - 9:00AM - 9:00PM   ;Friday - 9:00AM - 9:00PM   ;Saturday - 9:00AM - 9:00PM,,0
ROSES EXPRESS ,,1321 E MEMORIAL DR,,AHOSKIE,District of Columbia,,United States, 252-332-6353,38.9041485,-77.0170942,Sunday - 10:00AM - 8:00PM  ;Monday - 9:00AM - 9:00PM   ;Tuesday - 9:00AM - 9:00PM   ;Wednesday - 9:00AM - 9:00PM   ;Thursday - 9:00AM - 9:00PM   ;Friday - 9:00AM - 9:00PM   ;Saturday - 9:00AM - 9:00PM,,0
ROSES ,,830 HALSTEAD BOULEVARD -STE A,,ELIZABETH CITY,District of Columbia,,United States, 252-337-9779,38.9041485,-77.0170942,Sunday - 8:00AM - 9:00PM  ;Monday - 8:00AM - 9:00PM   ;Tuesday - 8:00AM - 9:00PM   ;Wednesday - 8:00AM - 9:00PM   ;Thursday - 8:00AM - 9:00PM   ;Friday - 8:00AM - 9:00PM   ;Saturday - 8:00AM - 9:00PM,,0
ROSES ,,3600 N DUKE ST,,STE 2,Vermont,,United States, 919-471-3497,44.0605475,-72.673354,Sunday - 10:00AM - 8:00PM  ;Monday - 9:00AM - 9:00PM   ;Tuesday - 9:00AM - 9:00PM   ;Wednesday - 9:00AM - 9:00PM   ;Thursday - 9:00AM - 9:00PM   ;Friday - 9:00AM - 9:00PM   ;Saturday - 9:00AM - 9:00PM,,0
ROSES ,,105 W NC 54,,STE 287,Vermont,,United States, 919-544-5186,44.0605475,-72.673354,Sunday - 10:00AM - 8:00PM  ;Monday - 9:00AM - 9:00PM   ;Tuesday - 9:00AM - 9:00PM   ;Wednesday - 9:00AM - 9:00PM   ;Thursday - 9:00AM - 9:00PM   ;Friday - 9:00AM - 9:00PM   ;Saturday - 9:00AM - 9:00PM,,0
ROSES ,,1245 DABNEY DR,,HENDERSON,Vermont,,United States, 252-492-0091,44.0605475,-72.673354,Sunday - 10:00AM - 8:00PM  ;Monday - 9:00AM - 9:00PM   ;Tuesday - 9:00AM - 9:00PM   ;Wednesday - 9:00AM - 9:00PM   ;Thursday - 9:00AM - 9:00PM   ;Friday - 9:00AM - 9:00PM   ;Saturday - 9:00AM - 9:00PM,,0
ROSES ,,1471 N GARNETT ST,,HENDERSON,Vermont,,United States, 252-492-1178,44.0605475,-72.673354,Sunday - 10:00AM - 8:00PM  ;Monday - 9:00AM - 9:00PM   ;Tuesday - 9:00AM - 9:00PM   ;Wednesday - 9:00AM - 9:00PM   ;Thursday - 9:00AM - 9:00PM   ;Friday - 9:00AM - 9:00PM   ;Saturday - 9:00AM - 9:00PM,,0
ROSES EXPRESS ,,3924 WESTERN BLVD.,,RALEIGH,Vermont,,United States, 919-839-5742,44.0605475,-72.673354,Sunday - 10:00AM - 8:00PM  ;Monday - 9:00AM - 9:00PM   ;Tuesday - 9:00AM - 9:00PM   ;Wednesday - 9:00AM - 9:00PM   ;Thursday - 9:00AM - 9:00PM   ;Friday - 9:00AM - 9:00PM   ;Saturday - 9:00AM - 9:00PM,,0
ROSES ,,1261 BUCK JONES RD (CARY),,RALEIGH,Vermont,,United States, 919-460-1497,44.0605475,-72.673354,Sunday - 10:00AM - 8:00PM  ;Monday - 9:00AM - 9:00PM   ;Tuesday - 9:00AM - 9:00PM   ;Wednesday - 9:00AM - 9:00PM   ;Thursday - 9:00AM - 9:00PM   ;Friday - 9:00AM - 9:00PM   ;Saturday - 9:00AM - 9:00PM,,0
ROSES ,,1610 MARTIN LUTHER KING JR. BLVD,,RALEIGH,Vermont,,United States, 919-250-0509,44.0605475,-72.673354,Sunday - 10:00AM - 8:00PM  ;Monday - 9:00AM - 9:00PM   ;Tuesday - 9:00AM - 9:00PM   ;Wednesday - 9:00AM - 9:00PM   ;Thursday - 9:00AM - 9:00PM   ;Friday - 9:00AM - 9:00PM   ;Saturday - 9:00AM - 9:00PM,,0
ROSES ,,198 WAKELON DRIVE,,ZEBULON,Vermont,,United States, 919-269-6811,44.0605475,-72.673354,Sunday - 10:00AM - 8:00PM  ;Monday - 9:00AM - 9:00PM   ;Tuesday - 9:00AM - 9:00PM   ;Wednesday - 9:00AM - 9:00PM   ;Thursday - 9:00AM - 9:00PM   ;Friday - 9:00AM - 9:00PM   ;Saturday - 9:00AM - 9:00PM,,0
ROSES ,,861 WEST MARKET ST,,SMITHFIELD,Vermont,,United States, 919-209-0078,44.0605475,-72.673354,Sunday - 10:00AM - 8:00PM  ;Monday - 9:00AM - 9:00PM   ;Tuesday - 9:00AM - 9:00PM   ;Wednesday - 9:00AM - 9:00PM   ;Thursday - 9:00AM - 9:00PM   ;Friday - 9:00AM - 9:00PM   ;Saturday - 9:00AM - 9:00PM,,0
ROSES ,,3030 SUNSET AVE,,ROCKY MOUNT,Vermont,,United States, 252-937-3248,44.0605475,-72.673354,Sunday - 10:00AM - 8:00PM  ;Monday - 9:00AM - 9:00PM   ;Tuesday - 9:00AM - 9:00PM   ;Wednesday - 9:00AM - 9:00PM   ;Thursday - 9:00AM - 9:00PM   ;Friday - 9:00AM - 9:00PM   ;Saturday - 9:00AM - 9:00PM,,0
ROSES ,,1129 NORTH FAIRVIEW ROAD,,ROCKY MOUNT,Vermont,,United States, 252-450-6410,44.0605475,-72.673354,Sunday - 10:00AM - 8:00PM  ;Monday - 9:00AM - 9:00PM   ;Tuesday - 9:00AM - 9:00PM   ;Wednesday - 9:00AM - 9:00PM   ;Thursday - 9:00AM - 9:00PM   ;Friday - 9:00AM - 9:00PM   ;Saturday - 9:00AM - 9:00PM,,0
ROSES ,,1501 WARD BOULEVARD,,SUITE 350,Vermont,,United States, 252-237-5311,44.0605475,-72.673354,Sunday - 10:00AM - 8:00PM  ;Monday - 9:00AM - 9:00PM   ;Tuesday - 9:00AM - 9:00PM   ;Wednesday - 9:00AM - 9:00PM   ;Thursday - 9:00AM - 9:00PM   ;Friday - 9:00AM - 9:00PM   ;Saturday - 9:00AM - 9:00PM,,0
ROSES ,,1003 N BREAZEALE AVE,,MT OLIVE,North Carolina,,United States, 919-658-2515,35.53971,-79.1308636,Sunday - 10:00AM - 8:00PM  ;Monday - 9:00AM - 9:00PM   ;Tuesday - 9:00AM - 9:00PM   ;Wednesday - 9:00AM - 9:00PM   ;Thursday - 9:00AM - 9:00PM   ;Friday - 9:00AM - 9:00PM   ;Saturday - 9:00AM - 9:00PM,,0
ROSES ,,8482 E MARLBORO RD,,STE H,North Carolina,,United States, 252-753-2610,35.53971,-79.1308636,Sunday - 10:00AM - 8:00PM  ;Monday - 9:00AM - 9:00PM   ;Tuesday - 9:00AM - 9:00PM   ;Wednesday - 9:00AM - 9:00PM   ;Thursday - 9:00AM - 9:00PM   ;Friday - 9:00AM - 9:00PM   ;Saturday - 9:00AM - 9:00PM,,0
ROSES ,,2509 N. HERRITAGE STREET,,KINSTON,North Carolina,,United States, 252-522-9183,35.53971,-79.1308636,Sunday - 10:00AM - 8:00PM  ;Monday - 9:00AM - 9:00PM   ;Tuesday - 9:00AM - 9:00PM   ;Wednesday - 9:00AM - 9:00PM   ;Thursday - 9:00AM - 9:00PM   ;Friday - 9:00AM - 9:00PM   ;Saturday - 9:00AM - 9:00PM,,0
ROSES EXPRESS ,,2400 S MEMORIAL DR,,GREENVILLE,North Carolina,,United States, 252-756-7948,35.53971,-79.1308636,Sunday - 10:00AM - 8:00PM  ;Monday - 9:00AM - 9:00PM   ;Tuesday - 9:00AM - 9:00PM   ;Wednesday - 9:00AM - 9:00PM   ;Thursday - 9:00AM - 9:00PM   ;Friday - 9:00AM - 9:00PM   ;Saturday - 9:00AM - 9:00PM,,0
ROSES ,,809 EAST BLVD,,WILLIAMSTON,North Carolina,,United States, 252-789-4123,35.53971,-79.1308636,Sunday - 10:00AM - 8:00PM  ;Monday - 9:00AM - 9:00PM   ;Tuesday - 9:00AM - 9:00PM   ;Wednesday - 9:00AM - 9:00PM   ;Thursday - 9:00AM - 9:00PM   ;Friday - 9:00AM - 9:00PM   ;Saturday - 9:00AM - 9:00PM,,0
ROSES ,,106 WESTERN BLVD,,JACKSONVILLE,North Carolina,,United States, 910-353-6228,35.53971,-79.1308636,Sunday - 10:00AM - 8:00PM  ;Monday - 9:00AM - 9:00PM   ;Tuesday - 9:00AM - 9:00PM   ;Wednesday - 9:00AM - 9:00PM   ;Thursday - 9:00AM - 9:00PM   ;Friday - 9:00AM - 9:00PM   ;Saturday - 9:00AM - 9:00PM,,0
ROSES ,,2844 NEUSE BLVD.,,NEW BERN,North Carolina,,United States, 252-514-6566,35.53971,-79.1308636,Sunday - 10:00AM - 8:00PM  ;Monday - 9:00AM - 9:00PM   ;Tuesday - 9:00AM - 9:00PM   ;Wednesday - 9:00AM - 9:00PM   ;Thursday - 9:00AM - 9:00PM   ;Friday - 9:00AM - 9:00PM   ;Saturday - 9:00AM - 9:00PM,,0
ROSES EXPRESS ,,965 OLD FOLKSTONE RD,,STE 106,North Carolina,,United States, 910-327-2333,35.53971,-79.1308636,Sunday - 10:00AM - 8:00PM  ;Monday - 9:00AM - 9:00PM   ;Tuesday - 9:00AM - 9:00PM   ;Wednesday - 9:00AM - 9:00PM   ;Thursday - 9:00AM - 9:00PM   ;Friday - 9:00AM - 9:00PM   ;Saturday - 9:00AM - 9:00PM,,0
ROSES ,,368 TOWN CENTER,,US HWY 64 E,North Carolina,,United States, 252-793-6881,35.53971,-79.1308636,Sunday - 10:00AM - 8:00PM  ;Monday - 9:00AM - 9:00PM   ;Tuesday - 9:00AM - 9:00PM   ;Wednesday - 9:00AM - 9:00PM   ;Thursday - 9:00AM - 9:00PM   ;Friday - 9:00AM - 9:00PM   ;Saturday - 9:00AM - 9:00PM,,0
ROSES ,,300 VIRGINIA RD,,EDENTON,North Carolina,,United States, 252-482-7671,35.53971,-79.1308636,Sunday - 10:00AM - 8:00PM  ;Monday - 9:00AM - 9:00PM   ;Tuesday - 9:00AM - 9:00PM   ;Wednesday - 9:00AM - 9:00PM   ;Thursday - 9:00AM - 9:00PM   ;Friday - 9:00AM - 9:00PM   ;Saturday - 9:00AM - 9:00PM,,0
ROSES ,,1720 LIVE OAK ST,,BEAUFORT,North Carolina,,United States, 252-504-2838,35.53971,-79.1308636,Sunday - 10:00AM - 8:00PM  ;Monday - 9:00AM - 9:00PM   ;Tuesday - 9:00AM - 9:00PM   ;Wednesday - 9:00AM - 9:00PM   ;Thursday - 9:00AM - 9:00PM   ;Friday - 9:00AM - 9:00PM   ;Saturday - 9:00AM - 9:00PM,,0
