store_name,store_number,address,address2,city,state,zip_code,country,phone_number,latitude,longitude,store_hours,other_fields,coming_soon
VegasExpress,1598,3411 Las Vegas Boulevard South,,Las Vegas,NV,89109,United States,800-843-2728,36.12067,-115.17168,,,0
MPLS 40,1357,3240 Division Street,,St.Cloud,MN,56301,United States,800-843-2728,45.5531796,-94.1975583,Sun - Wed 7:00AM - 11:00PM;Thu - Sat 7:00AM - 12:00AM,,0
MPLS 42,1367,9480 Dunkirk Lane North,,Maple Grove,MN,55311,United States,800-843-2728,45.1258564,-93.4903633,Sun - Sat,,0
MPLS 38,1313,8011 Old Carriage Court,,Shakopee,MN,55379,United States,800-843-2728,44.777036,-93.416485,Sun - Wed 10:00AM - 11:00PM;Thu - Fri 10:00AM - 1:00AM;Saturday 10:00AM - 12:00AM,,0
MPLS 28,1070,1111 Cambridge Street,,Hopkins,MN,55343,United States,800-843-2728,44.9348862,-93.3870518,Sun - Sat,,0
-2728,40.7313851,-74.0004562,,,0
Gristedes,111776,3 Sheridan Square & West 4th St,,New York,NY,10014,United States,800-843-2728,40.7325499,-74.0022409,,,0
Gristedes,61062,101 Clark St,,Brooklyn,NY,11201,United States,800-843-2728,40.6975689,-73.9926592,,,0
CVS,824,156 Henry Street,,Brooklyn,NY,11201,United States,800-843-2728,40.6960542,-73.993949,,,0
CVS,11994,360 6th Ave,,New York,NY,10011,United States,800-843-2728,40.7325864,-74.0000878,,,0
Gristedes,281392,25 University Ave & 8th Street,,New York,NY,10003,United States,800-843-2728,40.7311765,-73.9953633,,,0
CVS,1212,75 Christopher Street,,New York,NY,10014,United States,800-843-2728,40.7338143,-74.0030772,,,0
CVS,5716,20 University Place,,New York City,NY,10003,United States,800-843-2728,40.732067,-73.995007,,,0
Walgreens,44196,20 Astor Pl,,New York,NY,10003,United States,800-843-2728,40.72979,-73.99152,,,0
CVS,1468,500 Grand Street,,New York City,NY,10002,United States,800-843-2728,40.7150766,-73.9828058,,,0
Walgreens,40322,145 4Th Ave,,New York,NY,10003,United States,800-843-2728,40.73426022,-73.98976333,,,0
CVS,1322,150 Court Street,,Brooklyn,NY,11201,United States,800-843-2728,40.688806,-73.9930061,,,0
CVS,737,81 Eight Avenue,,Manhattan,NY,10011,United States,800-843-2728,40.740083,-74.002739,,,0
CVS,1205,215 Park Avenue South,,New York,NY,10003,United States,800-843-2728,40.736802,-73.9882852,,,0
CVS,1287,253 First Avenue,,New York,NY,10003,United States,800-843-2728,40.7319078,-73.9825878,,,0
Walgreens,49470,197 8Th Ave,,New York,NY,10011,United States,800-843-2728,40.74340968,-73.9998022,,,0
Gristedes,111778,225 8th Ave & 20th St,,New York,NY,10011,United States,800-843-2728,40.7434167,-73.9998243,,,0
CVS,19316,"34 Exchange Place, Harborside Financial Center, 103 Plaza Two",,Jersey City,NJ,07311,United States,800-843-2728,40.7167878,-74.0374081,,,0
Walgreens,44800,298 First Avenue,,New York,NY,10009,United States,800-843-2728,40.733058,-73.98082,,,0
CVS,17825,218 Myrtle Avenue,,Brooklyn,NY,11201,United States,800-843-2728,40.6933708,-73.9797103,,,0
CVS,1484,300 Park Avenue South,,New York,NY,10010,United States,800-843-2728,40.7398246,-73.986945,,,0
CVS,1286,275 Third Avenue,,New York,NY,10001,United States,800-843-2728,40.7377544,-73.9835789,,,0
Walgreens,43014,33 E 23Rd St,,New York,NY,10010,United States,800-843-2728,40.7403611,-73.98649035,,,0
CVS,255,272 8th Avenue,,New York,NY,10011,United States,800-843-2728,40.7455999,-73.997808,,,0
Gristedes,111774,225 9th Ave & 24th St,,New York,NY,10011,United States,800-843-2728,40.7461712,-73.99946,,,0
BJ's Wholesale Club,84197,396 Luis Munoz Marin Blvd.,,Jersey City,NJ,07302,United States,800-843-2728,40.7227325,-74.038484,,,0
CVS,11999,750 Sixth Avenue,,New York City,NY,10010,United States,800-843-2728,40.7438706,-73.9918772,,,0
CVS,1321,750 Sixth Avenue,,New York City,NY,10010,United States,800-843-2728,40.7439344,-73.9918586,,,0
CVS,341,395 Court Street,,Brooklyn,NY,11231,United States,800-843-2728,40.6797879,-73.9968469,,,0
Gristedes,281396,355 1st Ave & 20th St,,New York,NY,10009,United States,800-843-2728,40.7349974,-73.9793904,,,0
CVS,17435,500 West 23rd St.,,Manhattan,NY,10011,United States,800-843-2728,40.747538,-74.004681,,,0
Walgreens,49166,101-105 Washington St.,,Hoboken,NJ,7030,United States,800-843-2728,40.73750362,-74.03080583,,,0
CVS,17505,30 Flatbush Ave,,Brooklyn,NY,11217,United States,800-843-2728,40.6882291,-73.9808965,,,0
CVS,18888,30 Mall Drive West,,Jersey City,NJ,07302,United States,800-843-2728,40.7270515,-74.0384933,,,0
Gristedes,111777,307 West 26th St & 8th Ave,,New York,NY,10001,United States,800-843-2728,40.747215,-73.9970848,,,0
CVS,1211,"338 East 23rd Street, Between 1st And 2nd Avenues",,New York,NY,10010,United States,800-843-2728,40.7388319,-73.9815337,,,0
ShopRite,113561,400 Luis Marin Blvd.,,Jersey City,NJ,7302,United States,800-843-2728,40.7243202,-74.0400451,,,0
ShopRite,282034,Luis Marin Blvd & 6th St,,Jersey City,NJ,7302,United States,800-843-2728,40.7250092,-74.0404527,,,0
Walgreens,37161,520 Atlantic Ave,,Brooklyn,NY,11217,United States,800-843-2728,40.68508235,-73.98058904,,,0
Gristedes,111773,25 Waterside Plaza & FDR Dr,,New York,NY,10010,United States,800-843-2728,40.7359304,-73.9751824,,,0
Gristedes,111764,512 2nd Ave & 29th St,,New York,NY,10016,United States,800-843-2728,40.741658,-73.978516,,,0
CVS,11983,"320 Fifth Avenue, Corner Of 32th Street",,New York,NY,10001,United States,800-843-2728,40.7471447,-73.9855097,,,0
Walgreens,46854,379 Myrtle Ave,,Brooklyn,NY,11205,United States,800-843-2728,40.693277,-73.97087,,,0
Walgreens,40324,350 5Th Ave,,New York,NY,10118,United States,800-843-2728,40.74803099,-73.98500731,,,0
Gristedes,111762,460 3rd Ave & 32nd St,,New York,NY,10016,United States,800-843-2728,40.7444269,-73.97905,,,0
CVS,5767,222 East 34th Street,,Manhattan,NY,10016,United States,800-843-2728,40.7449871,-73.9772984,,,0
CVS,20677,811 Clinton Street,,Hoboken,NJ,07030,United States,800-843-2728,40.7474267,-74.0324434,,,0
CVS,13616,420 Fifth Ave,,Manhattan,NY,10018,United States,800-843-2728,40.7505586,-73.9830474,,,0
CVS,2913,27 North 6th Street,,Brooklyn,NY,11211,United States,800-843-2728,40.7200304,-73.9623662,,,0
CVS,4543,420 Fifth Ave,,Manhattan,NY,10018,United States,800-843-2728,40.7507989,-73.9833361,,,0
Walgreens,47893,545 3Rd Ave,,New York,NY,10016,United States,800-843-2728,40.74702989,-73.97704138,,,0
CVS,21568,210 14th Street,,Hoboken,NJ,07030,United States,800-843-2728,40.7539627,-74.0284162,,,0
Walgreens,47947,1471 Broadway,,New York,NY,10036,United States,800-843-2728,40.75622909,-73.98652922,,,0
ShopRite,113455,900 Madison St,,Hoboken,NJ,7030,United States,800-843-2728,40.7493989,-74.0365169,,,0
ShopRite,113703,900 Madison St,,Hoboken,NJ,7030,United States,800-843-2728,40.7493989,-74.0365169,,,0
CVS,1469,500 West 42nd Street,,New York City,NY,10036,United States,800-843-2728,40.759451,-73.995872,,,0
Gristedes,281397,748 2nd Ave & 40th St,,New York,NY,10017,United States,800-843-2728,40.7485309,-73.9731611,,,0
CVS,1248,341 Ninth Street,,Brooklyn,NY,11215,United States,800-843-2728,40.668862,-73.984734,,,0
CVS,4432,150 East 42nd Street,,New York,NY,10017,United States,800-843-2728,40.7509262,-73.9755104,,,0
CVS,21025,1200 Harbor Blvd,,Weehawken,NJ,07086,United States,800-843-2728,40.7601119,-74.023091,,,0
CVS,17438,859 Manhattan Ave,,Brooklyn,NY,11222,United States,800-843-2728,40.7292739,-73.9542387,,,0
Family Dollar Stores,30662,116 Nostrand Ave.,,Brooklyn,NY,11205-2823,United States,800-843-2728,40.6962969,-73.9531583,,,0
Walgreens,37163,210 Union Ave,,Brooklyn,NY,11211,United States,800-843-2728,40.706599,-73.950199,,,0
Gristedes,111755,907 8th Avenue & 54th Street,,New York,NY,10019,United States,800-843-2728,40.7648091,-73.9839978,,,0
CVS,17683,800 10th Ave,,New York,NY,10019,United States,800-843-2728,40.7669349,-73.9897294,,,0
CVS,2064,630 Lexington Avenue,,New York City,NY,10022,United States,800-843-2728,40.7587882,-73.9710315,,,0
Walgreens,45145,1000 2Nd Ave,,New York,NY,10022,United States,800-843-2728,40.756559,-73.967084,,,0
Walgreens,48618,353 W 57Th St,,New York,NY,10019,United States,800-843-2728,40.76787928,-73.98537093,,,0
CVS,21641,714 Summit Avenue,,Union City,NJ,07087,United States,800-843-2728,40.7585815,-74.0430941,,,0
CVS,17751,"241 West 57th Street, At 3 Columbus Circle",,New York,NY,10019,United States,800-843-2728,40.7670343,-73.9825085,,,0
CVS,1042,"1 Columbus Place, Between 9th Avenue And 58th Street",,New York,NY,10019,United States,800-843-2728,40.7679149,-73.983556,,,0
Walgreens,38730,3333 Park Ave,,Union City,NJ,7087,United States,800-843-2728,40.770099,-74.024499,,,0
NEWJ 14,1088,2995 KENNEDY BLVD,,JERSEY CITY,NJ,07306,United States,800-843-2728,40.735791,-74.063483,Sun - Sat,,0
Walgreens,49341,589 Prospect Ave,,Brooklyn,NY,11215,United States,800-843-2728,40.65617231,-73.97733815,,,0
Walgreens,49490,1281 Fulton St,,Brooklyn,NY,11216,United States,800-843-2728,40.68057152,-73.9502039,,,0
Walgreens,34326,755 Broadway,,Brooklyn,NY,11206,United States,800-843-2728,40.700671,-73.941814,,,0
Dollar General,80678,2010 Kennedy Blvd,,Union City,NJ,07087-2089,United States,800-843-2728,40.7678797,-74.0412168,,,0
Family Dollar Stores,30191,861 Park Ave,,Brooklyn,NY,11206-7301,United States,800-843-2728,40.6987499,-73.9405665,,,0
Aldi,317425,2819 John F. Kennedy Blvd W,,North Bergen,NJ,07047-2227,United States,800-843-2728,40.7729923,-74.0355096,,,0
Walgreens,48596,3508 John F Kennedy Blvd.,,Union City,NJ,7087,United States,800-843-2728,40.77545523,-74.03018799,,,0
CVS,1189,1223 Second Avenue & East 64th Street,,New York,NY,10021,United States,800-843-2728,40.7637234,-73.9620604,,,0
Family Dollar Stores,33394,4800 Broadway,,Union City,NJ,7087,United States,800-843-2728,40.7794443,-74.0164338,,,0
NEWJ 34,1195,3810 KENNEDY BLVD,,UNION CITY,NJ,07087,United States,800-843-2728,40.776534,-74.0293072,Sun - Sat,,0
Family Dollar Stores,28310,895 Dekalb Ave,,Brooklyn,NY,11221-1404,United States,800-843-2728,40.6928016,-73.9408749,,,0
CVS,3752,200 West End Avenue,,Manhattan,NY,10023,United States,800-843-2728,40.7780531,-73.9853639,,,0
Gristedes,111770,1208 1st Ave & 65th St,,New York,NY,10065,United States,800-843-2728,40.7633727,-73.959258,,,0
Walgreens,45892,1160 3Rd Ave,,New York,NY,10065,United States,800-843-2728,40.76702439,-73.96269438,,,0
Family Dollar Stores,30618,504 Bergen Ave,,Jersey City,NJ,07304-2402,United States,800-843-2728,40.7180377,-74.0757426,,,0
CVS,22553,4700 Bergenline Avenue,,Union City,NJ,07087,United States,800-843-2728,40.7812629,-74.0219429,,,0
ShopRite,113560,3147 Kennedy Blvd,,North Bergen,NJ,7047,United States,800-843-2728,40.776764,-74.0354131,,,0
Family Dollar Stores,33380,360 Martin Luther King Jr. Dr.,,Jersey City,NJ,7305,United States,800-843-2728,40.7111413,-74.0774369,,,0
Walgreens,34174,1328 2Nd Ave,,New York,NY,10021,United States,800-843-2728,40.76751996,-73.95918709,,,0
Walgreens,35072,2395 John F Kennedy Blvd,,Jersey City,NJ,7304,United States,800-843-2728,40.720058,-74.078062,,,0
CVS,19277,"Coviello Plaza, 5300 Bergenline Avenue",,West New York,NJ,07093,United States,800-843-2728,40.7847319,-74.0191833,,,0
CVS,1026,1396 Second Avenue,,New York,NY,10021,United States,800-843-2728,40.7689436,-73.9579714,,,0
CVS,12163,2182 Broadway,,Manhattan,NY,10010,United States,800-843-2728,40.782495,-73.980253,,,0
NEWY 26,1112,42-02 FORT HAMILTON PKY,,BROOKLYN,NY,11219,United States,800-843-2728,40.631628,-74.0077351,Sun - Sat,,0
NEWY 17,1107,846 LEFFERTS BLVD,,BROOKLYN,NY,11213,United States,800-843-2728,40.663263,-73.932077,Sun - Sat,,0
NEWY 18,1108,43-02 QUEENS BLVD,,SUNNYSIDE,NY,11104,United States,800-843-2728,40.743009,-73.921265,Sun - Sat,,0
NEWY 61,1255,1545 Myrtle Ave.,,Brooklyn,NY,11237    ,United States,800-843-2728,40.6995974,-73.9128746,Sun - Sat,,0
NEWJ 09,1085,9271 Kennedy Blvd.,,NORTH BERGEN,NJ,07047,United States,800-843-2728,40.8100241,-74.0013498,Sun - Sat,,0
NEWY 57,1140,351 E 103RD ST,,NEW YORK,NY,10029,United States,800-843-2728,40.7880035,-73.9417015,Sun - Sat,,0
NEWY 56,1139,2092-2094 7TH AVE,,NEW YORK,NY,10029,United States,800-843-2728,40.8088256,-73.9485511,Sun - Sat,,0
NEWY 20,1109,3101 ATLANTIC AVE,,BROOKLYN,NY,11208,United States,800-843-2728,40.679282,-73.881135,Sun - Sat,,0
NEWY 33,1118,900 PENNSYLVANIA AVE,,BROOKLYN,NY,11207,United States,800-843-2728,40.6558446,-73.8889821,Sun - Sat,,0
NEWY 16,1106,89-03 57TH AVE,,ELMHURST,NY,11373,United States,800-843-2728,40.7325343,-73.8762705,Sun - Sat,,0
NEWY 12,1104,88-08 NORTHERN BLVD,,"JAKSON HGS, FLUSHING",NY,11372,United States,800-843-2728,40.7558924,-73.8793996,Sun - Sat,,0
NEWJ 36,1265,310 Bergen Turnpike,,Little Ferry,NJ,07643,United States,800-843-2728,40.8584123,-74.0357332,Sun - Sat,,0
NEWY 51,1135,931 WESTCHESTER AVE,,BRONX,NY,10459,United States,800-843-2728,40.8220145,-73.8974254,Sun - Sat,,0
NEWJ 19,1092,37 STATE ROUTE 17,,HASBROUCK HEIGHTS,NJ,07604,United States,800-843-2728,40.8501716,-74.0756013,Sun - Fri 7:00AM - 2:00AM;Saturday 7:00AM - 12:00AM,,0
NEWJ 28,1097,642-654 BROADWAY,,NEWARK,NJ,07104,United States,800-843-2728,40.7726401,-74.1613718,Sun - Sat,,0
NEWY 52,1136,2221 HYLAN BLVD,,STATEN ISLAND,NY,10306,United States,800-843-2728,40.576453,-74.104285,Sun - Sat,,0
NEWY 45,1130,9808 ROCKAWAY BLVD,,"OZONE PARK, QUEENS",NY,11417,United States,800-843-2728,40.6797863,-73.8404387,Sun - Sat,,0
NEWY 25,1111,1831 WEBSTER AVE,,BRONX,NY,10457,United States,800-843-2728,40.8461655,-73.9020823,Sun - Sat,,0
NEWY 22,1110,1677 BRUCKNER BLVD,,BRONX,NY,10472,United States,800-843-2728,40.825183,-73.871131,Sun - Sat,,0
NEWY 66,1340,2238 Forest Avenue,,Staten Island,NY,10303,United States,800-843-2728,40.6267194,-74.164323,Sun - Sat,,0
NEWJ 01,1082,307 ELIZABETH AVE,,NEWARK,NJ,07112,United States,800-843-2728,40.7125151,-74.1942901,Sun - Sat,,0
NEWY 02,1100,550 E FORDHAM RD,,BRONX,NY,10458,United States,800-843-2728,40.8588703,-73.8864787,Sun - Sat,,0
NEWY 47,1132,2900 E TREMONT AVE,,BRONX,NY,10461,United States,800-843-2728,40.8406194,-73.8420116,Sun - Sat,,0
NEWY 46,1131,175-28 HILLSIDE AVE,,"JAMAICA, QUEENS",NY,11432,United States,800-843-2728,40.7090806,-73.7977964,Sun - Sat,,0
NEWY 03,1101,2701 BOSTON RD,,BRONX,NY,10467,United States,800-843-2728,40.865554,-73.8624419,Sun - Sat,,0
NEWJ 29,1098,480 LYONS AVE,,IRVINGTON,NJ,07111,United States,800-843-2728,40.7152223,-74.2242166,Sun - Sat,,0
NEWJ 08,1084,1341 MAIN AVE,,CLIFTON,NJ,07011,United States,800-843-2728,40.8809811,-74.145471,Sun - Sat,,0
NEWJ 39,1304,951 South Orange Avenue,,EAST ORANGE,NJ,07018,United States,800-843-2728,40.7463438,-74.2273131,Sun - Sat,,0
NEWJ 33,1181,2001 EDGAR RD,,LINDEN,NJ,07036,United States,800-843-2728,40.6459,-74.226664,Sun - Sat,,0
NEWJ 07,1083,600 WESTFIELD AVE,,ELIZABETH,NJ,07208,United States,800-843-2728,40.6656147,-74.2343104,Sun - Sat,,0
NEWY 35,1120,3663 BOSTON RD,,BRONX,NY,10466,United States,800-843-2728,40.8803012,-73.8419254,Sun - Sat,,0
NEWY 43,1128,257 S BROADWAY,,YONKERS,NY,10705,United States,800-843-2728,40.925045,-73.895948,Sun - Sat,,0
NEWJ 10,1086,467 CENTRAL AVE,,ORANGE,NJ,07050,United States,800-843-2728,40.7679745,-74.2398621,Sun - Sat,,0
NEWY 07,1102,213-17 NORTHERN BLVD,,"BAYSIDE, QUEENS",NY,11361,United States,800-843-2728,40.7605092,-73.7698141,Sun - Sat,,0
NEWJ 32,1180,220 BROADWAY,,PATERSON,NJ,07510,United States,800-843-2728,40.9187728,-74.1662864,Sun - Sat,,0
NEWY 38,1123,112-11 SPRINGFIELD BLVD,,QUEENS,NY,11429,United States,800-843-2728,40.705207,-73.739475,Sun - Sat,,0
NEWJ 42,1352,2077 Rt. 1,,Rahway,NJ,07065,United States,800-843-2728,40.6087655,-74.2596149,Sun - Sat,,0
NEWJ 17,1091,2458 ROUTE 22,,UNION,NJ,07083,United States,800-843-2728,40.6893486,-74.2980323,Sun - Sat,,0
NEWY 09,1103,490 SUNRISE HWY,,LYNBROOK,NY,11563,United States,800-843-2728,40.6554521,-73.6735244,Sun - Sat,,0
NEWJ 16,1090,8 Lafayette Road,,METUCHEN,NJ,08840,United States,800-843-2728,40.5473571,-74.3273225,Sun - Sat,,0
NEWY 13,1105,19 HEMPSTEAD TPKE,,WEST HEMPSTEAD,NY,11552,United States,800-843-2728,40.704478,-73.638731,Sun - Sat,,0
NEWY 32,1117,136 W ROUTE 59,,NANUET,NY,10954,United States,800-843-2728,41.0987642,-74.0177734,Sun - Sat,,0
NEWJ 15,1089,987 HIGHWAY 9,,SOUTH AMBOY,NJ,08879,United States,800-843-2728,40.4557603,-74.2962604,Sun - Sat,,0
NEWJ 41,1331,1335 South Avenue,,Plainfield,NJ,07062,United States,800-843-2728,40.632805,-74.397053,Sun - Sat,,0
NEWJ 20,1093,247 STATE ROUTE 35,,EATONTOWN,NJ,07724,United States,800-843-2728,40.2852809,-74.0503822,Sun - Sat,,0
NEWJ 23,1095,5151 STELTON RD,,SOUTH PLAINFIELD,NJ,07080,United States,800-843-2728,40.5480101,-74.4279774,Sun - Sat,,0
NEWJ 46,1370,645 Highway 18,,East Brunswick,NJ,08816,United States,800-843-2728,40.4333851,-74.3880438,Sun - Sat,,0
NEWJ 31,1099,680 SOMERSET ST,,NEW BRUNSWICK,NJ,08901,United States,800-843-2728,40.4855247,-74.4713196,Sun - Sat,,0
NEWY 27,1113,6207 SUNRISE HWY,,MASSAPEQUA,NY,11758,United States,800-843-2728,40.684015,-73.429143,Sun - Sat,,0
NEWY 63,1267,265 Broad Hollow Rd.,,Farmingdale,NY,11735-4806,United States,800-843-2728,40.71582,-73.426467,Sun - Sat,,0
NEWJ 37,1295,2301 U.S. Highway 9 North,,Howell,NJ,07731,United States,800-843-2728,40.1785113,-74.2435124,Sun - Sat,,0
NEWY 28,1114,540 WALT WHITMAN RD,,HUNTINGTON STATION,NY,11746,United States,800-843-2728,40.830419,-73.4110142,Sun - Sat,,0
NEWJ 48,1770,4053 US Route 1,,South Brunswick,NJ,08852,United States,800-843-2728,40.3737333,-74.5618707,Sun - Sat,,0
NEWJ 38,1303,1113 U.S. Highway 46,,Ledgewood,NJ,07852,United States,800-843-2728,40.879626,-74.646051,Sun - Sat,,0
NEWY 65,1302,1690 Deer Park Avenue,,DEER PARK,NY,11729,United States,800-843-2728,40.753383,-73.326582,Sun - Sat,,0
NEWY 30,1115,2237 JERICHO TPKE,,"COMMACK, LONG ISLAND",NY,11725,United States,800-843-2728,40.8418769,-73.292408,Sun - Sat,,0
NEWY 59,1216,786 SUFFOLK AVE,,"BRENTWOOD, L.I.",NY,11717,United States,800-843-2728,40.780956,-73.245903,Sun - Sat,,0
NEWJ 26,1096,132 Route 37 East,,TOMS'S RIVER,NJ,08753,United States,800-843-2728,39.9639,-74.1895909,Sun - Sat 7:00AM - 12:00AM,,0
NEWJ 47,1676,245 N. Main Street,,Forked River,NJ,08731,United States,800-843-2728,39.836973,-74.1934503,Sun - Sat,,0
NEWY 31,1116,2201 MIDDLE COUNTRY RD,,"CENTEREACH, L.I.",NY,11720,United States,800-843-2728,40.858925,-73.089143,Sun - Sat,,0
NEWJ 45,1366,1236 Route 22,,Phillipsburg,NJ,08865,United States,800-843-2728,40.6811677,-75.1474986,Sun - Sat,,0
NEWJ 43,1361,1280 MacArthur Road,,Whitehall,PA,18052,United States,800-843-2728,40.623882,-75.482476,Sun - Sat,,0
COLS 24,986,904 HEBRON RD,,HEATH,OH,43056,United States,800-843-2728,40.0269244,-82.4451794,Sun - Thu 6:00AM - 10:00PM;Friday 6:00AM - 3:00AM;Saturday 6:00AM - 12:00AM,,0
COLS 30,1223,2125 SCHORRWAY DR,,LANCASTER,OH,43130,United States,800-843-2728,39.735288,-82.626596,Sun - Thu 6:00AM - 11:00PM;Friday 6:00AM - 3:00AM;Saturday 6:00AM - 12:00AM,,0
COLS 29,1204,6791 E BROAD ST,,COLUMBUS,OH,43213,United States,800-843-2728,39.981191,-82.823005,Sun - Sat,,0
COLS 15,979,1080 S HAMILTON RD,,COLUMBUS,OH,43227,United States,800-843-2728,39.95458,-82.876565,Sun - Sat,,0
COLS 39,1328,3751 S. Hamilton Road,,Columbus,OH,43232,United States,800-843-2728,39.9012099,-82.8819931,Sun - Sat,,0
COLS 43,1338,648 North State Street,,Westerville,OH,43082,United States,800-843-2728,40.1423834,-82.9267624,Sun - Thu 6:00AM - 10:00PM;Fri - Sat 6:00AM - 12:00AM,,0
COLS 32,1232,7120 US RT 37,,Sunbury,OH,43074,United States,800-843-2728,40.2669168,-82.9371079,Sun - Sat 6:00AM - 11:00PM,,0
COLS 22,984,1025 ALUM CREEK DR,,COLUMBUS,OH,43209,United States,800-843-2728,39.9469489,-82.945741,Sun - Sat,,0
COLS 14,978,1435 DUBLIN-GRANVILLE RD,,COLUMBUS,OH,43229,United States,800-843-2728,40.086811,-82.978192,Sun - Sat,,0
COLS 21,983,801 E FIFTH AVE,,COLUMBUS,OH,43201,United States,800-843-2728,39.9859201,-82.9833006,Sun - Sat,,0
COLS 31,1230,24599 US RT. 23 S,,CIRCLEVILLE,OH,43113,United States,800-843-2728,39.5725551,-82.9531739,Sun - Sat 6:00AM - 11:00PM,,0
COLS 12,976,1111 S HIGH ST,,COLUMBUS,OH,43206,United States,800-843-2728,39.939194,-82.996667,Sun - Sat,,0
COLS 34,1272,3615 S. High Street,,Columbus,OH,43207,United States,800-843-2728,39.888448,-82.9986267,Sun - Sat,,0
COLS 35,1274,8787 Owenfield Drive,,Powell,OH,43035,United States,800-843-2728,40.1635901,-83.0203466,Sunday 7:00AM - 11:00PM;Mon - Sat 6:00AM - 11:00PM,,0
DETR 25,1002,27760 23-MILE RD,,NEW BALTIMORE,MI,48051,United States,800-843-2728,42.674023,-82.83008,Sun - Sat,,0
COLS 25,987,1555 W BROAD ST,,COLUMBUS,OH,43222,United States,800-843-2728,39.9569661,-83.0412519,Sun - Sat,,0
COLS 17,980,4525 KENNY RD,,COLUMBUS,OH,43220,United States,800-843-2728,40.052658,-83.0502633,Sun - Sat,,0
COLS 42,1335,1000 N. Bridge Street,,Chillicothe,OH,45607,United States,800-843-2728,39.3518666,-82.9765675,Sun - Sat 6:00AM - 11:00PM,,0
COLS 23,985,1620 STRINGTOWN RD,,GROVE CITY,OH,43123,United States,800-843-2728,39.8791129,-83.0459432,Sun - Sat,,0
DETR 59,1279,16737 Harper Avenue,,Detroit,MI,48224,United States,800-843-2728,42.4142132,-82.9400513,Sun - Sat,,0
CHIC 36,916,6059 S LAGRANGE RD,,COUNTRYSIDE,IL,60525,United States,800-843-2728,41.7796221,-87.8676215,Sun - Sat,,0
NASH 09,1220,3060 WILMA RUDOLPH BLVD,,CLARKSVILLE,TN,37040,United States,800-843-2728,36.5943099,-87.2890012,Sunday 8:00AM - 1:00AM;Mon - Thu 7:00AM - 1:00AM;Friday 7:00AM - 3:00AM;Saturday 7:00AM - 12:00AM,,0
CHIC 22,903,10339 W GRAND AVE,,FRANKLIN PARK,IL,60131,United States,800-843-2728,41.9302374,-87.8836977,Sun - Sat,,0
CHIC 89,1273,12640 West 143rd Street,,Homer Glen,IL,60491,United States,800-843-2728,41.62964,-87.927192,Sun - Wed 7:00AM - 2:00AM;Thursday 7:00AM - 12:00AM;Fri - Sat,,0
CHIC 97,1301,3001 West Belvidere Road,,WAUKEGAN,IL,60085,United States,800-843-2728,42.348876,-87.874678,Sun - Thu 7:00AM - 12:00AM;Friday 7:00AM - 3:00AM;Saturday 7:00AM - 12:00AM,,0
Walgreens,47852,114 Beverley Rd,,Brooklyn,NY,11218,United States,800-843-2728,40.642719,-73.979092,,,0
Walgreens,49170,2325 Flatbush Ave,,Brooklyn,NY,11234,United States,800-843-2728,40.613346,-73.926322,,,0
CHIC 110,1359,401 E.Lincoln Highway,,New Lenox,IL,60451,United States,800-843-2728,41.5123647,-87.9575328,Sun - Wed 7:00AM - 2:00AM;Thu - Fri 7:00AM - 4:00AM;Saturday 7:00AM - 12:00AM,,0
CHIC 111,1365,1800 Oakton Street,,Elk Grove Village,IL,60007,United States,800-843-2728,42.0229467,-87.9591304,Sunday 12:00AM - 2:00AM;Mon - Wed 7:00AM - 2:00AM;Thursday 7:00AM - 3:00AM;Friday 7:00AM - 12:00AM;Saturday,,0
CHIC 38,917,306 W NORTH AVE,,VILLA PARK,IL,60181,United States,800-843-2728,41.9056993,-87.9871745,Sunday;Mon - Thu 6:00AM - 12:00AM;Fri - Sat,,0
CHIC 52,931,1204 75TH ST,,DOWNERS GROVE,IL,60516,United States,800-843-2728,41.7527185,-88.0132782,Sun - Thu 7:00AM - 1:00AM;Friday 7:00AM - 12:00AM;Saturday,,0
CHIC 62,941,6290 GRAND AVE,,GURNEE,IL,60031,United States,800-843-2728,42.3844976,-87.9571408,Sunday 9:00AM - 12:00AM;Mon - Thu 8:00AM - 12:00AM;Friday 8:00AM - 3:00AM;Saturday 8:00AM - 12:00AM,,0
CHIC 77,1218,4 E Roosevelt RD,,Lombard,IL,60148,United States,800-843-2728,41.860439,-88.01694,Sun - Thu 6:00AM - 2:00AM;Friday 6:00AM - 12:00AM;Saturday,,0
CHIC 82,1237,11730 75TH ST,,KENOSHA,WI,53142,United States,800-843-2728,42.5680913,-87.9484755,Sun - Thu 7:00AM - 12:00AM;Friday 7:00AM - 3:00AM;Saturday 7:00AM - 12:00AM,,0
CHIC 107,1334,1158 E. Dundee Road,,Palatine,IL,60074,United States,800-843-2728,42.1395829,-88.0159354,Sunday 9:00AM - 12:00AM;Mon - Thu 8:00AM - 12:00AM;Friday 8:00AM - 4:00AM;Saturday 8:00AM - 12:00AM,,0
CHIC 86,1249,2110 Army Trail Road,,Addison,IL,60101    ,United States,800-843-2728,41.9332686,-88.0430751,Sun - Sat,,0
CHIC 47,926,120 S BOLINGBROOK DR,,BOLINGBROOK,IL,60440,United States,800-843-2728,41.6980001,-88.0677728,Sun - Thu 7:00AM - 3:00AM;Friday 7:00AM - 12:00AM;Saturday,,0
Gristedes,281395,686 North Main St,,Roosevelt Island,NY,10044,United States,800-843-2728,40.7615112,-73.9486468,,,0
Gristedes,111759,1446 Second Ave & 75th Street,,New York,NY,10021,United States,800-843-2728,40.7707458,-73.9569545,,,0
Gristedes,111763,1365 3rd Ave & 78th St,,New York,NY,10075,United States,800-843-2728,40.7736101,-73.9577781,,,0
Walgreens,44691,2101 Church Ave,,Brooklyn,NY,11226,United States,800-843-2728,40.65030918,-73.95984158,,,0
Gristedes,281394,40-42 East End Ave 7 81st St,,New York,NY,10028,United States,800-843-2728,40.7781727,-73.9619406,,,0
CVS,1151,1251 Nostrand Avenue,,Brooklyn,NY,11225,United States,800-843-2728,40.6564438,-73.9499915,,,0
Gristedes,111769,504 Columbus Ave & 84th St,,New York,NY,10024,United States,800-843-2728,40.785167E 19,1054,7400 DIXIE HWY,,LOUISVILLE,KY,40258,United States,800-843-2728,38.143134,-85.8404,Sun - Sat,,0
LVLE 14,1050,1701 E SPRING ST,,NEW ALBANY,IN,47150,United States,800-843-2728,38.293151,-85.806994,Sun - Sat,,0
LVLE 13,1049,3701 7TH STREET,,LOUISVILLE,KY,40216,United States,800-843-2728,38.196314,-85.799544,Sun - Sat,,0
LVLE 11,1048,1922 S 7TH ST,,LOUISVILLE,KY,40208,United States,800-843-2728,38.220506,-85.7772413,Sun - Sat,,0
LVLE 32,1228,4023 E. U.S. Rt. 31,,Clarksville,IN,47129    ,United States,800-843-2728,38.3222125,-85.7516937,Sun - Sat,,0
NASH 08,1215,2206 OLD FORT PKY,,MURFREESBORO,TN,37129,United States,800-843-2728,35.8479265,-86.4307855,Sun - Thu 8:00AM - 12:00AM;Friday 8:00AM - 2:00AM;Saturday 8:00AM - 12:00AM,,0
LVLE 15,1051,700 W BROADWAY,,LOUISVILLE,KY,40202,United States,800-843-2728,38.246059,-85.763637,Sun - Sat,,0
LVLE 07,1046,105 E. Market St.,,LOUISVILLE,KY,40202,United States,800-843-2728,38.2548754,-85.7512879,Sun - Sat,,0
LVLE 31,1226,5520 NATIONAL TPKE,,LOUISVILLE,KY,40214,United States,800-843-2728,38.1512703,-85.7643334,Sun - Sat,,0
LVLE 20,1055,1608 E 10TH ST,,JEFFERSONVILLE,IN,47130,United States,800-843-2728,38.2958394,-85.7262196,Sun - Sat,,0
LVLE 10,1047,793 EASTERN PKY,,LOUISVILLE,KY,40217,United States,800-843-2728,38.2147035,-85.742934,Sun - Sat,,0
LVLE 27,1061,2006 N MULBERRY ST,,ELIZABETHTOWN,KY,42701,United States,800-843-2728,37.7147579,-85.8275727,Sun - Sat,,0
LVLE 30,1205,2711 Fern Valley Road,,Louisville,KY,40213    ,United States,800-843-2728,38.1577729,-85.7147359,Sun - Sat,,0
DETR 58,1278,17739 Grand River,,DETROIT,MI,48227,United States,800-843-2728,42.399962,-83.217157,Sun - Sat,,0
DETR 24,1001,30105 PLYMOUTH RD,,LIVONIA,MI,48150,United States,800-843-2728,42.3673602,-83.3365386,Sunday;Mon - Fri 6:00AM - 12:00AM;Saturday,,0
DETR 37,1014,24000 SCHOOLCRAFT,,REDFORD,MI,48239,United States,800-843-2728,42.386201,-83.277032,Sun - Sat,,0
DETR 13,992,20703 GRATIOT AVE,,EASTPOINTE,MI,48021,United States,800-843-2728,42.450397,-82.9682179,Sun - Sat,,0
DETR 41,1018,6711 E 8 MILE RD,,WARREN,MI,48091,United States,800-843-2728,42.448707,-83.033918,Sun - Sat,,0
DETR 26,1003,3953 PACKARD RD,,ANN ARBOR,MI,48108,United States,800-843-2728,42.246007,-83.6815589,Sun - Sat,,0
DETR 11,990,21400 WOODWARD AVE,,FERNDALE CITY,MI,48220,United States,800-843-2728,42.4495009,-83.1265302,Sun - Sat,,0
CINC 67,1311,4010 Williams Drive,,CINCINNATI,OH,45255,United States,800-843-2728,39.0694621,-84.3025976,Sun - Sat,,0
DETR 38,1015,20409 JAMES COUZENS,,DETROIT,MI,48235,United States,800-843-2728,42.44187,-83.2007427,Sun - Sat,,0
DETR 22,999,26900 GRATIOT AVE,,ROSEVILLE,MI,48066,United States,800-843-2728,42.49358,-82.938051,Sun - Sat,,0
CINC 11,949,8853 READING RD,,READING,OH,45215,United States,800-843-2728,39.2221199,-84.441757,Sun - Sat,,0
CINC 26,957,11575 SPRINGFIELD PIKE,,SPRINGDALE,OH,45246,United States,800-843-2728,39.2858728,-84.4853372,Sun - Sat,,0
CINC 70,1347,851 High Street,,Hamilton,OH,45011,United States,800-843-2728,39.3964268,-84.5519286,Sun - Sat,,0
CINC 61,1271,5590 Dixie Highway,,HAMILTON,OH,45014,United States,800-843-2728,39.3330832,-84.5217673,Sun - Sat,,0
CINC 57,1252,3410 Highland Ave.,,Cincinnati,OH,45213    ,United States,800-843-2728,39.170888,-84.421912,Sun - Wed 6:00AM - 11:00PM;Thu - Sat,,0
DETR 33,1010,28130 W 8 MILE RD,,FARMINGTON,MI,48336,United States,800-843-2728,42.4421989,-83.3237509,Sun - Sat,,0
DETR 35,1012,23000 TELEGRAPH RD,,SOUTHFIELD,MI,48034,United States,800-843-2728,42.457914,-83.277655,Sun - Sat,,0
DETR 17,994,28840 DEQUINDRE RD,,WARREN,MI,48092,United States,800-843-2728,42.5045472,-83.0851641,Sun - Sat,,0
DETR 56,1262,26500 Greenfield Rd.,,Oak Park,MI,48237    ,United States,800-843-2728,42.485717,-83.201609,Sun - Sat,,0
DETR 30,1007,31803 VAN DYKE AVE,,WARREN,MI,48092,United States,800-843-2728,42.5264692,-83.0295651,Sun - Sat,,0
CINC 24,955,5075 MONTGOMERY RD,,NORWOOD,OH,45212,United States,800-843-2728,39.16725,-84.45355,Sun - Sat,,0
CINC 45,1171,7400 VINE ST,,CINCINNATI,OH,45216,United States,800-843-2728,39.19699,-84.476848,Sun - Sat,,0
DETR 55,1240,3135 W 13 MILE RD,,ROYAL OAK,MI,48073,United States,800-843-2728,42.517531,-83.183176,Sun - Sat,,0
DETR 32,1009,36850 GROESBECK HWY,,MT. CLEMENS,MI,48043,United States,800-843-2728,42.567819,-82.91244,Sun - Sat,,0
CINC 42,971,923 N BEND RD,,CINCINNATI,OH,45224,United States,800-843-2728,39.2010409,-84.521299,Sun - Sat,,0
DETR 23,1000,2930 JOHN R. RD,,TROY,MI,48084,United States,800-843-2728,42.562485,-83.107674,Sun - Sat,,0
CINC 54,1231,7315 HAMILTON AVE,,CINCINNATI,OH,45231,United States,800-843-2728,39.2279046,-84.5486483,Sun - Sat,,0
CINC 60,1270,64 W. Mitchell,,Cincinnati,OH,45217,United States,800-843-2728,39.1616456,-84.5064635,Sun - Sat,,0
CINC 46,1182,5801   National RD E,,RICHMOND,IN,47374,United States,800-843-2728,39.832424,-84.82264,Sun - Thu 9:00AM - 10:00PM;Fri - Sat 9:00AM - 11:00PM,,0
CINC 16,950,2650 READING RD,,CINCINNATI,OH,45206,United States,800-843-2728,39.1286968,-84.4984963,Sun - Sat,,0
CINC 25,956,9740 COLERAIN AVE,,COLERAIN TWP,OH,45251,United States,800-843-2728,39.248487,-84.595882,Sun - Sat,,0
CINC 41,970,1811 MONMOUTH ST,,NEWPORT,KY,41071,United States,800-843-2728,39.0803076,-84.4810046,Mon - Wed 6:00AM - 11:00PM;Thursday 6:00AM - 12:00AM;Fri - Sat,,0
CINC 18,952,3940 LUDLOW AVE,,CINCINNATI,OH,45223,United States,800-843-2728,39.1579854,-84.5387687,Sun - Sat,,0
CINC 62,1284,125 Plaza Drive,,Cold Spring,KY,41076,United States,800-843-2728,39.0031864,-84.4250391,Sun - Sat,,0
CINC 19,953,1 W 5TH ST,,NEWPORT,KY,41071,United States,800-843-2728,39.0916094,-84.4961719,Sun - Sat,,0
CINC 39,968,3030 CENTRAL PARKWAY,,CINCINNATI,OH,45225,United States,800-843-2728,39.1389616,-84.5325973,Sun - Sat,,0
DETR 65,1354,20295 Hall Road,,Macomb,MI,48044,United States,800-843-2728,42.629637,-82.919937,Sun - Sat,,0
CINC 64,1292,811 West 8th Street,,CINCINNATI,OH,45203,United States,800-843-2728,39.103259,-84.529047,Sun - Sat,,0
CINC 44,973,596 3RD ST,,COVINGTON,KY,41011,United States,800-843-2728,39.0877416,-84.5196935,Sun - Sat,,0
CINC 66,1310,5404 North Bend Road,,CINCINNATI,OH,45247,United States,800-843-2728,39.1880949,-84.60151,Sun - Thu 6:00AM - 10:00PM;Fri - Sat,,0
DETR 25,1002,27760 23-MILE RD,,NEW BALTIMORE,MI,48051,United States,800-843-2728,42.674023,-82.83008,Sun - Sat,,0
CINC 17,951,3201 HARRISON AVE,,CINCINNATI,OH,45211,United States,800-843-2728,39.153613,-84.603206,Sun - Sat,,0
DETR 64,1346,12245 23 Mile Road,,Shelby Township,MI,48315,United States,800-843-2728,42.67054,-83.00774,Sun - Sat,,0
CINC 68,1315,482 Orphanage Road,,Ft. Wright,KY,41017,United States,800-843-2728,39.0324765,-84.5370643,Sun - Sat,,0
CINC 65,1294,6517 Harrison Avenue,,Cincinnati,OH,45247,United States,800-843-2728,39.1927656,-84.6597352,Sun - Wed 6:00AM - 11:00PM;Thu - Sat,,0
DETR 47,1208,335 MARTIN LUTHER KING BLVD,,PONTIAC,MI,48342,United States,800-843-2728,42.6473609,-83.271079,Sun - Sat,,0
CINC 53,1214,5301 DELHI PIKE,,DELHI,OH,45238,United States,800-843-2728,39.0937624,-84.6191693,Mon - Wed 6:00AM - 11:00PM;Thursday 6:00AM - 12:00AM;Fri - Sat,,0
CINC 43,972,3150 DIXIE HWY,,ERLANGER,KY,41018,United States,800-843-2728,39.020447,-84.593154,Sun - Sat,,0
CINC 48,1185,10910   NEW HAVEN RD  ,,HARRISON,OH,45030,United States,800-843-2728,39.25925,-84.800289,Sun - Sat,,0
CINC 27,958,8101 U.S. 42,,FLORENCE,KY,41042,United States,800-843-2728,38.9822793,-84.6453202,Sun - Sat,,0
ens,38815,79 W Monroe St,,Chicago,IL,60603,United States,800-843-2728,41.880599,-87.630699,,,0
CVS,5565,137 South State Street,,Chicago,IL,60603,United States,800-843-2728,41.879719,-87.62727,,,0
CVS,2288,520 South  State Street,,Chicago,IL,60605,United States,800-843-2728,41.8752484,-87.6279351,,,0
CVS,1409,175 West Jackson Boulevard,,Chicago,IL,60604,United States,800-843-2728,41.8778959,-87.6333337,,,0
CVS,5321,120 South Lasalle Street,,Chicago,IL,60603,United States,800-843-2728,41.8803113,-87.6327099,,,0
Walgreens,34488,200 W Adams St,,Chicago,IL,60606,United States,800-843-2728,41.87940671,-87.63401786,,,0
CVS,2010,105 South Wabash Avenue,,Chicago,IL,60603,United States,800-843-2728,41.8806489,-87.6261243,,,0
CVS,12121,105 South Wabash Avenue,,Chicago,IL,60603,United States,800-843-2728,41.880376,-87.6257587,,,0
Walgreens,41977,15 W Washington St,,Chicago,IL,60602,United States,800-843-2728,41.883056,-87.628635,,,0
Walgreens,49609,122 S. Michigan Ave,,Chicago,IL,60603,United States,800-843-2728,41.87971934,-87.62462083,,,0
Walgreens,37141,201 W Madison St,,Chicago,IL,60606,United States,800-843-2728,41.88188255,-87.63392902,,,0
Walgreens,49407,151 N State St,,Chicago,IL,60601,United States,800-843-2728,41.8845429,-87.62780267,,,0
CVS,1465,208 West Washington,,Chicago,IL,60606,United States,800-843-2728,41.883555,-87.634203,,,0
Walgreens,46523,250 S Wacker Dr,,Chicago,IL,60606,United States,800-843-2728,41.87812749,-87.63709139,,,0
Walgreens,43968,30 N Michigan Ave,,Chicago,IL,60602,United States,800-843-2728,41.88318097,-87.62453715,,,0
Walgreens,43514,191 N Clark St,,Chicago,IL,60601,United States,800-843-2728,41.88560119,-87.63076082,,,0
CVS,2766,205 N. Michigan Avenue,,Chicago,IL,60601,United States,800-843-2728,41.8859105,-87.6235523,,,0
CVS,3533,130 South Canal Street,,Chicago,IL,60606,United States,800-843-2728,41.8795426,-87.6398937,,,0
Walgreens,34216,300 N Michigan Ave,,Chicago,IL,60601,United States,800-843-2728,41.886999,-87.624699,,,0
CVS,5566,400 West Madison Street,,Chicago,IL,60606,United States,800-843-2728,41.8826167,-87.6393735,,,0
CVS,15799,400 West Madison Street,,Chicago,IL,60606,United States,800-843-2728,41.882678,-87.639353,,,0
Walgreens,42241,2 E Roosevelt Rd,,Chicago,IL,60605,United States,800-843-2728,41.867291,-87.626941,,,0
CVS,22753,205 North Columbus Drive,,Chicago,IL,60601,United States,800-843-2728,41.8856536,-87.6204694,,,0
CVS,389,101 North Clinton Street,,Chicago,IL,60661,United States,800-843-2728,41.883464,-87.6408881,,,0
CVS,5721,225 North Columbus,,Chicago,IL,60601,United States,800-843-2728,41.8865654,-87.6204766,,,0
Walmart,269584,570 W Monroe St,,Chicago,IL,60661,United States,800-843-2728,41.8807625,-87.6424263,,,0
Walgreens,49686,410 N. Michigan,,Chicago,IL,60611,United States,800-843-2728,41.88998586,-87.62443082,,,0
CVS,11810,"344 West Hubbard Street, Corner Of Orleans",,Chicago,IL,60654,United States,800-843-2728,41.8899455,-87.636964,,,0
CVS,2057,121 West Kinzie Street,,Chicago,IL,60610,United States,800-843-2728,41.8927447,-87.6294379,,,0
Walgreens,37320,501 W Roosevelt Rd,,Chicago,IL,60607,United States,800-843-2728,41.866799,-87.639599,,,0
Walgreens,34781,641 N Clark St,,Chicago,IL,60654,United States,800-843-2728,41.893499,-87.630899,,,0
Walgreens,38170,111 S Halsted St,,Chicago,IL,60661,United States,800-843-2728,41.880299,-87.646699,,,0
Walgreens,34466,342 E Illinois St,,Chicago,IL,60611,United States,800-843-2728,41.891072,-87.617701,,,0
Walgreens,49692,259 E Erie St,,Chicago,IL,60611,United States,800-843-2728,41.89401081,-87.62049938,,,0
Walgreens,49558,"251 E Huron Street, Suite 2B114",,Chicago,IL,60611,United States,800-843-2728,41.89499151,-87.62150867,,,0
Walgreens,34024,757 N Michigan Ave,,Chicago,IL,60611,United States,800-843-2728,41.89665694,-87.62406876,,,0
Walgreens,48588,315 W Chicago Ave,,Chicago,IL,60654,United States,800-843-2728,41.896319,-87.636896,,,0
Walgreens,49319,680 N Lake Shore Dr,,Chicago,IL,60611,United States,800-843-2728,41.89443937,-87.61748686,,,0
Walgreens,42945,933 N State St,,Chicago,IL,60610,United States,800-843-2728,41.899966,-87.62833,,,0
CHIC 63,942,2140 S WABASH AVE,,CHICAGO,IL,60616,United States,800-843-2728,41.8531017,-87.6259672,Sun - Sat,,0
Walgreens,37796,316 W Cermak Rd,,Chicago,IL,60616,United States,800-843-2728,41.853189,-87.635159,,,0
CVS,5564,1165 North Clark Street,,Chicago,IL,60610,United States,800-843-2728,41.9037138,-87.6309723,,,0
Walgreens,34219,1200 N Dearborn St,,Chicago,IL,60610,United States,800-843-2728,41.904099,-87.630199,,,0
CVS,1497,1201 North State Street,,Chicago,IL,60610,United States,800-843-2728,41.9041314,-87.6282887,,,0
CVS,2778,1211 West Roosevelt Road,,Chicago,IL,60608,United States,800-843-2728,41.8667035,-87.6569573,,,0
CVS,5579,771 North Ogden Avenue,,Chicago,IL,60622,United States,800-843-2728,41.895935,-87.654148,,,0
Walgreens,34030,1601 N Wells St,,Chicago,IL,60614,United States,800-843-2728,41.91140402,-87.63447176,,,0
CVS,5424,2545 Martin Luther King,,Chicago,IL,60606,United States,800-843-2728,41.8461657,-87.6173055,,,0
Walgreens,49285,711 W North Ave Ste 204,,Chicago,IL,60610,United States,800-843-2728,41.9108229,-87.64664636,,,0
CVS,12123,1714 North Sheffield Avenue,,Chicago,IL,60614,United States,800-843-2728,41.9109364,-87.6532502,,,0
CHIC 64,943,3457 S KING DR,,CHICAGO,IL,60616,United States,800-843-2728,41.8315148,-87.6163667,Sun - Sat,,0
CHIC 54,933,3205 S ASHLAND AVE,,CHICAGO,IL,60608,United States,800-843-2728,41.8351004,-87.6651706,Sun - Sat,,0
CHIC 70,948,2356 W Roosevelt Rd.,,CHICAGO,IL,60608,United States,800-843-2728,41.8669018,-87.6856992,Sun - Sat,,0
CHIC 76,1203,1550-58 W GARFIELD BLVD,,CHICAGO,IL,60609,United States,800-843-2728,41.79431,-87.664138,Sun - Sat,,0
CHIC 23,904,3212 W ADDISON ST,,CHICAGO,IL,60618,United States,800-843-2728,41.946896,-87.708423,Sun - Sat,,0
CHIC 90,1280,6646 South Halsted Street,,CHICAGO,IL,60621,United States,800-843-2728,41.77291,-87.644964,Sun - Sat,,0
CHIC 59,938,2209 S CICERO AVE,,CICERO,IL,60804,United States,800-843-2728,41.8502529,-87.743843,Sun - Sat,,0
CHIC 57,936,6901 S. Western Ave.,,CHICAGO,IL,60636,United States,800-843-2728,41.7681441,-87.6826141,Sun - Sat,,0
CHIC 61,940,5940 N RIDGE AVE,,CHICAGO,IL,60626,United States,800-843-2728,41.9979535,-87.6768519,Sun - Sat,,0
CHIC 53,932,1400 W 79TH ST,,CHICAGO,IL,60620,United States,800-843-2728,41.750716,-87.65889,Sun - Sat,,0
CHIC 25,906,5618 W NORTH AVE,,CHICAGO,IL,60639,United States,800-843-2728,41.90967,-87.766355,Sun - Sat,,0
CHIC 26,907,4750 W 63RD ST,,CHICAGO,IL,60629,United States,800-843-2728,41.7787795,-87.7415324,Sun - Sat,,0
CHIC 24,905,7912 S PULASKI RD,,CHICAGO,IL,60652,United States,800-843-2728,41.7489682,-87.722195,Sun - Sat,,0
CHIC 55,934,9450 S JEFFERY AVE,,CHICAGO,IL,60617,United States,800-843-2728,41.7236337,-87.5753837,Sun - Sat,,0
CHIC 46,925,2555 W 95TH ST,,EVERGREEN PARK,IL,60805,United States,800-843-2728,41.720592,-87.6875,Sun - Sat,,0
CHIC 58,937,10301 S MICHIGAN AVE,,CHICAGO,IL,60628,United States,800-843-2728,41.7071995,-87.6201917,Sun - Sat,,0
CHIC 19,900,7155 W OGDEN AVE,,BERWYN,IL,60402,United States,800-843-2728,41.8240509,-87.8018163,Sun - Sat,,0
CHIC 49,928,11050 S HALSTED,,CHICAGO,IL,60628,United States,800-843-2728,41.6930429,-87.642478,Sun - Sat,,0
CHIC 21,902,3132 N HARLEM AVE,,CHICAGO,IL,60634,United States,800-843-2728,41.9375623,-87.8070053,Sun - Sat,,0
CHIC 20,901,9501 S CICERO AVE,,OAK LAWN,IL,60453,United States,800-843-2728,41.7197149,-87.7401872,Sun - Sat,,0
CHIC 83,1242,211 W. Roosevelt Rd.,,Maywood,IL,60153    ,United States,800-843-2728,41.864669,-87.835531,Sun - Sat,,0
CHIC 29,910,7900 S HARLEM AVE,,BRIDGEVIEW,IL,60455,United States,800-843-2728,41.7476865,-87.8002837,Sun - Sat,,0
CHIC 66,945,840 W NORTH AVE,,MELROSE PARK,IL,60160,United States,800-843-2728,41.9077901,-87.844474,Sun - Sat,,0
CHIC 13,898,12709 S WESTERN AVE.,,BLUE ISLAND,IL,60406,United States,800-843-2728,41.66207,-87.679757,Sun - Sat,,0
CHIC 79,1229,7550 N HARLEM AVE,,CHICAGO,IL,60631,United States,800-843-2728,42.0182017,-87.8066334,Sun - Sat,,0
CHIC 103,1318,12156 South Cicero Avenue,,Alsip,IL,60803,United States,800-843-2728,41.6711472,-87.7394551,Sun - Sat,,0
CHIC 91,1281,10555 Harlem,,Chicago Ridge,IL,60415,United States,800-843-2728,41.6994455,-87.7977364,Sun - Sat,,0
CHIC 36,916,6059 S LAGRANGE RD,,COUNTRYSIDE,IL,60525,United States,800-843-2728,41.7796221,-87.8676215,Sun - Sat,,0
CHIC 22,903,10339 W GRAND AVE,,FRANKLIN PARK,IL,60131,United States,800-843-2728,41.9302374,-87.8836977,Sun - Sat,,0
CHIC 67,946,1400 E SIBLEY BLVD,,DOLTON,IL,60419,United States,800-843-2728,41.623015,-87.581802,Sun - Sat,,0
CHIC 33,913,14700 S CICERO AVE,,MIDLOTHIAN,IL,60445,United States,800-843-2728,41.6248069,-87.737713,Sun - Sat,,0
CHIC 32,912,4632 CALUMET AVE,,HAMMOND,IN,46327,United States,800-843-2728,41.629169,-87.5094359,Sun - Sat,,0
CHIC 65,944,15902 S KEDZIE AVE,,MARKHAM,IL,60428,United States,800-843-2728,41.600477,-87.694985,Sun - Sat,,0
CHIC 44,923,1551 RIVER OAKS DR,,CALUMET CITY,IL,60409,United States,800-843-2728,41.6006178,-87.5610109,Sun - Sat,,0
NEWY 32,1117,136 W ROUTE 59,,NANUET,NY,10954,United States,800-843-2728,41.0987642,-74.0177734,Sun - Sat,,0
NEWY 07,1102,213-17 NORTHERN BLVD,,"BAYSIDE, QUEENS",NY,11361,United States,800-843-2728,40.7605092,-73.7698141,Sun - Sat,,0
NEWY 38,1123,112-11 SPRINGFIELD BLVD,,QUEENS,NY,11429,United States,800-843-2728,40.705207,-73.739475,Sun - Sat,,0
NEWY 09,1103,490 SUNRISE HWY,,LYNBROOK,NY,11563,United States,800-843-2728,40.6554521,-73.6735244,Sun - Sat,,0
NEWY 13,1105,19 HEMPSTEAD TPKE,,WEST HEMPSTEAD,NY,11552,United States,800-843-2728,40.704478,-73.638731,Sun - Sat,,0
NEWJ 31,1099,680 SOMERSET ST,,NEW BRUNSWICK,NJ,08901,United States,800-843-2728,40.4855247,-74.4713196,Sun - Sat,,0
NEWJ 23,1095,5151 STELTON RD,,SOUTH PLAINFIELD,NJ,07080,United States,800-843-2728,40.5480101,-74.4279774,Sun - Sat,,0
NEWJ 46,1370,645 Highway 18,,East Brunswick,NJ,08816,United States,800-843-2728,40.4333851,-74.3880438,Sun - Sat,,0
NEWJ 41,1331,1335 South Avenue,,Plainfield,NJ,07062,United States,800-843-2728,40.632805,-74.397053,Sun - Sat,,0
NEWJ 16,1090,8 Lafayette Road,,METUCHEN,NJ,08840,United States,800-843-2728,40.5473571,-74.3273225,Sun - Sat,,0
NEWJ 15,1089,987 HIGHWAY 9,,SOUTH AMBOY,NJ,08879,United States,800-843-2728,40.4557603,-74.2962604,Sun - Sat,,0
NEWJ 17,1091,2458 ROUTE 22,,UNION,NJ,07083,United States,800-843-2728,40.6893486,-74.2980323,Sun - Sat,,0
NEWJ 42,1352,2077 Rt. 1,,Rahway,NJ,07065,United States,800-843-2728,40.6087655,-74.2596149,Sun - Sat,,0
NEWJ 10,1086,467 CENTRAL AVE,,ORANGE,NJ,07050,United States,800-843-2728,40.7679745,-74.2398621,Sun - Sat,,0
NEWJ 32,1180,220 BROADWAY,,PATERSON,NJ,07510,United States,800-843-2728,40.9187728,-74.1662864,Sun - Sat,,0
NEWJ 20,1093,247 STATE ROUTE 35,,EATONTOWN,NJ,07724,United States,800-843-2728,40.2852809,-74.0503822,Sun - Sat,,0
0459,United States,800-843-2728,40.824261,-73.892856,,,0
Family Dollar Stores,30129,1315 Boston Rd,,Bronx,NY,10456-2552,United States,800-843-2728,40.8313904,-73.9000114,,,0
Walgreens,41406,637 Hoboken Rd,,Carlstadt,NJ,7072,United States,800-843-2728,40.840799,-74.101099,,,0
CVS,3737,1571 Forest Avenue,,Staten Island,NY,10302,United States,800-843-2728,40.6244822,-74.1402687,,,0
CVS,21229,570 Paterson Avenue,,East Rutherford,NJ,07070,United States,800-843-2728,40.8422197,-74.1058831,,,0
Family Dollar Stores,32524,306 Union Ave.,,Rutherford,NJ,07070-1516,United States,800-843-2728,40.8364281,-74.1132788,,,0
Family Dollar Stores,30130,1312 Southern Blvd,,Bronx,NY,10459-1503,United States,800-843-2728,40.8311624,-73.8913732,,,0
Family Dollar Stores,30277,1274 Westchester Ave,,Bronx,NY,10459-2611,United States,800-843-2728,40.8268941,-73.8868768,,,0
ShopRite,113751,375 Paterson Ave.,,Wallington,NJ,7057,United States,800-843-2728,40.8447109,-74.106774,,,0
MPLS 21,1063,505 RICE ST,,ST. PAUL,MN,55102,United States,800-843-2728,44.9563695,-93.106314,Sun - Sat,,0
MPLS 30,1072,1120 UNIVERSITY AVE,,ST. PAUL,MN,55104,United States,800-843-2728,44.955464,-93.1471052,Sun - Sat,,0
MPLS 39,1349,15101 Cedar Avenue,,Apple Valley,MN,55124,United States,800-843-2728,44.730702,-93.218484,Sun - Sat,,0
MPLS 33,1075,329 FIRE MONUMENT RD,,HINCKLEY,MN,55037,United States,800-843-2728,46.0111143,-92.9352449,Sun - Sat,,0
MPLS 29,1071,608 CENTRAL AVE NE,,MINNEAPOLIS,MN,55414,United States,800-843-2728,44.9899338,-93.2520171,Sun - Sat,,0
MPLS 22,1064,9600 LYNDALE AVE S,,BLOOMINGTON,MN,55420,United States,800-843-2728,44.8295282,-93.2892727,Sun - Sat,,0
MPLS 27,1069,5055 CENTRAL AVE NE,,COLUMBIA HEIGHTS,MN,55421,United States,800-843-2728,45.0604504,-93.2469624,Sun - Sat,,0
MPLS 26,1068,100 W LAKE ST,,MINNEAPOLIS,MN,55408,United States,800-843-2728,44.9485822,-93.2800103,Sun - Sat,,0
MPLS 38,1313,8011 Old Carriage Court,,Shakopee,MN,55379,United States,800-843-2728,44.777036,-93.416485,Sun - Wed 10:00AM - 11:00PM;Thu - Fri 10:00AM - 1:00AM;Saturday 10:00AM - 12:00AM,,0
MPLS 28,1070,1111 Cambridge Street,,Hopkins,MN,55343,United States,800-843-2728,44.9348862,-93.3870518,Sun - Sat,,0
MPLS 23,1065,7741 ZANE AVE N,,BROOKLYN PARK,MN,55443,United States,800-843-2728,45.0955346,-93.3569254,Sun - Sat,,0
Family Dollar Stores,21117,1347 Kennedy Blvd,,Bayonne,NJ,07002-2293,United States,800-843-2728,40.6934983,-74.1033499,,,0
Walgreens,48773,9408 3Rd Ave,,Brooklyn,NY,11209,United States,800-843-2728,40.617354,-74.033651,,,0
Walgreens,47910,58-02 Metropolitan Ave.,,Ridgewood,NY,11385,United States,800-843-2728,40.712688,-73.905696,,,0
BJ's Wholesale Club,84316,2100 88th St.,,North Bergen,NJ,07047,United States,800-843-2728,40.8131608,-74.0161876,,,0
Walgreens,48938,1511 86Th St,,Brooklyn,NY,11228,United States,800-843-2728,40.61128881,-74.00907303,,,0
Walmart,268678,2100 88Th St,,North Bergen,NJ,7047,United States,800-843-2728,40.8141061,-74.0135352,,,0
CVS,1613,30-97 Steinway Street,,Astoria,NY,11103,United States,800-843-2728,40.7612359,-73.9165,,,0
CVS,12414,6817 Bay Parkway,,Brooklyn,NY,11204,United States,800-843-2728,40.6112839,-73.9838584,,,0
CVS,3596,6817 Bay Parkway,,Brooklyn,NY,11204,United States,800-843-2728,40.6110761,-73.9838981,,,0
CVS,272,8430 New Utrecht Avenue,,Brooklyn,NY,11214,United States,800-843-2728,40.6083105,-74.001797,,,0
CVS,218,61-15 Metropolitan Ave,,Ridgewood,NY,11385,United States,800-843-2728,40.7129235,-73.9013633,,,0
CVS,1671,130 Lenox Avenue,,New York City,NY,10026,United States,800-843-2728,40.8020993,-73.9492323,,,0
CVS,809,54-06 31st Avenue,,Woodside,NY,11377,United States,800-843-2728,40.756999,-73.9071249,,,0
CVS,1383,4901 Kings Highway,,Brooklyn,NY,11234,United States,800-843-2728,40.6343516,-73.928912,,,0
Walgreens,48281,285 Kings Hwy,,Brooklyn,NY,11223,United States,800-843-2728,40.60526497,-73.98006991,,,0
Walgreens,49040,1612 Westchester Ave,,Bronx,NY,10472,United States,800-843-2728,40.82915331,-73.87507553,,,0
CVS,5746,1688 Westchester Avenue,,Bronx,NY,10472,United States,800-843-2728,40.830186,-73.8710851,,,0
LVLE 11,1048,1922 S 7TH ST,,LOUISVILLE,KY,40208,United States,800-843-2728,38.220506,-85.7772413,Sun - Sat,,0
LVLE 31,1226,5520 NATIONAL TPKE,,LOUISVILLE,KY,40214,United States,800-843-2728,38.1512703,-85.7643334,Sun - Sat,,0
LVLE 14,1050,1701 E SPRING ST,,NEW ALBANY,IN,47150,United States,800-843-2728,38.293151,-85.806994,Sun - Sat,,0
LVLE 13,1049,3701 7TH STREET,,LOUISVILLE,KY,40216,United States,800-843-2728,38.196314,-85.799544,Sun - Sat,,0
INDP 14,1025,6901 PENDLETON PIKE,,INDIANAPOLIS,IN,46226,United States,800-843-2728,39.8260689,-86.047315,Sun - Sat,,0
INDP 21,1029,5440 E 82ND ST,,INDIANAPOLIS,IN,46250,United States,800-843-2728,39.9055755,-86.0763468,Sun - Sat,,0
INDP 40,1174,1801 MARKLAND AVE,,KOKOMO,IN,46901,United States,800-843-2728,40.4766705,-86.1075887,Sun - Sat,,0
LVLE 19,1054,7400 DIXIE HWY,,LOUISVILLE,KY,40258,United States,800-843-2728,38.143134,-85.8404,Sun - Sat,,0
INDP 56,1336,1129 N. Morton Street,,Franklin,IN,46131,United States,800-843-2728,39.491845,-86.063684,Sun - Sat,,0
INDP 25,1033,4520 S EMERSON AVE,,BEECH GROVE,IN,46107,United States,800-843-2728,39.7015074,-86.0832033,Sun - Sat,,0
INDP 28,1036,105 SHEEK RD,,GREENWOOD,IN,46143,United States,800-843-2728,39.614006,-86.076534,Sun - Sat,,0
INDP 22,1030,3210 E WASHINGTON ST,,INDIANAPOLIS,IN,46201,United States,800-843-2728,39.7691553,-86.1098645,Sun - Sat,,0
INDP 31,1039,15005 U.S. 31 N  ,,WESTFIELD,IN,46074,United States,800-843-2728,40.0289024,-86.1343944,Sun - Thu 6:00AM - 11:00PM;Friday 6:00AM - 3:00AM;Saturday 6:00AM - 12:00AM,,0
MPLS 37,1297,3465 124th Ave North,,Coon Rapids,MN,55433,United States,800-843-2728,45.1969947,-93.3538634,Sun - Sat,,0
MPLS 42,1367,9480 Dunkirk Lane North,,Maple Grove,MN,55311,United States,800-843-2728,45.1258564,-93.4903633,Sun - Sat,,0
MPLS 40,1357,3240 Division Street,,St.Cloud,MN,56301,United States,800-843-2728,45.5531796,-94.1975583,Sun - Wed 7:00AM - 11:00PM;Thu - Sat 7:00AM - 12:00AM,,0
VegasExpress,1598,3411 Las Vegas Boulevard South,,Las Vegas,NV,89109,United States,800-843-2728,36.12067,-115.17168,,,0
Aldi,216190,517 East 117th Street,,New York,NY,10035-3552,United States,800-843-2728,40.7953912,-73.9311399,,,0
CVS,3056,2014 Cropsey Avenue,,Brooklyn,NY,11214,United States,800-843-2728,40.5997306,-74.0024181,,,0
CVS,12313,2014 Cropsey Avenue,,Brooklyn,NY,11214,United States,800-843-2728,40.5997066,-74.0026405,,,0
CVS,1016,22-08 31st Street,,Astoria,NY,11105,United States,800-843-2728,40.7760208,-73.9112985,,,0
Walmart,269710,500 Bayonne Crossing Way,,Bayonne,NJ,7002,United States,800-843-2728,40.6598156,-74.1067026,,,0
CVS,3537,69-80 Grand Avenue,,Maspeth,NY,11378,United States,800-843-2728,40.7272115,-73.8928297,,,0
BJ's Wholesale Club,84279,66-26 Metropolitan Ave.,,Middle Village,NY,11379,United States,800-843-2728,40.7113697,-73.8916826,,,0
CVS,1024,"2925 Kings Highway, Corner Of Nostrand Avenue",,Brooklyn,NY,11229,United States,800-843-2728,40.6160543,-73.9448298,,,0
BJ's Wholesale Club,84327,900 Remsen Ave.,,Brooklyn,NY,11236,United States,800-843-2728,40.6463186,-73.912766,,,0
Walgreens,41670,946 Kings Hwy,,Brooklyn,NY,11223,United States,800-843-2728,40.60707083,-73.96203718,,,0
CVS,3748,1125 Bay Street,,Staten Island,NY,10305,United States,800-843-2728,40.6163981,-74.067817,,,0
INDP 36,1044,2368 E 38TH ST,,INDIANAPOLIS,IN,46218,United States,800-843-2728,39.825627,-86.122438,Sun - Sat,,0
LVLE 36,1266,12004 Dixie Highway,,LOUISVILLE,KY,40272,United States,800-843-2728,38.0769725,-85.8841822,Sun - Sat,,0
INDP 41,1176,2165 SHELBY ST,,INDIANAPOLIS,IN,46203,United States,800-843-2728,39.7379943,-86.1394037,Sun - Sat,,0
INDP 11,1023,102 W 16TH ST,,INDIANAPOLIS,IN,46202,United States,800-843-2728,39.78877,-86.1596409,Sun - Sat,,0
INDP 49,1227,55 W SOUTH ST,,INDIANAPOLIS,IN,46225,United States,800-843-2728,39.761126,-86.159683,Sun - Sat,,0
LVLE 27,1061,2006 N MULBERRY ST,,ELIZABETHTOWN,KY,42701,United States,800-843-2728,37.7147579,-85.8275727,Sun - Sat,,0
INDP 35,1043,1414 W THOMPSON RD,,INDIANAPOLIS,IN,46217,United States,800-843-2728,39.692918,-86.185567,Sun - Sat,,0
INDP 45,1193,8740 N MICHIGAN RD,,INDIANAPOLIS,IN,46268,United States,800-843-2728,39.9134144,-86.2233855,Sun - Sat,,0
INDP 32,1040,2820 KENTUCKY AVE,,INDIANAPOLIS,IN,46241,United States,800-843-2728,39.724162,-86.218202,Sunday 12:00AM - 1:00AM;Mon - Thu 6:00AM - 1:00AM;Friday 6:00AM - 12:00AM;Saturday,,0
INDP 19,1027,5301 W WASHINGTON ST,,INDIANAPOLIS,IN,46241,United States,800-843-2728,39.7522586,-86.2509228,Sun - Sat,,0
INDP 20,1028,5501 W 38TH ST,,INDIANAPOLIS,IN,46254,United States,800-843-2728,39.823011,-86.2566219,Sun - Sat,,0
INDP 29,1037,5910 CRAWFORDSVILLE RD,,Indianapolis,IN,46224,United States,800-843-2728,39.798701,-86.264022,Sun - Sat,,0
INDP 37,1045,10705 E U.S. HIGHWAY 36,,Avon,IN,46123,United States,800-843-2728,39.763216,-86.33243,Sun - Sat,,0
CVS,4828,31-01 Ditmars Boulevard,,Astoria,NY,11105,United States,800-843-2728,40.7759242,-73.9103761,,,0
Walgreens,38929,699 Broadway,,Bayonne,NJ,7002,United States,800-843-2728,40.670999,-74.112799,,,0
Walgreens,47854,4915 Flatlands Ave,,Brooklyn,NY,11234,United States,800-843-2728,40.625962,-73.928013,,,0
CVS,11779,72-09 Northern Boulevard,,Jackson Heights,NY,11372,United States,800-843-2728,40.7549511,-73.8944501,,,0
Family Dollar Stores,26441,577 Broadway,,Bayonne,NJ,07002-3830,United States,800-843-2728,40.6670017,-74.1161467,,,0
CVS,189,72-09 Northern Boulevard,,Jackson Heights,NY,11372,United States,800-843-2728,40.754961,-73.894257,,,0
Walgreens,44414,570 Tompkins Ave,,Staten Island,NY,10305,United States,800-843-2728,40.611585,-74.070466,,,0
BJ's Wholesale Club,84320,1752 Shore Parkway,,Brooklyn,NY,11214,United States,800-843-2728,40.59182,-73.998911,,,0
CVS,18165,"220 Schuyler Avenue, Schuyler And Passaic Avenues",,Kearny,NJ,07032,United States,800-843-2728,40.7593718,-74.1181234,,,0
CVS,410,68-02 Myrtle Avenue,,Glendale,NY,11385,United States,800-843-2728,40.701367,-73.884459,,,0
CVS,11835,68-02 Myrtle Avenue,,Glendale,NY,11385,United States,800-843-2728,40.7013965,-73.884404,,,0
ShopRite,113725,583 Avenue C,,Bayonne,NJ,7002,United States,800-843-2728,40.6674243,-74.1192874,,,0
LVLE 35,1260,2430 Landmark Ave.,,Corydon,IN,471122019,United States,800-843-2728,38.2374537,-86.1256292,Sun - Thu 6:00AM - 1:00AM;Friday 6:00AM - 3:30AM;Saturday 6:00AM - 12:00AM,,0
INDP 51,1282,8290 Windfall Lane,,CAMBY,IN,46113,United States,800-843-2728,39.642738,-86.332919,Sun - Sat,,0
INDP 39,1187,5070 CAMBRIDGE WAY,,PLAINFIELD,IN,46168,United States,800-843-2728,39.6779611,-86.3702139,Sun - Sat,,0
INDP 52,1289,630 Birk Road,,MARTINSVILLE,IN,46151,United States,800-843-2728,39.418132,-86.40975,Sunday;Mon - Fri 6:00AM - 11:00PM;Saturday,,0
NASH 11,1269,924 W. Main St.,,GLASGOW,KY,42141,United States,800-843-2728,37.0015643,-85.9257803,Sunday 9:00AM - 2:00AM;Mon - Thu 6:00AM - 2:00AM;Friday 6:00AM - 4:00AM;Saturday 6:00AM - 12:00AM,,0
INDP 33,1041,120 N SAM RALSTON RD,,LEBANON,IN,46052,United States,800-843-2728,40.0466644,-86.487598,Sun - Wed 6:00AM - 11:00PM;Thu - Fri 6:00AM - 1:00AM;Saturday 6:00AM - 12:00AM,,0
INDP 42,1178,4723 MEIJER CT,,LAFAYETTE,IN,47905,United States,800-843-2728,40.4168418,-86.8160664,Sun - Sat,,0
CHIC 73,1192,101 E U.S. 20,,MICHIGAN CITY,IN,46360,United States,800-843-2728,41.679912,-86.893325,Sun - Tue 7:00AM - 2:00AM;Wednesday 7:00AM - 12:00AM;Thu - Sat,,0
NASH 14,1372,3179 Scottsville Road,,Bowling Green,KY,42101,United States,800-843-2728,36.9416316,-86.4213536,Sun - Sat,,0
CHIC 72,1186,153   MORTHLAND DR  ,,VALPARAISO,IN,46383,United States,800-843-2728,41.4586508,-87.0608942,Sun - Wed 7:00AM - 2:00AM;Thursday 7:00AM - 12:00AM;Fri - Sat,,0
CHIC 88,1263,525 Indian Boundary Line Rd.,,CHESTERTON,IN,46304,United States,800-843-2728,41.6166937,-87.0821673,Sun - Thu 7:00AM - 2:00AM;Friday 7:00AM - 12:00AM;Saturday,,0
CHIC 101,1312,7996 East Ridge Road,,HOBART,IN,46342,United States,800-843-2728,41.551106,-87.241182,Sun - Sat,,0
NASH 15,1664,300 Pleasant Grove Rd.,,Mt. Juliet,TN,37122,United States,800-843-2728,36.1790839,-86.516548,Sunday 8:00AM - 10:00PM;Mon - Thu 7:00AM - 10:00PM;Friday 7:00AM - 1:00AM;Saturday 7:00AM - 12:00AM,,0
CHIC 42,921,1 E 81ST AVE,,MERRILLVILLE,IN,46410,United States,800-843-2728,41.4704755,-87.3350042,Sun - Sat,,0
CVS,21113,560 Avenue C,,Bayonne,NJ,07002,United States,800-843-2728,40.66632,-74.119107,,,0
Walgreens,47978,1404 Rockaway Pkwy,,Brooklyn,NY,11236,United States,800-843-2728,40.645286,-73.903262,,,0
Walgreens,44605,7815 Northern Blvd,,Jackson Heights,NY,11372,United States,800-843-2728,40.755287,-73.889481,,,0
CVS,328,2320 Ralph Avenue,,Brooklyn,NY,11234,United States,800-843-2728,40.6213195,-73.9179004,,,0
DETR 11,990,21400 WOODWARD AVE,,FERNDALE CITY,MI,48220,United States,800-843-2728,42.4495009,-83.1265302,Sun - Sat,,0
DETR 23,1000,2930 JOHN R. RD,,TROY,MI,48084,United States,800-843-2728,42.562485,-83.107674,Sun - Sat,,0
DETR 12,991,17431 DIX RD,,MELVINDALES,MI,48122,United States,800-843-2728,42.282912,-83.170446,Sun - Sat,,0
DETR 15,993,2115 FORT ST,,LINCOLN PARK,MI,48146,United States,800-843-2728,42.2486659,-83.1773098,Sun - Sat,,0
CHIC 80,1234,1304 BROADWAY,,GARY,IN,46407,United States,800-843-2728,41.5898482,-87.3374096,Sun - Sat,,0
NASH 10,1253,5805 Old Hickory Boulevard,,Hermitage,TN,37076,United States,800-843-2728,36.1694042,-86.6008874,Sun - Thu 8:00AM - 12:00AM;Friday 8:00AM - 2:00AM;Saturday 8:00AM - 12:00AM,,0
CHIC 43,922,440 W RIDGE RD,,GRIFFITH,IN,46319,United States,800-843-2728,41.5518151,-87.4306121,Sun - Sat,,0
INDP 57,1344,4340 US Highway 41,,TERRE HAUTE,IN,47802,United States,800-843-2728,39.4142069,-87.4152342,Sun - Sat,,0
CHIC 56,935,800 W LINCOLN HWY,,SCHERERVILLE,IN,46375,United States,800-843-2728,41.49115,-87.471504,Sun - Sat,,0
CHIC 30,911,1879 INDIANAPOLIS BLVD,,WHITING,IN,46394,United States,800-843-2728,41.5738687,-87.4801726,Sun - Sat,,0
CHIC 69,947,9600 CALUMET AVE,,MUNSTER,IN,46321,United States,800-843-2728,41.5390915,-87.509748,Sun - Sat,,0
CHIC 34,914,6517 CALUMET AVE,,HAMMOND,IN,46324,United States,800-843-2728,41.5949023,-87.5086241,Sun - Sat,,0
NASH 05,1080,2201 DICKERSON PIKE,,NASHVILLE,TN,37207,United States,800-843-2728,36.2062526,-86.768003,Sun - Thu 7:00AM - 1:00AM;Friday 7:00AM - 4:00AM;Saturday 7:00AM - 12:00AM,,0
CHIC 32,912,4632 CALUMET AVE,,HAMMOND,IN,46327,United States,800-843-2728,41.629169,-87.5094359,Sun - Sat,,0
NASH 03,1078,2901 NOLENSVILLE RD,,NASHVILLE,TN,37211,United States,800-843-2728,36.0724884,-86.7241613,Sun - Sat,,0
NASH 07,1183,1404   BROADWAY    ,,NASHVILLE,TN,37203,United States,800-843-2728,36.155983,-86.790282,Sun - Sat,,0
CHIC 44,923,1551 RIVER OAKS DR,,CALUMET CITY,IL,60409,United States,800-843-2728,41.6006178,-87.5610109,Sun - Sat,,0
DETR 20,997,16795 FORT ST,,SOUTHGATE,MI,48195,United States,800-843-2728,42.1859635,-83.1884497,Sun - Sat,,0
DETR 43,1020,15365 WYOMING AVE,,DETROIT,MI,48238,United States,800-843-2728,42.4037076,-83.1599315,Sun - Sat,,0
DETR 36,1013,20090 WEST RD,,WOODHAVEN,MI,48183,United States,800-843-2728,42.1406667,-83.2269738,Sun - Sat,,0
DETR 40,1017,8811 GREENFIELD AVE,,DETROIT,MI,48228,United States,800-843-2728,42.358496,-83.197371,Sun - Sat,,0
DETR 55,1240,3135 W 13 MILE RD,,ROYAL OAK,MI,48073,United States,800-843-2728,42.517531,-83.183176,Sun - Sat,,0
COLS 41,1342,1090 Lydia Drive,,Marysville,OH,43040,United States,800-843-2728,40.238836,-83.347984,Sun - Sat,,0
DETR 38,1015,20409 JAMES COUZENS,,DETROIT,MI,48235,United States,800-843-2728,42.44187,-83.2007427,Sun - Sat,,0
DETR 58,1278,17739 Grand River,,DETROIT,MI,48227,United States,800-843-2728,42.399962,-83.217157,Sun - Sat,,0
DETR 56,1262,26500 Greenfield Rd.,,Oak Park,MI,48237    ,United States,800-843-2728,42.485717,-83.201609,Sun - Sat,,0
DETR 61,1293,22340 Ecorse,,TAYLOR,MI,48180,United States,800-843-2728,42.2563029,-83.2537377,Sun - Sat,,0
DETR 28,1005,13000 TELEGRAPH RD,,TAYLOR,MI,48180,United States,800-843-2728,42.211477,-83.269536,Sun - Sat,,0
DETR 31,1008,2226 S TELEGRAPH RD,,DEARBORN,MI,48124,United States,800-843-2728,42.2949408,-83.2720131,Sun - Sat,,0
DETR 37,1014,24000 SCHOOLCRAFT,,REDFORD,MI,48239,United States,800-843-2728,42.386201,-83.277032,Sun - Sat,,0
CHIC 67,946,1400 E SIBLEY BLVD,,DOLTON,IL,60419,United States,800-843-2728,41.623015,-87.581802,Sun - Sat,,0
CHIC 55,934,9450 S JEFFERY AVE,,CHICAGO,IL,60617,United States,800-843-2728,41.7236337,-87.5753837,Sun - Sat,,0
NASH 02,1077,5605 CHARLOTTE AVE,,NASHVILLE,TN,37209,United States,800-843-2728,36.1502788,-86.8572598,Sunday 8:00AM - 12:00AM;Mon - Thu 7:00AM - 12:00AM;Friday 7:00AM - 1:00AM;Saturday 6:00AM - 12:00AM,,0
CHIC 58,937,10301 S MICHIGAN AVE,,CHICAGO,IL,60628,United States,800-843-2728,41.7071995,-87.6201917,Sun - Sat,,0
CHIC 64,943,3457 S KING DR,,CHICAGO,IL,60616,United States,800-843-2728,41.8315148,-87.6163667,Sun - Sat,,0
CHIC 41,920,18250 S HALSTED ST,,HOMEWOOD,IL,60430,United States,800-843-2728,41.5583035,-87.6361733,Sun - Sat,,0
CHIC 63,942,2140 S WABASH AVE,,CHICAGO,IL,60616,United States,800-843-2728,41.8531017,-87.6259672,Sun - Sat,,0
CHIC 49,928,11050 S HALSTED,,CHICAGO,IL,60628,United States,800-843-2728,41.6930429,-87.642478,Sun - Sat,,0
DETR 35,1012,23000 TELEGRAPH RD,,SOUTHFIELD,MI,48034,United States,800-843-2728,42.457914,-83.277655,Sun - Sat,,0
DETR 53,1241,27325 FORD RD,,DEARBORN HEIGHTS,MI,48127,United States,800-843-2728,42.3258132,-83.310987,Sun - Sat,,0
DETR 24,1001,30105 PLYMOUTH RD,,LIVONIA,MI,48150,United States,800-843-2728,42.3673602,-83.3365386,Sunday;Mon - Fri 6:00AM - 12:00AM;Saturday,,0
DETR 33,1010,28130 W 8 MILE RD,,FARMINGTON,MI,48336,United States,800-843-2728,42.4421989,-83.3237509,Sun - Sat,,0
DETR 34,1011,32925 MICHIGAN AVE,,WAYNE,MI,48184,United States,800-843-2728,42.2826461,-83.3637348,Sun - Sat,,0
DETR 21,998,41205 FORD RD,,CANTON,MI,48188,United States,800-843-2728,42.3224525,-83.4468587,Sun - Sat,,0
DETR 26,1003,3953 PACKARD RD,,ANN ARBOR,MI,48108,United States,800-843-2728,42.246007,-83.6815589,Sun - Sat,,0
CINC 58,1261,1902 N. Bechtle Ave.,,Springfield,OH,45504    ,United States,800-843-2728,39.950996,-83.8311497,Sun - Thu 8:00AM - 10:00PM;Fri - Sat 8:00AM - 11:00PM,,0
DETR 62,1309,4250 Corunna Road,,FLINT,MI,48532,United States,800-843-2728,43.0025819,-83.762647,Sun - Sat 10:00AM - 10:00PM,,0
CINC 72,1360,614 Corwin Nixon Boulevard,,South Lebanon,OH,45065,United States,800-843-2728,39.3778868,-84.2229124,Sun - Sat,,0
CINC 63,1288,5201 Salem Bend,,TROTWOOD,OH,45426,United States,800-843-2728,39.8201909,-84.2819269,Sun - Wed 7:00AM - 11:00PM;Thu - Fri 7:00AM - 3:00AM;Saturday 7:00AM - 12:00AM,,0
CINC 52,1210,6901 SR 123,,FRANKLIN,OH,45005,United States,800-843-2728,39.5418707,-84.2917761,Sun - Thu 7:00AM - 11:00PM;Fri - Sat 7:00AM - 12:00AM,,0
CINC 38,967,864 EASTGATE SOUTH DR,,CINCINNATI,OH,45245,United States,800-843-2728,39.0943305,-84.2634823,Sun - Sat,,0
CHIC 90,1280,6646 South Halsted Street,,CHICAGO,IL,60621,United States,800-843-2728,41.77291,-87.644964,Sun - Sat,,0
CHIC 39,918,701 W 14TH ST,,CHICAGO HEIGHTS,IL,60411,United States,800-843-2728,41.5060804,-87.6694215,Sun - Sat,,0
CHIC 53,932,1400 W 79TH ST,,CHICAGO,IL,60620,United States,800-843-2728,41.750716,-87.65889,Sun - Sat,,0
CHIC 76,1203,1550-58 W GARFIELD BLVD,,CHICAGO,IL,60609,United States,800-843-2728,41.79431,-87.664138,Sun - Sat,,0
CHIC 54,933,3205 S ASHLAND AVE,,CHICAGO,IL,60608,United States,800-843-2728,41.8351004,-87.6651706,Sun - Sat,,0
CHIC 13,898,12709 S WESTERN AVE.,,BLUE ISLAND,IL,60406,United States,800-843-2728,41.66207,-87.679757,Sun - Sat,,0
CHIC 57,936,6901 S. Western Ave.,,CHICAGO,IL,60636,United States,800-843-2728,41.7681441,-87.6826141,Sun - Sat,,0
CHIC 65,944,15902 S KEDZIE AVE,,MARKHAM,IL,60428,United States,800-843-2728,41.600477,-87.694985,Sun - Sat,,0
CHIC 46,925,2555 W 95TH ST,,EVERGREEN PARK,IL,60805,United States,800-843-2728,41.720592,-87.6875,Sun - Sat,,0
CHIC 70,948,2356 W Roosevelt Rd.,,CHICAGO,IL,60608,United States,800-843-2728,41.8669018,-87.6856992,Sun - Sat,,0
CHIC 61,940,5940 N RIDGE AVE,,CHICAGO,IL,60626,United States,800-843-2728,41.9979535,-87.6768519,Sun - Sat,,0
LVLE 37,1300,6840 Logan Drive,,EVANSVILLE,IN,47714,United States,800-843-2728,37.995436,-87.468169,Sun - Thu 6:00AM - 1:00AM;Friday 6:00AM - 4:00AM;Saturday 6:00AM - 12:00AM,,0
CINC 36,965,9001 FIELDS-ERTEL RD,,CINCINNATI,OH,45249,United States,800-843-2728,39.292184,-84.3128488,Sun - Wed 6:00AM - 1:00AM;Thu - Fri 6:00AM - 3:00AM;Saturday 6:00AM - 12:00AM,,0
CINC 56,1243,4780 Roosevelt Boulevard,,Middletown,OH,45044    ,United States,800-843-2728,39.49973,-84.3470156,Sun - Thu 7:00AM - 11:00PM;Fri - Sat 7:00AM - 12:00AM,,0
CINC 67,1311,4010 Williams Drive,,CINCINNATI,OH,45255,United States,800-843-2728,39.0694621,-84.3025976,Sun - Sat,,0
CINC 71,1348,8111 HIGHLAND POINTE DRIVE,,WEST CHESTER,OH,45069,United States,800-843-2728,39.347891,-84.3942103,Sun - Thu 6:00AM - 11:00PM;Fri - Sat,,0
CINC 29,960,3980 HAUCK RD,,SHARONVILLE,OH,45241,United States,800-843-2728,39.291179,-84.395039,Sun - Sat,,0
CINC 57,1252,3410 Highland Ave.,,Cincinnati,OH,45213    ,United States,800-843-2728,39.170888,-84.421912,Sun - Wed 6:00AM - 11:00PM;Thu - Sat,,0
CINC 11,949,8853 READING RD,,READING,OH,45215,United States,800-843-2728,39.2221199,-84.441757,Sun - Sat,,0
CINC 62,1284,125 Plaza Drive,,Cold Spring,KY,41076,United States,800-843-2728,39.0031864,-84.4250391,Sun - Sat,,0
CINC 24,955,5075 MONTGOMERY RD,,NORWOOD,OH,45212,United States,800-843-2728,39.16725,-84.45355,Sun - Sat,,0
CINC 26,957,11575 SPRINGFIELD PIKE,,SPRINGDALE,OH,45246,United States,800-843-2728,39.2858728,-84.4853372,Sun - Sat,,0
CINC 45,1171,7400 VINE ST,,CINCINNATI,OH,45216,United States,800-843-2728,39.19699,-84.476848,Sun - Sat,,0
CINC 41,970,1811 MONMOUTH ST,,NEWPORT,KY,41071,United States,800-843-2728,39.0803076,-84.4810046,Mon - Wed 6:00AM - 11:00PM;Thursday 6:00AM - 12:00AM;Fri - Sat,,0
CINC 61,1271,5590 Dixie Highway,,HAMILTON,OH,45014,United States,800-843-2728,39.3330832,-84.5217673,Sun - Sat,,0
CHIC 98,1306,21049 S Cicero Rd,,Matteson,IL,60443,United States,800-843-2728,41.5073879,-87.7323129,Sun - Sat,,0
CHIC 24,905,7912 S PULASKI RD,,CHICAGO,IL,60652,United States,800-843-2728,41.7489682,-87.722195,Sun - Sat,,0
CHIC 23,904,3212 W ADDISON ST,,CHICAGO,IL,60618,United States,800-843-2728,41.946896,-87.708423,Sun - Sat,,0
CHIC 33,913,14700 S CICERO AVE,,MIDLOTHIAN,IL,60445,United States,800-843-2728,41.6248069,-87.737713,Sun - Sat,,0
CHIC 103,1318,12156 South Cicero Avenue,,Alsip,IL,60803,United States,800-843-2728,41.6711472,-87.7394551,Sun - Sat,,0
CHIC 20,901,9501 S CICERO AVE,,OAK LAWN,IL,60453,United States,800-843-2728,41.7197149,-87.7401872,Sun - Sat,,0
CHIC 26,907,4750 W 63RD ST,,CHICAGO,IL,60629,United States,800-843-2728,41.7787795,-87.7415324,Sun - Sat,,0
CHIC 59,938,2209 S CICERO AVE,,CICERO,IL,60804,United States,800-843-2728,41.8502529,-87.743843,Sun - Sat,,0
CHIC 25,906,5618 W NORTH AVE,,CHICAGO,IL,60639,United States,800-843-2728,41.90967,-87.766355,Sun - Sat,,0
CHIC 91,1281,10555 Harlem,,Chicago Ridge,IL,60415,United States,800-843-2728,41.6994455,-87.7977364,Sun - Sat,,0
CHIC 29,910,7900 S HARLEM AVE,,BRIDGEVIEW,IL,60455,United States,800-843-2728,41.7476865,-87.8002837,Sun - Sat,,0
CINC 16,950,2650 READING RD,,CINCINNATI,OH,45206,United States,800-843-2728,39.1286968,-84.4984963,Sun - Sat,,0
CINC 60,1270,64 W. Mitchell,,Cincinnati,OH,45217,United States,800-843-2728,39.1616456,-84.5064635,Sun - Sat,,0
CINC 19,953,1 W 5TH ST,,NEWPORT,KY,41071,United States,800-843-2728,39.0916094,-84.4961719,Sun - Sat,,0
CINC 70,1347,851 High Street,,Hamilton,OH,45011,United States,800-843-2728,39.3964268,-84.5519286,Sun - Sat,,0
CINC 44,973,596 3RD ST,,COVINGTON,KY,41011,United States,800-843-2728,39.0877416,-84.5196935,Sun - Sat,,0
CINC 39,968,3030 CENTRAL PARKWAY,,CINCINNATI,OH,45225,United States,800-843-2728,39.1389616,-84.5325973,Sun - Sat,,0
CINC 64,1292,811 West 8th Street,,CINCINNATI,OH,45203,United States,800-843-2728,39.103259,-84.529047,Sun - Sat,,0
CINC 54,1231,7315 HAMILTON AVE,,CINCINNATI,OH,45231,United States,800-843-2728,39.2279046,-84.5486483,Sun - Sat,,0
CINC 18,952,3940 LUDLOW AVE,,CINCINNATI,OH,45223,United States,800-843-2728,39.1579854,-84.5387687,Sun - Sat,,0
CHIC 19,900,7155 W OGDEN AVE,,BERWYN,IL,60402,United States,800-843-2728,41.8240509,-87.8018163,Sun - Sat,,0
CHIC 40,919,15801 S HARLEM AVE,,ORLAND PARK,IL,60462,United States,800-843-2728,41.6305694,-87.8255007,Sun - Sat,,0
CHIC 71,1184,1583 N STATE ROUTE 50    ,,BRADLEY,IL,60915,United States,800-843-2728,41.172747,-87.852132,Sun - Sat,,0
CHIC 21,902,3132 N HARLEM AVE,,CHICAGO,IL,60634,United States,800-843-2728,41.9375623,-87.8070053,Sun - Sat,,0
CHIC 79,1229,7550 N HARLEM AVE,,CHICAGO,IL,60631,United States,800-843-2728,42.0182017,-87.8066334,Sun - Sat,,0
CHIC 74,1196,9550 W 191ST ST,,MOKENA,IL,60448,United States,800-843-2728,41.5431818,-87.8505696,Sun - Sat,,0
CHIC 83,1242,211 W. Roosevelt Rd.,,Maywood,IL,60153    ,United States,800-843-2728,41.864669,-87.835531,Sun - Sat,,0
CHIC 66,945,840 W NORTH AVE,,MELROSE PARK,IL,60160,United States,800-843-2728,41.9077901,-87.844474,Sun - Sat,,0
CINC 68,1315,482 Orphanage Road,,Ft. Wright,KY,41017,United States,800-843-2728,39.0324765,-84.5370643,Sun - Sat,,0
LVLE 41,1325,405 West Highway 80,,London,KY,40741,United States,800-843-2728,37.1305726,-84.0774085,Sun - Thu 6:00AM - 2:00AM;Friday 6:00AM - 3:00AM;Saturday 6:00AM - 12:00AM,,0
CINC 66,1310,5404 North Bend Road,,CINCINNATI,OH,45247,United States,800-843-2728,39.1880949,-84.60151,Sun - Thu 6:00AM - 10:00PM;Fri - Sat,,0
CINC 17,951,3201 HARRISON AVE,,CINCINNATI,OH,45211,United States,800-843-2728,39.153613,-84.603206,Sun - Sat,,0
CINC 43,972,3150 DIXIE HWY,,ERLANGER,KY,41018,United States,800-843-2728,39.020447,-84.593154,Sun - Sat,,0
CINC 53,1214,5301 DELHI PIKE,,DELHI,OH,45238,United States,800-843-2728,39.0937624,-84.6191693,Mon - Wed 6:00AM - 11:00PM;Thursday 6:00AM - 12:00AM;Fri - Sat,,0
CINC 65,1294,6517 Harrison Avenue,,Cincinnati,OH,45247,United States,800-843-2728,39.1927656,-84.6597352,Sun - Wed 6:00AM - 11:00PM;Thu - Sat,,0
CINC 50,1188,169   WINNING COLORS DR  ,,RICHWOOD,KY,41094,United States,800-843-2728,38.918335,-84.627474,Sun - Sat,,0
CINC 27,958,8101 U.S. 42,,FLORENCE,KY,41042,United States,800-843-2728,38.9822793,-84.6453202,Sun - Sat,,0
LVLE 21,1056,307 NEW CIRCLE RD NE,,LEXINGTON,KY,40505,United States,800-843-2728,38.069528,-84.4747835,Sun - Sat,,0
CINC 59,1264,1742 Wildcat Blvd.,,BURLINGTON,KY,41005,United States,800-843-2728,39.019947,-84.689598,Mon - Thu 6:00AM - 10:00PM;Friday 6:00AM - 12:00AM;Saturday,,0
CINC 46,1182,5801   National RD E,,RICHMOND,IN,47374,United States,800-843-2728,39.832424,-84.82264,Sun - Thu 9:00AM - 10:00PM;Fri - Sat 9:00AM - 11:00PM,,0
LVLE 22,1057,179 E REYNOLDS RD,,LEXINGTON,KY,40503,United States,800-843-2728,37.9931373,-84.5291856,Sun - Sat,,0
CINC 48,1185,10910   NEW HAVEN RD  ,,HARRISON,OH,45030,United States,800-843-2728,39.25925,-84.800289,Sun - Sat,,0
CINC 73,1364,1157 Eads Parkway East,,Greendale,IN,47025,United States,800-843-2728,39.1235092,-84.8473302,Sun - Sat,,0
LVLE 24,1058,448 VERSAILLES RD,,FRANKFORT,KY,40601,United States,800-843-2728,38.1955929,-84.8284229,Sunday 12:00AM - 2:00AM;Mon - Thu 6:00AM - 2:00AM;Friday 6:00AM - 12:00AM;Saturday,,0
LVLE 42,1339,25 Madison Drive,,Somerset,KY,42501,United States,800-843-2728,36.964757,-84.5974096,Sun - Thu 9:00AM - 12:00AM;Friday 9:00AM - 1:00AM;Saturday 9:00AM - 12:00AM,,0
INDP 55,1329,3175 S. St. Rd. 3,,New Castle,IN,47362,United States,800-843-2728,39.967855,-85.33009,Sunday 6:00AM - 12:00AM;Mon - Thu 6:00AM - 11:00PM;Friday 6:00AM - 2:00AM;Saturday 6:00AM - 12:00AM,,0
LVLE 34,1256,23 Fairway Crossing,,Shelbyville,KY,40065    ,United States,800-843-2728,38.1799325,-85.212814,Sun - Thu 6:00AM - 2:00AM;Friday 6:00AM - 3:00AM;Saturday 6:00AM - 12:00AM,,0
INDP 50,1235,8801 W MARKET SQUARE DR,,DALEVILLE,IN,47334,United States,800-843-2728,40.1142685,-85.5660673,Sun - Sat,,0
INDP 27,1035,5523 SCATTERFIELD RD,,ANDERSON,IN,46013,United States,800-843-2728,40.059209,-85.653406,Sun - Sat,,0
LVLE 33,1251,12413 Shelbyville Rd.,,Louisville,KY,40243    ,United States,800-843-2728,38.2457908,-85.5243121,Sunday 8:00AM - 1:00AM;Mon - Thu 6:00AM - 1:00AM;Friday 6:00AM - 3:00AM;Saturday 6:00AM - 12:00AM,,0
INDP 60,1356,1830 Marketplace Boulevard,,Shelbyville,IN,46176,United States,800-843-2728,39.5213564,-85.7457805,Sunday;Mon - Fri 6:00AM - 12:00AM;Saturday,,0
LVLE 40,1326,9493 Westport Road,,Louisville,KY,40241,United States,800-843-2728,38.287219,-85.574563,Sun - Sat,,0
LVLE 26,1060,2350 GREENE WAY,,LOUISVILLE,KY,40220,United States,800-843-2728,38.2122151,-85.59644,Sun - Sat,,0
LVLE 28,1179,7200 Cedar Springs,,Louisville,KY,40291    ,United States,800-843-2728,38.14456,-85.585229,Sun - Sat,,0
LVLE 43,1371,4020 Shelbyville Road,,Louisville,KY,40207,United States,800-843-2728,38.2523998,-85.6518513,Sun - Sat,,0
LVLE 17,1052,3705 BARDSTOWN RD,,LOUISVILLE,KY,40218,United States,800-843-2728,38.199077,-85.659423,Sun - Sat,,0
INDP 23,1031,1686 NATIONAL RD,,COLUMBUS,IN,47201,United States,800-843-2728,39.1821326,-85.8475275,Sun - Sat,,0
LVLE 29,1217,4108 OUTER LOOP,,LOUISVILLE,KY,40219,United States,800-843-2728,38.138,-85.685407,Sun - Sat,,0
LVLE 20,1055,1608 E 10TH ST,,JEFFERSONVILLE,IN,47130,United States,800-843-2728,38.2958394,-85.7262196,Sun - Sat,,0
LVLE 32,1228,4023 E. U.S. Rt. 31,,Clarksville,IN,47129    ,United States,800-843-2728,38.3222125,-85.7516937,Sun - Sat,,0
LVLE 07,1046,105 E. Market St.,,LOUISVILLE,KY,40202,United States,800-843-2728,38.2548754,-85.7512879,Sun - Sat,,0
LVLE 10,1047,793 EASTERN PKY,,LOUISVILLE,KY,40217,United States,800-843-2728,38.2147035,-85.742934,Sun - Sat,,0
INDP 54,1319,10303 Pendleton Pike,,Indianapolis,IL,46236,United States,800-843-2728,39.856403,-85.983996,Sun - Sat,,0
INDP 44,1202,16286 CLOVER RD,,NOBLESVILLE,IN,46060,United States,800-843-2728,40.0303657,-85.9965131,Sun - Thu 6:00AM - 12:00AM;Friday 6:00AM - 3:00AM;Saturday 6:00AM - 12:00AM,,0
LVLE 15,1051,700 W BROADWAY,,LOUISVILLE,KY,40202,United States,800-843-2728,38.246059,-85.763637,Sun - Sat,,0
LVLE 25,1059,175 KEYSTONE CROSS RD,,SHEPHERDSVILLE,KY,40165,United States,800-843-2728,37.9928763,-85.707815,Sun - Sat,,0
                                                                                                                                                                                                                                                                                                                                                                                                                                                                                                                                                                                                                                                                                                                                                                                                                                                                                                                                                                                                                                                                                                                                                                                                                                                                                                                                                                                                                                                                                                                                                                                                                                                                                                                                                                                                                                                                                                                                                                                                                                                                                                                                                                                                                                                                                                                                                                                                                                                                                                                                                                                                                                                                                                                                                                                                                                                                                                                                                                                                                                                                                                                                                                                                                                                                                                                                                                                                                                                                                                                                                                                                                                                                                                                                                                                                                                                                                                                                                                                                                                                                                                                                                                                                                                                                                                                                                                                                                                                                                                                                                                                                                                                                                                                                                                                                                                                                                                                                                                                                                                                                                                                                                                                                                                                                                                                                                                                                                                                                                                                                                                                                                                                                                                                                                                                                                                                                                                                                                                                                                                                                                                                                                                                                                                                                                                                                                                                                                                                                                                                                                                                                                                                                                                                                                                                                                                                                                                                                                                                                                                                                                                                                                                                                                                                                                                                                                                                                                                                                                                                                                                                                                                                                                                                                                                                                                                                                                                                                                                                                                                                                                                                                                                                                                                                                                                                                                                                                                                                                                                                                                                                                                                                                                                                                                                                                                                                                                                                                                                                                                                                                                                                                                                                                                                                                                                                                                                                                                                                                                                                                                                                                                                                                                                                                                                                                                                                                                                                                                                                                                                                                                                                                                                                                                                                                                                                                                                                                                                                                                                                                                                                                                                                                                                                                                                                                                                                                                                                                                                                                                                                                                                                                                                                                                                                                                                                                                                                                                                                                                                                                                                                                                                                                                                                                                                                                                                                                                                                                                                                                                                                                                                                                                                                                                                                                                                                                                                                                                                                                                                                                                                                                                                                                                                                                                                                                                                                                                                                                                                                                                                                                                                                                                                                                                                                                                                                                                                                                                                                                                                                                                                                                                                                                                                                                                                                                                                                                                                                                                                                                                                                                                                                                                                                                                                                                                                                                                                                                                                                                                                                                                                                                                                                                                                                                                                                                                                                                                                                                                                                                                                                                                                                                                                                                                                                                                                                                                                                                                                                                                                                                                                                                                                                                                                                                                                                                                                                                                                                                                                                                                                                                                                                                                                                                                                                                                                                                                                                                                                                                                                                                                                                                                                                                                                                                                                                                                                                                                                                                                                                                                                                                                                                                                                                                                                                                                                                                                                                                                                                                                                                                                                                                                                                                                                                                                                                                                                                                                                                                                                                                                                                                                                                                                                                                                                                                                                                                                                                                                                                                                                                                                                                                                                                                                                                                                                                                                                                                                                                                                                                                                                                                                                                                                                                                                                                                                                                                                                                                                                                                                                                                                                                                                                                                                                                                                                                                                                                                                                                                                                                                                                                                                                                                                                                                                                                                                                                                                                                                                                                                                                                                                                                                                                                                                                                                                                                                                                                                                                                                                                                                                                                                                                                                                                                                                                                                                                                                                                                                                                                                                                                                                                                                                                                                                                                                                                                                                                                                                                                                                                                                                                                                                                                                                                                                                                                                                                                                                                                                                                                                                                                                                                                                                                                                                                                                                                                                                                                                                                                                                                                                                                                                                                                                                                                                                                                                                                                                                                                                                                                                                                                                                                                                                                                                                                                                                                                                                                                                                                                                                                                                                                                                                                                                                                                                                                                                                                                                                                                                                                                                                                                                                                                                                                                                                                                                                                                                                                                                                                                                                                                                                                                                                                                                                                                                                                                                                                                                                                                                                                                                                                                                                                                                                                                                                                            800-843-2728,34.1550351,-118.2448256,,,0
Walgreens,40900,5467 Wilshire Blvd,,Los Angeles,CA,90036,United States,800-843-2728,34.062688,-118.347957,,,0
Family Dollar Stores,32589,9507 Long Beach Blvd,,South Gate,CA,90280,United States,800-843-2728,33.9493774,-118.218122,,,0
Walgreens,42830,16 W Adams St,,Chicago,IL,60603,United States,800-843-2728,41.87950204,-87.62811568,,,0
Walgreens,38815,79 W Monroe St,,Chicago,IL,60603,United States,800-843-2728,41.880599,-87.630699,,,0
CVS,5565,137 South State Street,,Chicago,IL,60603,United States,800-843-2728,41.879719,-87.62727,,,0
CVS,2288,520 South  State Street,,Chicago,IL,60605,United States,800-843-2728,41.8752484,-87.6279351,,,0
CVS,1409,175 West Jackson Boulevard,,Chicago,IL,60604,United States,800-843-2728,41.8778959,-87.6333337,,,0
CVS,5321,120 South Lasalle Street,,Chicago,IL,60603,United States,800-843-2728,41.8803113,-87.6327099,,,0
Walgreens,37407,1320 E 47Th St,,Chicago,IL,60653,United States,800-843-2728,41.809899,-87.593299,,,0
Walmart,268159,7535 S. Ashland Ave.,,Chicago,IL,60620,United States,800-843-2728,41.7573662,-87.6635175,,,0
Family Dollar Stores,26614,100 S Laramie Ave,,Chicago,IL,60644-3320,United States,800-843-2728,41.8791062,-87.7553583,,,0
Walgreens,38335,7111 S Western Ave,,Chicago,IL,60636,United States,800-843-2728,41.764199,-87.682699,,,0
Walgreens,34691,5222 W Madison St,,Chicago,IL,60644,United States,800-843-2728,41.88063823,-87.75552784,,,0
Walgreens,44000,4817 W Fullerton Ave,,Chicago,IL,60639,United States,800-843-2728,41.92395783,-87.74717999,,,0
CVS,4293,917 Main Street,,Houston,TX,77002,United States,800-843-2728,29.757122,-95.364425,,,0
CVS,3682,402 Gray Street,,Houston,TX,77002,United States,800-843-2728,29.7511401,-95.3764502,,,0
Walgreens,49502,1315 St Joseph Pkwy,,Houston,TX,77002,United States,800-843-2728,29.74830875,-95.36726768,,,0
Walgreens,44401,2612 Smith St,,Houston,TX,77006,United States,800-843-2728,29.747458,-95.378149,,,0
CVS,323,1000 Elgin Street,,Houston,TX,77004,United States,800-843-2728,29.741085,-95.3769321,,,0
Family Dollar Stores,26346,5784 Bellfort St,,Houston,TX,77033-2104,United States,800-843-2728,29.6655383,-95.3320173,,,0
Walmart,330109,5405 South Rice Avenue,,Houston,TX,77081,United States,800-843-2728,29.7229864,-95.4649661,,,0
CVS,4962,5402 Westheimer Road,,Houston,TX,77056,United States,800-843-2728,29.7395134,-95.4712021,,,0
Walgreens,37555,9200 Cullen Blvd,,Houston,TX,77051,United States,800-843-2728,29.657749,-95.355659,,,0
Family Dollar Stores,32305,2714 Reed Road,,Houston,TX,77051,United States,800-843-2728,29.6576437,-95.3862788,,,0
CVS,3165,"5430 Bissonnet Street, Corner Of Chimney Rock, Corner Of Chimney Rock",,Bellaire,TX,77401,United States,800-843-2728,29.7057858,-95.4588299,,,0
Walgreens,34488,200 W Adams St,,Chicago,IL,60606,United States,800-843-2728,41.87940671,-87.63401786,,,0
CVS,2010,105 South Wabash Avenue,,Chicago,IL,60603,United States,800-843-2728,41.8806489,-87.6261243,,,0
CVS,12121,105 South Wabash Avenue,,Chicago,IL,60603,United States,800-843-2728,41.880376,-87.6257587,,,0
Walgreens,41977,15 W Washington St,,Chicago,IL,60602,United States,800-843-2728,41.883056,-87.628635,,,0
Walgreens,49609,122 S. Michigan Ave,,Chicago,IL,60603,United States,800-843-2728,41.87971934,-87.62462083,,,0
Walgreens,37141,201 W Madison St,,Chicago,IL,60606,United States,800-843-2728,41.88188255,-87.63392902,,,0
Walgreens,49407,151 N State St,,Chicago,IL,60601,United States,800-843-2728,41.8845429,-87.62780267,,,0
CVS,1465,208 West Washington,,Chicago,IL,60606,United States,800-843-2728,41.883555,-87.634203,,,0
Walgreens,46523,250 S Wacker Dr,,Chicago,IL,60606,United States,800-843-2728,41.87812749,-87.63709139,,,0
Walgreens,43968,30 N Michigan Ave,,Chicago,IL,60602,United States,800-843-2728,41.88318097,-87.62453715,,,0
Walgreens,43514,191 N Clark St,,Chicago,IL,60601,United States,800-843-2728,41.88560119,-87.63076082,,,0
CVS,2766,205 N. Michigan Avenue,,Chicago,IL,60601,United States,800-843-2728,41.8859105,-87.6235523,,,0
CVS,3533,130 South Canal Street,,Chicago,IL,60606,United States,800-843-2728,41.8795426,-87.6398937,,,0
Walgreens,34216,300 N Michigan Ave,,Chicago,IL,60601,United States,800-843-2728,41.886999,-87.624699,,,0
CVS,5586,3637 North Southport Avenue,,Chicago,IL,60613,United States,800-843-2728,41.948008,-87.6636539,,,0
Walgreens,41089,1614 W 47Th St,,Chicago,IL,60609,United States,800-843-2728,41.808559,-87.665239,,,0
Walgreens,34429,5036 S Cottage Grove Ave,,Chicago,IL,60615,United States,800-843-2728,41.802899,-87.606799,,,0
CVS,1408,2815 North Western Avenue,,Chicago,IL,60618,United States,800-843-2728,41.9328111,-87.6875759,,,0
Walgreens,34025,3045 W 26Th St,,Chicago,IL,60623,United States,800-843-2728,41.84415689,-87.70191037,,,0
Aldi,215556,800 N. Kedzie,,Chicago,IL,60651-4100,United States,800-843-2728,41.8960769,-87.707537,,,0
Walgreens,49298,953 W Irving Park Rd,,Chicago,IL,60613,United States,800-843-2728,41.954084,-87.65428,,,0
Walgreens,37383,4025 N Sheridan Rd,,Chicago,IL,60613,United States,800-843-2728,41.955099,-87.653999,,,0
Walgreens,35455,3401 W Roosevelt Rd,,Chicago,IL,60624,United States,800-843-2728,41.86597108,-87.7115222,,,0
Walgreens,34374,5401 S Wentworth Ave,,Chicago,IL,60609,United States,800-843-2728,41.79526732,-87.62903945,,,0
Food 4 Less,107498,4620 S Damen Ave,,Chicago,IL,60609,United States,800-843-2728,41.8095908,-87.6779264,,,0
Walgreens,49551,3303 W 26Th St,,Chicago,IL,60623,United States,800-843-2728,41.84430484,-87.70771923,,,0
Walgreens,34210,3110 W Armitage Ave,,Chicago,IL,60647,United States,800-843-2728,41.917499,-87.705599,,,0
Aldi,317070,3030 S. Kedzie Ave.,,Chicago,IL,60623-4713,United States,800-843-2728,41.8382274,-87.7056622,,,0
Family Dollar Stores,31203,5101 W Division St,,Chicago,IL,60651-1436,United States,800-843-2728,41.9020238,-87.7535981,,,0
CVS,5773,6510 North Sheridan Road,,Chicago,IL,60626,United States,800-843-2728,42.0004824,-87.6607557,,,0
Walmart,269561,4626 W Diversey Ave,,Chicago,IL,60639,United States,800-843-2728,41.9347151,-87.7429391,,,0
Walmart,268085,3320 South Cicero Avenue,,Cicero,IL,60804,United States,800-843-2728,41.8309533,-87.7473974,,,0
CVS,5422,7858 South Halsted Street,,Chicago,IL,60620,United States,800-843-2728,41.7508594,-87.6449225,,,0
Walgreens,43331,7544 S Stony Island Ave,,Chicago,IL,60649,United States,800-843-2728,41.757226,-87.586265,,,0
Save-A-Lot (Supervalu),250503,7908 S. Halsted Avenue Unit A,,Chicago,IL,60620,United States,800-843-2728,41.7499334,-87.6443839,,,0
Walgreens,39597,1213 W 79Th St,,Chicago,IL,60620,United States,800-843-2728,41.75028068,-87.65446619,,,0
Walgreens,49073,6140 N Western Ave,,Chicago,IL,60659,United States,800-843-2728,41.99370103,-87.69009881,,,0
Save-A-Lot (Supervalu),250502,7240 S Stony Island Ave,,Chicago,IL,60649,United States,800-843-2728,41.755458,-87.5855656,,,0
CVS,5590,4540 North Pulaski Road,,Chicago,IL,60630,United States,800-843-2728,41.9637073,-87.7282689,,,0
Walgreens,38188,4745 W Belmont Ave,,Chicago,IL,60641,United States,800-843-2728,41.93865526,-87.74596804,,,0
Walgreens,34012,4000 W 59Th St,,Chicago,IL,60629,United States,800-843-2728,41.786099,-87.723199,,,0
Family Dollar Stores,22008,5410 W Chicago Ave,,Chicago,IL,60651-2847,United States,800-843-2728,41.8951238,-87.761154,,,0
Walgreens,48190,2221 Fulton St,,Houston,TX,77009,United States,800-843-2728,29.78151343,-95.36009,,,0
Walgreens,41398,950 Studemont St,,Houston,TX,77007,United States,800-843-2728,29.768749,-95.391669,,,0
Kroger,211553,1440 Studemont Street,,Houston,TX,77007,United States,800-843-2728,29.7732676,-95.3898587,,,0
Family Dollar Stores,20560,2617 Fulton St,,Houston,TX,77009-6859,United States,800-843-2728,29.7862564,-95.3618107,,,0
Walgreens,34970,3317 Montrose Blvd,,Houston,TX,77006,United States,800-843-2728,29.74286764,-95.39071646,,,0
Walgreens,49440,"1415 California St, #100",,Houston,TX,77006,United States,800-843-2728,29.74533648,-95.39353161,,,0
Kroger,211551,3300 Montrose Blvd,,Houston,TX,77006,United States,800-843-2728,29.7429738,-95.3921185,,,0
CVS,3589,"1001 Waugh Drive, Corner Of Dallas Avenue",,Houston,TX,77019,United States,800-843-2728,29.7573295,-95.3981204,,,0
Dollar General,80835,2958 Fulton Street,,Houston,TX,77009-5738,United States,800-843-2728,29.7893915,-95.359792,,,0
Walmart,269750,111 Yale St,,Houston,TX,77007,United States,800-843-2728,29.7728658,-95.4014068,,,0
Family Dollar Stores,29048,3411 Navigation Blvd,,Houston,TX,77003-1749,United States,800-843-2728,29.7557789,-95.3358924,,,0
CVS,4526,1003 Richmond Avenue,,Houston,TX,77006,United States,800-843-2728,29.7337735,-95.3915046,,,0
Family Dollar Stores,27978,436 W Parker Rd,,Houston,TX,77091-3203,United States,800-843-2728,29.85995,-95.405301,,,0
Family Dollar Stores,20541,9430 Cullen Blvd,,Houston,TX,77051-3321,United States,800-843-2728,29.6551848,-95.3554851,,,0
Sam's Club,51926,5310 S. Rice Ave.,,Houston,TX,77081,United States,800-843-2728,29.7242012,-95.4706439,,,0
Walgreens,41180,3403 Mangum Rd,,Houston,TX,77092,United States,800-843-2728,29.819984,-95.459891,,,0
Dollar General,81044,9530 Cullen Blvd,,Houston,TX,77051-3323,United States,800-843-2728,29.6528448,-95.3555142,,,0
Family Dollar Stores,28604,7404a Airline Dr,,Houston,TX,77076-1039,United States,800-843-2728,29.8684859,-95.3848173,,,0
Family Dollar Stores,30901,"4800 W 34th St, Ste 20c",,Houston,TX,77092-6671,United States,800-843-2728,29.8203882,-95.4609683,,,0
Walgreens,36663,510 Chimney Rock Rd,,Houston,TX,77056,United States,800-843-2728,29.764848,-95.478913,,,0
Walgreens,34788,3900 Reveille St,,Houston,TX,77087,United States,800-843-2728,29.684922,-95.290751,,,0
CVS,5566,400 West Madison Street,,Chicago,IL,60606,United States,800-843-2728,41.8826167,-87.6393735,,,0
CVS,15799,400 West Madison Street,,Chicago,IL,60606,United States,800-843-2728,41.882678,-87.639353,,,0
Walgreens,42241,2 E Roosevelt Rd,,Chicago,IL,60605,United States,800-843-2728,41.867291,-87.626941,,,0
CVS,22753,205 North Columbus Drive,,Chicago,IL,60601,United States,800-843-2728,41.8856536,-87.6204694,,,0
CVS,389,101 North Clinton Street,,Chicago,IL,60661,United States,800-843-2728,41.883464,-87.6408881,,,0
CVS,5721,225 North Columbus,,Chicago,IL,60601,United States,800-843-2728,41.8865654,-87.6204766,,,0
Walmart,269584,570 W Monroe St,,Chicago,IL,60661,United States,800-843-2728,41.8807625,-87.6424263,,,0
Walgreens,49686,410 N. Michigan,,Chicago,IL,60611,United States,800-843-2728,41.88998586,-87.62443082,,,0
CVS,11810,"344 West Hubbard Street, Corner Of Orleans",,Chicago,IL,60654,United States,800-843-2728,41.8899455,-87.636964,,,0
CVS,2057,121 West Kinzie Street,,Chicago,IL,60610,United States,800-843-2728,41.8927447,-87.6294379,,,0
Walgreens,37320,501 W Roosevelt Rd,,Chicago,IL,60607,United States,800-843-2728,41.866799,-87.639599,,,0
Walgreens,34781,641 N Clark St,,Chicago,IL,60654,United States,800-843-2728,41.893499,-87.630899,,,0
Walgreens,49553,5147 S Ashland Ave,,Chicago,IL,60609,United States,800-843-2728,41.79977912,-87.66479119,,,0
CVS,3585,1228 East 53rd Street,,Chicago,IL,60637,United States,800-843-2728,41.7997034,-87.5948035,,,0
Walgreens,48513,2744 N California Ave,,Chicago,IL,60647,United States,800-843-2728,41.93178352,-87.69796936,,,0
Walgreens,34034,3358 N Western Ave,,Chicago,IL,60618,United States,800-843-2728,41.94283984,-87.68968913,,,0
CVS,15803,3552 West Grand Avenue,,Chicago,IL,60651,United States,800-843-2728,41.9020016,-87.7149854,,,0
Walgreens,38767,4710 S Western Ave,,Chicago,IL,60609,United States,800-843-2728,41.807899,-87.684699,,,0
CVS,5568,3552 West Grand Avenue,,Chicago,IL,60651,United States,800-843-2728,41.9019825,-87.7158655,,,0
Aldi,317072,4500 N. Broadway,,Chicago,IL,60640-5602,United States,800-843-2728,41.9638108,-87.6568922,,,0
CVS,5427,845 West Wilson Avenue,,Chicago,IL,60640,United States,800-843-2728,41.9652983,-87.6520795,,,0
Walgreens,49552,3800 W. Madison St.,,Chicago,IL,60624,United States,800-843-2728,41.88076971,-87.72094145,,,0
CVS,5584,4051 North Lincoln Avenue,,Chicago,IL,60618,United States,800-843-2728,41.9555355,-87.6792606,,,0
Walgreens,41206,4720 N Marine Dr,,Chicago,IL,60640,United States,800-843-2728,41.96789996,-87.64985656,,,0
Walgreens,34011,1554 E 55Th St,,Chicago,IL,60615,United States,800-843-2728,41.79554705,-87.58803372,,,0
Family Dollar Stores,30060,5222 W Grand Ave #5226,,Chicago,IL,60639-3008,United States,800-843-2728,41.917371,-87.756855,,,0
Walgreens,44180,4010 W Lawrence Ave,,Chicago,IL,60630,United States,800-843-2728,41.96850056,-87.72876,,,0
CVS,5419,8025 South Ashland Avenue,,Chicago,IL,60620,United States,800-843-2728,41.747744,-87.66298,,,0
CVS,5577,5524 West Cermak Road,,Cicero,IL,60804,United States,800-843-2728,41.850986,-87.7621523,,,0
Aldi,215554,5629 W. Fillmore St.,,Chicago,IL,60644-5504,United States,800-843-2728,41.8671688,-87.7646919,,,0
Dollar General,83413,8201 S. racine Ave,,Chicago,IL,60620,United States,800-843-2728,41.744743,-87.653228,,,0
Dollar General,80384,2019 W 79th St,,Chicago,IL,60620-5760,United States,800-843-2728,41.749946,-87.674358,,,0
Aldi,215557,6220 N. California,,Chicago,IL,60659-2608,United States,800-843-2728,41.9945454,-87.6998491,,,0
Walgreens,41663,3019 W Peterson Ave,,Chicago,IL,60659,United States,800-843-2728,41.990222,-87.706587,,,0
CVS,5416,6315 South Pulaski Road,,Chicago,IL,60629,United States,800-843-2728,41.778395,-87.7224169,,,0
Aldi,215550,5001 N. Pulaski,,Chicago,IL,60630-2706,United States,800-843-2728,41.9728166,-87.727724,,,0
Walgreens,36429,5140 W Diversey Ave,,Chicago,IL,60639,United States,800-843-2728,41.931599,-87.755699,,,0
Walgreens,36056,1919 W Gray St,,Houston,TX,77019,United States,800-843-2728,29.752799,-95.404399,,,0
Dollar General,81549,4002 Polk St,,Houston,TX,77023-1728,United States,800-843-2728,29.7399529,-95.3406971,,,0
Kroger,211557,4000 Polk St,,Houston,TX,77023,United States,800-843-2728,29.7398201,-95.3404372,,,0
Kroger,211548,1938 W Gray St,,Houston,TX,77019,United States,800-843-2728,29.753836,-95.4054248,,,0
Family Dollar Stores,22400,5110 Almeda Rd,,Houston,TX,77004-5907,United States,800-843-2728,29.7236718,-95.3789125,,,0
Walgreens,34663,5202 Almeda Rd,,Houston,TX,77004,United States,800-843-2728,29.723299,-95.378899,,,0
Walgreens,43842,415 Shepherd Dr,,Houston,TX,77007,United States,800-843-2728,29.766409,-95.409836,,,0
CVS,3877,4516 Harrisburg Boulevard,,Houston,TX,77011,United States,800-843-2728,29.7430028,-95.3297357,,,0
CVS,4576,4702 Irvington Boulevard,,Houston,TX,77009,United States,800-843-2728,29.8037331,-95.3606383,,,0
CVS,13720,4702 Irvington Boulevard,,Houston,TX,77009,United States,800-843-2728,29.8037628,-95.360584,,,0
CVS,4747,5401 Washington Avenue,,Houston,TX,77007,United States,800-843-2728,29.770237,-95.416905,,,0
Family Dollar Stores,20218,804 Telephone Rd,,Houston,TX,77023-3120,United States,800-843-2728,29.7335315,-95.32963,,,0
Kroger,330680,1035 N Shepherd Dr,,Houston,TX,77008,United States,800-843-2728,29.789415,-95.4111836,,,0
CVS,4482,110 West 20th Street,,Houston,TX,77008,United States,800-843-2728,29.8037326,-95.3987876,,,0
Walgreens,49189,200 W 20Th St,,Houston,TX,77008,United States,800-843-2728,29.80370074,-95.39951314,,,0
Family Dollar Stores,31752,6901 Bellfort St,,Houston,TX,77087-5903,United States,800-843-2728,29.6693672,-95.3066568,,,0
Walgreens,34398,6610 Tidwell Rd,,Houston,TX,77016,United States,800-843-2728,29.84857,-95.302332,,,0
Walgreens,38170,111 S Halsted St,,Chicago,IL,60661,United States,800-843-2728,41.880299,-87.646699,,,0
Walgreens,34466,342 E Illinois St,,Chicago,IL,60611,United States,800-843-2728,41.891072,-87.617701,,,0
Walgreens,49692,259 E Erie St,,Chicago,IL,60611,United States,800-843-2728,41.89401081,-87.62049938,,,0
Walgreens,49558,"251 E Huron Street, Suite 2B114",,Chicago,IL,60611,United States,800-843-2728,41.89499151,-87.62150867,,,0
Walgreens,34024,757 N Michigan Ave,,Chicago,IL,60611,United States,800-843-2728,41.89665694,-87.62406876,,,0
Walgreens,48588,315 W Chicago Ave,,Chicago,IL,60654,United States,800-843-2728,41.896319,-87.636896,,,0
Walgreens,49319,680 N Lake Shore Dr,,Chicago,IL,60611,United States,800-843-2728,41.89443937,-87.61748686,,,0
Walgreens,42945,933 N State St,,Chicago,IL,60610,United States,800-843-2728,41.899966,-87.62833,,,0
Walgreens,37796,316 W Cermak Rd,,Chicago,IL,60616,United States,800-843-2728,41.853189,-87.635159,,,0
CVS,5564,1165 North Clark Street,,Chicago,IL,60610,United States,800-843-2728,41.9037138,-87.6309723,,,0
Walgreens,34219,1200 N Dearborn St,,Chicago,IL,60610,United States,800-843-2728,41.904099,-87.630199,,,0
CVS,1497,1201 North State Street,,Chicago,IL,60610,United States,800-843-2728,41.9041314,-87.6282887,,,0
CVS,2778,1211 West Roosevelt Road,,Chicago,IL,60608,United States,800-843-2728,41.8667035,-87.6569573,,,0
Aldi,317071,3835 W. Madison,,Chicago,IL,60624-2335,United States,800-843-2728,41.8804811,-87.7224067,,,0
Dollar General,80431,3527 W Armitage Ave,,Chicago,IL,60647-3602,United States,800-843-2728,41.917019,-87.7146549,,,0
Walgreens,43036,3320 W Fullerton Ave,,Chicago,IL,60647,United States,800-843-2728,41.92492472,-87.7114472,,,0
Family Dollar Stores,21029,5018 S. Cicero Avenue,,Chicago,IL,60638-2117,United States,800-843-2728,41.801477,-87.7432627,,,0
Family Dollar Stores,30933,5469 W North Ave,,Chicago,IL,60639-4346,United States,800-843-2728,41.9091743,-87.763152,,,0
Walgreens,38243,2015 E 79Th St,,Chicago,IL,60649,United States,800-843-2728,41.751299,-87.575499,,,0
CVS,2928,7855 South Western Avenue,,Chicago,IL,60652,United States,800-843-2728,41.7502982,-87.6819635,,,0
Walgreens,47641,5414 S Archer Ave,,Chicago,IL,60638,United States,800-843-2728,41.7987,-87.743095,,,0
Walgreens,47455,7901 S Western Ave,,Chicago,IL,60620,United States,800-843-2728,41.74982767,-87.68209182,,,0
CVS,5587,2825 West Devon Avenue,,Chicago,IL,60659,United States,800-843-2728,41.9972811,-87.7006398,,,0
Walgreens,38098,4040 N Cicero Ave,,Chicago,IL,60641,United States,800-843-2728,41.95471477,-87.74762481,,,0
Save-A-Lot (Supervalu),250507,4439 West 63rd St.,,Chicago,IL,60629,United States,800-843-2728,41.7782673,-87.7340422,,,0
Dollar General,80178,2649 E 79th St,,Chicago,IL,60649-5227,United States,800-843-2728,41.751719,-87.5594407,,,0
Walgreens,39379,7045 S Pulaski Rd,,Chicago,IL,60629,United States,800-843-2728,41.76463142,-87.72197792,,,0
Family Dollar Stores,33302,"7000 S Pulaski, Suite B",,Chicago,IL,60629-5824,United States,800-843-2728,41.7655304,-87.7240072,,,0
Save-A-Lot (Supervalu),250505,2858 E 83Rd St,,Chicago,IL,60617,United States,800-843-2728,41.7451733,-87.5543634,,,0
Walgreens,47163,6400 Fannin St Ste 102,,Houston,TX,77030,United States,800-843-2728,29.715243,-95.396713,,,0
Walgreens,49474,4101 Greenbriar St Ste 235,,Houston,TX,77098,United States,800-843-2728,29.72983235,-95.41282405,,,0
Kroger,211549,239 W 20Th St,,Houston,TX,77008,United States,800-843-2728,29.8045671,-95.4004409,,,0
CVS,4502,2910 Westheimer Road,,Houston,TX,77098,United States,800-843-2728,29.7425073,-95.4217189,,,0
Walgreens,34592,1515 Lockwood Dr,,Houston,TX,77020,United States,800-843-2728,29.776058,-95.316049,,,0
CVS,3474,4700 Kirby Drive,,Houston,TX,77098,United States,800-843-2728,29.7296562,-95.4192589,,,0
CVS,4551,3811 Old Spanish Trail,,Houston,TX,77021,United States,800-843-2728,29.702704,-95.360259,,,0
Walgreens,49337,"6560 Fannin St., Suite 260",,Houston,TX,77030,United States,800-843-2728,29.71054655,-95.4006309,,,0
Walgreens,47622,3822 Old Spanish Trl,,Houston,TX,77021,United States,800-843-2728,29.70184378,-95.35897925,,,0
Walgreens,49186,"6624 Fannin St., #120",,Houston,TX,77030,United States,800-843-2728,29.70930117,-95.40136077,,,0
Family Dollar Stores,26337,4429 Griggs Rd,,Houston,TX,77021-2815,United States,800-843-2728,29.7025704,-95.3491019,,,0
CVS,4749,6011 Kirby Drive,,Houston,TX,77005,United States,800-843-2728,29.717969,-95.4181246,,,0
Walgreens,34649,220 S Wayside Dr,,Houston,TX,77011,United States,800-843-2728,29.736341,-95.307103,,,0
Dollar General,80606,136 E Crosstimbers St,,Houston,TX,77022,United States,800-843-2728,29.8278964,-95.3745205,,,0
Family Dollar Stores,20103,2100 Little York Rd,,Houston,TX,77093-3236,United States,800-843-2728,29.8703923,-95.3530172,,,0
Walgreens,39617,5002 Bellaire Blvd,,Bellaire,TX,77401,United States,800-843-2728,29.706315,-95.467472,,,0
Family Dollar Stores,31658,9520 Homestead Rd.,,Houston,TX,77016-4424,United States,800-843-2728,29.8491561,-95.3001688,,,0
Family Dollar Stores,20806,428 W Little York Rd,,Houston,TX,77076-1305,United States,800-843-2728,29.8699053,-95.4059229,,,0
CVS,3878,6161 Telephone Road,,Houston,TX,77087,United States,800-843-2728,29.6764934,-95.2897105,,,0
Walgreens,44937,10660 Eastex Fwy,,Houston,TX,77093,United States,800-843-2728,29.869147,-95.329234,,,0
Kroger,211560,6322 Telephone Rd,,Houston,TX,77087,United States,800-843-2728,29.6747217,-95.2910165,,,0
Walgreens,35224,530 W Little York Rd,,Houston,TX,77091,United States,800-843-2728,29.870199,-95.408922,,,0
Family Dollar Stores,27240,8011 Park Place Blvd,,Houston,TX,77087-4643,United States,800-843-2728,29.6861222,-95.2797635,,,0
CVS,4210,8201 Katy Freeway,,Houston,TX,77024,United States,800-843-2728,29.782979,-95.4853,,,0
Walmart,266484,10411 N Freeway 45,,Houston,TX,77037,United States,800-843-2728,29.8723107,-95.4077021,,,0
Walgreens,38865,1413 Wirt Rd,,Houston,TX,77055,United States,800-843-2728,29.794899,-95.484999,,,0
Family Dollar Stores,30563,9201 N Wayside Dr,,Houston,TX,77028-1018,United States,800-843-2728,29.8460499,-95.2853054,,,0
CVS,5579,771 North Ogden Avenue,,Chicago,IL,60622,United States,800-843-2728,41.895935,-87.654148,,,0
Walgreens,34030,1601 N Wells St,,Chicago,IL,60614,United States,800-843-2728,41.91140402,-87.63447176,,,0
CVS,5424,2545 Martin Luther King,,Chicago,IL,60606,United States,800-843-2728,41.8461657,-87.6173055,,,0
Walgreens,49285,711 W North Ave Ste 204,,Chicago,IL,60610,United States,800-843-2728,41.9108229,-87.64664636,,,0
CVS,12123,1714 North Sheffield Avenue,,Chicago,IL,60614,United States,800-843-2728,41.9109364,-87.6532502,,,0
CVS,2019,1714 North Sheffield Avenue,,Chicago,IL,60614,United States,800-843-2728,41.9110186,-87.6531828,,,0
CVS,1471,401 West Armitage Avenue,,Chicago,IL,60614,United States,800-843-2728,41.9181319,-87.6390684,,,0
CVS,5426,1713 South Ashland Avenue,,Chicago,IL,60608,United States,800-843-2728,41.8582,-87.6658438,,,0
Walgreens,34363,3000 S Halsted St,,Chicago,IL,60608,United States,800-843-2728,41.83954147,-87.64679288,,,0
CVS,5573,741 West 31st Street,,Chicago,IL,60608,United States,800-843-2728,41.8380313,-87.6452111,,,0
Walgreens,34033,1650 W Chicago Ave,,Chicago,IL,60622,United States,800-843-2728,41.89627009,-87.66921829,,,0
Aldi,215543,1836 N. Clybourn,,Chicago,IL,60614-4902,United States,800-843-2728,41.9143966,-87.6548326,,,0
CVS,3261,1200 North Ashland Avenue,,Chicago,IL,60622,United States,800-843-2728,41.9036843,-87.6678822,,,0
Walgreens,34552,2301 W Irving Park Rd,,Chicago,IL,60618,United States,800-843-2728,41.95380404,-87.68643896,,,0
Walgreens,34660,1500 W Wilson Ave,,Chicago,IL,60640,United States,800-843-2728,41.965499,-87.667099,,,0
CVS,1432,3944 North Western Avenue,,Chicago,IL,60618,United States,800-843-2728,41.953532,-87.688816,,,0
Save-A-Lot (Supervalu),250506,420 S Pulaski,,Chicago,IL,60624,United States,800-843-2728,41.8746048,-87.7262597,,,0
Dollar General,80635,4046 W Roosevelt Rd,,Chicago,IL,60624-3937,United States,800-843-2728,41.86641,-87.726758,,,0
CVS,3695,1620 West 59Th Street,,Chicago,IL,60621,United States,800-843-2728,41.787017,-87.6652189,,,0
CVS,12432,1620 West 59th Street,,Chicago,IL,60621,United States,800-843-2728,41.7870251,-87.6654941,,,0
Family Dollar Stores,27172,4314 S Kedzie Ave,,Chicago,IL,60632-2813,United States,800-843-2728,41.8148262,-87.704493,,,0
Walgreens,35298,5874 S Archer Ave,,Chicago,IL,60638,United States,800-843-2728,41.79608859,-87.76174396,,,0
CVS,3535,4777 North Milwaukee Avenue,,Chicago,IL,60630,United States,800-843-2728,41.9673867,-87.760015,,,0
Walgreens,43882,6798 N Lincoln Ave,,Lincolnwood,IL,60712,United States,800-843-2728,42.004002,-87.730185,,,0
CVS,5582,"3950 West Devon Avenue, Devon And Crawford",,Lincolnwood,IL,60712,United States,800-843-2728,42.0044757,-87.7300594,,,0
Walmart,267137,7050 S Cicero Ave,,Bedford Park,IL,60638,United States,800-843-2728,41.7655382,-87.7455533,,,0
Walmart,329836,3626 Touhy Ave,,Skokie,IL,60076,United States,800-843-2728,42.0128283,-87.7191418,,,0
CVS,11782,7179 N. Lincoln Avenue,,Lincolnwood,IL,60712,United States,800-843-2728,42.0112173,-87.7370583,,,0
Food 4 Less,279330,7770 S Cicero Ave,,Burbank,IL,60459,United States,800-843-2728,41.7520271,-87.7454658,,,0
CVS,199,7179 N. Lincoln Avenue,,Lincolnwood,IL,60712,United States,800-843-2728,42.0108749,-87.7380445,,,0
Family Dollar Stores,27364,8014 S Cicero Ave,,Burbank,IL,60459-1508,United States,800-843-2728,41.7462838,-87.7424498,,,0
Walgreens,49335,5555 W. 79Th St,,Burbank,IL,60459,United States,800-843-2728,41.74879281,-87.76071819,,,0
CVS,3582,2266 West Holcombe Boulevard,,Houston,TX,77030,United States,800-843-2728,29.7065678,-95.4110947,,,0
Walgreens,37783,5280 Buffalo Speedway,,Houston,TX,77005,United States,800-843-2728,29.725718,-95.428336,,,0
CVS,3993,4314 North Highway,,Houston,TX,77022,United States,800-843-2728,29.828011,-95.380013,,,0
Kroger,211550,1990 Old Spanish Trl,,Houston,TX,77054,United States,800-843-2728,29.6959702,-95.3932946,,,0
Family Dollar Stores,21194,5076 Griggs Rd,,Houston,TX,77021-3210,United States,800-843-2728,29.6979459,-95.3401361,,,0
Kroger,211543,5150 Buffalo Speedway,,Houston,TX,77005,United States,800-843-2728,29.7274319,-95.4306076,,,0
Walgreens,47984,747 E Crosstimbers St,,Houston,TX,77022,United States,800-843-2728,29.82936083,-95.36187348,,,0
Walmart,269055,4412 North Fwy,,Houston,TX,77022,United States,800-843-2728,29.8299035,-95.3771048,,,0
Walgreens,42785,1770 W T C Jester Blvd,,Houston,TX,77008,United States,800-843-2728,29.801394,-95.428141,,,0
Family Dollar Stores,30163,5615 Airport Blvd,,Houston,TX,77048,United States,800-843-2728,29.644655,-95.3356155,,,0
Walmart,267837,9555 S Post Oak Rd,,Houston,TX,77096,United States,800-843-2728,29.6768888,-95.4575471,,,0
CVS,4163,10222 East Freeway,,Houston,TX,77029,United States,800-843-2728,29.7728836,-95.2485361,,,0
Kroger,330695,1505 Wirt Rd,,Houston,TX,77055,United States,800-843-2728,29.7967063,-95.4865233,,,0
Family Dollar Stores,30173,5932 Renwick Dr,,Houston,TX,77081-2406,United States,800-843-2728,29.7176512,-95.4849212,,,0
Family Dollar Stores,30549,6703 Telephone Road,,Houston,TX,77061,United States,800-843-2728,29.6673177,-95.2884576,,,0
Family Dollar Stores,31528,8219 Broadway,,Houston,TX,77061,United States,800-843-2728,29.674059,-95.2770526,,,0
CVS,3452,8234 Broadway Street,,Houston,TX,77061,United States,800-843-2728,29.672767,-95.27783,,,0
Walgreens,34029,3405 S King Dr,,Chicago,IL,60616,United States,800-843-2728,41.8319645,-87.6164123,,,0
Aldi,317064,1739 West Cermak Rd.,,Chicago,IL,60608-4315,United States,800-843-2728,41.8515824,-87.6701499,,,0
Walgreens,49699,2500 N. Clark St.,,Chicago,IL,60614,United States,800-843-2728,41.92755836,-87.64186305,,,0
Walgreens,34227,1931 W Cermak Rd,,Chicago,IL,60608,United States,800-843-2728,41.852099,-87.674099,,,0
Walgreens,34203,1372 N Milwaukee Ave,,Chicago,IL,60622,United States,800-843-2728,41.90710466,-87.67251758,,,0
CVS,5572,2414 North Lincoln Avenue,,Chicago,IL,60614,United States,800-843-2728,41.9257858,-87.6496228,,,0
Walgreens,36453,2340 W Madison St,,Chicago,IL,60612,United States,800-843-2728,41.88144131,-87.68537847,,,0
Dollar General,81637,549 E Pershing Rd,,Chicago,IL,60653-1915,United States,800-843-2728,41.8238601,-87.6130142,,,0
Walgreens,49443,2817 N Clark St,,Chicago,IL,60657,United States,800-843-2728,41.93334417,-87.64502865,,,0
Family Dollar Stores,21033,3939 W Ogden Ave,,Chicago,IL,60623-2444,United States,800-843-2728,41.8501321,-87.7237157,,,0
Save-A-Lot (Supervalu),250522,344 East 63rd Street,,Chicago,IL,60637,United States,800-843-2728,41.7806679,-87.6167308,,,0
Save-A-Lot (Supervalu),251244,3939 W Ogden,,Chicago,IL,60623,United States,800-843-2728,41.8501603,-87.7240842,,,0
CVS,4501,5360 South Western Avenue,,Chicago,IL,60609,United States,800-843-2728,41.7959365,-87.6844726,,,0
Walgreens,42367,650 W 63Rd St,,Chicago,IL,60621,United States,800-843-2728,41.78008228,-87.64184321,,,0
Walgreens,39904,4385 S Archer Ave,,Chicago,IL,60632,United States,800-843-2728,41.8134578,-87.70467192,,,0
CVS,5425,641 West 63rd Street,,Chicago,IL,60652,United States,800-843-2728,41.7794406,-87.6415357,,,0
Walgreens,34700,6330 S King Dr,,Chicago,IL,60637,United States,800-843-2728,41.779091,-87.615988,,,0
Family Dollar Stores,29571,1360 N Pulaski Rd.,,Chicago,IL,60651-1916,United States,800-843-2728,41.9057194,-87.72661,,,0
CVS,5576,2634 South Pulaski Road,,Chicago,IL,60623,United States,800-843-2728,41.8435979,-87.724548,,,0
Walmart,269556,2391 S Wayside Dr,,Houston,TX,77023,United States,800-843-2728,29.7161815,-95.3130036,,,0
Walgreens,47164,7400 Fannin Ste 120,,Houston,TX,77030,United States,800-843-2728,29.69455556,-95.40080744,,,0
Walgreens,44171,2605 W Holcombe Blvd,,Houston,TX,77025,United States,800-843-2728,29.705582,-95.418762,,,0
Walgreens,34260,3900 Westheimer Rd,,Houston,TX,77027,United States,800-843-2728,29.7424732,-95.44318488,,,0
Walgreens,47165,7900 Fannin Ste 1350,,Houston,TX,77054,United States,800-843-2728,29.69172346,-95.40368654,,,0
CVS,3643,4150 North Shepherd Drive,,Houston,TX,77018,United States,800-843-2728,29.8269811,-95.4100813,,,0
CVS,17753,1525 North Loop West,,Houston,TX,77008,United States,800-843-2728,29.8118228,-95.4288358,,,0
Kroger,211545,7747 Kirby Dr,,Houston,TX,77030,United States,800-843-2728,29.6959342,-95.4155284,,,0
Walgreens,41093,6360 San Felipe St,,Houston,TX,77057,United States,800-843-2728,29.750156,-95.497107,,,0
Family Dollar Stores,26428,8122 Long Point Rd,,Houston,TX,77055-2006,United States,800-843-2728,29.8038857,-95.4899468,,,0
Walgreens,38247,8301 Broadway St,,Houston,TX,77061,United States,800-843-2728,29.67208257,-95.27649987,,,0
Family Dollar Stores,21206,5861 Bissonnet,,Bellaire,TX,77401-4719,United States,800-843-2728,29.6987812,-95.4838758,,,0
Family Dollar Stores,32864,10747 Homestead Rd.,,Houston,TX,77016,United States,800-843-2728,29.8707779,-95.3011753,,,0
CVS,3910,5212 Antoine Drive,,Houston,TX,77092,United States,800-843-2728,29.840616,-95.4724729,,,0
Family Dollar Stores,22086,2010 Clinton Dr,,Galena Park,TX,77547-2837,United States,800-843-2728,29.7329288,-95.2424158,,,0
Family Dollar Stores,28434,8624 W Montgomery Rd,,Houston,TX,77088-7121,United States,800-843-2728,29.872253,-95.437726,,,0
Kroger,211538,10306 S Post Oak Rd,,Houston,TX,77035,United States,800-843-2728,29.6692094,-95.4636859,,,0
Kroger,211528,1801 S Voss Rd,,Houston,TX,77057,United States,800-843-2728,29.7486246,-95.500266,,,0
Walgreens,49328,1601 N Milwaukee Ave,,Chicago,IL,60647,United States,800-843-2728,41.9104,-87.677343,,,0
Walgreens,34018,740 W Diversey Pkwy,,Chicago,IL,60614,United States,800-843-2728,41.932899,-87.648099,,,0
CVS,2382,2828 N. Clark Street,,Chicago,IL,60657,United States,800-843-2728,41.9336303,-87.6463882,,,0
Walmart,269582,2844 N Broadway St,,Chicago,IL,60657,United States,800-843-2728,41.9341372,-87.6446294,,,0
Walgreens,34165,1520 W Fullerton Ave,,Chicago,IL,60614,United States,800-843-2728,41.925299,-87.666399,,,0
CVS,5575,2427 West Chicago Avenue,,Chicago,IL,60622,United States,800-843-2728,41.8955174,-87.6876099,,,0
Walgreens,43908,2835 N Sheffield  Ste 505,,Chicago,IL,60657,United States,800-843-2728,41.933819,-87.653644,,,0
CVS,2945,3033 North Broadway Street,,Chicago,IL,60657,United States,800-843-2728,41.9375035,-87.6440023,,,0
Walgreens,36431,3046 N Halsted St,,Chicago,IL,60657,United States,800-843-2728,41.937799,-87.649499,,,0
Aldi,317073,1767 N. Milwaukee,,Chicago,IL,60647-5423,United States,800-843-2728,41.9138761,-87.6816293,,,0
CVS,5563,3101 North Clark Street,,Chicago,IL,60657,United States,800-843-2728,41.9382226,-87.6486304,,,0
CVS,5428,2418 West Division Street,,Chicago,IL,60622,United States,800-843-2728,41.9032962,-87.6877379,,,0
Walgreens,34028,4005 W 26Th St,,Chicago,IL,60623,United States,800-843-2728,41.844099,-87.724799,,,0
CVS,15817,2634 South Pulaski Road,,Chicago,IL,60623,United States,800-843-2728,41.8434769,-87.7248679,,,0
Walgreens,47588,1627 N Pulaski Rd,,Chicago,IL,60639,United States,800-843-2728,41.91095006,-87.72605814,,,0
Aldi,317069,3320 B W. Belmont,,Chicago,IL,60618-0000,United States,800-843-2728,41.9399094,-87.7114962,,,0
Family Dollar Stores,29994,4247 W Madison St,,Chicago,IL,60624-2215,United States,800-843-2728,41.88064,-87.7323686,,,0
CVS,639,5205 North Broadway Street,,Chicago,IL,60640,United States,800-843-2728,41.9764807,-87.6598713,,,0
CVS,12431,4800 North Damen Avenue,,Chicago,IL,60625,United States,800-843-2728,41.9690823,-87.6794047,,,0
CVS,3694,4800 North Damen Avenue,,Chicago,IL,60625,United States,800-843-2728,41.9691314,-87.6794121,,,0
Walgreens,46784,3424 W Belmont Ave,,Chicago,IL,60618,United States,800-843-2728,41.93951813,-87.71351911,,,0
Aldi,215551,4934 S. Kedzie Ave.,,Chicago,IL,60632-3042,United States,800-843-2728,41.8033276,-87.7056357,,,0
Family Dollar Stores,30538,7321 Harrisburg Blvd,,Houston,TX,77011-4738,United States,800-843-2728,29.7337262,-95.2949785,,,0
Walgreens,47141,7929 Kirby Dr,,Houston,TX,77054,United States,800-843-2728,29.693154,-95.412824,,,0
CVS,4695,7900 South Main,,Houston,TX,77030,United States,800-843-2728,29.6946004,-95.4151267,,,0
Dollar General,81441,4000 Telephone Rd Ste B-1,,Houston,TX,77087-1369,United States,800-843-2728,29.7052608,-95.3090724,,,0
Walgreens,34062,5560 Weslayan St,,Houston,TX,77005,United States,800-843-2728,29.72221625,-95.4427203,,,0
Family Dollar Stores,20566,8826 Jensen Dr,,Houston,TX,77093-7640,United States,800-843-2728,29.8401085,-95.3420912,,,0
Family Dollar Stores,20126,7053 Lawndale St,,Houston,TX,77023-4210,United States,800-843-2728,29.7182662,-95.2961234,,,0
Family Dollar Stores,31229,4122 Telephone Road,,Houston,TX,77087-1348,United States,800-843-2728,29.7038549,-95.3060428,,,0
CVS,3875,806 South 75th Street,,Houston,TX,77023,United States,800-843-2728,29.716769,-95.2954041,,,0
Dollar General,80191,7728 Lockwood Dr,,Houston,TX,77016-6424,United States,800-843-2728,29.8305633,-95.3180832,,,0
CVS,4754,"6532 San Felipe Road, Corner Of Voss",,Houston,TX,77057,United States,800-843-2728,29.7503801,-95.5010529,,,0
Family Dollar Stores,31659,9000 Airline Drive,,Houston,TX,77037-2363,United States,800-843-2728,29.889818,-95.3943291,,,0
Dollar General,79256,7944 Mesa Rd,,Houston,TX,77028-2815,United States,800-843-2728,29.835243,-95.261383,,,0
CVS,3632,6545 Westheimer Road,,Houston,TX,77057,United States,800-843-2728,29.7371396,-95.5003626,,,0
Family Dollar Stores,20035,8521 Mesa Dr,,Houston,TX,77028-2006,United States,800-843-2728,29.8398315,-95.2633978,,,0
Family Dollar Stores,21395,5337 Antoine Dr,,Houston,TX,77091-4909,United States,800-843-2728,29.8416429,-95.474874,,,0
Dollar General,79214,10925 Homestead Rd,,Houston,TX,77016-1903,United States,800-843-2728,29.874712,-95.301097,,,0
Family Dollar Stores,26044,8404 Winkler Dr,,Houston,TX,77017-5005,United States,800-843-2728,29.6754483,-95.2663672,,,0
Family Dollar Stores,22904,11027 East Fwy,,Houston,TX,77029-1930,United States,800-843-2728,29.7740801,-95.2360283,,,0
Family Dollar Stores,30505,11007 Market Street Rd,,Jacinto,TX,77029-2336,United States,800-843-2728,29.7681481,-95.2355105,,,0
Walgreens,37095,10800 S Post Oak Rd,,Houston,TX,77035,United States,800-843-2728,29.664051,-95.464342,,,0
Walgreens,43722,3210 Hillcroft St,,Houston,TX,77057,United States,800-843-2728,29.73085756,-95.50157993,,,0
Walgreens,35989,3201 N Broadway St,,Chicago,IL,60657,United States,800-843-2728,41.940199,-87.644599,,,0
Walgreens,34246,1926 W 35Th St,,Chicago,IL,60609,United States,800-843-2728,41.830499,-87.673599,,,0
Walgreens,49461,912 W Belmont Ave,,Chicago,IL,60657,United States,800-843-2728,41.93983941,-87.65216148,,,0
Walgreens,49613,3245 N Halsted St,,Chicago,IL,60657,United States,800-843-2728,41.94118415,-87.64892469,,,0
Walmart,269583,2551 W Cermak Rd,,Chicago,IL,60608,United States,800-843-2728,41.8509525,-87.6900199,,,0
Walgreens,40500,1001 W Belmont Ave,,Chicago,IL,60657,United States,800-843-2728,41.939799,-87.653999,,,0
Walgreens,34679,2440 W North Ave,,Chicago,IL,60647,United States,800-843-2728,41.910399,-87.688899,,,0
Aldi,317066,2600 N. Clybourn Avenue,,Chicago,IL,60614-1004,United States,800-843-2728,41.9286008,-87.6748107,,,0
Walgreens,49545,1333 W Belmont Ave,,Chicago,IL,60657,United States,800-843-2728,41.93987951,-87.6625923,,,0
Family Dollar Stores,27231,4646 S Halstead St,,Chicago,IL,60609-4414,United States,800-843-2728,41.809828,-87.6455683,,,0
Walgreens,43512,2001 N Milwaukee Ave,,Chicago,IL,60647,United States,800-843-2728,41.91781164,-87.68840015,,,0
CVS,5570,3940 West Fullerton Avenue,,Chicago,IL,60647,United States,800-843-2728,41.9247528,-87.7258398,,,0
Family Dollar Stores,31457,4938 S Kedzie Ave,,Chicago,IL,60632-3008,United States,800-843-2728,41.8030695,-87.705746,,,0
CVS,3556,3411 West Addison Street,,Chicago,IL,60618,United States,800-843-2728,41.9462379,-87.7135506,,,0
Walgreens,34021,4801 N Lincoln Ave,,Chicago,IL,60625,United States,800-843-2728,41.96881215,-87.68843895,,,0
Walgreens,38283,3153 W Irving Park Rd,,Chicago,IL,60618,United States,800-843-2728,41.95366692,-87.70746241,,,0
Walgreens,34242,4225 W Armitage Ave,,Chicago,IL,60639,United States,800-843-2728,41.916899,-87.732299,,,0
Walgreens,49195,5440 N Clark St,,Chicago,IL,60640,United States,800-843-2728,41.981429,-87.668555,,,0
Walgreens,37450,5625 N Ridge Ave,,Chicago,IL,60660,United States,800-843-2728,41.98431526,-87.66071547,,,0
Walgreens,45956,3934 W Diversey Ave,,Chicago,IL,60647,United States,800-843-2728,41.931526,-87.727027,,,0
CVS,4499,1550 North Kostner Avenue,,Chicago,IL,60639,United States,800-843-2728,41.909033,-87.7366347,,,0
Walgreens,34824,6895 Griggs Rd,,Houston,TX,77023,United States,800-843-2728,29.714699,-95.295599,,,0
Family Dollar Stores,30040,5005 E Crosstimbers St,,Houston,TX,77016,United States,800-843-2728,29.831447,-95.3176138,,,0
Family Dollar Stores,31086,4917 N. Shepherd Drive,,Houston,TX,77018-2217,United States,800-843-2728,29.838139,-95.4115596,,,0
Family Dollar Stores,28333,9605 Irvington Blvd,,Houston,TX,77076-5225,United States,800-843-2728,29.8483978,-95.3627238,,,0
CVS,4761,519 East Tidwell Road,,Houston,TX,77022,United States,800-843-2728,29.8464068,-95.392213,,,0
CVS,3876,3939 Bellaire Boulevard,,Houston,TX,77025,United States,800-843-2728,29.705428,-95.439684,,,0
CVS,1501,4755 Westhiemer Road,,Houston,TX,77027,United States,800-843-2728,29.7404628,-95.457426,,,0
Dollar General,81391,9125 Jensen Dr,,Houston,TX,77093-6929,United States,800-843-2728,29.846825,-95.3430028,,,0
Sam's Club,225416,1615 S. Loop West,,Houston,TX,77054,United States,800-843-2728,29.6758233,-95.4022076,,,0
Walgreens,41056,1215 W 43Rd St,,Houston,TX,77018,United States,800-843-2728,29.828099,-95.430076,,,0
Family Dollar Stores,30203,8303 Calhoun St,,Houston,TX,77033,United States,800-843-2728,29.6696164,-95.3550958,,,0
Walgreens,34070,5300 N Braeswood Blvd,,Houston,TX,77096,United States,800-843-2728,29.679296,-95.477828,,,0
Family Dollar Stores,28042,6865 Tc Jester Blvd,,Houston,TX,77091,United States,800-843-2728,29.862021,-95.4589233,,,0
Walgreens,34259,6730 Hillcroft St,,Houston,TX,77081,United States,800-843-2728,29.706533,-95.494043,,,0
Walgreens,36201,8590 Long Point Rd,,Houston,TX,77055,United States,800-843-2728,29.803503,-95.500332,,,0
Family Dollar Stores,31832,8560 Howard Drive,,Houston,TX,77017,United States,800-843-2728,29.6855619,-95.2536284,,,0
Dollar General,79579,1420 W Gulf Bank Rd,,Houston,TX,77088-3626,United States,800-843-2728,29.887983,-95.4233579,,,0
Family Dollar Stores,27090,5631 Beechnut St,,Houston,TX,77096-1021,United States,800-843-2728,29.6877497,-95.4897224,,,0
Family Dollar Stores,28063,11240 Homestead Rd,,Houston,TX,77016-1910,United States,800-843-2728,29.8821611,-95.3000587,,,0
Walgreens,36017,4841 Mount Houston Rd,,Houston,TX,77093,United States,800-843-2728,29.89147,-95.31884043,,,0
Family Dollar Stores,26088,11739b Eastex Frwy (11739b U.,,Houston,TX,77039-6205,United States,800-843-2728,29.8915897,-95.3174591,,,0
Dollar General,66668,6666 Antoine Dr,,Houston,TX,77091-1206,United States,800-843-2728,29.8614092,-95.471322,,,0
Walgreens,34782,4700 S Halsted St,,Chicago,IL,60609,United States,800-843-2728,41.80856817,-87.64615417,,,0
Walmart,268200,4720 S. Cottage Grove Avenue,,Chicago,IL,60653,United States,800-843-2728,41.809518,-87.6065779,,,0
Walgreens,34141,3646 N Broadway St,,Chicago,IL,60613,United States,800-843-2728,41.948199,-87.648099,,,0
Save-A-Lot (Supervalu),250508,4701 S Cottage Grove,,Chicago,IL,60615,United States,800-843-2728,41.809272,-87.6055879,,,0
CVS,5567,2053 North Milwaukee Avenue,,Chicago,IL,60647,United States,800-843-2728,41.9192933,-87.6901168,,,0
Walmart,267579,1424 W 47Th Street,,Chicago,IL,60609,United States,800-843-2728,41.8099599,-87.6608976,,,0
Family Dollar Stores,30314,413 S Kedzie Ave,,Chicago,IL,60612-3346,United States,800-843-2728,41.875369,-87.7050221,,,0
CVS,2312,3146 West Madison,,Chicago,IL,60612,United States,800-843-2728,41.881226,-87.7052256,,,0
Walgreens,38580,5435 S Kedzie Ave,,Chicago,IL,60632,United States,800-843-2728,41.79406776,-87.7033353,,,0
Walgreens,34143,1533 E 67Th St,,Chicago,IL,60637,United States,800-843-2728,41.77309894,-87.58773627,,,0
Walgreens,42514,3222 N Milwaukee Ave,,Chicago,IL,60618,United States,800-843-2728,41.93958895,-87.72518701,,,0
Walgreens,36433,4343 N Kedzie Ave,,Chicago,IL,60618,United States,800-843-2728,41.960699,-87.707799,,,0
Aldi,317076,4630W. Cermak Road,,Cicero,IL,60804-2522,United States,800-843-2728,41.8516907,-87.7404536,,,0
Walgreens,48466,5158 N Lincoln Ave,,Chicago,IL,60625,United States,800-843-2728,41.97557894,-87.69269313,,,0
CVS,3470,3311 North Pulaski Road,,Chicago,IL,60641,United States,800-843-2728,41.9413683,-87.7272324,,,0
Family Dollar Stores,30236,1821 S Cicero Ave,,Cicero,IL,60804-2544,United States,800-843-2728,41.8560254,-87.744045,,,0
Sam's Club,225827,2601 S. Cicero,,Cicero,IL,60804,United States,800-843-2728,41.8429667,-87.7412614,,,0
CVS,4253,3343 West Montrose Avenue,,Chicago,IL,60618,United States,800-843-2728,41.9609343,-87.7124111,,,0
Dollar General,81139,1800 S Cicero Ave,,Cicero,IL,60804-2543,United States,800-843-2728,41.8563688,-87.7447937,,,0
Kroger,330705,1352 W 43Rd St,,Houston,TX,77018,United States,800-843-2728,29.8288951,-95.4320136,,,0
Family Dollar Stores,29378,9425 Main St,,Houston,TX,77025-4553,United States,800-843-2728,29.6816753,-95.4229489,,,0
CVS,13456,3401 Tidwell Road,,Houston,TX,77093,United States,800-843-2728,29.8491545,-95.3352949,,,0
CVS,4489,3401 Tidwell Road,,Houston,TX,77093,United States,800-843-2728,29.8491406,-95.3351636,,,0
Family Dollar Stores,28239,7500 Homestead Rd,,Houston,TX,77028-3016,United States,800-843-2728,29.830564,-95.3028141,,,0
Walgreens,37115,8413 Stella Link Rd,,Houston,TX,77025,United States,800-843-2728,29.69217,-95.439483,,,0
Walgreens,43841,9733 Buffalo Speedway,,Houston,TX,77025,United States,800-843-2728,29.680571,-95.425843,,,0
Family Dollar Stores,20803,5104 Ella Blvd,,Houston,TX,77018-1310,United States,800-843-2728,29.8393812,-95.4276598,,,0
CVS,3153,9838 Buffalo Speedway,,Houston,TX,77025,United States,800-843-2728,29.678955,-95.42568,,,0
Walmart,268582,1118 Silber Rd,,Houston,TX,77055,United States,800-843-2728,29.7886807,-95.4651345,,,0
Walgreens,35400,6926 Antoine Dr,,Houston,TX,77091,United States,800-843-2728,29.862799,-95.472899,,,0
Family Dollar Stores,30565,12323 S Main St,,Houston,TX,77035-6205,United States,800-843-2728,29.6475406,-95.4632554,,,0
CVS,1620,9125 Hillcroft Street,,Houston,TX,77096,United States,800-843-2728,29.6790671,-95.4922635,,,0
Family Dollar Stores,33570,5723 Bingle Rd.,,Houston,TX,77092,United States,800-843-2728,29.8485757,-95.4887916,,,0
Walmart,330267,9700 Hillcroft St,,Houston,TX,77096,United States,800-843-2728,29.674428,-95.4954852,,,0
Family Dollar Stores,21546,6448 W Little York Rd,,Houston,TX,77091-1110,United States,800-843-2728,29.8668309,-95.4852831,,,0
CVS,4442,6504 West Little York,,Houston,TX,77040,United States,800-843-2728,29.866887,-95.4880887,,,0
Family Dollar Stores,30749,1314 College Ave,,South Houston,TX,77587-5404,United States,800-843-2728,29.6556052,-95.2453282,,,0
Dollar General,76652,8105 Antoine Dr,,Houston,TX,77088-2801,United States,800-843-2728,29.8865719,-95.4743623,,,0
Aldi,317065,1508 W. 47th Street,,Chicago,IL,60609-3236,United States,800-843-2728,41.80941,-87.6628807,,,0
Walgreens,39717,3798 S Western Ave,,Chicago,IL,60609,United States,800-843-2728,41.82505916,-87.68518992,,,0
Walgreens,39713,3943 W 47Th St,,Chicago,IL,60632,United States,800-843-2728,41.807599,-87.723299,,,0
Walgreens,34186,4800 W Cermak Rd,,Cicero,IL,60804,United States,800-843-2728,41.85157911,-87.74462384,,,0
Food 4 Less,107500,7030 S Ashland Ave,,Chicago,IL,60636,United States,800-843-2728,41.7654472,-87.6644592,,,0
Walmart,269469,4650 W North Ave,,Chicago,IL,60639,United States,800-843-2728,41.9116763,-87.7428251,,,0
Walgreens,49408,6121 N. Broadway,,Chicago,IL,60660,United States,800-843-2728,41.99231345,-87.66025982,,,0
Dollar General,81072,6647 S Western Ave,,Chicago,IL,60636-2412,United States,800-843-2728,41.772298,-87.682979,,,0
Food 4 Less,107495,3039 S Cicero Ave,,Cicero,IL,60804,United States,800-843-2728,41.8376691,-87.7411644,,,0
Walgreens,38102,4748 W North Ave,,Chicago,IL,60639,United States,800-843-2728,41.910099,-87.745099,,,0
CVS,5581,6150 North Broadway,,Chicago,IL,60660,United States,800-843-2728,41.9938606,-87.6607153,,,0
Aldi,215558,6221 N. Broadway,,Chicago,IL,60660-1902,United States,800-843-2728,41.9952342,-87.6601153,,,0
Walgreens,35707,11 E 75Th St,,Chicago,IL,60619,United States,800-843-2728,41.75713527,-87.6242235,,,0
Family Dollar Stores,27258,5050 S Pulaski Rd,,Chicago,IL,60632-4218,United States,800-843-2728,41.8008961,-87.7238151,,,0
Walgreens,36528,5200 Westheimer Rd,,Houston,TX,77056,United States,800-843-2728,29.740821,-95.467377,,,0
Walgreens,34732,8106 Martin Luther King Jr Blvd,,Houston,TX,77033,United States,800-843-2728,29.665803,-95.338242,,,0
Walgreens,41484,6600 Airline Dr,,Houston,TX,77076,United States,800-843-2728,29.859602,-95.384038,,,0
Family Dollar Stores,30616,5901 N Wayside Dr,,Houston,TX,77028-4461,United States,800-843-2728,29.8156337,-95.2851244,,,0
Kroger,211554,6749 Airline Dr,,Houston,TX,77076,United States,800-843-2728,29.8606225,-95.3859427,,,0
CVS,1637,5204 Richmond Avenue,,Houston,TX,77056,United States,800-843-2728,29.732013,-95.467315,,,0
CVS,3162,5510 West Orem Drive,,Houston,TX,77045,United States,800-843-2728,29.627696,-95.465891,,,0
Family Dollar Stores,31744,13817 S Post Oak Rd.,,Houston,TX,77045-5168,United States,800-843-2728,29.6266259,-95.4650657,,,0
Walgreens,44001,5501 W Orem Dr,,Houston,TX,77085,United States,800-843-2728,29.626789,-95.465842,,,0
Family Dollar Stores,27726,5835 W Mount Houston Rd,,Houston,TX,77088-1255,United States,800-843-2728,29.8929685,-95.4788485,,,0
Walgreens,36517,8808 Antoine Dr,,Houston,TX,77088,United States,800-843-2728,29.89435621,-95.47908105,,,0
Dollar General,81560,9010 Clearwood Dr,,Houston,TX,77075,United States,800-843-2728,29.639493,-95.246001,,,0
Family Dollar Stores,25904,1169 Edgebrook Dr,,Houston,TX,77034-1803,United States,800-843-2728,29.6418434,-95.2422335,,,0
Walmart,268407,9598 Rowlett Rd,,Houston,TX,77075,United States,800-843-2728,29.6308159,-95.2376069,,,0
Aldi,317732,10064 Almeda Genoa,,Houston,TX,77075,United States,800-843-2728,29.6267385,-95.2370771,,,0
Food 4 Less,107493,4821 W North Ave,,Chicago,IL,60639,United States,800-843-2728,41.9084836,-87.7478948,,,0
Family Dollar Stores,29935,3120 W 63rd St,,Chicago,IL,60629-2720,United States,800-843-2728,41.7792713,-87.7016987,,,0
Dollar General,81904,6225 S. kedzie Ave.,,Chicago,IL,60629-3304,United States,800-843-2728,41.7800199,-87.7031369,,,0
Walgreens,38245,6315 S Kedzie Ave,,Chicago,IL,60629,United States,800-843-2728,41.778599,-87.702699,,,0
Walgreens,43575,4001 W Irving Park Rd,,Chicago,IL,60641,United States,800-843-2728,41.95341848,-87.72805641,,,0
Walgreens,45576,7109 S Jeffery Blvd,,Chicago,IL,60649,United States,800-843-2728,41.765839,-87.576106,,,0
Family Dollar Stores,27852,4748 W Fullerton Ave,,Chicago,IL,60639-1818,United States,800-843-2728,41.924593,-87.7456484,,,0
Dollar General,80971,5627 N Lincoln Ave,,Chicago,IL,60659-4921,United States,800-843-2728,41.9840296,-87.695994,,,0
