store_name,store_number,address,address2,city,state,zip_code,country,phone_number,latitude,longitude,store_hours,other_fields,coming_soon
84th & Van Dorn,,2901 S. 84th St. Suites 1 & 2,,Lincoln,NE,68506,United States,402-327-8477,40.78247659999999,-96.60692749999998,Mon-Fri 6:00AM - 10:00PM; Sat 6:30 AM - 10:00PM; Sun 7:00AM - 10:00PM ; ,,0
S. 33rd & Pioneer,,4321 S 33rd Street,,Lincoln,NE,68516,United States,402-327-0560,40.7691891,-96.6733277,Mon-Fri 6:00AM - 8:00PM; Sat 6:30AM - 8:00PM; Sun 7:00AM - 8:00PM; ,,0
626 Andover,,626 Andover Rd. Suite 100,,Andover,KS,67002,United States,316-733-1330,37.6767176,-97.1345606,Mon-Sat 6:00AM - 8:00PM; Sun 7:00AM - 6:00PM; ,,0
27th & Superior,,2700 Dan Ave.,,Lincoln,NE,68504,United States,402-742-0263,40.854042,-96.681723,Mon-Sun 6:00AM - 10:00PM; ,,0
State Office Building,,301 Centennial Mall S.,,Lincoln,NE,68509,United States,402-476-4111,40.810831,-96.700452,Mon-Fri 6:45AM - 5:00PM; Sat-Sun CLOSED; ,,0
84th & F,,8401 F St.,,Omaha,NE,68127,United States,402-502-7299,41.2236003,-96.043147,Mon-Fri 6:00AM - 7:00PM; Sat-Sun 6:30AM - 7:00PM; ,,0
122nd & Center,,12246 W Center Rd.,,Omaha,NE,68144,United States,402-359-1111,41.234105,-96.1053185,Mon-Sun 6:00AM - 8:00PM; ,,0
Academy Blvd.,,4296 N. Academy Blvd.,,Colorado Springs,CO,80918,United States,719-266-6832,38.8908993,-104.757102,Mon-Sat 6:00AM - 8:00PM; Sun 7:00AM - 7:00PM; ,,0
Rockbrook Village,,2812 S. 108th St.,,Omaha,NE,68144,United States,402-614-6099,41.2334729,-96.0823097,Mon-Sat 6:00AM - 8:00PM; Sun 6:00AM - 7:00PM; ,,0
144th & Dayton,,4259 S. 144th St.,,Omaha,NE,68137,United States,402-905-0880,41.2177315,-96.138604,Mon-Sun 6:00AM - 8:00PM; ,,0
84th and Adams,,2790 N. 83rd St.,,Lincoln,NE,68507,United States,402-421-0883,40.8414288,-96.606856,Mon-Fri 6:00AM - 7:00PM; Sat 6:30AM - 6:00PM; Sun 7:00AM - 5:00PM; ,,0
57th & Marion,,5303 W. 57th St.,,Sioux Falls,SD,57106,United States,605-275-4234,43.5002847,-96.7919885,Mon-Sun 6:00AM - 7:00PM; ,,0
K7 & Santa Fe,,154 S. Parker St.,,Olathe,KS,66061,United States,913-839-8235,38.8810262,-94.8343802,Mon-Sat 6:00AM - 7:00PM; Sun- 7:00AM - 6:00PM; ,,0
90th & Blair High,,6102 Irvington Rd.,,Omaha,NE,68134,United States,402-571-4275,41.3147507,-96.052617,Mon-Sat 6:00AM - 7:00PM; Sun 7:00AM - 7:00PM; ,,0
145th & Center,,14501 WestÂ Center Rd.,,Omaha,NE,68144,United States,402-932-7995,41.2333531,-96.14213089999998,Mon-Sun 6:00AM - 9:00PM; ,,0
Mid-Rivers Dr.,,322 Mid Rivers Mall Dr.,,St. Peters,MO,63376,United States,636-387-5012,38.7924933,-90.6237721,Mon-Fri 6:00AM - 6:00PM; Sat 7:00AM - 6:00PM; Sun 7:30AM - 5:00PM; ,,0
76th & Pacific,,7595 Pacific St.,,Omaha,NE,68114,United States,402-502-1961,41.2486245,-96.0313427,Mon-Sun 6:00AM - 8:00PM; ,,0
33rd & Cornhusker,,3275 Cornhusker Hwy.,,Lincoln,NE,68504,United States,402-325-0196,40.8424439,-96.6732312,Mon-Fri 6:00AM - 8:00PM; Sat 6:30AM - 6:00PM; Sun 7:00AM - 5:00PM; ,,0
156th & Maple,,15805 W. Maple Rd. #108,,Omaha,NE,68116,United States,402-933-4788,41.2914931,-96.1605474,Mon-Sun 6:00AM - 10:00PM; ,,0
120th & Fort,,11901 Fort St.,,Omaha,NE,68164,United States,402-934-9949,41.306126,-96.099092,Mon-Sun 6:00AM - 8:00PM; ,,0
K10 & Woodland ,,19641 W. 101 St.,,Lenexa,KS,66220,United States,913-764-2326,38.94444,-94.8134263,Mon-Thurs 6:00AM - 9:00PM; Fri 6:00AM - 8:00PM; Sat 7:00AM - 8:00PM; Sun 8:00AM - 5:00PM; ,,0
Virginia Pkwy.,,2741 Virginia Pkwy #100,,McKinney,TX,75071,United States,214-585-0514,33.198332,-96.6515468,Mon-Fri 5:30AM - 8:00PM; Sat 6:30AM - 8:00PM; Sun 7:00AM - 5:00PM; ,,0
14th & Old Cheney,,5535 S 16th St.,,Lincoln,NE,68512,United States,402-421-0993,40.7556734,-96.7017747,Mon-Fri 6:00AM - 8:00PM; Sat 6:30AM - 6:00PM; Sun 7:00AM - 6:00PM; ,,0
Leavenworth,,1050 N. 4th St.,,Leavenworth,KS,66048,United States,913-682-3734,39.3276967,-94.915377,Mon-Fri 5:30AM - 8:00PM; Sat-Sun 6:00AM - 8:00PM; ,,0
33rd & Minnesota,,420 W. 33rd St.,,Sioux Falls,SD,57105,United States,605-275-4233,43.5222462,-96.73042809999998,Mon-Sun 6:00AM - 7:00PM; ,,0
Independence,,291 Hwy. & 23rd St.,,Independence,MO,64057,United States,816-252-2326,39.0777634,-94.3791047,Mon-Sun 6:00AM - 8:00PM; ,,0
95th & Antioch,,8830 W. 95th St.,,Overland Park,KS,66212,United States,913-652-9600,38.956906,-94.6877771,Mon-Sat 6:00AM - 7:00PM; Sun- 7:00AM - 5:00PM; ,,0
Oakview Mall,, 3001 S. 144th St.,,Omaha,NE,68144,United States,402-934-5526,41.2292684,-96.1345269,Mon-Sat 9:00AM - 9:00PM; Sun 10:00AM - 6:00PM; ,,0
Drake University,,"1315 31st St., Ste. A",,East Des Moines,IA,50311,United States,515-277-7874,41.6024713,-93.6588316,Mon-Thu 6:00AM - 7:00PM; Fri 6:30AM - 8:00PM; Sat 7AM - 8PM; Sun 7AM - 9PM; ,,0
S 1900 W & W Riverdale Rd,,1871 W. 5300 S.,,Roy,UT,84067,United States,801-648-7759,41.1676004,-112.0246281,Mon-Fri 5:30AM - 9:00PM; Sat 6:00AM - 9:00PM; Sun 7:00AM - 7:00PM ; ,,0
Keller,,1570 Keller Pkwy.,,Keller,TX,76248,United States,817-337-7777,32.9344225,-97.2151959,Mon-Fri 6:00AM - 7:00PM; Sat 6:30AM - 7:00PM; Sun 7:00AM - 7:00PM; ,,0
Nebraska Crossing,,21331 Nebraska Crossing,,Gretna,NE,68028,United States,402-332-3667,41.0999489,-96.2501514,Mon-Sat 9:00AM - 9:00PM; Sun 10:00AM - 6:00PM; ,,0
70th & O,,6811 O St.,,Lincoln,NE,68510,United States,402-464-0321,40.8125258,-96.6271794,Mon-Sun 6:00AM - 10:00PM; ,,0
Harlan Dr. & Galvin Rd.,,1550 Harlan Dr.,,Bellevue,NE,68005,United States,402-932-5665,41.1403178,-95.9138718,Mon-Sun 6:00AM - 8:00PM; ,,0
Burlington Rd.,,2600 Burlington St.,,North Kansas City,MO,64116,United States,816-221-0990,39.148665,-94.581185,Mon-Sun 6:00AM - 6:00PM; ,,0
Gretna,,11791 S. Hwy. 6,,Gretna,NE,68028,United States,402-332-2548,41.1264923,-96.2532443,Mon-Sat 6:00AM - 8:00PM; Sun 7:00AM - 6:00PM; ,,0
Plattsmouth,,16401 Westside Dr. ,,Plattsmouth,NE,68048,United States, 402-296-9079,41.0110614,-95.9095029,Mon-Sat 6:00AM - 8:00PM; Sun 6:30AM - 7:00PM; ,,0
Mosaic Life Care,,5325 Faraon St.,,St. Joseph,MO,64506,United States,816-387-8701,39.7732177,-94.7708764,Mon-Sun 6:00AM - 8:00PM; ,,0
Westroads Mall - Downstairs,,10000 California,,Omaha,NE,68114,United States,402-397-7273,41.2675225,-96.0687314,Mon-Sat 9:00AM - 9:00PM; Sun 10:00AM - 6:00PM; ,,0
132nd & Center,,2815 S. 132nd St.,,Omaha,NE,68144,United States,402-334-0377,41.233582,-96.118238,Mon-Sun 6:00AM - 8:00PM; ,,0
Millard Plaza,,13951 S St.,,Omaha,NE,68133,United States,402-933-1797,41.2036063,-96.1336709,Mon-Sun 6:00AM - 8:00PM; ,,0
Shawnee Mission Pkwy.,,10610 Shawnee Mission Pkwy.,,Shawnee,KS,66203,United States,913-962-1085,39.0154439,-94.709357,Mon-Sun 6:00AM - 8:00PM; ,,0
Eppley Airport,,4501 Abbott Dr.,,Omaha,NE,68110,United States,402-422-6376,41.299607,-95.899616,open airport hours; ,,0
9th & Iowa,,2005 W 9th St.,,Lawrence,KS,66044,United States,785-856-4580,38.9677013,-95.260041,Mon-Sun 6:00AM - 8:00PM; ,,0
Fort Crook,,903 Ft. Crook Rd.,,Bellevue,NE,68005,United States,402-731-2441,41.1749665,-95.9241208,Mon-Sat 6:00AM - 6:00PM; Sat- 7:00AM - 4:00PM; ,,0
78th & Dodge,,111 N. 78th St.,,Omaha,NE,68114,United States,402-391-1515,41.2600321,-96.0349199,Mon-Sun 6:00AM - 8:00PM; ,,0
63rd & Center,,6303 Center St. #101,,Omaha,NE,68106,United States,402-504-3211,41.2374748,-96.0103283,Mon-Sun 6:00AM - 9:00PM; ,,0
135th & Maple,,13335 W. Maple St.,,Wichita,KS,67235,United States,316-722-3329,37.6786897,-97.4950836,Mon-Sat 6:00AM - 8:00PM; Sun 7:00AM - 6:00PM; ,,0
Village Gardens,,5800 Hidcote Dr. #100,,Lincoln,NE,68516,United States,402-858-6481,40.739904,-96.6412907,Mon-Fri 6:00AM - 9:00PM; Sat 6:30AM - 9:00PM; Sun 7:00AM - 8:00PM; ,,0
Kansas Newman University,,3100 McCormick Ave.,,Wichita,KS,67213,United States,316-942-4291,37.672452,-97.379327,Mon-Thurs 7:30AM - 9:00PM; Fri 7:30AM - 3:00PM; Sat-Sun Closed; ,,0
Chamber Building,,149 W. Broadway,,Council Bluffs,IA,51503,United States,712-256-0737,41.2622188,-95.8450553,Mon-Fri 6:00AM - 5:00PM; Sat-Sun- 8:00AM - 3:00PM; ,,0
Colleyville Blvd.,,7171 Colleyville Blvd.,,Colleyville,TX,76034,United States,817-416-6800,32.9122162,-97.1317001,Mon-Fri 6:00AM - 7:00PM; Sat 6:30AM - 7:00PM; Sun 7:00AM - 7:00PM; ,,0
Lansing,,721 Center Dr.,,Lansing,KS,66043,United States,913-250-0297,39.238637,-94.901551,Mon-Sun 6:00AM - 8:00PM; ,,0
132nd & Pacific,,1130 Sterling Ridge Dr.,,Omaha,NE,68144,United States,402-498-2800,41.2452972,-96.1145128,Mon-Sat 6:00AM - 9:00PM; Sunday 6:00AM - 3:00PM; ,,0
E. 30th St. N. & N. Rock Rd.,,3123 N. Rock Rd.,,Wichita,KS,67226,United States,316-719-2284,37.7402062,-97.2451785,Mon-Sat 6:00AM - 7:00PM; Sun 7:00AM - 7:00PM; ,,0
Rancho Cordova,,2348 Sunrise Blvd.,,Rancho Cordova,CA,95670,United States,916-852-8566,38.6166413,-121.2709434,Mon-Sun 6:00AM - 7:00PM; ,,0
Belt Line & Runyon,,4021 Belt Line Rd. #303,,Addison,TX,75001,United States,972-789-9644,32.9553629,-96.8440285,Mon-Fri 6:00AM - 7:00PM; Sat 6:30AM - 7:00PM; Sun 7:00AM - 5:00PM; ,,0
Rowlett & Lakeview,,3600 Lakeview Pkwy,,Rowlett,TX,75088,United States,469-366-9582,32.90749040000001,-96.5681401,Mon-Fri 6:00AM - 7:00PM; Sat 6:30AM - 7:00PM; Sun 7:00AM - 7:00PM; ,,0
30th & Broadway,,3030 West Broadway,,Council Bluffs,IA,51501,United States,712-242-1050,41.2623128,-95.8937474,LOBBY: Mon-Sat 5:30AM - 7:00PM ; Sun 6:00AM - 6:30PM; DRIVE-THRU:  Mon-Sat 5:30AM - 8:00PM; Sun 6:00AM - 8:00PM; ,,0
156th & Pacific,,15655 Pacific St. #3,,Omaha,NE,68118,United States,402-991-5282,41.248077,-96.159528,Mon-Sat 6:00AM - 9:00PM; Sun 7:00AM - 8:00PM; ,,0
175th & Center,,17530 Wright St.,,Omaha,NE,68130,United States,402-330-5452,41.2325651,-96.1923028,Mon-Fri 6:00AM - 6:30PM; Sat-Sun 6:30AM - 6:30PM; ,,0
96th & Q,,5233 S 96th St.,,Omaha,NE,68127,United States,402-932-2833,41.2051349,-96.0619596,Mon-Sun 6:00AM - 8:00PM; ,,0
87th & Grant,,9455 W. 87th St.,,Overland Park,KS,66212,United States,913-381-JAVA,38.9708768,-94.6952237,Mon-Sun 6:00AM - 7:00PM; ,,0
U Save Pharmacy - S. Locust,,2105 S. Locust St.,,Grand Island,NE,68801,United States,308-382-4126,40.9011072,-98.3391781,Mon-Sun 6:00AM - 8:00PM; ,,0
Westfield Gateway Mall,,6100 O St.,,Lincoln,NE,68506,United States,402-261-9072,40.8153683,-96.636933,Mon-Sat 9:30AM - 9:00PM; Sun 11:30AM - 6:00PM; ,,0
W. Central,,7399 W. Central Ave.,,Wichita,KS,67212,United States,316-558-5320,37.6940976,-97.4286724,Mon-Sat 5:30AM - 7:00PM; Sun 7:00AM - 7:00PM; ,,0
Capehart,,2211 Capehart Rd. #107,,Bellevue,NE,68123,United States,402-504-9700,41.1177348,-95.9446489,Mon-Sat 5:30AM - 10:00PM; Sun 6:00AM - 10:00PM; ,,0
Roswell,,"550 W. Crossville Rd., Suite 101",,Roswell,GA,30075,United States,770-299-1350,34.0552837,-84.37840210000002,Mon-Fri 5:00AM - 8:00PM; Sat-Sun 7:00AM - 7:00PM; ,,0
10th & Bahnson ,,3650 E. 10th Street,,Sioux Falls,SD,57103,United States,605-271-2988,43.54662820000001,-96.6817398,Mon-Sun 6:00AM - 7:00PM; ,,0
E. University & Copper Creek,,1201 Copper Creek Drive,,Pleasant Hill,IA,50327,United States,515-263-9999,41.6009123,-93.52444209999999,Mon - Sun 6:00AM - 7:00PM; ,,0
Normal Blvd. & South St. ,,3838 Normal Blvd.,,Lincoln,NE,68506,United States,402-476-0547,40.7918114,-96.66511750000001,Mon-Sun 6:00AM - 8:00PM; ,,0
100th & Hickman Road,,10155 Hickman Road,,Urbandale,IA,50322,United States,515-276-2966,41.6149492,-93.7577243,Mon-Fri 5:30AM - 7:00PM; Sat-Sun 6:30AM - 7:00PM; ,,0
West O Street,,401 West O St.,,Lincoln,NE,68528,United States,402-476-5995,40.8136838,-96.7242895,Mon-Sun 6:00AM - 7:00PM; ,,0
90th & Hwy 370 *COMING SOON,,766 Gold Coast Road,,Papillion,NE,68046,United States,,41.138394, -96.058673,,,0
120th & Blondo,,11975 Blondo St.,,Omaha,NE,68164,United States,402-932-3473,41.2772746,-96.0996689,Mon-Thurs 5:30AM - 9:00PM; Fri- 5:30AM - 7:00PM; Sat- 6:30AM - 7:00PM; ,,0
Westroads Mall - Upstairs,,10000 California,,Omaha,NE,68114,United States,402-397-7365,41.2675225,-96.0687314,Mon-Sat 9:00AM - 9:00PM; Sun 10:00AM - 6:00PM; ,,0
84th & Giles,,8102 S. 84th St.,,La Vista,NE,68128,United States,402-502-8544,41.177834,-96.0436658,Mon-Sun 6:00AM - 8:00PM; ,,0
24th & Cornhusker,,2402 Cornhusker Rd.,,Bellevue,NE,68123,United States,402-934-4936,41.1593487,-95.9453135,Mon-Sun 6:00AM - 9:00PM; ,,0
36th & Hwy. 370,,3615 Summit Plaza #104,,Bellevue,NE,68123,United States,402-293-0100,41.1402007,-95.9684699,Mon-Sun 6:00AM - 9:00PM; ,,0
180th & Q,,17935 Welch Plaza,,Omaha,NE,68135,United States,402-891-2017,41.2063849,-96.1957771,Mon-Fri 6:00AM - 9:00PM; Sat 6:30AM - 9:00PM; Sun 6:30AM - 7:00PM; ,,0
72nd & Dodge,,7149 Dodge St.,,Omaha,NE,68132,United States,402-556-6023,41.2593215,-96.0234542,Mon-Sat 5:30AM - 10:00PM; Sun 6:00AM - 10:00PM; ,,0
Village Pointe,,17151 Davenport St. #107,,Omaha,NE,68118,United States,402-934-9774,41.2605752,-96.183306,Mon-Thurs 9:00AM - 9:00PM; Fri 9:00AM - 10:00PM; Sat 8:00AM - 10:00PM; Sun 10:00AM - 6:00PM; ,,0
90th & Grant,,2220 N. 90th St.,,Omaha,NE,68134,United States,402-391-2990,41.2792573,-96.0530052,Mon-Sun 6:00AM - 8:00PM; ,,0
Summer Kitchen Cafe - Cornhusker,,1203 Cornhusker Rd.,,Bellevue,NE,68123,United States,402-291-4544,41.1577961,-95.9325435,Mon-Sat 6:00AM - 9:00PM; Sun 6:00AM - 3:00PM; ,,0
72nd and Cornhusker,,751 Pinnacle Dr.,,Papillion,NE,68046,United States,402-884-2240,41.1639749,-96.0241547,Mon-Fri 5:30AM - 10:00PM; Sat-Sun 6:00AM - 10:00PM; ,,0
Golds Building,,1033 O St. #100,,Lincoln,NE,68508,United States,402-474-5282,40.8132563,-96.7059748,Mon-Fri 6:30AM - 6:00PM; Sat 7:00AM - 5:00PM; Sun CLOSED; ,,0
84th & Center,,8459 W. Center St.,,Omaha,NE,68124,United States,402-391-1115,41.2339951,-96.0463827,Mon-Sun 6:00AM - 8:00PM; ,,0
InfoUSA,,1020 E. 1st St.,,Papillion,NE,68046,United States,402-930-3500,41.1571946,-96.029476,Mon-Fri 7:00AM - 11:00PM; ,,0
72nd & Q,,5405 S. 72nd St.,,Omaha,NE,68127,United States,402-592-0072,41.2035135,-96.0235359,Mon-Sat 6:00AM - 6:30PM; Sun 7:00AM - 6:00PM; ,,0
College & Antioch,,11106 Antioch Rd.,,Overland Park,KS,66210,United States,913-283-9223,38.9267835,-94.6868022,Mon-Sun 6:00AM - 7:00PM; ,,0
Haymarket,,151 N. 8th St.,,Lincoln,NE,68508,United States,402-475-0115,40.8143811,-96.7102265,Mon-Thurs 6:30AM - 10:00PM; Fri-Sat 6:30AM - 11:00PM; Sun 8:00AM - 10:00PM; ,,0
Hwy. 31 & Veterans Dr. (Elkhorn),,1119 N 204th Ave,,Elkhorn,NE,68022,United States,402-932-8880,41.2693158,-96.2350629,Mon-Thurs 6:00AM - 8:00PM; Fri-Sat 6:00AM - 7:00PM; Sun 7:00AM - 6:00PM; ,,0
57th & Western,,5009 S. Western Ave.,,Sioux Falls,SD,57108,United States,605-271-0293,43.4988963,-96.7484205,Mon-Fri 6:30AM - 9:30PM; Sat 7:00AM - 9:30PM; Sun 8:00AM - 9:30PM; ,,0
Country Club Plaza,,446 W. 47th St.,,Kansas City,MO,64111,United States,816-561-1733,39.0425746,-94.593017,Sun-Thurs 7:00AM - 9:00PM; Fri-Sat 7:00AM - 10:00PM; ,,0
929 Walnut,,929 Walnut St.,,Kansas City,MO,64106,United States,816-221-0105,39.102448,-94.581602,Mon-Fri 6:00AM - 6:00PM; Sat 7:00AM - 3:00PM; Sun CLOSED; ,,0
Ridge Rd.,,3480 N. Ridge Rd.,,Wichita,KS,67205,United States,316-613-3436,37.7462265,-97.4258155,Mon-Sat 6:00AM - 7:00PM; Sun 7:00AM - 7:00PM; ,,0
108th & M,,5011 S. 108th St.,,Omaha,NE,68137,United States,402-934-1681,41.2091156,-96.0808475,Mon-Fri 6:00AM - 9:00PM; Sat 6:30AM - 9:00PM; Sun 6:30AM - 8:00PM; ,,0
23rd & N. Clarkson,,610 E. 23rd St.,,Fremont,NE,68025,United States,402-721-2888,41.4518672,-96.4896622,Mon-Thurs 6:00AM - 8:00PM; Fri-Sat 6:00AM - 9:00PM; Sun 7:00AM - 7:00PM; ,,0
102nd & Maple,,10196 Maple St.,,Omaha,NE,68134,United States,402-991-0288,41.2852402,-96.07155,Mon-Sun 6:00AM - 9:00PM; ,,0
Blue Springs,,1116 SW. 7 Hwy.,,Blue Springs,MO,64014,United States,816-224-3711,39.0311265,-94.2717379,Mon-Sat 6:00AM - 7:00PM; Sun 7:00AM - 7:00PM; ,,0
12th & Howard,,1123 Howard St.,,Omaha,NE,68102,United States,402-991-9868,41.2552668,-95.9316018,Mon-Sat 7:00AM - 9:00PM; Sun 8:00AM - 8:00PM; ,,0
One Pacific Place,,10309 Pacific St.,,Omaha,NE,68114,United States,402-397-5892,41.2483913,-96.0742181,Mon-Fri 5:30AM - 7:00PM; Sat 7:00AM - 6:30PM; Sun 8:00AM - 6:00PM; ,,0
48th & McKinley,,9229 Mormon Bridge Plaza #1,,Omaha,NE,68152,United States,402-991-1250,41.3439354,-95.9849977,Mon-Fri 5:30AM - 9:00PM; Sat-Sun 6:30AM - 8:00PM; ,,0
Hwy. 287 & 5th Ave.,,1951 W. 5th Ave.,,Broomfield,CO,80020,United States,303-439-9350,39.924134,-105.0913432,Mon-Fri 6:00AM - 6:00PM; Sat-Sun 7:00AM - 5:00PM; ,,0
Rolla,,1050 W. 10th St.,,Rolla,MO,65401,United States,573-458-3210,37.9526095,-91.785419,Mon-Fri 6:00AM - 6:00PM; Sat 7:00AM - 6:00PM; Sun 7:30AM - 5:00PM; ,,0
Summer Kitchen Cafe - La Vista,,12010 Giles Rd.,,La Vista,NE,68128,United States,402-328-0007,41.177948,-96.1005854,Mon-Sat 6:00AM - 9:00PM; Sun- 6:00AM - 3:00PM; ,,0
Town Pavilion KC,,1111 Main St.,,Kansas City,MO,64105,United States,816-471-1500,39.100756,-94.5831286,Mon-Fri 7:00AM - 4:00PM; ,,0
First National Bank Building,,1620 Dodge St.,,Omaha,NE,68102,United States,402-991-6131,41.2600229,-95.9378179,Mon-Fri 7:00AM - 5:00PM; ,,0
E. Santa Fe St. & Mur-Len Rd. ,,2027 E. Santa Fe St.,,Olathe,KS,66062,United States,913-390-0422,38.8833873,-94.781557,Mon-Sun 6:00AM - 8:00PM; ,,0
Hayden Place (Blair),,2100 S. 20th St. #1,,Blair,NE,68008,United States,402-426-5282,41.5245747,-96.1420968,Mon-Fri 5:30AM - 8:00PM; Sat 6:00AM - 7:00PM; Sun 7:00AM - 6:00PM; ,,0
Kearney North,,4402 2nd Ave.,,Kearney,NE,68847,United States,308-236-2133,40.7177747,-99.083988,Mon-Sun 6:00AM - 8:00PM; ,,0
13th St.,,905 S. 13th St.,,Norfolk,NE,68701,United States,402-379-0887,42.02232,-97.4261566,Mon-Fri 5:30AM - 7:00 PM; Sat-Sun 6:30AM - 6:00 PM; ,,0
St. Elizabeth Hospital,,555 S. 70th St.,,Lincoln,NE,68510,United States,402-219-7217,40.8081559,-96.626893,Mon-Fri 6:30AM - 7:00PM; Sat-Sun 7:00AM - 4:00PM; ,,0
Gordon Drive,,675 Gordon Dr.,,Sioux City,IA,51101,United States,712-255-0296,42.4899662,-96.4024603,Mon-Fri 6:00 AM - 6:30PM; Sat 6:30AM - 6:30PM; Sun 6:30AM - 5:00PM; ,,0
168th & Dodge,,310 N. 168th Cir.,,Omaha,NE,68118,United States,402-614-5788,41.2620126,-96.1778065,Mon-Sun 6:00AM - 8:00PM; ,,0
Fort Calhoun,,509 N. 14th St.,,Fort Calhoun,NE,68023,United States,,41.4600681,-96.02631859999997,Mon-Fri 5:30AM - 7:00PM; Sat-Sun 6:30AM - 6:00PM; ,,0
Wesley Pkwy. & Hamilton Blvd.,,1390 Hamilton Blvd.,,Sioux City,IA,51103,United States, 712-277-0153,42.5051094,-96.41674669999998,Mon-Sat 6:00AM - 9:00PM; Sun 7:00AM - 7:00PM; ,,0
2nd & Washington,,311 N. Washington St.,,Wichita,KS,67202,United States,,37.69016999999999,-97.3267429,Mon-Fri 6:00AM - 7:00PM; Sat 7:00AM - 7:00PM; Sun 7:00AM - 5:00PM; ,,0
Yankton,,1907 Broadway St.,,Yankton,SD,57078,United States,605-689-2633,42.8875867,-97.39669099999998,Mon-Fri 6:00AM - 7:00PM; Sat-Sun 6:30AM - 7:00PM; ,,0
College & Quivira ,,12140 College Blvd.,,Overland Park,KS,66210,United States,913-317-5450,38.9279144,-94.7282429,Mon-Fri 6:00AM - 8:00PM; Sat 6:30AM - 8:00PM; Sun 7:00AM - 7:00PM; ,,0
Antioch Annex,,5550 N. Antioch Rd.,,Kansas City,MO,64119,United States,816-569-6551,39.2082149,-94.54851730000001,Mon - Fri 5:30AM - 8:00PM; Sat - Sun 6:00AM - 8:00PM; ,,0
Brandon,,110 E. Holly Blvd.,,Brandon,SD,57005,United States,605-582-6789,43.5946706,-96.59189420000001,Mon-Fri 6:00AM - 9:00PM; Sat-Sun 7:00AM - 8:00PM; ,,0
180th & Burke ,,304 N. 179th St. #201,,Omaha,NE,68118,United States,402-884-8868,41.25945,-96.19564400000002,Mon-Sun 6:00AM - 9:00PM; ,,0
Warrensburg,,501 N. Maguire Street,,Warrensburg,MO,64093,United States,660-362-0171,38.7679321,-93.73407989999998,Mon - Sun 6:00AM - 9:00PM; ,,0
NW Crossing,,3418 W. State Street,,Grand Island,NE,68803,United States,308-381-3787,40.9386682,-98.38077390000001,Mon-Sun 6:00AM - 8:00PM; ,,0
Kearney South,,114 2nd Ave. East,,Kearney,NE,68847,United States,308-236-4144,40.6725639,-99.0860164,Mon-Sun 6:00AM - 8:00PM; ,,0
UNL East Campus Rec & Wellness Center,,1717 N. 35th Street,,Lincoln,NE,68583,United States,402-472-2479,40.82783939999999,-96.66960699999998,Mon-Thurs 5:45AM - 7:00PM; Fri 9:00AM - 7:00PM; Sat-Sun Closed; ,,0
52nd & O ,,5310 O Street,,Lincoln,NE,68510,United States,402-476-0545,40.8135151,-96.64799490000001,Mon-Sun 6:00AM - 10:00PM; ,,0
204th & Pacific,,1515 S 204th St. Suite #101,,Omaha,NE,68022,United States,402-505-4012,41.2463039,-96.2342289,Mon-Thurs 6:00AM - 8:00PM; Fri-Sat 6:00AM - 7:00PM; Sun 7:00AM - 6:00PM; ,,0
73rd & Hickman,,7500 Hickman Road,,Windsor Heights,IA,50324,United States,515-276-2551,41.6146577,-93.7225474,Mon - Sun 6:00AM - 7:00PM; ,,0
Nebraska City ,,2104 S 11th Street,,Nebraska City,NE,68410,United States,402-873-2916,40.6561709,-95.8591166,Mon-Fri 5:00AM - 9:00PM; Sat 6:00AM - 9:00PM; Sun 7:00AM - 7:00PM; ,,0
North Platte,,1400 South Dewey,,North Platte,NE,69101,United States,308-221-6952,41.1216718,-100.76291839999999,Mon-Sun 6:00AM - 8:00PM; ,,0
Union Station,,"801 E Douglas, Suite 110",,Wichita,KS,67202,United States,,37.6857715,-97.3285745,Mon-Thurs 7:00AM - 6:00PM; Fri 7:00AM - 12:00AM; Sat 8:00AM - 6:00PM; Sun CLOSED; ,,0
Cape Coral,,1014 Del Prado Blvd. ,,Cape Coral,FL,33990,United States,239-673-9283,26.6332052,-81.94118409999999,Mon-Fri 6:00AM - 7:00PM; Sat 7:00AM - 7:00PM; Sun 8:00AM - 3:00PM; ,,0
16th & Broadway,,4 North 16th Street,,Council Bluffs,IA,51501,United States,712-396-2029,41.261975,-95.86761719999998,Mon-Sat 5:30AM - 9:00PM; Sun 6:00AM - 9:00PM; ,,0
Canton Road & Rimrock Road,,2943 Canton Rd.,,Marietta,GA,30066,United States,770-424-9198,34.02372899999999,-84.53066150000001,Mon-Fri 5:00AM - 8:00PM; Sat-Sun 7:00AM - 7:00PM; ,,0
Floyd & Outer,,3136 Floyd Blvd.,,Sioux City,IA,51108,United States,712-224-2739,42.5335954,-96.37057249999998,Mon-Sat 6:00AM - 9:00PM; Sun 7:00AM - 7:00PM; ,,0
E. 71st St. & S. Lewis Ave.,,6954 S Lewis Ave.,,Tulsa,OK,74136,United States,918-292-8782,36.06224470000001,-95.95787940000002,Mon-Sun 6:00AM - 7:00PM; ,,0
State Hwy 46 & FM 3351 (Ralph Fair Rd),,"1 FM 3351 S, Suite 155",,Boerne,TX,78006,United States,830-336-2106,29.825353,-98.572587,Mon - Fri 6:00AM - 6:00PM; Sat 7:00AM - 6:00PM; Sun 8:00AM - 4:00PM; ,,0
72nd & Military Ave. ,,4040 N. 72nd St,,Omaha,NE,68134,United States,402-932-7995,41.29552470000001,-96.02394300000003,Mon - Sun 6:00AM - 9:00 PM; ,,0
C Ave. NE,,7037 C Ave. NE,,Cedar Rapids,IA,52402,United States,319-294-0060,42.0485044,-91.63928870000001,Mon-Fri 6:00AM - 9:00PM; Sat 7:00AM - 9:00PM; Sun 8:00AM - 9:00PM; ,,0
Edgewood Rd. SW,,2300 Edgewood Rd. SW,,Cedar Rapids,IA,52404,United States,319-654-8888,41.95582659999999,-91.7178533,Mon-Fri 6:00AM - 9:00PM; Sat 7:00AM - 9:00PM; Sun 8:00AM - 9:00PM; ,,0
Marion Blvd.,,690 Marion Blvd.,,Cedar Rapids,IA,52302,United States,319-447-1110,42.0275469,-91.61841609999999,Mon-Thurs 6:00AM - 7:00PM; Fri 6:00AM - 8:00PM; Sat 7:00AM - 8:00PM; Sun 8:00AM - 6:00PM; ,,0
Downtown Des Moines Skywalk,,700 Locust St.,,Des Moines,IA,50309,United States,515-244-3641,41.58615,-93.6266799,Mon-Fri 6:00AM - 5:00PM; Sat-Sun Closed; ,,0
SE Grimes Blvd. ,,2810 SE Grimes Blvd.,,Grimes,IA,50111,United States,515-986-4070,41.665316,-93.775915,Mon-Sun 6:00AM - 8:00PM; ,,0
99 University Ave. ,,99 University Ave.,,Des Moines,IA,50314,United States,515-244-3517,41.600591,-93.61868800000002,Mon-Sun 6:00AM - 7:00PM; ,,0
Osceola Dr. & Orange Ave.,,833 Osceola Dr.,,Rockledge,FL,32955,United States,321-338-2589,28.336246,-80.72572400000001,Mon-Sat 6:00AM - 8:00PM; Sun 7:00AM - 7:00PM; ,,0
84th & Park Drive ,,5502 S 84th Street,,Omaha,NE,68127,United States,,41.20198200000001,-96.04307219999998,Mon-Sun 6:00AM - 8:00PM; ,,0
HWY 26 & Ave. B,,3301 Avenue B,,Scottsbluff,NE,69361,United States,308-633-0013,41.8666341,-103.6671662,Mon-Sun 5:30AM - 7:00PM; ,,0
W. Glendale,,2635 W. Glendale Ave.,,Phoenix,AZ,85051,United States,480-848-1914,33.5385592,-112.11568729999999,Mon-Fri 5:30AM - 6:00PM; Sat-Sun 7:00AM - 5:00PM; ,,0
23rd & HWY 30,,2117 23rd Street,,Columbus,NE,68601,United States,402-835-5510,41.43829789999999,-97.3530925,Mon-Fri 5:00AM - 7:00PM; Sat 6:00AM - 7:00PM; Sun 6:00AM - 6:00PM ; ,,0
135th & Grandview ,,8973 West 135th,,Overland Park,KS,66221,United States,913-701-6304,38.8836324,-94.69001300000002,Mon - Sat 6:00AM - 9:00PM; Sun 7:00AM - 9:00PM; ,,0
North 6th Street & Industrial Road,,2305 N 6th Street,,Beatrice,NE,68310,United States,402-806-4202,40.28900180000001,-96.7468902,Mon-Fri 5:00AM - 9:00PM; Sat-Sun 6:00AM - 8:00PM; ,,0
55th & Mills Civic Parkway,,5585 Mills Civic Parkway,,West Des Moines,IA,50266,United States,515-223-9311,41.55972,-93.783728,Mon - Sun 5:30AM - 9:00PM; ,,0
W Benjamin Ave. ,,902 W Benjamin Ave.,,Norfolk,NE,68701,United States,402-316-7811,42.0474531,-97.419671,Mon-Fri 5:30AM - 7:00PM; Sat-Sun 6:30AM - 7:00PM; ,,0
144th & Maple,,3703 N. 144th St. ,,Omaha,NE,68116,United States,402-502-0772 ,41.2924483,-96.13878720000002,Mon - Fri 6:00AM - 8:00PM; Sat 6:00AM - 7:00PM; Sun 7:00AM - 7:00PM; ,,0
127th & Pflumm,,12551 Pflumm Rd. ,,Overland Park,KS,66213,United States,913-283-8235,38.89965799999999,-94.74186700000001,Mon-Sun 6:00AM - 9:00PM; ,,0
85th & Minnesota,,7710 S Dakota Hawk Ave.,,Sioux Falls,SD,57108,United States,605-271-0964,43.4750762,-96.72686060000001,Mon-Fri 6:00AM - 8:30PM; Sat-Sun 6:30AM - 7:30PM; ,,0
W. 7th & Lulu St. ,,525 W. 7th St.,,Augusta,KS,67010,United States,316-351-7113,37.6793502,-96.9846503,Mon-Fri 6:00AM - 9:00PM; Sat 7:00AM - 9:00PM; Sun 7:00AM - 7:00PM; ,,0
22nd & Eastbrook Dr.,,305 22nd Avenue South,,Brookings,SD,57006,United States,605-692-5445,44.30355850000001,-96.76823000000002,Mon-Sat 5:30AM - 7:30PM; Sun 7:00AM - 7:00PM; ,,0
60th & F Street,,5929 F St.,,Omaha,NE,68117,United States,402-505-6646,41.2197069,-96.00375930000001,Mon-Sat 6:00AM - 8:00PM; Sun 7:00AM - 7:00PM; ,,0
Madison Ave. & Woodbury Ave.,,1738 Madison Ave.,,Council Bluffs,IA,51503,United States,712-323-4460,41.2424937,-95.82639840000002,Mon-Sat 6:00AM - 9:00PM; Sun 7:00AM - 7:00PM; ,,0
Main St.,,1308 S Main St. ,,Maryville,MO,64468,United States,660-224-2207,40.33261160000001,-94.87385669999998,Mon-Fri 6:00AM - 9:00PM; Sun 6:00AM - 8:00PM; ,,0
Main Street & S Colony Blvd. ,,4740 S Colony Blvd.,,The Colony,TX,75056,United States,214-407-7115,33.080543,-96.89196470000002,Mon-Sat 5:30AM - 8:00PM; Sun 7AM - 7PM; ,,0
W 2700 N *COMING SOON,,2701 N 1600 W,,Pleasant View,UT,84404,United States,,41.3073186,-112.01800049999997,,,0
Sunrise Blvd. & Winding Way *COMING SOON,,7904 Winding Way,,Fair Oaks,CA,95628,United States,,38.644296,-121.27070850000001,Mon-Sun 6:00AM - 7:00PM; ,,0
