store_name,store_number,address,address2,city,state,zip_code,country,phone_number,latitude,longitude,store_hours,other_fields,coming_soon
HAMILTON,,859 UPPER JAMES ST.,,HAMILTON,ON,L9C 3A3,CANADA,,43.22662,-79.88184,,,0
OAKVILLE,,2451 LAKESHORE RD.W.,,OAKVILLE,ON,L6L 1H6,CANADA,,43.39429,-79.71203,,,0
HAMILTON,,1594 BARTON ST.E.,,HAMILTON,ON,L8H 2X9,CANADA,,43.24628,-79.79489,,,0
BRANTFORD,,1365C COLBORNE STREET E.,,BRANTFORD,ON,N3T 5M1,CANADA,,43.1503,-80.18182,,,0
HAMILTON,,386 UPPER GAGE AVE.,,HAMILTON,ON,L8V 4H9,CANADA,,43.23459,-79.83622,,,0
HAMILTON,,1822 UPPER JAMES ST.,,HAMILTON,ON,L9B 1K9,Canada,,43.19587,-79.8965,,,0
HAMILTON,,603 KING ST.E.,,HAMILTON,ON,L8N 1E4,CANADA,,43.2524,-79.85052,,,0
HAMILTON,,1800 BURLINGTON ST.E.,,HAMILTON,ON,L8H 3L4,CANADA,,43.25669,-79.78827,,,0
HAMILTON,,711 QUEENSTON RD.,,HAMILTON,ON,L8G 1A1,CANADA,,43.2293,-79.77026,,,0
COBOURG,,500 DIVISION ST.,,COBOURG,ON,K9A 3S4,CANADA,,43.96651,-78.16846,,,0
ST. CATHARINES,,383 ONTARIO ST.,,ST. CATHARINES,ON,L2R 5L3,CANADA,,43.1763,-79.26638,,,0
DUNDAS,,39 COOTES DR.,,DUNDAS,ON,L9H 1B4,CANADA,,43.26563,-79.94669,,,0
BRANTFORD,,206 HENRY ST.,,BRANTFORD,ON,N3S 6V1,CANADA,,43.155,-80.23998,,,0
BRANTFORD,,151 KING GEORGE RD.,,BRANTFORD,ON,N3R 5K7,CANADA,,43.1725,-80.27762,,,0
HAMILTON,,545 WOODWARD AVE.,,HAMILTON,ON,L8H 6P2,CANADA,,43.24778,-79.77694,,,0
MISSISSAUGA,,150 LAKESHORE  RD.E.,,MISSISSAUGA,ON,L5G 1E9,Canada,,43.55589,-79.58112,,,0
FORT ERIE,,191 GARRISON RD.,,FORT ERIE,ON,L2A 1E9,CANADA,,42.89268,-78.92838,,,0
BURLINGTON,,850 APPLEBY LINE,,BURLINGTON,ON,L7L 2Y7,CANADA,,43.37745,-79.76752,,,0
TORONTO,,2317 ST. CLAIR AVE.W.,,TORONTO,ON,M6N 1K9,CANADA,,43.66998,-79.47872,,,0
NIAGARA FALLS,,7209 DRUMMOND RD.,,NIAGARA FALLS,ON,L2G 4P7,CANADA,,43.07157,-79.09705,,,0
HAMILTON,,927 RYMAL RD. E.,,HAMILTON,ON,L8W 3M2,CANADA,,43.19228,-79.85177,,,0
KESWICK,,248 THE QUEENSWAY S.,,KESWICK,ON,L4P 2B1,CANADA,,44.22721,-79.46447,,,0
FRUITLAND,,823 HWY #8 Under renovation till November 2013,,FRUITLAND,ON,L0R 1L0,Canada,,43.21031,-79.70942,,,0
STONEY CREEK,,354 HWY #8,,STONEY CREEK,ON,L8G 1E8,CANADA,,43.21881,-79.72649,,,0
STONEY CREEK,,333-339 HWY #20,,STONEY CREEK,ON,L8G 3X4,CANADA,,43.2211,-79.75681,,,0
CALEDONIA,,83 ARGYLE ST.,,CALEDONIA,ON,N3W 1B8,CANADA,,43.06991,-79.95415,,,0
HARRISTON,,5572 HWY #9,,HARRISTON,ON,N0G 1Z0,CANADA,,43.9091,-80.84332,,,0
DUNNVILLE,,1054 BROAD ST.,,DUNNVILLE,ON,N1A 2Z2,CANADA,,42.90295,-79.60204,,,0
LONDON,,1769 DUNDAS ST.,,LONDON,ON,N5W 3E6,CANADA,,43.00298,-81.18217,,,0
ETOBICOKE,,198 BROWN'S LINE,,ETOBICOKE,ON,M8W 3T3,CANADA,,43.5973,-79.5433,,,0
WINDSOR,,4560 HOWARD AVE.,,WINDSOR,ON,N9G 1P6,CANADA,,42.24264,-82.99654,,,0
CHATHAM,,562 RICHMOND ST.,,CHATHAM,ON,N7M 1R3,CANADA,,42.38955,-82.19719,,,0
PARIS,,93-99 KING EDWARD STREET,,PARIS,ON,N3L 0A1,CANADA,,43.1822,-80.38883,,,0
SARNIA,,1100 MURPHY RD.,,SARNIA,ON,N7S 2Y2,CANADA,,42.99541,-82.36579,,,0
WINDSOR,,3472 WALKER RD.,,WINDSOR,ON,N8W 3S3,Canada,,42.27453,-82.97655,,,0
BURLINGTON,,2430 FAIRVIEW ST.,,BURLINGTON,ON,L7R 2E4,CANADA,,43.34636,-79.79824,,,0
HORNBY,,R.R.#1 (TRAFALGAR RD.),,HORNBY,ON,L0P 1E0,CANADA,,43.53896,-79.76225,,,0
DELHI,,12 CHURCH ST.,,DELHI,ON,N4B 1V7,CANADA,,42.93147,-80.29039,,,0
ANCASTER,,1180 WILSON ST. W.,,ANCASTER,ON,L9C 1G4,CANADA,,43.24234,-79.8953,,,0
BARRIE,,453 DUNLOP ST.,,BARRIE,ON,L4N 1C2,CANADA,,44.3782,-79.7165,,,0
MISSISSAUGA,,1095 LAKESHORE RD.W.,,MISSISSAUGA,ON,L5H 1J3,CANADA,,43.5316,-79.60788,,,0
MISSISSAUGA,,3100 WINSTON CHURCHILL BLVD.,,MISSISSAUGA,ON,L5L 2V7,CANADA,,43.52468,-79.68486,,,0
HAMILTON,,160 JOHN ST.,,HAMILTON,ON,L8N 2C4,CANADA,,43.25188,-79.8684,,,0
BEAMSVILLE,,"5001 GREENLANE RD. is temporarily closed for renovations until May 16, 2011.",,BEAMSVILLE,ON,L0R 1B0,Canada,,43.16583,-79.47639,,,0
HAMILTON,,610 KING ST. WEST,,HAMILTON,ON,L8P 1C2,CANADA,,43.26185,-79.8868,,,0
BRONTE,,754 BRONTE RD.,,BRONTE,ON,L6J 4Z3,Canada,,43.47948,-79.65582,,,0
INNISFIL,,"7364 YONGE ST., UNIT 3",,INNISFIL,ON,L9S 2M6,CANADA,,44.30007,-79.61349,,,0
BEAMSVILLE,,5005 SOUTH SERVICE RD.,,BEAMSVILLE,ON,L0R 1B4,CANADA,,43.18359,-79.47109,,,0
LONDON,,312 COMMISSIONERS RD. W.,,LONDON,ON,N6J 1Y3,CANADA,,42.95538,-81.27644,,,0
ALLISTON,,527 VICTORIA ST. E.,,ALLISTON,ON,L9R 1K1,canada,,44.15638,-79.8582,,,0
FLAMBOROUGH,,"1489 HWY #6, R.R. #2",,FLAMBOROUGH,ON,L8N 2Z7,CANADA,,49.10619,14.9105,,,0
HAMILTON,,315 CENTENNIAL PARKWAY,,HAMILTON,ON,L8E 2X3,CANADA,,43.23968,-79.75938,,,0
TORONTO,,840 DUPONT ST.,,TORONTO,ON,M6C 1Z8,CANADA,,43.69714,-79.43478,,,0
GUELPH,,256 BROCK RD. S. R. R. #3,,GUELPH,ON,N1H 6H9,CANADA,,43.45983,-80.13403,,,0
OTTAWA,,590 MONTREAL RD.,,OTTAWA,ON,K1K 0T9,CANADA,,45.44216,-75.64355,,,0
GLOUCESTER,,2931 BANK ST.,,GLOUCESTER,ON,K1T 1N7,CANADA,,45.34768,-75.62522,,,0
GLOUCESTER,,1134 OGILVIE RD.,,GLOUCESTER,ON,K1J 8V1,CANADA,,45.42609,-75.63161,,,0
OTTAWA,,631 INDUSTRIAL AVE.,,OTTAWA,ON,K1G 0Z1,CANADA,,45.41086,-75.641,,,0
WINCHESTER,,HWY #31,,WINCHESTER,ON,K0C 2K0,CANADA,,45.12999,-75.35908,,,0
SCARBOROUGH,,7445 KINGSTON RD.,,SCARBOROUGH,ON,M1B 5S3,CANADA,,43.80152,-79.14175,,,0
LONDON,,1885 HURON ST.,,LONDON,ON,N5V 3A5,CANADA,,43.02762,-81.18807,,,0
OTTAWA,,1795 BANTREE ROAD,,OTTAWA,ON,K1B 4G6,CANADA,,45.40936,-75.61913,,,0
HAMILTON,,1551 MAIN ST. W.,,HAMILTON,ON,L8S 1E2,CANADA,,43.25751,-79.92689,,,0
ARTHUR,,8006 WELLINGTON RD 109,,ARTHUR,ON,N0G 1A0,CANADA,,43.82793,-80.53008,,,0
BRESLAU,,"2900 VICTORIA ST., HWY #7",,BRESLAU,ON,N0B 1M0,CANADA,,35.32985,-80.8261,,,0
CHELMSFORD,,3775  HWY. #144,,CHELMSFORD,ON,P0M 1L0,CANADA,,46.54518,-81.20474,,,0
ORILLIA,,425 WEST ST. N.,,ORILLIA,ON,L3V 3J1,CANADA,,44.60517,-79.43205,,,0
KING CITY,,1494 WELLINGTON ST. W.,,KING CITY,ON,L7B 1K5,CANADA,,43.98931,-79.51753,,,0
KITCHENER,,1105 KING ST. E.,,KITCHENER,ON,N2G 2N3,CANADA,,43.44171,-80.47175,,,0
HAMILTON,,1160 FENNELL AVE. E.,,HAMILTON,ON,L8T 1S5,CANADA,,43.25002,-79.86609,,,0
WATERDOWN,,553 DUNDAS ST.E. (HWY#5),,WATERDOWN,ON,L0R 2H1,CANADA,,43.35754,-79.89128,,,0
PORT PERRY,,1805 SCUGOG ST.,,PORT PERRY,ON,L9L 1B2,CANADA,,44.09991,-78.94539,,,0
BRAMPTON,,675 MAIN ST. NORTH,,BRAMPTON,ON,L6X 0G6,CANADA,,43.70454,-79.78609,,,0
ORLEANS,,2688 ST. JOSEPH BLVD.,,ORLEANS,ON,K1C 1G5,CANADA,,45.47191,-75.52299,,,0
HAGERSVILLE,,85 MAIN ST S,,HAGERSVILLE,ON,N0A 1H0,CANADA,,42.95688,-80.05645,,,0
MOUNTAIN,,"RR #3, 10514 COUNTY RD.",,MOUNTAIN,ON,K0E 1S0,CANADA,,2.737597,-62.0751,,,0
CAYUGA,,2 TALBOT ST.,,CAYUGA,ON,N0A 1E0,CANADA,,42.95035,-79.85572,,,0
HAMILTON,,1092 HWY #6,,HAMILTON,ON,L8N 2Z7,CANADA,,19.27646,100.3698,,,0
MISSISSAUGA,,3411 MAVIS RD.,,MISSISSAUGA,ON,L5C 1T7,CANADA,,43.57801,-79.6467,,,0
TIMMINS,,1455 RIVERSIDE DR.,,TIMMINS,ON,P4R 1M8,CANADA,,48.4717,-81.38474,,,0
GRIMSBY,,62 MAIN ST. E.,,GRIMSBY,ON,L3M 1N2,CANADA,,43.19421,-79.56242,,,0
WHITBY,,1519 DUNDAS ST. E.,,WHITBY,ON,L1N 2K7,CANADA,,43.89754,-78.94293,,,0
AJAX,,"1 HARWOOD AVE., SOUTH",,AJAX,ON,L1S 2C1,CANADA,,43.86116,-79.02578,,,0
CAVAN MONAGHAN,,6868 HWY. #7,,CAVAN MONAGHAN,ON,K9J 6X6,CANADA,,44.24759,-78.35294,,,0
PETERBOROUGH,,336 LANSDOWNE ST. E.,,PETERBOROUGH,ON,K9L 1R1,CANADA,,44.28954,-78.29655,,,0
ORILLIA,,285 ATHERLEY RD.,,ORILLIA,ON,L3V 1N7,CANADA,,44.60563,-79.39928,,,0
BOWMANVILLE,,146 LIBERTY ST. SOUTH,,BOWMANVILLE,ON,L1C 2P4,CANADA,,43.90123,-78.67612,,,0
ST. THOMAS,,1020 TALBOT ST.,,ST. THOMAS,ON,N5P 1G3,CANADA,,42.77869,-81.17042,,,0
SUDBURY,,463 FALCONBRIDGE,,SUDBURY,ON,P3A 5N4,CANADA,,46.50972,-80.93353,,,0
TILLSONBURG,,115 SIMCOE ST.,,TILLSONBURG,ON,N4G 2J2,CANADA,,42.85847,-80.70983,,,0
SUDBURY,,1232 LASALLE BLVD.,,SUDBURY,ON,P3A 1Y7,CANADA,,46.52208,-80.95073,,,0
WINDSOR,,3124 JEFFERSON BLVD.,,WINDSOR,ON,N8T 2W6,CANADA,,42.29571,-82.94255,,,0
WINDSOR,,2380 WALKER RD.,,WINDSOR,ON,N8W 3P6,Canada,,42.29905,-82.99233,,,0
ST. GEORGE,,"178 BRANT RD.,RR #1",,ST. GEORGE,ON,N0E 1N0,CANADA,,43.25526,-80.31017,,,0
TECUMSEH,,13366 COUNTY RD.#42,,TECUMSEH,ON,N8N 2L9,CANADA,,42.29445,-82.85868,,,0
GUELPH,,715 WELLINGTON ST. W.,,GUELPH,ON,N1H 8L9,CANADA,,43.51912,-80.26942,,,0
OWEN SOUND,,1598 16TH ST. E.,,OWEN SOUND,ON,N4K 5N3,CANADA,,44.5748,-80.93174,,,0
BRADFORD,,22 BRIDGE ST.,,BRADFORD,ON,L3Z 3H2,CANADA,,44.11566,-79.55612,,,0
FENWICK,,1501 REGIONAL ROAD 24,,FENWICK,ON,L0S 1C0,CANADA,,43.0433,-79.38799,,,0
WELLAND,,681 SOUTH PELHAM RD.,,WELLAND,ON,L3C 3C9,CANADA,,43.00807,-79.28557,,,0
AMHERSTVIEW,,4495 BATH ROAD,,AMHERSTVIEW,ON,K7N 1A5,CANADA,,44.21883,-76.64262,,,0
SARNIA,,1070 CONFEDERATION ST.,,SARNIA,ON,N7S 5S5,CANADA,,42.96086,-82.37273,,,0
HANOVER,,857 10TH STREET,,HANOVER,ON,N4N 1S1,CANADA,,44.15522,-81.00754,,,0
MINDEN,,"12597 HWY 35, PO BOX 149",,MINDEN,ON,K0M 2K0,CANADA,,44.93007,-78.7152,,,0
TILLSONBURG,,680 BROADWAY ST.,,TILLSONBURG,ON,N4G 3S9,CANADA,,42.86589,-80.73331,,,0
BURLINGTON,,4499 MAINWAY,,BURLINGTON,ON,L7L 7P3,CANADA,,43.38711,-79.78133,,,0
PETERBOROUGH,,1781 LANSDOWNE ST. W.,,PETERBOROUGH,ON,K9J 6X4,CANADA,,44.27361,-78.40128,,,0
HAMILTON,,439 MOHAWK RD. W.,,HAMILTON,ON,L9C 1X3,CANADA,,43.23123,-79.90183,,,0
WELLAND,,90 LINCOLN STREET WEST,,WELLAND,ON,L3C 5J7,CANADA,,42.98403,-79.25874,,,0
GANANOQUE,,560 KING STREET E.,,GANANOQUE,ON,K7G 1H2,CANADA,,44.33512,-76.15398,,,0
HASTINGS,,"91 BRIDGE STREET SOUTH, P.O. BOX #536",,HASTINGS,ON,K0L 1Y0,CANADA,,44.30264,-78.00813,,,0
BARRIE,,565 YONGE ST.,,BARRIE,ON,L4N 4E3,CANADA,,44.35893,-79.65183,,,0
STOUFFVILLE,,15641 HWY #48,,STOUFFVILLE,ON,L4A 7X4,CANADA,,62.62785,29.59145,,,0
CARLETON PLACE,,"10418 HIGHWAY 7, RR 2",,CARLETON PLACE,ON,K7C 3P2,CANADA,,45.1406,-76.14655,,,0
ST. CATHARINES,,170 FOURTH AVE.,,ST. CATHARINES,ON,L2R 6P9,CANADA,,43.15559,-79.26571,,,0
HAMILTON,,"919 UPPER PARADISE RD., UNIT #1",,HAMILTON,ON,L9B 2M9,CANADA,,43.21851,-79.91841,,,0
WOODBRIDGE,,5869 HWY 7 EAST,,WOODBRIDGE,ON,L4L 1T9,CANADA,,43.77398,-79.61696,,,0
SUDBURY,,1050 KINGSWAY BLVD.,,SUDBURY,ON,P3B 2E5,CANADA,,46.50362,-80.96835,,,0
TORONTO,,1980 LAWRENCE AVENUE E.,,TORONTO,ON,M1R 2Z1,CANADA,,43.65322,-79.38319,,,0
MILTON,,8473 HWY #25 NORTH,,MILTON,ON,L95 2X7,CANADA,,50.84009,4.397958,,,0
GUELPH,,245 EDINBURGH ROAD NORTH,,GUELPH,ON,N1H 5S2,CANADA,,43.54391,-80.26698,,,0
KINGSTON,,1396 BATH RD.,,KINGSTON,ON,K7M 4X6,CANADA,,44.23737,-76.55095,,,0
BELLEVILLE,,379 NORTH FRONT ST.,,BELLEVILLE,ON,K8P 3C8,CANADA,,44.18834,-77.39626,,,0
NAPANEE,,24 CENTRE ST.,,NAPANEE,ON,K7R 3E4,CANADA,,44.24481,-76.94756,,,0
KINGSTON,,2236 PRINCESS ST.,,KINGSTON,ON,K7M 3G3,CANADA,,44.2577,-76.5423,,,0
CORNWALL,,439 13TH STREET W.,,CORNWALL,ON,K6H 3H7,CANADA,,45.02232,-74.72882,,,0
BROCKVILLE,,3019 COUNTY RD. 29,,BROCKVILLE,ON,K6V 5T4,CANADA,,44.61134,-75.73626,,,0
TRENTON,,130 DUNDAS ST.E.,,TRENTON,ON,K8V 1L3,CANADA,,44.10482,-77.56764,,,0
MISSISSAUGA,,3015 THOMAS STREET,,MISSISSAUGA,ON,L5M 0R4,CANADA,,43.56061,-79.73376,,,0
KEMPTVILLE,,712 RIDEAU STREET NORTH,,KEMPTVILLE,ON,K0G 1J0,CANADA,,45.01639,-75.64595,,,0
NORTH YORK,,2881 KEELE ST.,,NORTH YORK,ON,M3M 2G9,CANADA,,43.73315,-79.48356,,,0
GODERICH,,79 VICTORIA STREET NORTH,,GODERICH,ON,N7A 2R9,Canada,,43.74284,-81.7139,,,0
CAMBRIDGE,,145 HESPELER ROAD,,CAMBRIDGE,ON,N1R 3G9,CANADA,,43.3796,-80.319,,,0
COLLINGWOOD,,350 FIRST STREET,,COLLINGWOOD,ON,L9Y 1B4,CANADA,,44.5017,-80.22717,,,0
THOROLD,,13207 LUNDYS LANE,,THOROLD,ON,L2E 6S4,CANADA,,43.08078,-79.18172,,,0
SCARBOROUGH,,4901 SHEPPARD AVENUE,,SCARBOROUGH,ON,M1S 4A6,CANADA,,43.79232,-79.24605,,,0
PORT HOPE,,161 PETER ST.,,PORT HOPE,ON,l1A 1C7,CANADA,,43.95076,-78.27947,,,0
PORT DOVER,,10 MAIN ST.,,PORT DOVER,ON,N0A 1N0,CANADA,,42.78459,-80.20063,,,0
SIMCOE,,128 QUEENSWAY WEST,,SIMCOE,ON,N3Y 2M6,CANADA,,42.84512,-80.31269,,,0
SCARBOROUGH,,3279 KINGSTON RD.,,SCARBOROUGH,ON,M1M 1P7,CANADA,,43.73138,-79.22475,,,0
WASAGA BEACH,,535 RIVER ROAD WEST,,WASAGA BEACH,ON,L9Z 2X2,CANADA,,44.53436,-79.98361,,,0
PARRY SOUND,,80 BOWES ST.,,PARRY SOUND,ON,P2A 2L7,CANADA,,45.34285,-80.0163,,,0
MISSISSAUGA,,1401 MATHESON BLVD. E.,,MISSISSAUGA,ON,L4W 3W2,Canada,,43.64091,-79.63144,,,0
BRAMPTON,,1707 QUEEN ST. E.,,BRAMPTON,ON,L6T 2H2,Canada,,43.72222,-79.71976,,,0
