store_name,store_number,address,address2,city,state,zip_code,country,phone_number,latitude,longitude,store_hours,other_fields,coming_soon
Atlantic Superstore - Young Street,0354,6141 Young Street ,,Halifax,NS,B3K 2A5,United States,,44.658581,-63.605533,Thursday: 12:00 AM - 12:00 AM; Friday: 12:00 AM - 12:00 AM; Saturday: 12:00 AM - 12:00 AM; Sunday: 12:00 AM - 12:00 AM; Monday: 12:00 AM - 12:00 AM; Tuesday: 12:00 AM - 12:00 AM; ,,0
Atlantic Superstore - Rothesay Ave,0353,168 Rothesay Ave ,,Saint John,NB,E2J 2B5,United States,,45.287,-66.046,Thursday: 7:00 AM - 11:00 PM; Friday: 7:00 AM - 11:00 PM; Saturday: 7:00 AM - 11:00 PM; Sunday: 9:00 AM - 8:00 PM; Monday: 7:00 AM - 11:00 PM; Tuesday: 7:00 AM - 11:00 PM; ,,0
Atlantic Superstore - Onondago Street,0315,1150 Onondago Street ,,Oromocto,NB,E2V 1B8,United States,,45.852956,-66.473344,Thursday: 8:00 AM - 10:00 PM; Friday: 8:00 AM - 10:00 PM; Saturday: 8:00 AM - 10:00 PM; Sunday: 10:00 AM - 6:00 PM; Monday: 8:00 AM - 10:00 PM; Tuesday: 8:00 AM - 10:00 PM; ,,0
Atlantic Superstore - Trinity Drive,0326,89 Trinity Drive ,,Moncton,NB,E1G 2J7,United States,,46.118391,-64.83239,Thursday: 12:00 AM - 12:00 AM; Friday: 12:00 AM - 12:00 AM; Saturday: 12:00 AM - 12:00 AM; Sunday: 12:00 AM - 12:00 AM; Monday: 12:00 AM - 12:00 AM; Tuesday: 12:00 AM - 12:00 AM; ,,0
Atlantic Superstore - St. Margarets Bay Road,0313,5178 St. Margarets Bay Road ,,Upper Tantallon,NS,B3Z 4G3,United States,,44.686763,-63.879383,Thursday: 7:00 AM - 11:00 PM; Friday: 7:00 AM - 11:00 PM; Saturday: 7:00 AM - 11:00 PM; Sunday: 9:00 AM - 8:00 PM; Monday: 7:00 AM - 11:00 PM; Tuesday: 7:00 AM - 11:00 PM; ,,0
Atlantic Superstore - Madawaska Road,0396,240 Madawaska Road ,,Grand Falls,NB,E3Y 1A5,United States,,47.055809,-67.745482,Thursday: 8:00 AM - 10:00 PM; Friday: 8:00 AM - 10:00 PM; Saturday: 8:00 AM - 10:00 PM; Sunday: 9:00 AM - 6:00 PM; Monday: 8:00 AM - 10:00 PM; Tuesday: 8:00 AM - 10:00 PM; ,,0
Atlantic Superstore - Davidson Drive,0337,21 Davidson Drive ,,Bridgewater,NS,B4V 2P9,United States,,44.381165,-64.519082,Thursday: 7:00 AM - 11:00 PM; Friday: 7:00 AM - 11:00 PM; Saturday: 7:00 AM - 11:00 PM; Sunday: 9:00 AM - 8:00 PM; Monday: 7:00 AM - 11:00 PM; Tuesday: 7:00 AM - 11:00 PM; ,,0
Atlantic Superstore - Portland Street,0352,650 Portland Street ,,Dartmouth,NS,B2W 2M7,United States,,44.669982,-63.522576,Thursday: 7:00 AM - 11:00 PM; Friday: 7:00 AM - 11:00 PM; Saturday: 7:00 AM - 11:00 PM; Sunday: 7:00 AM - 11:00 PM; Monday: 7:00 AM - 11:00 PM; Tuesday: 7:00 AM - 11:00 PM; ,,0
Atlantic Superstore - Main Street,0318,470 Main Street ,,Kingston,NS,B0P 1R0,United States,,44.984338,-64.952219,Thursday: 8:00 AM - 10:00 PM; Friday: 8:00 AM - 10:00 PM; Saturday: 8:00 AM - 10:00 PM; Sunday: 10:00 AM - 8:00 PM; Monday: 8:00 AM - 10:00 PM; Tuesday: 8:00 AM - 10:00 PM; ,,0
Atlantic Superstore - Highway #7,0367,5240 Highway 7 ,,Porters Lake,NS,B3E 1J7,United States,,44.743085,-63.281598,Thursday: 8:00 AM - 10:00 PM; Friday: 8:00 AM - 10:00 PM; Saturday: 8:00 AM - 10:00 PM; Sunday: 10:00 AM - 8:00 PM; Monday: 8:00 AM - 10:00 PM; Tuesday: 8:00 AM - 10:00 PM; ,,0
Atlantic Superstore - Somerset Street,0311,680 Somerset St ,,Saint John,NB,E2K 2V7,United States,,45.288985,-66.084629,Thursday: 7:00 AM - 11:00 PM; Friday: 7:00 AM - 11:00 PM; Saturday: 7:00 AM - 11:00 PM; Sunday: 9:00 AM - 8:00 PM; Monday: 7:00 AM - 11:00 PM; Tuesday: 7:00 AM - 11:00 PM; ,,0
Atlantic Superstore - Victoria Street,0325,577 Victoria Street ,,Edmundston,NB,E3V 3L1,United States,,47.382922,-68.334763,Thursday: 8:00 AM - 10:00 PM; Friday: 8:00 AM - 10:00 PM; Saturday: 8:00 AM - 10:00 PM; Sunday: 8:00 AM - 6:00 PM; Monday: 8:00 AM - 10:00 PM; Tuesday: 8:00 AM - 10:00 PM; ,,0
Atlantic Superstore - Cole Harbour Road,0384,920 Cole Harbour Road Box 440 ,,Dartmouth,NS,B2V 2J5,United States,,44.67004,-63.500064,Thursday: 8:00 AM - 10:00 PM; Friday: 8:00 AM - 10:00 PM; Saturday: 8:00 AM - 10:00 PM; Sunday: 9:00 AM - 9:00 PM; Monday: 8:00 AM - 10:00 PM; Tuesday: 8:00 AM - 10:00 PM; ,,0
Atlantic Superstore - Main Street,0350,165 Main Street ,,Moncton,NB,E1C 1B3,United States,,46.093878,-64.768337,Thursday: 7:00 AM - 12:00 AM; Friday: 7:00 AM - 12:00 AM; Saturday: 7:00 AM - 12:00 AM; Sunday: 8:00 AM - 9:00 PM; Monday: 7:00 AM - 12:00 AM; Tuesday: 7:00 AM - 12:00 AM; ,,0
Atlantic Superstore - Smythe Street,0341,471 Smythe Street ,,Fredericton,NB,E3B 3E3,United States,,45.958392,-66.657947,Thursday: 7:00 AM - 12:00 AM; Friday: 7:00 AM - 12:00 AM; Saturday: 7:00 AM - 12:00 AM; Sunday: 9:00 AM - 7:00 PM; Monday: 7:00 AM - 12:00 AM; Tuesday: 7:00 AM - 12:00 AM; ,,0
Atlantic Superstore - Main St,0329,116 Main St ,,Fredericton,NB,E3A 1R7,United States,,45.978259,-66.657639,Thursday: 7:00 AM - 11:00 PM; Friday: 7:00 AM - 11:00 PM; Saturday: 7:00 AM - 11:00 PM; Sunday: 9:00 AM - 7:00 PM; Monday: 7:00 AM - 11:00 PM; Tuesday: 7:00 AM - 11:00 PM; ,,0
Atlantic Superstore - Paint Street,0317,50 Paint Street ,,Port Hawkesbury,NS,B9A 3K1,United States,,45.619207,-61.333649,Thursday: 8:00 AM - 10:00 PM; Friday: 8:00 AM - 10:00 PM; Saturday: 8:00 AM - 10:00 PM; Sunday: 10:00 AM - 8:00 PM; Monday: 8:00 AM - 10:00 PM; Tuesday: 8:00 AM - 10:00 PM; ,,0
Atlantic Superstore - Charlottetown,0376,465 University Ave ,,Charlottetown,PE,C1A 4N8,United States,,46.250524,-63.141219,Thursday: 12:00 AM - 12:00 AM; Friday: 12:00 AM - 12:00 AM; Saturday: 12:00 AM - 12:00 AM; Sunday: 12:00 PM - 8:00 PM; Monday: 7:00 AM - 12:00 AM; Tuesday: 12:00 AM - 12:00 AM; ,,0
Atlantic Superstore - Coverdale Road,0361,429 Coverdale Road ,,Riverview,NB,E1B 3K3,United States,,46.065286,-64.801584,Thursday: 7:00 AM - 11:00 PM; Friday: 7:00 AM - 11:00 PM; Saturday: 7:00 AM - 11:00 PM; Sunday: 8:00 AM - 9:00 PM; Monday: 7:00 AM - 11:00 PM; Tuesday: 7:00 AM - 11:00 PM; ,,0
Atlantic Superstore - Westville Road,0368,394 Westville Road ,,New Glasgow,NS,B2H 2Y7,United States,,45.58019,-62.659674,Thursday: 7:00 AM - 10:00 PM; Friday: 7:00 AM - 10:00 PM; Saturday: 7:00 AM - 10:00 PM; Sunday: 9:00 AM - 8:00 PM; Monday: 7:00 AM - 10:00 PM; Tuesday: 7:00 AM - 10:00 PM; ,,0
Atlantic Superstore - Highway # 214,0375,295 Highway 214 ,,Elmsdale,NS,B2S 2L1,United States,,44.981725,-63.50862,Thursday: 7:00 AM - 11:00 PM; Friday: 7:00 AM - 11:00 PM; Saturday: 7:00 AM - 11:00 PM; Sunday: 9:00 AM - 8:00 PM; Monday: 7:00 AM - 11:00 PM; Tuesday: 7:00 AM - 11:00 PM; ,,0
Atlantic Superstore - Granville Street,0314,535 Granville Street ,,Summerside,PE,C1N 3C4,United States,,46.419327,-63.777752,Thursday: 7:00 AM - 11:00 PM; Friday: 7:00 AM - 11:00 PM; Saturday: 7:00 AM - 11:00 PM; Sunday: 12:00 PM - 8:00 PM; Monday: 7:00 AM - 11:00 PM; Tuesday: 7:00 AM - 11:00 PM; ,,0
Atlantic Superstore - Barrington Street,0369,1075 Barrington Street ,,Halifax,NS,B3H 2P8,United States,,44.638019,-63.569096,Thursday: 12:00 AM - 12:00 AM; Friday: 12:00 AM - 12:00 AM; Saturday: 12:00 AM - 12:00 AM; Sunday: 12:00 AM - 12:00 AM; Monday: 12:00 AM - 12:00 AM; Tuesday: 12:00 AM - 12:00 AM; ,,0
Atlantic Superstore - Campbell Road,0364,115 Campbell Road ,,Rothesay,NB,E2E 6E4,United States,,45.39135,-65.96737,Thursday: 7:00 AM - 11:00 PM; Friday: 7:00 AM - 11:00 PM; Saturday: 7:00 AM - 11:00 PM; Sunday: 7:00 AM - 11:00 PM; Monday: 7:00 AM - 11:00 PM; Tuesday: 7:00 AM - 11:00 PM; ,,0
Atlantic Superstore - Savoie Ave,0362,25 Savoie Ave ,,Atholville,NB,E3N 4A8,United States,,47.989487,-66.7018,Thursday: 8:00 AM - 10:00 PM; Friday: 8:00 AM - 10:00 PM; Saturday: 8:00 AM - 10:00 PM; Sunday: 10:00 AM - 7:00 PM; Monday: 8:00 AM - 10:00 PM; Tuesday: 8:00 AM - 10:00 PM; ,,0
Atlantic Superstore - Highway #303,0339,490 Highway 303 ,,Digby,NS,B0V 1A0,United States,,44.6,-65.7725,Thursday: 9:00 AM - 9:00 PM; Friday: 9:00 AM - 9:00 PM; Saturday: 9:00 AM - 9:00 PM; Sunday: 12:00 PM - 6:00 PM; Monday: 9:00 AM - 9:00 PM; Tuesday: 9:00 AM - 9:00 PM; ,,0
Atlantic Superstore - University Ave,0386,680 University Ave ,,Charlottetown,PE,C1E 1E3,United States,,46.264211,-63.14447,Thursday: 7:00 AM - 11:00 PM; Friday: 7:00 AM - 11:00 PM; Saturday: 7:00 AM - 11:00 PM; Sunday: 12:00 PM - 8:00 PM; Monday: 7:00 AM - 11:00 PM; Tuesday: 7:00 AM - 11:00 PM; ,,0
Atlantic Superstore - Elm Street,0336,46 Elm Street ,,Truro,NS,B2N 3H6,United States,,45.367474,-63.288532,Thursday: 7:00 AM - 10:00 PM; Friday: 7:00 AM - 10:00 PM; Saturday: 7:00 AM - 10:00 PM; Sunday: 9:00 AM - 8:00 PM; Monday: 7:00 AM - 10:00 PM; Tuesday: 7:00 AM - 10:00 PM; ,,0
Atlantic Superstore - King Street,0366,195 King Street ,,St. Stephen,NB,E3L 2E4,United States,,45.2023,-67.272238,Thursday: 7:00 AM - 10:00 PM; Friday: 7:00 AM - 10:00 PM; Saturday: 7:00 AM - 10:00 PM; Sunday: 9:00 AM - 7:00 PM; Monday: 7:00 AM - 10:00 PM; Tuesday: 7:00 AM - 10:00 PM; ,,0
Atlantic Superstore - Sackville Drive,0351,745 Sackville Drive ,,Lower Sackville,NS,B4E 2R2,United States,,44.773159,-63.691135,Thursday: 7:00 AM - 11:00 PM; Friday: 7:00 AM - 11:00 PM; Saturday: 7:00 AM - 11:00 PM; Sunday: 9:00 AM - 9:00 PM; Monday: 7:00 AM - 11:00 PM; Tuesday: 7:00 AM - 11:00 PM; ,,0
Atlantic Superstore - King Street,0321,125 King Street ,,North Sydney,NS,B2A 3S1,United States,,46.216123,-60.265224,Thursday: 7:00 AM - 10:00 PM; Friday: 7:00 AM - 10:00 PM; Saturday: 7:00 AM - 10:00 PM; Sunday: 9:00 AM - 8:00 PM; Monday: 7:00 AM - 10:00 PM; Tuesday: 7:00 AM - 10:00 PM; ,,0
Atlantic Superstore - Bedford Highway,0378,1650 Bedford Highway ,,Bedford,NS,B4A 4J7,United States,,44.734352,-63.6576,Thursday: 7:00 AM - 10:00 PM; Friday: 7:00 AM - 10:00 PM; Saturday: 7:00 AM - 10:00 PM; Sunday: 9:00 AM - 9:00 PM; Monday: 7:00 AM - 10:00 PM; Tuesday: 7:00 AM - 10:00 PM; ,,0
Atlantic Superstore - Cole Drive,0377,11 Cole Drive ,,Windsor,NS,B0N 2T0,United States,,44.98815,-64.112963,Thursday: 8:00 AM - 10:00 PM; Friday: 8:00 AM - 10:00 PM; Saturday: 8:00 AM - 10:00 PM; Sunday: 10:00 AM - 8:00 PM; Monday: 8:00 AM - 10:00 PM; Tuesday: 8:00 AM - 10:00 PM; ,,0
Atlantic Superstore - Joseph Howe Drive,0379,3601 Joseph Howe Drive ,,Halifax,NS,B3L 4H8,United States,,44.657553,-63.627632,Thursday: 12:00 AM - 12:00 AM; Friday: 12:00 AM - 12:00 AM; Saturday: 12:00 AM - 12:00 AM; Sunday: 12:00 AM - 12:00 AM; Monday: 12:00 AM - 12:00 AM; Tuesday: 12:00 AM - 12:00 AM; ,,0
Atlantic Superstore - Connell Street,0374,350 Connell Street ,,Woodstock,NB,E7M 5G8,United States,,46.1676,-67.596,Thursday: 8:00 AM - 10:00 PM; Friday: 8:00 AM - 10:00 PM; Saturday: 8:00 AM - 10:00 PM; Sunday: 12:00 PM - 5:00 PM; Monday: 8:00 AM - 10:00 PM; Tuesday: 8:00 AM - 10:00 PM; ,,0
Atlantic Superstore - Chain Lake Drive,0358,210 Chain Lake Drive ,,Halifax,NS,B3S 1A2,United States,,44.653587,-63.674709,Thursday: 7:00 AM - 11:00 PM; Friday: 7:00 AM - 11:00 PM; Saturday: 7:00 AM - 11:00 PM; Sunday: 8:00 AM - 11:00 PM; Monday: 7:00 AM - 11:00 PM; Tuesday: 7:00 AM - 11:00 PM; ,,0
Atlantic Superstore - Johnson Street,0359,2 Johnson Street ,,Chatham,NB,E1N 3B7,United States,,47.0286,-65.4732,Thursday: 8:00 AM - 10:00 PM; Friday: 8:00 AM - 10:00 PM; Saturday: 8:00 AM - 10:00 PM; Sunday: 12:00 PM - 5:00 PM; Monday: 8:00 AM - 10:00 PM; Tuesday: 8:00 AM - 10:00 PM; ,,0
Atlantic Superstore - St Peter Ave,0357,700 St Peter Ave ,,Bathurst,NB,E2A 2Y7,United States,,47.6321,-65.6666,Thursday: 7:00 AM - 10:00 PM; Friday: 7:00 AM - 10:00 PM; Saturday: 7:00 AM - 10:00 PM; Sunday: 9:00 AM - 6:00 PM; Monday: 7:00 AM - 10:00 PM; Tuesday: 7:00 AM - 10:00 PM; ,,0
Atlantic Superstore - Starrs Road,0372,104 Starrs Road ,,Yarmouth,NS,B5A 2T5,United States,,43.84273,-66.1002,Thursday: 7:00 AM - 10:00 PM; Friday: 7:00 AM - 10:00 PM; Saturday: 7:00 AM - 10:00 PM; Sunday: 10:00 AM - 8:00 PM; Monday: 7:00 AM - 10:00 PM; Tuesday: 7:00 AM - 10:00 PM; ,,0
Atlantic Superstore - Rue Principale,0316,3455 Rue Principale ,,Tracadie,NB,E1X 1C8,United States,,47.5192,-64.91259,Thursday: 7:00 AM - 10:00 PM; Friday: 7:00 AM - 10:00 PM; Saturday: 7:00 AM - 10:00 PM; Sunday: 9:00 AM - 6:00 PM; Monday: 7:00 AM - 10:00 PM; Tuesday: 7:00 AM - 10:00 PM; ,,0
Atlantic Superstore - Reserve Street,0385,155 Reserve Street Box 41 ,,Glace Bay,NS,B1A 5V1,United States,,46.19058,-59.97724,Thursday: 7:00 AM - 10:00 PM; Friday: 7:00 AM - 10:00 PM; Saturday: 7:00 AM - 10:00 PM; Sunday: 9:00 AM - 8:00 PM; Monday: 7:00 AM - 10:00 PM; Tuesday: 7:00 AM - 10:00 PM; ,,0
Atlantic Superstore - Market Street,0309,26 Market St. ,,Antigonish,NS,B2G 2K8,United States,,45.609308,-62.015904,Thursday: 7:00 AM - 10:00 PM; Friday: 7:00 AM - 10:00 PM; Saturday: 7:00 AM - 10:00 PM; Sunday: 9:00 AM - 8:00 PM; Monday: 7:00 AM - 10:00 PM; Tuesday: 7:00 AM - 10:00 PM; ,,0
Atlantic Superstore - Kings Road,0373,1225 Kings Road ,,Sydney River,NS,B1S 1E1,United States,,46.108282,-60.22243,Thursday: 7:00 AM - 10:00 PM; Friday: 7:00 AM - 10:00 PM; Saturday: 7:00 AM - 10:00 PM; Sunday: 9:00 AM - 8:00 PM; Monday: 7:00 AM - 10:00 PM; Tuesday: 7:00 AM - 10:00 PM; ,,0
Atlantic Superstore - Lower Cove Road,0389,44 Lower Cove Road ,,Sussex,NB,E4E 1T6,United States,,45.721398,-65.529001,Thursday: 8:00 AM - 10:00 PM; Friday: 8:00 AM - 10:00 PM; Saturday: 8:00 AM - 10:00 PM; Sunday: 12:00 PM - 5:00 PM; Monday: 8:00 AM - 10:00 PM; Tuesday: 8:00 AM - 10:00 PM; ,,0
Atlantic Superstore - King George Hwy,0332,408 King George Hwy ,,Miramichi,NB,E1V 2T3,United States,,46.9913,-65.5723,Thursday: 8:00 AM - 10:00 PM; Friday: 8:00 AM - 10:00 PM; Saturday: 8:00 AM - 10:00 PM; Sunday: 12:00 PM - 5:00 PM; Monday: 8:00 AM - 10:00 PM; Tuesday: 8:00 AM - 10:00 PM; ,,0
Atlantic Superstore - Milton Road,0331,50 Milton Road ,,Liverpool,NS,B0T 1K0,United States,,44.046583,-64.724551,Thursday: 8:00 AM - 10:00 PM; Friday: 8:00 AM - 10:00 PM; Saturday: 8:00 AM - 10:00 PM; Sunday: 10:00 AM - 8:00 PM; Monday: 8:00 AM - 10:00 PM; Tuesday: 8:00 AM - 10:00 PM; ,,0
Atlantic Superstore - Braemar Drive,0380,9 Braemar Drive ,,Dartmouth,NS,B2Y 3H6,United States,,44.680842,-63.549023,Thursday: 7:00 AM - 11:00 PM; Friday: 7:00 AM - 11:00 PM; Saturday: 7:00 AM - 11:00 PM; Sunday: 8:00 AM - 10:00 PM; Monday: 7:00 AM - 11:00 PM; Tuesday: 7:00 AM - 11:00 PM; ,,0
Atlantic Superstore - Main Street,0388,509 Main Street ,,Montague,PE,C0A 1R0,United States,,46.172208,-62.652697,Thursday: 7:00 AM - 10:00 PM; Friday: 7:00 AM - 10:00 PM; Saturday: 7:00 AM - 10:00 PM; Sunday: 12:00 PM - 8:00 PM; Monday: 7:00 AM - 10:00 PM; Tuesday: 7:00 AM - 10:00 PM; ,,0
Atlantic Superstore - Quinpool Road,0383,6139 Quinpool Road ,,Halifax,NS,B3L 4P6,United States,,44.646747,-63.594314,Thursday: 7:00 AM - 11:00 PM; Friday: 7:00 AM - 11:00 PM; Saturday: 7:00 AM - 11:00 PM; Sunday: 8:00 AM - 11:00 PM; Monday: 7:00 AM - 11:00 PM; Tuesday: 7:00 AM - 11:00 PM; ,,0
Atlantic Superstore - South Albion Street,0312,126 South Albion Street ,,Amherst,NS,B4H 2Z3,United States,,45.81548,-64.20229,Thursday: 7:00 AM - 10:00 PM; Friday: 7:00 AM - 10:00 PM; Saturday: 7:00 AM - 10:00 PM; Sunday: 8:00 AM - 8:00 PM; Monday: 7:00 AM - 10:00 PM; Tuesday: 7:00 AM - 10:00 PM; ,,0
Atlantic Superstore - Commercial Street,0344,9064 Commercial Street ,,New Minas,NS,B4N 3E4,United States,,45.066873,-64.456527,Thursday: 7:00 AM - 11:00 PM; Friday: 7:00 AM - 11:00 PM; Saturday: 7:00 AM - 11:00 PM; Sunday: 10:00 AM - 8:00 PM; Monday: 7:00 AM - 11:00 PM; Tuesday: 7:00 AM - 11:00 PM; ,,0
