store_name,store_number,address,address2,city,state,zip_code,country,phone_number,latitude,longitude,store_hours,other_fields,coming_soon
Federal Way,,35105 Enchanted Pkwy S Ste G104 ,,Federal Way ,Washington,98003,United States,253-838-0925,,,Monday through Friday 6:30 AM until 2:30 PM; Saturdays 6:30 AM until 2:30 PM; Sundays 7:00 AM until 2:30 PM; ,,0
Fisher-s Landing,,1801 SE 164th Ave. Suite 103 ,,Vancouver ,WA.,98683,United States,360-718-2293,,,Monday through Friday 6:30 AM until 2:30 PM; Saturdays 6:30 AM until 2:30 PM; Sundays 7:00 AM until 2:30 PM; ,,0
Gresham,15706,1905 NE Division,,Gresham,Oregon,97030,United States,503-328-8838,45.505237,-122.41296,,,0
Mount Scott &#8211; Johnson Creek &#038; I-205,15710,"9201 SE 91st Ave, Suite 100",,Happy Valley,Oregon,97086,United States,503-777-2800,45.456365,-122.570203,,,0
Oregon City,15712,19273 Molalla Ave Suite#H,,Oregon City,Oregon,97045,United States,503-655-3612,45.327494,-122.583931,,,0
West Linn,15718,1885 Blankenship Rd Suite C,,West Linn,Oregon,97068,United States,503-650-4089,45.349136,-122.652712,,,0
Lake Oswego,15708,4200 Mercantile Dr #790,,Lake Oswego,Oregon,97035,United States,503-305-8058,45.415942,-122.719768,,,0
Barnes &#038; Miller,15692,460 SW Miller Road Suite #A,,Portland,OR,97225,United States,503-297-3880,45.516273,-122.753425,,,0
Tigard,15716,16230 Southwest Pacific Hwy Suite #160,,Tigard,Oregon,97224,United States,503-684-2900,45.402986,-122.79707,,,0
Bethany,15701,4744 NW Bethany Blvd B-1,,Portland,Oregon,97229,United States,503-372-5579,45.553123,-122.835169,,,0
Canby,15703,1477 SE 1st Ave. Suite 101,,Canby,Oregon,97013,United States,503-263-3287,45.26782,-122.675359,,,0
Beaverton,15696,16755 SW Baseline Rd Suite #700,,Beaverton,Oregon,97006,United States,503-614-2876,45.512063,-122.849194,,,0
Scholls Ferry,15714,"16315 SW Barrows Road, Suite 210",,Beaverton,Oregon,97007,United States,503-372-6982,45.427617,-122.844916,,,0
Wilsonville Old Town Square,15720,"30020 SW Boone's Ferry Rd, Suite 16",,Wilsonville,Oregon,97070,United States,503-855-3022,45.30205,-122.772525,,,0
Find us in Nevada!,,Las Vegas 8465 West Sahara suite 100 ,,Las Vegas ,NV,89117,United States,702-242-2207,,,Monday through Friday 6:30 AM until 2:30 PM; Saturdays 6:30 AM until 2:30 PM; Sundays 7:00 AM until 2:30 PM; ,,0
Find us in Arizona!,,Chandler 2040 South Alma School Road ,,Chandler ,Arizona,85286,United States,480-899-0758,,,Monday through Friday 6:30 AM until 2:30 PM; Saturdays 6:30 AM until 2:30 PM; Sundays 7:00 AM until 2:30 PM; ,,0
Chandler,,2090 N. Dobson Road Suite 4 ,,Chandler ,AZ,85224,United States,480-726-6852,,,Monday through Friday 6:30 AM until 2:30 PM; Saturdays 6:30 AM until 2:30 PM; Sundays 7:00 AM until 2:30 PM; ,,0
Glendale,,19420 N 59th Ave ,,Glendale ,AZ,85308,United States,623-376-2440,,,Monday through Friday 6:30 AM until 2:30 PM; Saturdays 6:30 AM until 2:30 PM; Sundays 7:00 AM until 2:30 PM; ,,0
Surprise,,13752 West Bell Road ,,Surprise ,Arizona,85374,United States,623-546-6889,,,Monday through Friday 6:30 AM until 2:30 PM; Saturdays 6:30 AM until 2:30 PM; Sundays 7:00 AM until 2:30 PM; ,,0
