store_name,store_number,address,address2,city,state,zip_code,country,phone_number,latitude,longitude,store_hours,other_fields,coming_soon
Sax Motor Co.,,52 21st Street E,,Dickinson,ND,58601,United States,(866) 980-9917,,,,,0
Country Club Motors,,70 Oneida Street,,Oneonta,NY,13820,United States,(877) 900-5574,,,,,0
Country Club Motors,,70 Oneida Street,,Oneonta,NY,13820,United States,(607) 643-4407,,,,,0
Massey Cadillac of Orlando,,4241 North John Young Pkwy,,Orlando,FL,32804,United States,(866) 561-8657,,,,,0
Halladay Cadillac,,2100 Westland Road,,Cheyenne,WY,82001,United States,(844) 299-5502,,,,,0
Morgan McClure Chevrolet Buick Cadillac,,11147 Norton Coeburn Rd,,Coeburn,VA,24230,United States,(276) 807-4812,,,,,0
Kendall Cadillac of Nampa,,15700 Idaho Center Blvd,,Nampa,ID,83687,United States,(866) 955-9520,,,,,0
Ben Eddings Cadillac,,200 Highway 65 Bypass South,,Harrison,AR,72601,United States,(855) 517-7437,,,,,0
Cadillac of Norwood,,700 Providence Hwy,,Norwood,MA,02062,United States,(866) 636-9205,,,,,0
Pine Belt Cadillac,,71 Route 37 East,,Toms River,NJ,08753,United States,(732) 982-2783,,,,,0
Gold Coast Cadillac,,2123 Highway 35,,Oakhurst,NJ,07755,United States,(866) 668-6525,,,,,0
Faulkner Cadillac Trevose,,4447 Street Rd. ,,Trevose,PA,19053-4984,United States,(267) 223-1191,,,,,0
Holman Cadillac,,1200 Route 73 South,,Mount Laurel,NJ,08054,United States,(877) 209-6052,,,,,0
Coleman Cadillac,,300 Renaissance Blvd,,Lawrenceville,NJ,08648,United States,(877) 493-6934,,,,,0
Herb Chambers Cadillac of Warwick,,"1511 Bald Hill Road, Route 2",,Warwick,RI,02886,United States,(401) 441-6377,,,,,0
Tracy Cadillac,,137 Samoset Street,,Plymouth,MA,02360,United States,(844) 888-4026,,,,,0
King Cadillac,,139 Pomfret St,,Putnam,CT,06260,United States,(855) 357-6044,,,,,0
Mastria Cadillac,,1525 New State Highway,,Raynham,MA,02767,United States,(855) 996-8098,,,,,0
Cardinal Cadillac,,101 Cardinal Drive,,Hazard,KY,41701,United States,(877) 845-8402,,,,,0
Duncan Family Automotive Group,,269 South Roane Street,,Harriman,TN,37748,United States,(865) 285-0305,,,,,0
Cadillac of Knoxville,,10005 Parkside Drive,,Knoxville,TN,37922,United States,(865) 622-2982,,,,,0
Rusty Wallace Cadillac,,300 King Ave,,Morristown,TN,37814,United States,(866) 387-4305,,,,,0
Long Cadillac,,218 Turnpike Rd.,,Southborough,MA,01772,United States,(866) 619-1390,,,,,0
Thompson Cadillac,,1555 E Independence,,Springfield,MO,65804,United States,(844) 832-9258,,,,,0
Cadillac of Bentonville,,2300 SE Moberly Lane,,Bentonville,AR,72712,United States,(479) 439-4320,,,,,0
Stanley Wood Cadillac,,1674 Batesville Blvd,,Batesville,AR,72501,United States,(844) 848-4633,,,,,0
Kent Cadillac Inc,,1413 Highway 62 E,,Mountain Home,AR,72653,United States,(855) 695-3694,,,,,0
Cole Cadillac,,1156 Big Laurel HWY,,Bluefield,WV,24701,United States,(877) 405-0660,,,,,0
Courtesy Cadillac,,1220 E. Stone Drive,,Kingsport,TN,37660,United States,(877) 506-5113,,,,,0
Walters Cadillac of Pikeville,,505 N Mayo Trail,,Pikeville,KY,41501,United States,(844) 338-5852,,,,,0
Bill Gatton Cadillac,,1000 West State Street,,Bristol,TN,37620,United States,(855) 393-6020,,,,,0
Berger Family Cadillac,,508 Susquehanna Blvd,,Hazle Township,PA,18202,United States,(855) 210-5165,,,,,0
Faulkner Cadillac of Bethlehem,,298 Stoke Park Road,,Bethlehem,PA,18017,United States,(866) 648-9027,,,,,0
Scott Cadillac,,3333 Lehigh Street,,Allentown,PA,18103,United States,(866) 951-3436,,,,,0
Kutztown Cadillac,,14165 Kutztown Road,,Fleetwood,PA,19522,United States,(855) 232-2292,,,,,0
R & R Cadillac,,388 Pennsylvania 61,,Schuylkill Haven,PA,17972,United States,(866) 846-2982,,,,,0
Otto Cadillac of Albany,,1769 Central Avenue,,Albany,NY,12205,United States,(518) 213-4861,,,,,0
Hudson Cadillac,,2023 South Road,,Poughkeepsie,NY,12601,United States,(844) 879-4873,,,,,0
Northwest Hills Cadillac,,2065 East Main Street,,Torrington,CT,06790,United States,(877) 802-0620,,,,,0
D'ELLA Cadillac,,293 Quaker Road,,Queensbury,NY,12804,United States,(866) 546-9616,,,,,0
Cody Chevrolet Cadillac,,364 River Street,,Montpelier,VT,05602,United States,(802) 778-0063,,,,,0
Langway of Bennington,,24 Performance Drive,,Bennington,VT,05201,United States,(877) 412-1596,,,,,0
Handy Cadillac,,405 Swanton RD,,Saint Albans,VT,05478-2611,United States,(844) 883-0390,,,,,0
Automobile International,,112 Squires Road,,North Clarendon,VT,05759,United States,(888) 525-6159,,,,,0
Banks Cadillac,,137 Manchester Street,,Concord,NH,03301,United States,(855) 837-1512,,,,,0
Shearer Chevrolet Buick GMC Cadillac,,1675 Shelburne Road,,South Burlington,VT,05403,United States,(802) 735-1862,,,,,0
Peterson Cadillac,,12300 W. Fairview Avenue,,Boise,ID,83713,United States,(877) 590-2564,,,,,0
Rickenbaugh Cadillac,,777 Broadway,,Denver,CO,80203,United States,(888) 858-3261,,,,,0
McCaddon Cadillac,,2460 48th Court,,Boulder,CO,80301,United States,(303) 442-3160,,,,,0
Dellenbach Motors,,125 W. Swallow Rd.,,Fort Collins,CO,80525,United States,(866) 485-7207,,,,,0
Ghent Cadillac,,2715 35th Avenue,,Greeley,CO,80634,United States,(844) 399-1471,,,,,0
Rydell Cadillac,,2700 South Washington Street,,Grand Forks,ND,58201,United States,(866) 851-7553,,,,,0
Gateway Cadillac,,501 38th Street S,,Fargo,ND,58103,United States,(844) 339-9736,,,,,0
Plaza Cadillac,,8893 US Hwy 441,,Leesburg,FL,34788,United States,(352) 504-4098,,,,,0
Starling Cadillac,,2800 S Woodland Blvd,,DeLand,FL,32720,United States,(844) 803-9376,,,,,0
Massey Cadillac of South Orlando,,8819 S Orange Blossom Tr,,Orlando,FL,32809,United States,(407) 413-9731,,,,,0
Carbone Cadillac,,5043 Commercial Drive,,Yorkville,NY,13495,United States,(877) 839-6804,,,,,0
Modern Auto Company,,6224 Highway 100,,Washington,MO,63090,United States,(877) 735-2327,,,,,0
Behlmann Cadillac,,142 Frenchman Bluff Road,,Troy,MO,63379,United States,(855) 392-4850,,,,,0
Sapaugh Cadillac,,1435 McNutt Street,,Herculaneum,MO,63048,United States,(636) 931-0055,,,,,0
Bommarito Cadillac,,4190 I-70 North Outer Road,,St. Peters,MO,63376,United States,(636) 442-1847,,,,,0
Baker Cadillac,,495 Main Street,,Leominster,MA,01453,United States,(978) 401-4540,,,,,0
ELCO Cadillac,,15110 Manchester Rd,,Ballwin,MO,63011,United States,(877) 645-7437,,,,,0
Scranton Cadillac of Vernon,,777 Talcottville Rd,,Vernon,CT,06066,United States,(866) 644-0072,,,,,0
Diamond Auto Group,,768 Washington Street ,,Auburn,MA,01501,United States,(866) 682-8915,,,,,0
MacMulkin Cadillac,,3 Marmon Drive,,Nashua,NH,03060,United States,(855) 747-5475,,,,,0
Fairfield's Cadillac,,434 Winchester St,,Keene,NH,03431,United States,(866) 257-1972,,,,,0
Community Motors,,4521 University Ave,,CEDAR FALLS,IA,50613,United States,(877) 745-6613,,,,,0
Decorah Cadillac,,1815 State Highway 9 East,,Decorah,IA,52101,United States,(866) 303-5424,,,,,0
McGrath Cadillac,,1040 N Center Point Rd,,Hiawatha,IA,52233,United States,(877) 657-1193,,,,,0
Richardson Motors,,1475 J.F. Kennedy Road,,Dubuque,IA,52002,United States,(866) 654-2473,,,,,0
Brenengen Cadillac,,531 Theater Road,,Onalaska,WI,54650,United States,(877) 801-0928,,,,,0
Central Cadillac,,3207 Stadium Blvd,,Jonesboro,AR,72404,United States,(877) 573-7216,,,,,0
Orr Cadillac of Searcy,,1000 Truman Baker Drive,,Searcy,AR,72143,United States,(877) 797-0630,,,,,0
Hayes Cadillac,,3656 Highway 365,,Baldwin,GA,30510,United States,(844) 882-4613,,,,,0
Hutchinson Cadillac,,3989 River Place Drive,,Macon,GA,31210,United States,(844) 340-0756,,,,,0
Autry Morlan,,2505 E. Malone Avenue,,Sikeston,MO,63801,United States,(855) 600-2802,,,,,0
Dimmitt Cadillac,,25191 US Highway 19 N,,Clearwater,FL,33763,United States,(727) 466-4366,,,,,0
Baldwin Cadillac,,621 S. Westwood Blvd,,Poplar Bluff,MO,63901,United States,(855) 371-3284,,,,,0
Marine Cadillac,,1408 Western Blvd.,,Jacksonville,NC,28546,United States,(855) 926-8518,,,,,0
Rizza Cadillac,,8425 West 159th Street,,Tinley Park,IL,60487,United States,(877) 614-0168,,,,,0
Brown and Wood Inc.,,329 SW Greenville Blvd,,Greenville,NC,27834,United States,(877) 345-0593,,,,,0
Trent Cadillac,,1707 Highway 70 East,,New Bern,NC,28560,United States,(844) 867-5032,,,,,0
Rippy Cadillac,,4951 New Centre Drive,,Wilmington,NC,28403,United States,(910) 338-1617,,,,,0
Arnie Bauer Cadillac,,5525 Miller Circle Drive,,Matteson,IL,60443,United States,(855) 372-7144,,,,,0
Shirey Cadillac,,10125 S Cicero Ave,,Oak Lawn,IL,60453,United States,(708) 576-5154,,,,,0
Ettleson Cadillac,,6201 S La Grange Road,,Hodgkins,IL,60525,United States,(866) 216-1412,,,,,0
Hawk Cadillac of Joliet,,2001 W. Jefferson Street,,Joliet,IL,60435,United States,(844) 882-5380,,,,,0
Autry Morlan Cadillac,,1901 W Business US Highway 60,,Dexter,MO,63841,United States,(877) 808-4790,,,,,0
Turner Chevrolet-Cadillac,,1005 E Main St,,Park Hills,MO,63601,United States,(877) 291-5484,,,,,0
Cadillac of Turnersville,,3400 Route 42 [Black Horse Pike],,Turnersville,NJ,08012,United States,(844) 298-7419,,,,,0
Delaware Cadillac,,1606 Pennsylvania Ave,,Wilmington,DE,19806,United States,(302) 250-4972,,,,,0
Bob Novick Auto Mall,,808 N. Pearl Street,,Bridgeton,NJ,08302,United States,(856) 497-4350,,,,,0
Hill Cadillac,,3964 West Chester Pike,,Newtown Square,PA,19073,United States,(484) 427-2057,,,,,0
James Wood Cadillac Denton,,3906 I35E South,,Denton,TX,76210,United States,(888) 440-6757,,,,,0
Crest Cadillac,,6280 State Highway 121,,Frisco,TX,75034,United States,(866) 697-9183,,,,,0
Team Bonner Cadillac,,2900 S Eisenhower Pkwy,,Denison,TX,75020,United States,(855) 430-0419,,,,,0
Ramey Cadillac,,600 East Lamberth Road,,Sherman,TX,75090,United States,(866) 414-0946,,,,,0
Brad Fenton Cadillac,,1540 Rockford Rd.,,Ardmore,OK,73401-3934,United States,(877) 345-7023,,,,,0
Ed Morse Cadillac Brandon,,11020 Causeway Blvd,,Brandon,FL,33511,United States,(888) 432-1827,,,,,0
AutoNation Cadillac Port Richey,,9921 US Highway 19 North,,Port Richey,FL,34668,United States,(727) 264-0818,,,,,0
Ed Morse Cadillac Tampa,,101 East Fletcher Avenue,,Tampa,FL,33612,United States,(866) 523-1027,,,,,0
Dimmitt Cadillac,,3333 Gandy Blvd.,,Pinellas Park,FL,33781,United States,(727) 290-4310,,,,,0
Hennessy Cadillac,,3377 Satellite Blvd,,Duluth,GA,30096,United States,(678) 317-2750,,,,,0
Heritage Cadillac,,7134 Jonesboro Road,,Morrow,GA,30260,United States,(678) 369-0991,,,,,0
Five Star Cadillac,,495 Watson Blvd.,,Warner Robins,GA,31093,United States,(866) 554-2908,,,,,0
Heyward Allen Cadillac,,2590 Atlanta Highway,,Athens,GA,30606,United States,(844) 881-6212,,,,,0
Herb Chambers Cadillac of Lynnfield,,"395 Broadway, Route1 North",,Lynnfield,MA,01940,United States,(978) 722-0191,,,,,0
Sudbay Chevrolet Buick Cadillac GMC,,88 Causeway Street,,Gloucester,MA,01930,United States,(978) 381-4084,,,,,0
Leachman Cadillac,,2012 Scottville Road,,Bowling Green,KY,42104,United States,(855) 423-5914,,,,,0
Andrews Cadillac,,One Cadillac Drive,,Brentwood,TN,37027,United States,(615) 823-5178,,,,,0
Cadillac of Murfreesboro,,960 John R Rice Boulevard,,Murfreesboro,TN,37129,United States,(877) 806-5462,,,,,0
Cadillac of Crossville,,2955 Suite 1 N Main Street,,Crossville,TN,38555,United States,(866) 417-1015,,,,,0
Crest Cadillac Nashville,,2121 Rosa L. Parks Blvd.,,Nashville,TN,37228,United States,(615) 823-5172,,,,,0
Lockwood Motors,,1310 E College Drive,,Marshall,MN,56258,United States,(507) 401-2905,,,,,0
Kemna Cadillac,,617 U.S. 18,,Algona,IA,50511,United States,(855) 240-1046,,,,,0
Snell Motors,,1900 Madison Ave,,Mankato,MN,56001,United States,(866) 578-2097,,,,,0
Prostrollo Motor Company,,1001 S. Washington Ave.,,Madison,SD,57042,United States,(866) 913-9409,,,,,0
Cadillac of Sioux Falls,,101 S. Carolyn Avenue,,Sioux Falls,SD,57107,United States,(605) 610-0711,,,,,0
Johnson Cadillac,,1122 Walton Way,,Augusta,GA,30901,United States,(706) 955-2250,,,,,0
Richard Kay Superstore,,1935 Pearman Dairy Road,,Anderson,SC,29625,United States,(866) 486-9406,,,,,0
Gary Russ Cadillac,,1420 Bypass 72 NE,,Greenwood,SC,29649,United States,(844) 297-3407,,,,,0
Carl Hogan Automotive,,2333 Highway 45 North,,Columbus,MS,39705,United States,(662) 570-4392,,,,,0
Albright Buick GMC Cadillac,,2008 North Belt Highway,,Saint Joseph,MO,64506,United States,(816) 396-0294,,,,,0
Paradise Cadillac,,27360 Ynez Road,,Temecula,CA,92591,United States,(877) 797-4721,,,,,0
Shottenkirk Fort Madison,,5031 Ave. O,,Fort Madison,IA,52627,United States,(866) 873-4309,,,,,0
Jennings Beardstown,,61 Plaza Drive,,Beardstown,IL,62618,United States,(844) 614-2212,,,,,0
Shottenkirk Mt Pleasant,,2301 E Washington,,Mount Pleasant,IA,52641,United States,(866) 501-5469,,,,,0
Poage Auto Plaza,,4300 Broadway,,Quincy,IL,62305,United States,(877) 788-3017,,,,,0
Deery Brothers GM,,200 S. Gear Avenue,,West Burlington,IA,52655,United States,(866) 308-7521,,,,,0
La Quinta Cadillac,,"79225 Highway 111,",,"La Quinta,",CA,92253,United States,(760) 771-8210,,,,,0
Dutton Cadillac of Riverside,,8201 Auto Drive,,Riverside,CA,92504,United States,(866) 380-9470,,,,,0
Jessup Cadillac,,68-111 E Palm Canyon Drive,,Cathedral City,CA,92234,United States,(844) 612-1986,,,,,0
Cadillac of Chico,,2520 Cohasset Rd,,Chico,CA,95973,United States,(877) 858-7199,,,,,0
Cable Dahmer Cadillac,,3107 S Noland Road,,Independence,MO,64055,United States,(877) 314-8829,,,,,0
Van Cadillac,,100 NW Vivion Rd,,Kansas City,MO,64118,United States,(844) 586-0248,,,,,0
Conklin Fangman Kansas City Cadillac,,3200 Main Street,,Kansas City,MO,64111,United States,(877) 782-0184,,,,,0
Bob Ruwart Cadillac,,2105 North 16th Street,,Wheatland,WY,82201,United States,(855) 429-9951,,,,,0
Callaremi Cadillac,,385 Route 46 E,,Budd Lake,NJ,07828,United States,(877) 861-2097,,,,,0
Flemington Cadillac,,211 US Hwy 202/31,,Flemington,NJ,08822,United States,(866) 492-4580,,,,,0
McGuire Cadillac,,63 Hampton House Road / Route 206,,Newton,NJ,07860,United States,(877) 815-9938,,,,,0
Reliable Cadillac,,400 Automall Drive,,Roseville,CA,95661,United States,(866) 729-4472,,,,,0
Mataga Cadillac,,3261 Auto Center Circle,,Stockton,CA,95212,United States,(855) 996-8171,,,,,0
Kuni Cadillac,,2449 Fulton Avenue,,Sacramento,CA,95825,United States,(855) 926-6613,,,,,0
Master Cadillac,,3625 Richland Ave W,,Aiken,SC,29801,United States,(855) 996-8001,,,,,0
Stokes Trainor Cadillac,,2004 Wilson Road,,Newberry,SC,29108,United States,(844) 602-9985,,,,,0
Bachman-Bernard Cadillac,,3365 East Andrew Johnson Hwy,,Greeneville,TN,37745,United States,(855) 501-9932,,,,,0
Ingersoll Auto of Pawling,,55 Route 22,,Pawling,NY,12564,United States,(844) 723-9117,,,,,0
Arroway Cadillac,,175 N BEDFORD RD,,Mt. Kisco,NY,10549,United States,(855) 384-4203,,,,,0
Ingersoll Auto of Danbury,,84 Federal Road,,Danbury,CT,06810,United States,(844) 878-9862,,,,,0
Barton Cadillac,,800 Auto Park Place,,Newburgh,NY,12550,United States,(877) 549-1776,,,,,0
Crest Cadillac of Birmingham,,1677 Montgomery Hwy,,Birmingham,AL,35216,United States,(205) 588-4477,,,,,0
Reliable Cadillac GMC Truck,,14 Lawrence Street,,Selma,AL,36701,United States,(334) 375-7984,,,,,0
Carl Cannon Cadillac,,299 Carl Cannon Boulevard,,Jasper,AL,35501,United States,(877) 358-2204,,,,,0
Barkley Cadillac,,3575 Skyland Blvd E,,Tuscaloosa,AL,35405,United States,(855) 366-1527,,,,,0
Three-Way Cadillac,,4501 Wible Rd,,Bakersfield,CA,93313,United States,(844) 595-8262,,,,,0
Giant Cadillac,,1001 S. Ben Maddox Way,,Visalia,CA,93292,United States,(844) 885-5579,,,,,0
Jim Stutzman Cadillac,,2700 Valley Avenue,,Winchester,VA,22601,United States,(855) 368-5179,,,,,0
Mason City Cadillac,,4510 4th St. S.W.,,Mason City,IA,50401,United States,(855) 996-7923,,,,,0
Prostrollo Motor Sales,,500 Fourth St NE,,Huron,SD,57350,United States,(866) 434-9849,,,,,0
Thomas Motors Cadillac,,1125 W. Outer Road,,Moberly,MO,65270,United States,(844) 297-4423,,,,,0
Dekalb Cadillac,,1925 Mercantile Drive,,Sycamore,IL,60178,United States,(866) 373-6203,,,,,0
Steve Schmitt Brubaker Inc,,1 Galaxy Lane,,Litchfield,IL,62056,United States,(844) 581-7736,,,,,0
Jack Schmitt Cadillac of O' Fallon IL,,915 West Hwy 50,,O'Fallon,IL,62269,United States,(877) 889-8237,,,,,0
Landmark Cadillac,,2360 Prairie Crossing Drive,,Springfield,IL,62711,United States,(888) 494-3471,,,,,0
Quality Cadillac,,1620 E Homer Adams Parkway,,Alton,IL,62002,United States,(866) 942-0737,,,,,0
Landmark of Taylorville,,1531 W Springfield Road,,Taylorville,IL,62568,United States,(855) 251-7532,,,,,0
Sawicki Motor Company,,1260 North 7th Street,,Rochelle,IL,61068,United States,(866) 493-0645,,,,,0
Piehl Cadillac of Princeton,,1402 N Main St,,Princeton,IL,61356,United States,(877) 791-2335,,,,,0
Ken Nelson Cadillac,,1100 N. Galena Avenue,,Dixon,IL,61021,United States,(855) 248-4659,,,,,0
Lotspeich Automotive,,150 NW Highway 50 W,,Warrensburg,MO,64093,United States,(660) 262-4388,,,,,0
Pearl Motor Company,,3100 South Clark,,Mexico,MO,65265,United States,(877) 793-3348,,,,,0
Sharp Automotive,,1112 9th Avenue Southwest,,Watertown,SD,57201,United States,(866) 601-6704,,,,,0
Biggs Cadillac Buick GMC,,1197 US Hwy 17 South,,Elizabeth City,NC,27909,United States,(252) 562-9189,,,,,0
Northtown Chevrolet Buick GMC Cadillac,,3818 Broadway,,Yankton,SD,57078,United States,(866) 578-5383,,,,,0
Forest City Auto Center,,826 Hwy 69 N,,Forest City,IA,50436,United States,(866) 519-1337,,,,,0
Joe Bowman Auto Plaza,,2455 E Market St,,Harrisonburg,VA,22801,United States,(540) 908-2801,,,,,0
Hoffman Automotive,,101 S. Edgewood Drive,,Hagerstown,MD,21740,United States,(844) 880-9196,,,,,0
Kenny Ross Cadillac,,2006 N. Center Avenue,,Somerset,PA,15501,United States,(855) 926-7457,,,,,0
Stephen Cadillac,,1097 Farmington Avenue,,Bristol,CT,06010,United States,(844) 804-2379,,,,,0
Opequon Motors,,838 E Moler Ave,,Martinsburg,WV,25404,United States,(877) 830-7496,,,,,0
Blasius Cadillac,,90 Scott Rd,,Waterbury,CT,06705,United States,(855) 926-8029,,,,,0
Rick Ball Auto Mall,,2500 Main Street,,Boonville,MO,65233,United States,(866) 909-5334,,,,,0
Bob McCosh Cadillac,,1 Business Loop 70,,Columbia,MO,65203-3903,United States,(855) 645-8676,,,,,0
Gill Cadillac of Madera,,1100 S. Madera Ave.,,Madera,CA,93637,United States,(844) 297-7402,,,,,0
Michael Cadillac,,5787 N. Blackstone Ave.,,Fresno,CA,93710,United States,(559) 431-6008,,,,,0
Keller Motors,,700 W Cadillac Lane,,Hanford,CA,93230,United States,(855) 362-1103,,,,,0
Bill Walsh Cadillac,,1752 E Norris Dr,,Ottawa,IL,61350,United States,(855) 753-2283,,,,,0
Dean Patterson Cadillac,,101 Pleasant Valley Blvd.,,Altoona,PA,16602,United States,(866) 528-8996,,,,,0
Wilkinson Cadillac Chevrolet Buick GMC,,1301 Douglas Drive,,Sanford,NC,27330,United States,(919) 842-5275,,,,,0
Moses Cadillac of Charleston,,1406 Washington Street East,,Charleston,WV,25301,United States,(877) 857-6290,,,,,0
Carr Cadillac,,6600 NE Fourth Plain Blvd,,Vancouver,WA,98661,United States,(877) 518-5368,,,,,0
O'Connor Auto Park,,199 Riverside Drive,,Augusta,ME,04330,United States,(877) 862-1435,,,,,0
Bergstrom Cadillac of Neenah,,150 N Green Bay Road,,Neenah,WI,54956,United States,(877) 805-3798,,,,,0
Courtesy Automotive Team,,1500 South Service Road East,,Ruston,LA,71270,United States,(877) 860-6246,,,,,0
Clements Cadillac,,1000 12th Street SW,,Rochester,MN,55902,United States,(877) 883-8021,,,,,0
Snyder Cadillac,,1421 N Scott Street,,Napoleon,OH,43545,United States,(866) 390-7279,,,,,0
Baumann Cadillac,,625 Southeast Catawba Road,,Port Clinton,OH,43452,United States,(855) 371-2297,,,,,0
Taylor Cadillac,,6100 W. Central Avenue,,Toledo,OH,43615,United States,(419) 318-1918,,,,,0
Smart Cadillac,,3 Smart Drive,,White Hall,AR,71602,United States,(866) 419-1435,,,,,0
LaRiche Cadillac,,215 E Main Cross,,Findlay,OH,45840,United States,(855) 360-7025,,,,,0
Classic Cadillac,,4333 Mall Drive,,Texarkana,TX,75503,United States,(877) 899-2819,,,,,0
Ryan Cadillac,,1101 Oliver Road,,Monroe,LA,71201,United States,(866) 558-7965,,,,,0
Bergstrom Cadillac of Green Bay,,301 N Taylor St,,Green Bay,WI,54304,United States,(866) 538-4430,,,,,0
Bergstrom Cadillac of Appleton,,2245 W College Ave,,Appleton,WI,54914,United States,(855) 578-0792,,,,,0
Bergstrom Cadillac of Oshkosh,,355 N Washburn St,,Oshkosh,WI,54904,United States,(877) 875-7434,,,,,0
Holloway Cadillac,,500 US Hwy 1 Bypass South,,Portsmouth,NH,03801,United States,(877) 892-8680,,,,,0
Bill Dodge Cadillac,,2 Saunders Way,,Westbrook,ME,04092,United States,(888) 336-9939,,,,,0
Quirk Cadillac,,293 Hogan Road,,Bangor,ME,04402,United States,(877) 747-3924,,,,,0
Ocean Crest Cadillac,,855 Alternate Highway 101,,Warrenton,OR,97146,United States,(877) 801-5326,,,,,0
Holz Cadillac,,1717 Utah Street,,Watertown,WI,53094,United States,(844) 399-8492,,,,,0
Crest Cadillac,,12800 W Capitol Drive,,Brookfield,WI,53005,United States,(877) 288-2367,,,,,0
Bob Trickett Cadillac,,"Bridgeport Hill Road, Route 50",,Clarksburg,WV,26301,United States,(844) 202-8843,,,,,0
Moses Cadillac,,5200 Route 60 East,,Huntington,WV,25705,United States,(877) 807-2870,,,,,0
Boucher Cadillac of Waukesha,,2145 E  Moreland Blvd                   ,,Waukesha,WI,53186,United States,(877) 349-4304,,,,,0
Heiser Cadillac,,2620 W  Washington St,,West Bend,WI,53095,United States,(844) 340-0160,,,,,0
Colonial Motor Mart,,349 N. 4th Street,,Indiana,PA,15701,United States,(877) 876-4591,,,,,0
"Dorman Cadillac-GMC Truck, Inc.",,1000 Interstate Drive,,Dunn,NC,28334,United States,(910) 292-4484,,,,,0
Hendrick Cadillac Cary,,101 Team Hendrick Way,,Cary,NC,27511,United States,(844) 281-4437,,,,,0
Cadillac of Fayetteville,,1637 Skibo Rd,,Fayetteville,NC,28303,United States,(910) 401-3199,,,,,0
Clark Cadillac,,35 Dundee Road,,Pinehurst,NC,28374,United States,(855) 656-0641,,,,,0
Roe Motors,,201 NE 7th Street,,Grants Pass,OR,97526,United States,(866) 953-2282,,,,,0
Brown Bros. Cadillac Inc,,728 S Fourth Street,,Louisville,KY,40202,United States,(502) 442-0775,,,,,0
Colonial Cadillac,,201 Cambridge Rd,,Woburn,MA,01801,United States,(781) 995-4129,,,,,0
Crestmont Cadillac,,26000 Chagrin Blvd.,,Beachwood,OH,44122,United States,(888) 705-5987,,,,,0
Classic Cadillac of Mentor,,8470 Tyler Blvd.,,Mentor,OH,44060,United States,(440) 290-4942,,,,,0
Cole Valley Cadillac,,Elm Rd and Rt 82 Bypass,,Warren,OH,44483,United States,(330) 984-4670,,,,,0
"Uebelhor Cadillac Jasper, IN",,972 Wernsing Road,,Jasper,IN,47546,United States,(844) 340-0840,,,,,0
Courtesy Cadillac,,6 Swope Autocenter Dr.,,Louisville,KY,40299,United States,(502) 442-0753,,,,,0
Genesis Cadillac,,19900 E. Nine Mile,,Saint Clair Shores,MI,48080,United States,(586) 218-3138,,,,,0
Shields Automart,,580 John St,,Paxton,IL,60957,United States,(866) 656-9311,,,,,0
Dralle Cadillac,,1090 E Walnut,,Watseka,IL,60970,United States,(866) 980-1597,,,,,0
Huber Cadillac,,11102 West Dodge Road,,Omaha,NE,68154,United States,(866) 505-7973,,,,,0
Preston Cadillac,,13600 W. Center St,,Burton,OH,44021,United States,(866) 418-4892,,,,,0
James E. Black Cadillac,,3929 Admiral Peary Highway,,Ebensburg,PA,15931,United States,(877) 472-9550,,,,,0
Steven Lust Cadillac,,1314 6th Avenue Southwest,,Aberdeen,SD,57401,United States,(844) 604-9261,,,,,0
Coughlin of Marysville,,15801 US Highway 36,,Marysville,OH,43040,United States,(877) 863-2291,,,,,0
Larson Motors Inc.,,1801 Frontage Road,,Nebraska City,NE,68410,United States,(800) 265-8742,,,,,0
Sid Dillon Cadillac Fremont,,2420 E. 23rd Street,,Fremont,NE,68025,United States,(866) 720-9103,,,,,0
Husker Cadillac,,6833 Telluride Drive,,Lincoln,NE,68521,United States,(844) 552-8992,,,,,0
Edwards Cadillac,,1010 34th Ave,,Council Bluffs,IA,51501,United States,(866) 867-0897,,,,,0
Mike Raisor Cadillac,,2912 Main Street,,Lafayette,IN,47904,United States,(877) 811-8356,,,,,0
Driscoll Motors Cadillac,,1030 W Reynolds Street,,Pontiac,IL,61764,United States,(866) 508-7106,,,,,0
David Bruce Auto Center,,555 Latham Drive,,Bourbonnais,IL,60914,United States,(815) 401-4760,,,,,0
Crestview Cadillac,,555 South Rochester Rd,,Rochester,MI,48307,United States,(888) 397-6529,,,,,0
Suburban Cadillac of Troy,,1810 Maplelawn Dr,,Troy,MI,48084,United States,(844) 600-8654,,,,,0
Prestige Cadillac,,29900 Van Dyke Ave,,Warren,MI,48093,United States,(586) 782-4137,,,,,0
Jim Riehl's Friendly Cadillac,,18900 Hall Rd,,Clinton Township,MI,48038,United States,(877) 258-3260,,,,,0
DeCosky Cadillac Center,,510 Harcourt Rd,,Mount Vernon,OH,43050,United States,(866) 229-9174,,,,,0
Steve Austin's Auto Group,,2500 S Main Street,,Bellefontaine,OH,43311,United States,(844) 734-4610,,,,,0
Russ Braunecker Auto Group,,2309 S. Banker,,Effingham,IL,62401,United States,(866) 364-0628,,,,,0
Schmidt Cadillac of Mt Vernon,,3423 Broadway,,Mount Vernon,IL,62864,United States,(877) 405-9461,,,,,0
Cadillac of Dublin,,4300 West Dublin-Granville Road ,,Dublin,OH,43017,United States,(866) 461-0060,,,,,0
Putnam Cadillac,,198 California Drive,,Burlingame,CA,94010,United States,(877) 234-7576,,,,,0
Victory Cadillac,,1360 Auto Center Drive,,Petaluma,CA,94952,United States,(844) 498-6832,,,,,0
Ressler Cadillac Bozeman,,8474 Huffine Lane,,Bozeman,MT,59718,United States,(866) 790-7102,,,,,0
King Cadillac,,1700 W. Evans Street,,Florence,SC,29501,United States,(855) 926-7181,,,,,0
NW Cadillac Of Bellingham,,3891 Northwest Avenue,,Bellingham,WA,98226,United States,(877) 801-6592,,,,,0
Deacon Jones Auto Park,,1115 North Brightleaf Blvd.,,Smithfield,NC,27577,United States,(866) 592-9921,,,,,0
Cadillac of Bellevue,,600 116th Avenue Northeast,,Bellevue,WA,98004,United States,(855) 634-5765,,,,,0
Doug's Northwest Cadillac,,17545 Aurora Ave N,,Shoreline,WA,98133,United States,(888) 558-6482,,,,,0
Woodworth Cadillac,,339 N Main Street,,Andover,MA,01810,United States,(877) 861-7196,,,,,0
Dieffenbach Cadillac,,1209 E Broad Ave,,Rockingham,NC,28379,United States,(866) 903-3888,,,,,0
Hendrick Cadillac Monroe,,3112 Hwy 74 West,,Monroe,NC,28110,United States,(844) 300-1185,,,,,0
Jones Cadillac,,1230 Broad St,,Sumter,SC,29150,United States,(855) 509-6516,,,,,0
Lancaster Motor Company,,1616 Charlotte Hwy,,Lancaster,SC,29720,United States,(866) 431-5104,,,,,0
Ryan Cadillac,,911 E  Highway 55,,Buffalo,MN,55313,United States,(866) 445-3525,,,,,0
City Motor Company,,3900 10th Avenue South,,Great Falls,MT,59405,United States,(877) 832-8903,,,,,0
Gilleland Cadillac,,3019 W. Division Street,,St. Cloud,MN,56301,United States,(844) 363-2776,,,,,0
Wally McCarthy Cadillac,,2325 N Prior Avenue,,Roseville,MN,55113,United States,(888) 875-6829,,,,,0
Key Cadillac,,6825 York Ave. South,,Edina,MN,55435,United States,(612) 276-3024,,,,,0
Morrie's Golden Valley Cadillac,,7400 Wayzata Blvd,,Golden Valley,MN,55426,United States,(866) 492-2725,,,,,0
Stewart Cadillac,,780 Serramonte Blvd.,,Colma,CA,94014,United States,(844) 603-4101,,,,,0
Michael Stead Cadillac,,2390 N. Main Street,,Walnut Creek,CA,94596,United States,(925) 952-7841,,,,,0
Team Superstores,,301 Auto Mall / Columbus Pkwy,,Vallejo,CA,94591,United States,(844) 831-6384,,,,,0
Faulkner Cadillac Mechanicsburg,,6726 Carlisle Pike,,Mechanicsburg,PA,17050,United States,(877) 331-2304,,,,,0
McCurley Integrity Cadillac,,1325 Autoplex Way,,Pasco,WA,99301,United States,(877) 829-3804,,,,,0
Joseph Cadillac,,7600 Industrial Road,,Florence,KY,41042,United States,(859) 795-2105,,,,,0
Desert Auto Plaza,,602 Wake Avenue,,El Centro,CA,92243-9543,United States,(866) 779-2051,,,,,0
Quantrell Cadillac,,1490 E. New Circle Road,,Lexington,KY,40509,United States,(859) 559-0980,,,,,0
Petrus Cadillac,,1901 S Main Street,,Stuttgart,AR,72160,United States,(877) 284-1648,,,,,0
Dick Shirley Cadillac,,2616 Alamance Rd,,Burlington,NC,27215,United States,(866) 585-7430,,,,,0
Wayne Thomas Chevrolet Cadillac,,1400 E. Dixie Drive,,Asheboro,NC,27203,United States,(336) 308-0015,,,,,0
Bill Black Cadillac,,601 Bessemer Ave,,Greensboro,NC,27405,United States,(855) 833-8180,,,,,0
Hendrick Cadillac Southpoint,,127 Kentington Drive,,Durham,NC,27713,United States,(844) 882-2329,,,,,0
Cannon Cadillac,,114 North Davis Ave ,,Cleveland,MS,38732,United States,(855) 974-1351,,,,,0
Parker Cadillac,,1700 N Shackleford Rd,,Little Rock,AR,72212,United States,(501) 588-7552,,,,,0
Sharpnack Cadillac,,1330 S Conwell Ave,,Willard,OH,44890,United States,(866) 345-6912,,,,,0
Foster Cadillac,,2504 Hayes Avenue,,Sandusky,OH,44870,United States,(866) 224-9213,,,,,0
Fairey Cadillac,,2885 St. Matthews Road,,Orangeburg,SC,29118,United States,(866) 835-2175,,,,,0
Bill DeLord Cadillac,,917 Columbus Ave,,Lebanon,OH,45036,United States,(855) 876-9250,,,,,0
Jeff Wyler Fairfield Cadillac,,5815 Dixie Highway,,Fairfield,OH,45014,United States,(513) 795-0239,,,,,0
Customer Reviews,,9880 Montgomery Rd,,Cincinnati,OH,45242,United States,(877) 720-9788,,,,,0
Thomson MacConnell Cadillac Inc,,2820 Gilbert Ave,,Cincinnati,OH,45206,United States,(866) 924-5871,,,,,0
Camp Cadillac,,101 East Montgomery,,Spokane,WA,99207,United States,(877) 902-5870,,,,,0
George Gee Cadillac,,317 W Dalton Ave,,Coeur d'Alene,ID,83815,United States,(208) 416-0228,,,,,0
Apple Cadillac,,1200 Loucks Road,,York,PA,17404,United States,(855) 971-0171,,,,,0
Blaise Alexander Cadillac,,800 Market Street,,Sunbury,PA,17801,United States,(855) 973-6507,,,,,0
Carlisle Cadillac,,1402 Holly Pike,,Carlisle,PA,17015,United States,(717) 502-4689,,,,,0
Graham Cadillac,,1515 W 4th Street,,Mansfield,OH,44906,United States,(844) 861-9364,,,,,0
Patrick Cadillac,,526 Mall Drive,,Schaumburg,IL,60173,United States,(877) 617-0563,,,,,0
Johnson Motors,,1891 Blinker Parkway,,Du Bois,PA,15801,United States,(855) 634-4606,,,,,0
Karl Tyler Cadillac,,3663 North Reserve Street,,Missoula,MT,59808,United States,(855) 924-9475,,,,,0
Willis Cadillac,,2121 NW 100th St,,Des Moines,IA,50325,United States,(866) 439-8964,,,,,0
Stan McNabb Cadillac,,2000 N Jackson Street,,Tullahoma,TN,37388,United States,(844) 608-2575,,,,,0
Eddy's Cadillac,,8801 E Kellogg Dr,,Wichita,KS,67207,United States,(866) 308-0125,,,,,0
#1 Cochran Cadillac of Monroeville,,4520 William Penn Highway,,Monroeville,PA,15146,United States,(877) 624-3099,,,,,0
C. Harper Cadillac,,4435 State Route 51,,Belle Vernon,PA,15012,United States,(877) 892-5261,,,,,0
Smail Cadillac,,5116 U.S. 30,,Greensburg,PA,15601,United States,(866) 385-9764,,,,,0
Bowser Cadillac,,3260 Washington Road,,McMurray,PA,15317,United States,(877) 387-5169,,,,,0
Rohrich Cadillac,,2116 West Liberty Avenue,,Pittsburgh,PA,15226,United States,(866) 891-7811,,,,,0
John K Fisher Inc,,2670 W. Central Avenue,,El Dorado,KS,67042,United States,(855) 634-3951,,,,,0
Jim Clark Chevrolet-Cadillac,,911 Goldenbelt Blvd.,,Junction City,KS,66441,United States,(888) 588-9561,,,,,0
Ranz Motor Company,,1401 West Beech St,,Chanute,KS,66720,United States,(620) 433-4962,,,,,0
Donovan Cadillac,,5800 West Kellogg,,Wichita,KS,67277,United States,(866) 357-6786,,,,,0
Integrity Cadillac,,6025 International Dr,,Chattanooga,TN,37421,United States,(844) 550-1604,,,,,0
Lucas Cadillac,,101 S. James Campbell Boulevard,,Columbia,TN,38401,United States,(855) 926-8183,,,,,0
Bentley Cadillac,,2118 Drake Ave SW,,Huntsville,AL,35805,United States,(855) 800-5805,,,,,0
Noble Chevrolet Cadillac,,2020 W 20th St South,,Newton,IA,50208,United States,(877) 617-9425,,,,,0
Mildenberger Motors,,1717 N First Street,,Hamilton,MT,59840,United States,(877) 811-4446,,,,,0
Malouf Cadillac,,1975 US Hwy 1,,North Brunswick,NJ,08902,United States,(855) 926-8439,,,,,0
Kristal Cadillac,,5200 Kings Highway,,Brooklyn,NY,11234,United States,(855) 881-2123,,,,,0
McGuire Cadillac,,910 Route 1 North,,Woodbridge,NJ,07095,United States,(732) 694-3850,,,,,0
Cadillac of Naperville,,1507 W. Ogden Ave.,,Naperville,IL,60540,United States,(630) 219-0415,,,,,0
Motor Werks Cadillac,,206 N Cook Street,,Barrington,IL,60010,United States,(224) 633-1625,,,,,0
Heritage Cadillac,,303 W Roosevelt Rd,,Lombard,IL,60148,United States,(630) 282-4148,,,,,0
Davidson Cadillac of Rome,,5871 Rome-Taberg Rd,,Rome,NY,13440,United States,(866) 855-4128,,,,,0
Bill Harris Auto Center,,2245 Claremont Avenue,,Ashland,OH,44805,United States,(567) 203-4139,,,,,0
Davidson Cadillac,,18579 US Route 11,,Watertown,NY,13601,United States,(866) 607-6151,,,,,0
Medina Cadillac,,3205 Medina Road,,Medina,OH,44256,United States,(877) 814-7008,,,,,0
Fremont Cadillac,,5939 Auto Mall Parkway,,Fremont,CA,94538,United States,(510) 686-8969,,,,,0
Dublin Cadillac,,4200 John Monego Court,,Dublin,CA,94568,United States,(866) 620-6378,,,,,0
H&H Cadillac,,730 E King St,,Shippensburg,PA,17257,United States,(844) 345-6323,,,,,0
Milo Gordon Cadillac,,5002 NW Cache Road,,Lawton,OK,73505,United States,(877) 646-6939,,,,,0
Don Wood Chevrolet Buick and Cadillac,,12916 State Route 664 South,,LOGAN,OH,43138,United States,(740) 279-4420,,,,,0
Cadillac of Bend,,345 NE 3rd Street,,Bend,OR,97701,United States,(855) 834-5129,,,,,0
Kendall Cadillac,,846 Goodpasture Island Road,,Eugene,OR,97401,United States,(855) 926-7041,,,,,0
Coughlin Circleville,,24001 US Highway 23 South,,Circleville,OH,43113,United States,(877) 882-0352,,,,,0
Pop's Cadillac,,600 US-23 South,,Prestonsburg,KY,41653,United States,(877) 786-2962,,,,,0
Bentley Cadillac of Florence,,1950 Florence Blvd,,Florence,AL,35630,United States,(855) 580-8434,,,,,0
Lynn Layton Cadillac,,2402 Hwy 31 South,,Decatur,AL,35602,United States,(256) 274-4658,,,,,0
Dossett Big 4 Cadillac,,628 S Gloster Street,,Tupelo,MS,38801,United States,(866) 281-2163,,,,,0
Vernon Cadillac,,3405 Highway 287 W,,Vernon,TX,76384,United States,(844) 583-2043,,,,,0
Pioneer Cadillac,,1315 Pike Street,,Marietta,OH,45750,United States,(877) 789-8058,,,,,0
John Holt Cadillac,,2501 US-81,,Chickasha,OK,73018,United States,(855) 479-1314,,,,,0
Patterson,,315 Central Freeway East,,Wichita Falls,TX,76301,United States,(877) 794-2579,,,,,0
Anthony Cadillac,,1229 Country Club Rd,,Fairmont,WV,26554,United States,(855) 885-7398,,,,,0
Jeff Fender Cadillac,,736 W 2nd Street,,Tifton,GA,31794,United States,(844) 304-9771,,,,,0
Franklin Cadillac,,106 Northside Drive East,,Statesboro,GA,30458,United States,(844) 888-0460,,,,,0
Jerry Spady Cadillac,,2750 Osborne Drive E,,Hastings,NE,68901,United States,(844) 457-6314,,,,,0
Midway Cadillac,,515 2nd Avenue E,,Kearney,NE,68847,United States,(877) 915-5564,,,,,0
James Motor Co,,108 E 13th St,,Hays,KS,67601,United States,(866) 255-6843,,,,,0
Holm Automotive Center,,2005 N. Buckeye Avenue,,Abilene,KS,67410,United States,(844) 879-9967,,,,,0
Conklin Cadillac Salina,,2700 S 9th Street,,Salina,KS,67401,United States,(877) 874-2716,,,,,0
Doug Richert Cadillac,,1900 SW Topeka Blvd,,Topeka,KS,66612,United States,(785) 783-0044,,,,,0
Harry's Cadillac,,819 Patton Avenue,,Asheville,NC,28806,United States,(844) 212-5707,,,,,0
Sierra Motors Cadillac,,18475 5th Avenue,,Jamestown,CA,95327,United States,(866) 887-9162,,,,,0
Cascade Autocenter,,148 Easy Street,,Wenatchee,WA,98801,United States,(877) 561-4117,,,,,0
Smith Cadillac of Turlock,,1601 Auto Mall Drive,,Turlock,CA,95380,United States,(866) 666-1585,,,,,0
Alfred Matthews Cadillac,,3807 McHenry Avenue,,Modesto,CA,95356,United States,(855) 636-5769,,,,,0
Classic Cadillac of Anniston,,420 Quintard Avenue,,Anniston,AL,36201,United States,(877) 370-5548,,,,,0
McSweeney Cadillac GMC,,35500 Alabama Highway 21,,Talladega,AL,35160,United States,(256) 474-4449,,,,,0
Lee Peterson Motors of Yakima,,410 S First Street,,Yakima,WA,98901,United States,(855) 371-5435,,,,,0
Bob and Chuck Eddy Cadillac,,1687 West Main St,,Grove City,PA,16127,United States,(855) 891-9949,,,,,0
University Auto Center,,1817 Hwy 97,,Ellensburg,WA,98926,United States,(844) 899-5598,,,,,0
Preston GM Superstore,,1500 Wilmington Rd,,New Castle,PA,16105,United States,(866) 952-9341,,,,,0
Sewell Cadillac of Grapevine,,1001 E. State Hwy 114,,Grapevine,TX,76051,United States,(817) 778-8606,,,,,0
Sewell Cadillac of Dallas,,7310 Lemmon Avenue,,Dallas,TX,75209,United States,(214) 989-4686,,,,,0
Dale Willey Automotive,,2840 Iowa Street,,Lawrence,KS,66046,United States,(785) 727-1109,,,,,0
Murdock Manhattan Cadillac,,600 McCall Road,,Manhattan,KS,66502,United States,(877) 806-7868,,,,,0
McElwain Cadillac,,911 Lawrence Avenue,,Ellwood City,PA,16117,United States,(877) 858-6134,,,,,0
Cadillac of Arlington,,2001 North Collins Street,,Arlington,TX,76011,United States,(877) 286-7908,,,,,0
Wheeler Auto Center,,350 Colusa Ave,,Yuba City,CA,95991,United States,(530) 923-4594,,,,,0
Young Cadillac of Owosso,,1500 E Main Street,,Owosso,MI,48867,United States,(877) 763-6655,,,,,0
Woodland Motors,,530 Quality Cir,,Woodland,CA,95776,United States,(877) 344-1182,,,,,0
Napleton's River Oaks Cadillac,,1777 1/2 River Oaks Dr. (159th St),,Calumet City,IL,60409,United States,(877) 318-8151,,,,,0
Belle Glade Cadillac,,1700 E Palm Beach Road,,Belle Glade,FL,33430,United States,(855) 524-6440,,,,,0
Fitzgerald Cadillac of Frederick,,114 Baughmans Lane,,Frederick,MD,21702,United States,(866) 516-0305,,,,,0
Airport Cadillac,,3001 Biddle Road,,Medford,OR,97504,United States,(855) 693-3251,,,,,0
Rancho Grande Motors,,1404 Auto Park Way,,San Luis Obispo,CA,93405,United States,(866) 448-7473,,,,,0
Peninsula Cadillac,,4 Heitzinger Plaza,,Seaside,CA,93955,United States,(877) 792-7302,,,,,0
Gilroy Cadillac,,6720 Auto Mall Drive,,Gilroy,CA,95020,United States,(844) 297-7416,,,,,0
Watsonville Cadillac,,500 Auto Center Drive,,Watsonville,CA,95076,United States,(844) 847-6751,,,,,0
Schepel Cadillac,,2929 W Lincoln Hwy,,Merrillville,IN,46410,United States,(219) 472-1429,,,,,0
Brad Deery Motors,,112 N 2nd Street,,Maquoketa,IA,52060,United States,(866) 635-2912,,,,,0
Bergstrom Cadillac of Madison,,1200 Applegate Rd,,Madison,WI,53713,United States,(608) 467-1179,,,,,0
Bocker Cadillac,,801 E South St,,Freeport,IL,61032,United States,(855) 430-0104,,,,,0
Linus Cadillac of Vero Beach,,1401 US Highway 1,,Vero Beach,FL,32960,United States,(855) 747-3484,,,,,0
Wallace Cadillac,,3555 S.E. Federal Highway,,Stuart,FL,34997,United States,(888) 314-5843,,,,,0
Alan Jay Cadillac,,441 US Hwy 27 N,,Sebring,FL,33870,United States,(855) 681-2639,,,,,0
Suburban Cadillac of Lansing,,5901 S. Pennsylvania Avenue,,Lansing,MI,48911,United States,(517) 507-4903,,,,,0
McDonald Cadillac,,5155 State Street,,Saginaw,MI,48603,United States,(877) 816-9168,,,,,0
Graff Cadillac - Mt. Pleasant,,116 N  Mission,,Mount Pleasant,MI,48858,United States,(844) 883-9491,,,,,0
AutoNation Cadillac West Palm Beach,,2101 45th Street,,West Palm Beach,FL,33407,United States,(561) 491-2972,,,,,0
"Gusweiler Chevrolet, Buick, GMC and Cadillac",,1132 State Route 41 SW,,Washington Court House,OH,43160,United States,(866) 882-5651,,,,,0
Bokman of Wellsville Chevrolet Buick GMC Cadillac,,81 S. Main Street,,Wellsville,NY,14895,United States,(866) 622-9843,,,,,0
Sandlin Motors,,204-6 E 16th St,,Mount Pleasant,TX,75455,United States,(877) 247-1210,,,,,0
Wiers Cadillac,,416 S Halleck St,,Demotte,IN,46310,United States,(877) 281-1752,,,,,0
McGonigal Cadillac,,2828 East Markland Ave,,Kokomo,IN,46901,United States,(877) 816-4706,,,,,0
James Corlew Cadillac,,722 College St,,Clarksville,TN,37040,United States,(844) 878-5771,,,,,0
Crossroads Cadillac,,4630 E. 32nd Street,,Joplin,MO,64804,United States,(877) 900-4176,,,,,0
Auffenberg Cadillac,,144 W Shawnee St,,Muskogee,OK,74401,United States,(855) 371-4283,,,,,0
Fairfield Cadillac,,400 N. Derr Drive,,Lewisburg,PA,17837,United States,(866) 951-3820,,,,,0
Country Auto Center,,2705 N. Michigan Street,,Plymouth,IN,46563,United States,(877) 868-8215,,,,,0
John Elway Cadillac of Park Meadows,,8201 Parkway Drive,,Lone Tree,CO,80124,United States,(877) 348-3648,,,,,0
Medved Cadillac,,11101 West I-70 Frontage Road N.,,Wheat Ridge,CO,80033,United States,(303) 747-6079,,,,,0
Cummins Cadillac,,1300 N Airport Road,,Weatherford,OK,73096,United States,(877) 525-5854,,,,,0
Wilson Cadillac,,4850 W Sixth Ave,,Stillwater,OK,74074,United States,(877) 856-2127,,,,,0
John Vance Auto Group,,5322 S. Division Street,,Guthrie,OK,73044,United States,(855) 634-4944,,,,,0
Bob Moore Cadillac of Edmond,,13020 N Broadway Extension,,Oklahoma City,OK,73114,United States,(888) 367-6285,,,,,0
Don Hall SuperCenter,,1800 Greenup Ave,,Ashland,KY,41101,United States,(866) 742-2918,,,,,0
Ken Batchelor Cadillac,,11001 IH-10 ,,San Antonio,TX,78230,United States,(866) 230-5495,,,,,0
Lively Cadillac,,400 Spur 63,,Longview,TX,75601,United States,(855) 720-8842,,,,,0
Cannon Chevrolet Cadillac,,69900 Highway 82 West,,Greenwood,MS,38930,United States,(662) 595-4228,,,,,0
Cannon Motors,,100 North Thacker Loop,,Oxford,MS,38655,United States,(662) 550-4317,,,,,0
Cecil Atkission Motors,,550 Benson Drive,,Kerrville,TX,78028,United States,(855) 974-1431,,,,,0
AutoNation Cadillac Corpus Christi,,6650 S. Padre Island Drive,,Corpus Christi,TX,78412,United States,(855) 883-8147,,,,,0
Atzenhoffer Cadillac,,3211 N. Navaro St,,Victoria,TX,77901,United States,(855) 870-5604,,,,,0
Cavender Cadillac,,7625 N Loop 1604 E,,San Antonio,TX,78233,United States,(210) 807-9093,,,,,0
Don Moore Cadillac,,3232 Villa Point,,Owensboro,KY,42303,United States,(866) 654-6389,,,,,0
Lewis Cadillac,,1903 East US 50 Business,,Garden City,KS,67846,United States,(855) 513-0251,,,,,0
White's Chevrolet-Cadillac,,175 Old Farm Road,,Roanoke Rapids,NC,27870,United States,(252) 507-4950,,,,,0
Classic Cadillac,,833 Eastern Blvd,,Montgomery,AL,36117,United States,(877) 809-6430,,,,,0
Orr Cadillac of Hot Springs,,4555 Central Ave,,Hot Springs,AR,71913,United States,(877) 889-4922,,,,,0
Gary Lang Cadillac,,1111 South Illinois 31 ,,McHenry,IL,60050,United States,(844) 886-1810,,,,,0
Napleton Cadillac of Libertyville,,1050 S Milwaukee Avenue,,Libertyville,IL,60048,United States,(847) 984-1422,,,,,0
Palmen Cadillac,,7110 74th Place,,Kenosha,WI,53142,United States,(877) 370-0711,,,,,0
Kunes Country Cadillac of Delavan,,1231 E. Geneva Street,,Delavan,WI,53115,United States,(855) 478-9852,,,,,0
Frank Boucher Cadillac,,8600 Washington Avenue,,Racine,WI,53406,United States,(866) 290-4348,,,,,0
Cadillac of Bloomsburg,,420 Central Road,,Bloomsburg,PA,17815,United States,(855) 667-2470,,,,,0
Titus Will Cadillac,,2425 Carriage Loop SW,,Olympia,WA,98502,United States,(844) 593-6069,,,,,0
Dave Smith Cadillac,,210 N Division Street,,Kellogg,ID,83837,United States,(866) 830-9012,,,,,0
Royal Oaks Cadillac,,3417 Park Avenue,,Paducah,KY,42001,United States,(866) 789-8139,,,,,0
Bill Jackson Cadillac,,152 US 231 North,,Troy,AL,36081,United States,(855) 416-6521,,,,,0
Lynch Cadillac of Auburn,,154 West Creek Parkway,,Auburn,AL,36830,United States,(866) 553-5850,,,,,0
Marion Chevrolet Buick GMC Cadillac,,2604 W. Deyoung St.,,Marion,IL,62959,United States,(618) 364-4142,,,,,0
Les Stanford Cadillac,,21711 Michigan Avenue,,Dearborn,MI,48124,United States,(877) 551-3192,,,,,0
Dwain Taylor Cadillac,,1307 S 12th Street,,Murray,KY,42071,United States,(866) 958-4627,,,,,0
Tinney Automotive,,11249 West Carson City Rd.,,Greenville,MI,48838,United States,(844) 594-8166,,,,,0
Suburban Cadillac of Plymouth,,40475 Ann Arbor Rd,,Plymouth,MI,48170,United States,(866) 695-4043,,,,,0
Harvey Cadillac,,2600 28th Street SE,,Grand Rapids,MI,49512,United States,(866) 612-2144,,,,,0
Betten Baker Cadillac,,2474 Henry Street,,Muskegon,MI,49441,United States,(855) 279-8040,,,,,0
Highpoint Auto and Truck Center,,7555 U.S. 131 Business S,,Cadillac,MI,49601,United States,(844) 494-5077,,,,,0
Suttle Cadillac,,12525 Jefferson Avenue,,Newport News,VA,23602,United States,(844) 215-5014,,,,,0
2nd Fridays Cruise In - Suffolk Va,,2016 N. Main Street,,Suffolk,VA,23434,United States,(866) 606-0684,,,,,0
Vince's GM Center,,1847 Rose Ave,,Burlington,CO,80807,United States,(888) 599-1683,,,,,0
Crest Cadillac,,717 W Genesee Street,,Syracuse,NY,13204,United States,(315) 849-9115,,,,,0
Auffenberg of Carbondale,,1015 E. Walnut St.,,Carbondale,IL,62901,United States,(855) 361-1672,,,,,0
Jim Hudson Cadillac,,4035 Kaiser Hill Road,,Columbia,SC,29203,United States,(855) 430-2199,,,,,0
Moore Cadillac Richmond,,9177 W. Broad Street,,Richmond,VA,23294,United States,(804) 441-9250,,,,,0
Fairground Auto Plaza,,100 Fairgrounds Rd,,Rolla,MO,65401,United States,(866) 817-3051,,,,,0
Mike Kelly Cadillac,,252 Pittsburgh Rd,,Butler,PA,16002,United States,(877) 812-7626,,,,,0
Baierl Cadillac,,10430 Perry Highway,,Wexford,PA,15090,United States,(724) 741-1217,,,,,0
Sakelaris Cadillac of Lebanon,,2400 Evergreen Parkway,,Lebanon,MO,65536,United States,(844) 587-6448,,,,,0
Mid Missouri Motors,,617 Old Route 66,,Saint Robert,MO,65584,United States,(877) 330-6051,,,,,0
Reynolds Cadillac,,249 Madison Road,,Orange,VA,22960,United States,(866) 725-0955,,,,,0
Waldorf Cadillac,,2298 Crain Highway,,Waldorf,MD,20601,United States,(844) 295-9714,,,,,0
Champion Cadillac,,3606 Bristol Highway,,Johnson City,TN,37601,United States,(877) 899-4123,,,,,0
Radley Cadillac,,3421 Jefferson Davis Highway,,Fredericksburg,VA,22401,United States,(877) 733-0250,,,,,0
Dondelinger Cadillac,,6720 Pine Beach Road,,Baxter-Brainerd,MN,56401,United States,(866) 747-0953,,,,,0
Forest Lake Cadillac,,533 19th St Southwest,,Forest Lake,MN,55025,United States,(866) 921-5507,,,,,0
St. Claire Cadillac,,3737 Stevens Creek Blvd.,,Santa Clara,CA,95051,United States,(408) 916-4992,,,,,0
Richard Karr Motors,,900 W Loop 340,,Waco,TX,76712,United States,(855) 924-9859,,,,,0
Tradition Cadillac,,808 W. Union Street,,Newark,NY,14513-4513,United States,(844) 592-6879,,,,,0
Crown Cadillac,,1584 Route 22 E,,Watchung,NJ,07069,United States,(855) 249-1920,,,,,0
Ken Barrett Chevrolet Cadillac,,229 W. Main Street,,Batavia,NY,14020,United States,(585) 300-4968,,,,,0
Bob Johnson GM,,7000 W Main Road,,Le Roy,NY,14482,United States,(855) 648-0936,,,,,0
Valley Cadillac,,3100 Winton Rd South,,Rochester,NY,14623,United States,(585) 563-9920,,,,,0
Don Thornton Cadillac,,3939 South Memorial Drive,,Tulsa,OK,74145,United States,(918) 770-4366,,,,,0
Covert Cadillac,,11750 Research Blvd,,Austin,TX,78759,United States,(888) 360-2611,,,,,0
"Bruner Motors, Inc. Cadillac",,1515 W South Loop,,Stephenville,TX,76401,United States,(877) 296-9032,,,,,0
Jim Hoffpauir Cadillac,,802 N Key Ave,,Lampasas,TX,76550,United States,(844) 880-7963,,,,,0
Garlyn Shelton Cadillac,,5625 S. General Bruce Drive,,Temple,TX,76502,United States,(844) 886-6887,,,,,0
Simmons-Rockwell Cadillac,,784 Country Route 64,,Elmira,NY,14903,United States,(866) 440-4013,,,,,0
Glen Sain Cadillac Paragould,,6345 Hwy 49 South,,Paragould,AR,72450,United States,(844) 458-2537,,,,,0
Capitol Cadillac,,6500 Capitol Drive,,Greenbelt,MD,20770,United States,(240) 292-1053,,,,,0
Cadillac of Roanoke,,2743 Franklin Road SW,,Roanoke,VA,24014,United States,(888) 410-1946,,,,,0
Collins Chevrolet Buick GMC Cadillac,,2300 Rockford Street,,Mount Airy,NC,27030,United States,(888) 346-3152,,,,,0
Solomon Cadillac,,4886 Montgomery Hwy,,Dothan,AL,36303,United States,(844) 827-2983,,,,,0
Ryan Cadillac Minot,,1111 20th Ave SW,,Minot,ND,58701,United States,(866) 256-8132,,,,,0
Riverside Cadillac,,100 Highway 411 East,,Rome,GA,30161,United States,(866) 541-4544,,,,,0
Harvey's,,1500 Tyler Avenue,,Radford,VA,24141,United States,(877) 221-7242,,,,,0
Lindsay Cadillac of Alexandria,,1525 Kenwood Avenue,,Alexandria,VA,22302,United States,(571) 481-2291,,,,,0
Fitzgerald Cadillac,,34 Hudson Street,,Annapolis,MD,21401,United States,(866) 567-1299,,,,,0
Jim Coleman Cadillac,,10400A Auto Park Ave,,Bethesda,MD,20817,United States,(240) 752-7620,,,,,0
Miller Brothers Cadillac,,9035 Baltimore National Pike,,Ellicott City,MD,21042,United States,(877) 667-9455,,,,,0
Casa de Cadillac,,14401 Ventura Blvd,,Sherman Oaks,CA,91423,United States,(877) 672-9082,,,,,0
Supreme Cadillac of Plaquemine,,23085 Highway 1,,Plaquemine,LA,70764,United States,(844) 599-5578,,,,,0
Ross Downing Cadillac,,1301 S Morrison Blvd,,Hammond,LA,70403,United States,(985) 200-0034,,,,,0
A J Dohmann Chevrolet Cadillac,,800 Robison Road,,Berwick,LA,70342,United States,(985) 221-4783,,,,,0
Gerry Lane Cadillac,,10945 Reiger Road,,Baton Rouge,LA,70809,United States,(877) 835-6560,,,,,0
Parkway Cadillac Valencia,,24055 Creekside Road,,Valencia,CA,91355,United States,(877) 796-3710,,,,,0
Martin Cadillac,,12101 W. Olympic Blvd.,,Los Angeles,CA,90064,United States,(855) 810-2828,,,,,0
Woodland Hills Cadillac,,6133 Topanga Canyon Blvd.,,Woodland Hills,CA,91367,United States,(877) 505-6106,,,,,0
Huston Cadillac,,19510 U.S. Highway 27,,Lake Wales,FL,33853,United States,(844) 537-6303,,,,,0
Rahal Miller Cadillac,,4204 Lafayette Street,,Marianna,FL,32446,United States,(866) 435-9657,,,,,0
Glen Sain Cadillac Kennett,,1607 Independence Avenue,,Kennett,MO,63857,United States,(844) 884-9393,,,,,0
Wilcoxson Cadillac,,902 N. Santa Fe Avenue,,Pueblo,CO,81003,United States,(877) 659-6677,,,,,0
North County Cadillac,,1515 Auto Park Way N,,Escondido,CA,92029,United States,(877) 804-0379,,,,,0
Tom Dinsdale Cadillac,,1708 South Webb Rd.,,Grand Island,NE,68803,United States,(844) 847-3933,,,,,0
Riley Cadillac,,2033 Christy Drive,,Jefferson City,MO,65101,United States,(866) 251-3267,,,,,0
Frank Galos Chevrolet Cadillac,,884 Portland Road,,Saco,ME,04072,United States,(866) 336-7204,,,,,0
Alaska Sales and Service Anchorage,,1300 E. 5th Avenue,,Anchorage,AK,99501,United States,(866) 619-0725,,,,,0
De La Fuente Cadillac,,1385 East Main Street,,El Cajon,CA,92021,United States,(888) 242-5632,,,,,0
Carlsbad Cadillac,,5334 Paseo Del Norte,,Carlsbad,CA,92008,United States,(877) 459-1963,,,,,0
Marvin K Brown Auto Center,,1441 Camino Del Rio South,,San Diego,CA,92108,United States,(855) 996-5280,,,,,0
Herman Jenkins Motors,,2030 West Reelfoot Avenue,,Union City,TN,38281,United States,(844) 881-8124,,,,,0
Red Noland Cadillac,,990 Motor City Drive,,Colorado Springs,CO,80905,United States,(719) 896-2685,,,,,0
Ruddell Cadillac,,110 Golf Course Road,,Port Angeles,WA,98362,United States,(866) 450-0995,,,,,0
Don Larson Cadillac,,S3801 County Hwy BD.,,Baraboo,WI,53913,United States,(866) 889-1774,,,,,0
Jack Wolf Cadillac,,"1855 North State, PO Box 560",,Belvidere,IL,61008-0560,United States,(844) 878-5981,,,,,0
Napleton Cadillac of Rockford,,449 N Perryville Road,,Rockford,IL,61107,United States,(815) 315-9030,,,,,0
Labadie Cadillac,,711 S Euclid Ave,,Bay City,MI,48706,United States,(855) 827-0587,,,,,0
Burke Cadillac,,227 Bayberry Drive,,Cape May Court House,NJ,08210,United States,(877) 807-9252,,,,,0
Jim Olson Cadillac,,632 Green Bay Road,,Sturgeon Bay,WI,54235,United States,(855) 452-1899,,,,,0
Rhinelander Cadillac,,1935 N. Stevens Street,,Rhinelander,WI,54501,United States,(866) 515-3910,,,,,0
O'Malley Cadillac,,3405 W. Stewart Ave,,Wausau,WI,54401,United States,(715) 803-4144,,,,,0
Edwards Automotive Inc.,,1807 N Stephenson Avenue,,Iron Mountain,MI,49801,United States,(906) 828-3096,,,,,0
Kerbeck Cadillac Atlantic City,,340 N. Albany Ave,,Atlantic City,NJ,08401,United States,(609) 246-2198,,,,,0
Larson Cadillac,,6411 20th Street E.,,Fife,WA,98424,United States,(253) 777-3246,,,,,0
Brotherton Cadillac,,215 SW 12th Street,,Renton,WA,98057,United States,(877) 741-1030,,,,,0
RJ Burne Cadillac Inc.,,1201 Wyoming Ave,,Scranton,PA,18509,United States,(570) 687-9982,,,,,0
Matthews Cadillac,,3721 Old Vestal Road,,Vestal,NY,13850,United States,(855) 996-8215,,,,,0
Billion Cadillac,,2733 Mormon Trek Blvd,,Iowa City,IA,52240,United States,(855) 998-2466,,,,,0
McArdle Cadillac,,2400 N. Saginaw Rd.,,Midland,MI,48640,United States,(877) 698-1537,,,,,0
Crosby Cadillac,,2731 Memorial Drive,,Waycross,GA,31503,United States,(877) 859-8428,,,,,0
Alexandria Motors,,3710 Highway 29 South,,ALEXANDRIA,MN,56308,United States,(855) 943-2725,,,,,0
Pat Curtis Cadillac,,700 North State Street,,Caro,MI,48723,United States,(877) 795-2611,,,,,0
Al Serra Cadillac,,6201 S. Saginaw Rd.,,Grand Blanc,MI,48439,United States,(877) 356-3431,,,,,0
Lockhart Cadillac of Greenwood,,1287 U.S. 31 South,,Greenwood,IN,46143,United States,(866) 552-1419,,,,,0
Village Cadillac of Homosassa,,2431 S Suncoast Blvd.,,Homosassa,FL,34448,United States,(352) 503-4114,,,,,0
Butch Oustalet Cadillac,,4012 14th Street,,Pascagoula,MS,39567-2406,United States,(877) 696-1716,,,,,0
Peach Cadillac,,2227 Douglas Avenue,,Brewton,AL,36426,United States,(877) 794-0548,,,,,0
Joe Bullard Cadillac,,1419 E I65 Service Rd S,,Mobile,AL,36606,United States,(251) 545-3783,,,,,0
Ed Martin Cadillac,,5400 Scatterfield Road,,Anderson,IN,46013,United States,(866) 644-0935,,,,,0
Lockhart Cadillac,,9265 E. 126th St.,,Fishers,IN,46038,United States,(866) 619-4240,,,,,0
Curry Auto Center,,2906 Buick Cadillac Blvd.,,Bloomington,IN,47401,United States,(877) 815-9613,,,,,0
Nereson Cadillac,,923 US Highway 10 East,,Detroit Lakes,MN,56501,United States,(877) 805-1891,,,,,0
Dossett Cadillac,,1058 W Pine Street,,Hattiesburg,MS,39401,United States,(866) 347-8098,,,,,0
Sullivan Cadillac,,4040 SW College Road,,Ocala,FL,34474,United States,(352) 433-0948,,,,,0
Hilton Head Cadillac,,1090 Fording Island Rd,,Bluffton,SC,29910,United States,(844) 881-1427,,,,,0
Turan Foley Cadillac,,11123 Highway 49 North,,Gulfport,MS,39503,United States,(844) 589-1652,,,,,0
Lawrence Hall Cadillac,,1385 S. Danville Drive,,Abilene,TX,79605,United States,(855) 563-0951,,,,,0
West Herr Cadillac of East Aurora,,535 Main Street,,East Aurora,NY,14052,United States,(877) 470-1516,,,,,0
Vaden Cadillac Savannah,,9393 Abercorn Street,,Savannah,GA,31406,United States,(866) 321-8164,,,,,0
Red Wing Cadillac,,2500 West Highway 61,,Red Wing,MN,55066,United States,(866) 939-5334,,,,,0
Towne Cadillac,,11208 Gowanda State Road,,North Collins,NY,14111,United States,(844) 888-9771,,,,,0
Keyser Cadillac,,4130 Sheridan Drive,,Williamsville,NY,14221,United States,(716) 568-7265,,,,,0
Robert Basil Cadillac,,3475 Southwestern Blvd,,Orchard Park,NY,14127,United States,(866) 996-9353,,,,,0
Graue Cadillac of Lincoln,,1905 N  Kickapoo St,,Lincoln,IL,62656,United States,(844) 838-5775,,,,,0
Barker Cadillac,,2030 E Ireland Grove Rd,,Bloomington,IL,61704,United States,(855) 610-6118,,,,,0
Velde Cadillac,,2220 N 8th St,,Pekin,IL,61554,United States,(844) 326-1370,,,,,0
Uftring Weston Cadillac,,1600 W War Memorial Drive,,Peoria,IL,61614,United States,(844) 610-7783,,,,,0
Reagor-Dykes Cadillac,,4004 Spur 84,,Snyder,TX,79549,United States,(855) 387-3625,,,,,0
Davidson Motor Company,,414 Elm Street,,Graham,TX,76450,United States,(866) 456-1160,,,,,0
Pietroske Cadillac,,4000 Grand Ave,,Manitowoc,WI,54221,United States,(877) 790-7081,,,,,0
Sandman Brothers,,56 E Broadway St,,Shelbyville,IN,46176,United States,(866) 907-7961,,,,,0
Dondelinger Cadillac,,2310 Paul Bunyan Drive NW,,Bemidji,MN,56601,United States,(866) 849-2792,,,,,0
Charles Boyd Cadillac,,250 Ruin Creek Rd,,Henderson,NC,27536,United States,(877) 892-7033,,,,,0
High Country Cadillac,,275 N Main Street,,Richfield,UT,84701,United States,(844) 881-4184,,,,,0
JC Harris Cadillac,,4030 Ward Blvd,,Wilson,NC,27893,United States,(252) 674-0737,,,,,0
Harmon Cadillac of Provo,,470 W  100 North,,Provo,UT,84601,United States,(844) 882-7518,,,,,0
Tony Basso Chevrolet Buick GMC Cadillac,,1355 S Carbon Ave,,Price,UT,84501,United States,(888) 268-7657,,,,,0
MotorWorld Cadillac,,150 Motor World Drive,,Wilkes-Barre,PA,18703,United States,(877) 840-0104,,,,,0
Rimrock Cadillac,,840 S Shiloh Rd,,Billings,MT,59106,United States,(866) 437-4626,,,,,0
Public Service Garage Cadillac,,919 W Baraga Ave,,Marquette,MI,49855,United States,(866) 685-3077,,,,,0
American Cadillac of Muncie,,6580 West Hometown Blvd.,,Muncie,IN,47304,United States,(855) 769-3114,,,,,0
Romain Cadillac,,7600 E Division Street,,Evansville,IN,47715,United States,(866) 416-7569,,,,,0
D'Arcy Cadillac,,1850 N. Division Street,,Morris,IL,60450,United States,(866) 821-8484,,,,,0
Riverside Cadillac,,5273 U.S. 2 & 41,,Escanaba,MI,49829,United States,(866) 810-0500,,,,,0
AutoNation Cadillac West Amarillo,,7300 I 40 West,,Amarillo,TX,79106,United States,(855) 638-9905,,,,,0
Alderson Cadillac,,1210 19th Street,,Lubbock,TX,79401,United States,(806) 589-1070,,,,,0
Bender Chevrolet Cadillac Buick GMC,,2500 Mabry Dr,,Clovis,NM,88101,United States,(575) 219-4721,,,,,0
Frankel & Chesapeake Cadillac,,10240 York Road,,Cockeysville,MD,21030,United States,(443) 541-5468,,,,,0
Thompson Cadillac,,2600 Wake Forest Road,,Raleigh,NC,27609,United States,(844) 340-0258,,,,,0
Whisler Chevrolet Cadillac,,2200 Foothill Boulevard,,Rock Springs,WY,82901,United States,(307) 212-5529,,,,,0
Open Road Cadillac,,334 Columbia Turnpike,,Florham Park,NJ,07932,United States,(888) 393-6853,,,,,0
Fuson Cadillac,,4325 S US Highway 41,,Terre Haute,IN,47802,United States,(866) 382-1366,,,,,0
Green Country Auto Group,,2831 N 16th Street,,Parsons,KS,67357,United States,(866) 433-4543,,,,,0
Jim Falk Motors,,1201 N 2nd Street,,Clinton,MO,64735,United States,(866) 450-5899,,,,,0
LaRoche Cadillac,,900 Highway 290 W,,Brenham,TX,77833,United States,(855) 331-5922,,,,,0
Hansen Motor Co,,1175 S Commerce Way,,Brigham City,UT,84302,United States,(844) 299-9497,,,,,0
Jerry Seiner Cadillac,,1530 South 500 West,,Salt Lake City,UT,84115,United States,(866) 928-7716,,,,,0
Sterling Auto Group,,205 N Earl Rudder Freeway,,Bryan,TX,77802,United States,(844) 804-4627,,,,,0
Tom Peacock Cadillac,,15480 North Freeway,,Houston,TX,77090,United States,(866) 315-9657,,,,,0
Sewell Cadillac of Houston,,12221 Katy Freeway,,Houston,TX,77079,United States,(888) 591-9057,,,,,0
David Taylor Cadillac,,10422 Southwest Freeway,,Houston,TX,77074,United States,(832) 369-8325,,,,,0
Diepholz Cadillac,,631 W  Lincoln Avenue,,Charleston,IL,61920,United States,(866) 914-3266,,,,,0
Silver Star Cadillac,,3601 Auto Mall Drive,,Thousand Oaks,CA,91362,United States,(877) 241-1317,,,,,0
Vaughn Automotive - Cadillac of Ottumwa,,1311 Vaughn Drive,,Ottumwa,IA,52501,United States,(844) 585-1351,,,,,0
Jerry Remus Cadillac,,3801 S Jeffers,,North Platte,NE,69101,United States,(844) 338-7976,,,,,0
Ken Waschke Auto Plaza Inc,,501 9th St N,,Virginia,MN,55792,United States,(855) 863-6495,,,,,0
Colonial Auto Center,,100 Myers Drive,,Charlottesville,VA,22901,United States,(877) 661-8864,,,,,0
Kolar Cadillac,,4770 West Arrowhead Road,,Hermantown,MN,55811,United States,(855) 634-4780,,,,,0
Grand Rapids GM,,1610 Pokegama Ave South,,Grand Rapids,MN,55744,United States,(844) 884-0575,,,,,0
Lumberton Chevrolet Buick GMC Cadillac,,500 Linkhaw Road,,Lumberton,NC,28358,United States,(910) 816-4742,,,,,0
McLaughlin Cadillac,,4101 41st Street,,Moline,IL,61265,United States,(309) 623-4405,,,,,0
Piehl Cadillac,,1000 W Main Street,,Geneseo,IL,61254,United States,(877) 791-4451,,,,,0
Lewis Cadillac,,202 N Grant Avenue,,Liberal,KS,67901,United States,(844) 602-1476,,,,,0
Webb Automotive Group,,3911 East Main,,Farmington,NM,87402,United States,(877) 265-0084,,,,,0
City Cadillac,,43-60  Northern Boulevard,,Long Island City,NY,11101,United States,(877) 297-8602,,,,,0
Poage Cadillac,,1500 Koester Drive,,Forsyth,IL,62535,United States,(877) 469-6219,,,,,0
Brogan Cadillac of Totowa,,112 Route 46 East,,Totowa,NJ,07512,United States,(973) 200-8632,,,,,0
North Bay Cadillac,,720 Northern Blvd,,Great Neck,NY,11021,United States,(877) 459-3622,,,,,0
Englewood Cliffs Cadillac,,374 Sylvan Ave,,Englewood Cliffs,NJ,07632,United States,(877) 437-5312,,,,,0
Potamkin Cadillac of Manhattan,,706 11th Avenue,,New York City,NY,10019-3575,United States,(877) 786-0750,,,,,0
Rick Hendrick Cadillac Norfolk,,6222 East Virginia Beach Blvd.,,Norfolk,VA,23502,United States,(757) 216-1655,,,,,0
Val Ward Cadillac,,12626 Tamiami Trail South,,Fort Myers,FL,33907,United States,(866) 247-7004,,,,,0
Schwan Cadillac,,3812 Memorial Highway,,Mandan,ND,58554,United States,(866) 702-6123,,,,,0
Hudson Auto Source,,441 Blue River Parkway,,Silverthorne,CO,80498,United States,(844) 546-5426,,,,,0
Turner Automotive,,2262 E Main Street,,Montrose,CO,81401,United States,(970) 497-1453,,,,,0
Frank Kent Cadillac,,3500 W. Loop 820 South,,Fort Worth,TX,76116,United States,(877) 235-9715,,,,,0
Davis Gainesville Cadillac,,2600 N. Main Street,,Gainesville,FL,32609,United States,(866) 414-5994,,,,,0
Griner Family Cadillac,,3685 Inner Perimeter Road,,Valdosta,GA,31605,United States,(866) 561-9565,,,,,0
Fields Cadillac Jacksonville,,7999 Blanding Blvd,,Jacksonville,FL,32244,United States,(904) 866-4541,,,,,0
Jerry's Cadillac,,3130 Ft.  Worth Hwy,,Weatherford,TX,76087,United States,(888) 377-6561,,,,,0
Fuoco Motor Company,,741 N. 1st Street,,Grand Junction,CO,81501,United States,(844) 887-2904,,,,,0
Jeff Drennen Cadillac of Zanesville,,3625 Maple Avenue,,Zanesville,OH,43701,United States,(844) 878-1878,,,,,0
Moore Cadillac Chantilly,,25450 Pleasant Valley Road,,Chantilly,VA,20152,United States,(866) 552-8879,,,,,0
Britain Cadillac,,4495 E. Interstate 30 Frontage Road,,Greenville,TX,75402,United States,(877) 643-9060,,,,,0
Cadillac of New Orleans,,3100 Lime Street,,Metairie,LA,70006,United States,(504) 708-2974,,,,,0
Matt Bowers Cadillac,,316 E. Howze Beach RD.,,Slidell,LA,70461,United States,(985) 205-8016,,,,,0
Sunset Cadillac of Sarasota,,2200 Bee Ridge Road,,Sarasota,FL,34239,United States,(941) 312-2811,,,,,0
Sunset Cadillac of Venice,,2367 Tamiami Trail South,,Venice,FL,34293,United States,(941) 584-8683,,,,,0
DeVoe Cadillac,,4100 Tamiami Trail North,,Naples,FL,34103,United States,(888) 484-3984,,,,,0
Beck Motor Company,,1905 N. Garfield Ave.,,Pierre,SD,57501,United States,(855) 364-7154,,,,,0
Star Cadillac,,"480 N. West End Blvd, Route 309",,Quakertown,PA,18951,United States,(844) 607-0359,,,,,0
Fox Charlevoix,,6684 US Hwy 31 South,,Charlevoix,MI,49720,United States,(866) 897-2939,,,,,0
Serra Cadillac of Traverse City,,1747 S. Garfield Ave,,Traverse City,MI,49686,United States,(231) 668-9146,,,,,0
Wagner Cadillac,,4100 South Broadway,,Tyler,TX,75701,United States,(903) 253-0328,,,,,0
Gabriel /Jordan Chevrolet Cadillac,,1704 US HWY 259 North,,Henderson,TX,75652,United States,(800) 860-9964,,,,,0
Pippen Motor Co,,1300 W Panola St,,Carthage,TX,75633,United States,(877) 789-5132,,,,,0
Vince Whibbs Cadillac,,5651 Pensacola Blvd,,Pensacola,FL,32505,United States,(844) 581-8849,,,,,0
Springfield Cadillac,,242 E. Columbia Street,,Springfield,OH,45503,United States,(844) 609-6681,,,,,0
Dan Hemm Chevrolet Buick GMC Cadillac,,2596 W. Michigan Street,,Sidney,OH,45365,United States,(937) 419-0548,,,,,0
Markquart Cadillac,,2191 S. Prairie View Road,,Chippewa Falls,WI,54729,United States,(855) 926-8836,,,,,0
Sunset Cadillac of Bradenton,,4780 14th Street West,,Bradenton,FL,34207,United States,(866) 605-3869,,,,,0
Serra Cadillac,,12300 Thirty Mile Rd,,Washington,MI,48095,United States,(866) 899-4364,,,,,0
LaFontaine Cadillac,,4000 West Highland Road,,Highland,MI,48357,United States,(855) 816-9310,,,,,0
MJ Sullivan Cadillac,,452 Broad Street,,New London,CT,06320,United States,(877) 810-2690,,,,,0
Orr Cadillac of Fort Smith,,6500 Autopark Drive,,Fort Smith,AR,72908,United States,(877) 799-3138,,,,,0
"Armen Cadillac, Inc.",,1441 Ridge Pike,,Plymouth Meeting,PA,19462,United States,(484) 751-9179,,,,,0
Ruggeri Cadillac,,1550 Wilmington Pike,,West Chester,PA,19382,United States,(888) 926-7977,,,,,0
Vann York Cadillac,,321 Eastchester Dr,,High Point,NC,27262,United States,(844) 212-5609,,,,,0
Flow Cadillac,,1400 S. Stratford Road,,Winston-Salem,NC,27103,United States,(866) 909-5854,,,,,0
Eisinger Cadillac,,2565 Hwy 93 North,,Kalispell,MT,59901,United States,(866) 294-9374,,,,,0
Bud Davis Cadillac Inc.,,5433 Poplar Ave,,Memphis,TN,38119,United States,(877) 294-6976,,,,,0
Bruner Auto Group Cadillac,,224 Early Blvd,,Early,TX,76802,United States,(877) 895-3138,,,,,0
Ed Morse Cadillac Delray Beach,,2300 S Federal Highway,,Delray Beach,FL,33483,United States,(877) 249-9381,,,,,0
Ed Morse Sawgrass Cadillac,,14401 W Sunrise Blvd,,Sunrise,FL,33323,United States,(888) 372-5358,,,,,0
Ed Morse Bayview Cadillac,,1240 N Federal HWY,,Fort Lauderdale,FL,33304,United States,(877) 224-1472,,,,,0
Sheehan Cadillac,,5101 N Federal Highway,,Pompano Beach,FL,33064,United States,(866) 204-2584,,,,,0
Cannon Cadillac,,5210 S Florida Avenue,,Lakeland,FL,33813,United States,(877) 231-0436,,,,,0
Grossinger Autoplex,,6900 N Mc Cormick,,Lincolnwood,IL,60712,United States,(844) 883-3395,,,,,0
Steve Foley Cadillac,,100 Skokie Blvd,,Northbrook,IL,60062,United States,(866) 674-8580,,,,,0
Wharton Cadillac,,1225 7th Street,,Parkersburg,WV,26102,United States,(304) 397-5246,,,,,0
Arrowhead Cadillac,,8310 West Bell Rd.,,Glendale,AZ,85308,United States,(602) 903-2406,,,,,0
Gurley Leep Cadillac,,215 W. Douglas Rd.,,Mishawaka,IN,46545,United States,(844) 883-0625,,,,,0
Tom Naquin Cadillac,,2500 W Lexington Ave,,Elkhart,IN,46514,United States,(844) 593-1058,,,,,0
Myrtle Beach Cadillac,,1785 Highway 501,,Myrtle Beach,SC,29577,United States,(877) 806-0874,,,,,0
Coastal Cadillac,,8559 Ocean Highway,,Pawleys Island,SC,29585,United States,(877) 881-3892,,,,,0
Coulter Cadillac Tempe,,7780 S Autoplex Loop,,Tempe,AZ,85284,United States,(480) 907-3931,,,,,0
Earnhardt Cadillac,,7901 E. Frank Lloyd Wright Blvd ,,Scottsdale,AZ,85260,United States,(866) 434-3567,,,,,0
Lamb Cadillac,,400 Prescott Lakes Parkway,,Prescott,AZ,86301,United States,(855) 595-6231,,,,,0
Coulter Cadillac Phoenix,,1188 E Camelback Road,,Phoenix,AZ,85014,United States,(602) 626-9493,,,,,0
Classic Cadillac,,7700 Roswell Road,,Atlanta,GA,30350,United States,(678) 317-2778,,,,,0
Home Motors,,1313 E. Main Street,,Santa Maria,CA,93454,United States,(844) 301-0751,,,,,0
Stan King Cadillac,,333 Brookhaven St,,Brookhaven,MS,39601,United States,(844) 608-9476,,,,,0
Mossy Cadillac,,241 Frontage Rd.,,Picayune,MS,39446,United States,(877) 807-1197,,,,,0
Capital Cadillac,,2210 Cobb Pkwy S,,Smyrna,GA,30080,United States,(770) 884-1808,,,,,0
Barksdale Cadillac,,700 Adcock Drive,,Ridgeland,MS,39157,United States,(877) 801-2019,,,,,0
Bunnin Cadillac,,301 S. Hope Avenue,,Santa Barbara,CA,93105,United States,(877) 817-9666,,,,,0
Kevin Whitaker Cadillac,,2320 Laurens Road,,Greenville,SC,29607,United States,(855) 760-9286,,,,,0
Boyd Cadillac,,1875 Spartanburg Highway,,Hendersonville,NC,28792,United States,(855) 430-1044,,,,,0
Billion Cadillac of Sioux City,,4300 Southgate Drive,,Sioux City,IA,51106,United States,(855) 534-8418,,,,,0
House Cadillac,,3700 Frontage Road West,,Owatonna,MN,55060,United States,(507) 451-6934,,,,,0
Arnold Palmer Motors,,Route 30 East,,Latrobe,PA,15650,United States,(855) 454-3416,,,,,0
"Uebelhor Cadillac Vincennes, IN",,626 Kimmell Road,,Vincennes,IN,47591,United States,(844) 890-2351,,,,,0
King O'Rourke Cadillac,,756 Smithtown Bypass,,Smithtown,NY,11787,United States,(855) 345-9071,,,,,0
Alexander Cadillac,,1501 E. Ventura Blvd.,,Oxnard,CA,93036,United States,(855) 371-4079,,,,,0
Tremonte Cadillac,,490 E. Main Street,,Branford,CT,06405,United States,(844) 391-9643,,,,,0
Buzz Chew Cadillac,,656 County Road 39A,,Southampton,NY,11968,United States,(877) 710-6917,,,,,0
Service Cadillac,,1214 Ambassador Caffery Parkway,,Lafayette,LA,70506,United States,(866) 224-2243,,,,,0
Southern Cadillac Inc,,5845 Coliseum Blvd,,Alexandria,LA,71303,United States,(844) 610-9798,,,,,0
Stephen Wade Cadillac,,1670 S Hilton Dr. ,,Saint George,UT,84770,United States,(844) 232-3288,,,,,0
Royal Cadillac,,815 W. Auto Mall Drive,,Tucson,AZ,85705,United States,(866) 759-9739,,,,,0
Earnhardt Chandler Cadillac,,1450 S Gilbert Road,,Chandler,AZ,85286,United States,(866) 432-0928,,,,,0
Atlantic Cadillac,,1350 Sunrise Highway,,Bay Shore,NY,11706,United States,(855) 822-1947,,,,,0
Fred Beans Cadillac,,841 N Easton Road,,Doylestown,PA,18902,United States,(844) 346-0194,,,,,0
Garcia Cadillac of Albuquerque,,6401 San Mateo Blvd NE,,Albuquerque,NM,87109,United States,(505) 908-9075,,,,,0
Cadillac of Santa Fe,,4450 Cerrillos Rd,,Santa Fe,NM,87505,United States,(505) 240-6622,,,,,0
Midway Cadillac,,1337 Ocean Highway,,Pocomoke City,MD,21851,United States,(877) 813-1994,,,,,0
Grossinger City Autoplex,,1530 N. Dayton,,Chicago,IL,60642,United States,(847) 513-9803,,,,,0
Carlisle Cadillac,,1701 W. U.S. 287 Bypass,,Waxahachie,TX,75165,United States,(877) 776-3061,,,,,0
Massey Cadillac-Dallas,,11675 LBJ Freeway,,Garland,TX,75041,United States,(469) 277-1404,,,,,0
J M Cadillac,,1710 South 1st St,,Lufkin,TX,75901,United States,(936) 634-3383,,,,,0
Claude Nolan Cadillac,,4700 Southside Blvd.,,Jacksonville,FL,32216,United States,(904) 866-4504,,,,,0
Bacon Auto Country Inc.,,5677 North Jackson ,,Jacksonville,TX,75766,United States,(903) 284-2499,,,,,0
Rex Perry Cadillac,,3916 NW Stallings Drive,,Nacogdoches,TX,75964,United States,(877) 812-1530,,,,,0
Bacon Autoplex,,1216 E.  Palestine AVE,,Palestine,TX,75801,United States,(903) 480-5473,,,,,0
Musser Cadillac,,1212 W. Moore Avenue,,Terrell,TX,75160,United States,(877) 352-9579,,,,,0
The Alderman Motor Company,,380 South Broad Street,,Meriden,CT,06450,United States,(203) 599-1016,,,,,0
Serra Cadillac,,189 Stonebridge Blvd.,,Jackson,TN,38305,United States,(866) 817-4213,,,,,0
Baker Cadillac of Charleston,,1621 Savannah Highway,,Charleston,SC,29407,United States,(855) 746-4316,,,,,0
Prince Cadillac Of Albany,,2701 Ledo Road,,Albany,GA,31707,United States,(866) 829-8431,,,,,0
Dean Arbour Chevrolet Cadillac,,1859 N US Highway,,East Tawas,MI,48730,United States,(866) 546-4166,,,,,0
Bill Cramer Cadillac,,2251 W 23rd Street,,Panama City,FL,32405,United States,(855) 346-2109,,,,,0
George Carr Cadillac,,2950 S. Frontage Road,,Vicksburg,MS,39180,United States,(844) 297-6878,,,,,0
Fields Cadillac St. Augustine,,375 Outlet Mall Blvd.,,St. Augustine,FL,32084,United States,(904) 494-6725,,,,,0
Bush Auto Place,,1850 Rombach Avenue,,Wilmington,OH,45177,United States,(937) 556-4148,,,,,0
Don Davis Cadillac- El Campo,,2011 N  Mechanic Street,,El Campo,TX,77437,United States,(866) 846-1253,,,,,0
Whiteside GM,,50714 National Road,,St. Clairsville,OH,43950,United States,(877) 350-7753,,,,,0
Bob Robinson Cadillac,,155 Robinson Drive,,Triadelphia,WV,26059,United States,(855) 368-1960,,,,,0
Ferris Cadillac,,634 Wabash Avenue,,New Philadelphia,OH,44663,United States,(866) 523-4939,,,,,0
Team Chevrolet Buick GMC Cadillac,,1069 Canton Rd,,Wintersville,OH,43953,United States,(740) 314-4172,,,,,0
Stadium Cadillac,,292 W State St,,Salem,OH,44460,United States,(844) 829-6414,,,,,0
Dave Towell Cadillac,,111 West Market St,,Akron,OH,44303,United States,(330) 835-6628,,,,,0
Lavery Automotive Sales and Service,,1096 W State Street,,Alliance,OH,44601,United States,(855) 275-3186,,,,,0
Lima Cadillac,,2200 N. Cable Road,,Lima,OH,45807,United States,(855) 747-3260,,,,,0
Eagleson Automotive Center,,520 S Whittle Avenue,,Olney,IL,62450,United States,(866) 495-7118,,,,,0
Randall Motors,,801 West Avenue N,,San Angelo,TX,76903,United States,(325) 939-0023,,,,,0
Morris Cadillac,,26100 Lorain Road,,North Olmsted,OH,44070,United States,(877) 807-9237,,,,,0
Central Cadillac,,2801 Carnegie Avenue,,Cleveland,OH,44115,United States,(216) 586-5911,,,,,0
Robert Woodall Cadillac,,1063 Riverside Drive,,Danville,VA,24540,United States,(866) 682-6598,,,,,0
Tom Kelley Cadillac,,811 Avenue of Autos,,Fort Wayne,IN,46804,United States,(260) 494-3435,,,,,0
Symes Cadillac,,3475 E. Colorado Blvd.,,Pasadena,CA,91107,United States,(866) 402-1853,,,,,0
Len Dudas Motors,,3305 Main Street,,Stevens Point,WI,54481,United States,(855) 747-2396,,,,,0
"Looking for a Fullerton Cadillac dealer?  Come to Crestview,  we are the only Cadillac Dealer of the Year in California for 2015 and 2016 and the #1 Volume Cadillac Dealer in California for 2016.",,2700 E. Garvey Ave South,,West Covina,CA,91791,United States,(626) 384-4471,,,,,0
Spence Cadillac Inc,,11646 US Highway 319 North,,Thomasville,GA,31757,United States,(844) 610-0687,,,,,0
Estle Cadillac,,1515 N. Clinton Street,,Defiance,OH,43512,United States,(866) 314-0219,,,,,0
Mark Christopher Cadillac,,2131 E Convention Center Way,,Ontario,CA,91764,United States,(877) 362-3250,,,,,0
Hendrick Cadillac Kansas City,,1151 West 104th Street,,Kansas City,MO,64114,United States,(888) 202-4773,,,,,0
Cadillac of Mahwah,,319 Route 17 North,,Mahwah,NJ,07430,United States,(866) 617-2684,,,,,0
Jim Falk Motors of Maui,,260 Hana Highway,,Kahului,HI,96732,United States,(855) 801-8935,,,,,0
Sheboygan Cadillac,,3400 S. Business Drive,,Sheboygan,WI,53081,United States,(866) 819-0901,,,,,0
Honolulu Cadillac,,2945 N. Nimitz Highway,,Honolulu,HI,96819,United States,(844) 678-9699,,,,,0
Spearfish Cadillac,,1910 North Main Street,,Spearfish,SD,57783,United States,(844) 610-3674,,,,,0
Columbiana Cadillac,,21 E Railroad Street,,Columbiana,OH,44408,United States,(877) 883-8007,,,,,0
Rapid Cadillac,,2323 E. Mall Drive,,Rapid City,SD,57701,United States,(866) 584-4362,,,,,0
Ron Carter Cadillac,,18100 Gulf Freeway Building B,,Friendswood,TX,77546,United States,(832) 369-8156,,,,,0
Horne Auto Center Inc,,651 W Deuce Of Clubs,,Show Low,AZ,85901,United States,(844) 879-4093,,,,,0
Conklin Cadillac Hutchinson,,1400 E 11th Ave,,Hutchinson,KS,67501,United States,(877) 453-0439,,,,,0
Midway Motors Supercenter,,2045 E. Kansas Ave,,McPherson,KS,67460,United States,(877) 633-0429,,,,,0
Bell Cadillac,,1313 E. US Highway 223,,Adrian,MI,49221,United States,(855) 744-8638,,,,,0
Bob Moore Cadillac of Norman,,6400 N Interstate Dr,,Norman,OK,73072,United States,(877) 246-4211,,,,,0
Bert Ogden Cadillac,,1402 E. Expressway 83,,Mission,TX,78572,United States,(888) 841-0277,,,,,0
Luke Fruia Motors,,2645 Barnard Road,,Brownsville,TX,78520,United States,(844) 887-7695,,,,,0
Bradshaw Automotive Group,,14000 East Wade Hampton Blvd,,Greer,SC,29651,United States,(877) 890-3817,,,,,0
Billy Navarre Cadillac,,1300 East College Street,,Lake Charles,LA,70607,United States,(855) 371-5248,,,,,0
"Bishop Cadillac, Inc.",,400 Mackinaw Avenue,,Cheboygan,MI,49721,United States,(855) 226-2154,,,,,0
Dave Kring Cadillac,,1861 U.S. 31 North,,Petoskey,MI,49770,United States,(855) 471-4718,,,,,0
Taylor Cadillac,,819 S. Yellowstone Highway,,Rexburg,ID,83440,United States,(844) 537-5590,,,,,0
Wackerli Buick Cadillac GMC,,1363 North Holmes Avenue,,Idaho Falls,ID,83401,United States,(208) 881-9309,,,,,0
Penske Cadillac of South Bay,,18600 S Hawthorne Blvd,,Torrance,CA,90504,United States,(877) 792-1385,,,,,0
"Murphy Cadillac, Inc.",,174 E Hibiscus Blvd.,,Melbourne,FL,32901,United States,(866) 295-2593,,,,,0
Mike Erdman Cadillac,,445 E. Merritt Island Cswy,,Merritt Island,FL,32952,United States,(321) 806-1176,,,,,0
Pepe Cadillac,,15 Water Street,,White Plains,NY,10601,United States,(877) 700-6019,,,,,0
Stanford-Allen Cadillac,,15180 S Dixie Hwy,,Monroe,MI,48161,United States,(877) 211-0409,,,,,0
Rancho Cadillac,,15425 Dos Palmas Road,,Victorville,CA,92392,United States,(866) 618-4095,,,,,0
Crown Cadillac,,196 Regent Blvd,,Holland,MI,49423,United States,(844) 880-0986,,,,,0
Southtowne Motors,,695 Bullsboro Drive,,Newnan,GA,30265,United States,(844) 610-4807,,,,,0
Bravo Cadillac,,6555 Montana Avenue,,El Paso,TX,79925,United States,(800) 931-6156,,,,,0
Randall Cadillac,,5375 Thomas Road,,Canandaigua,NY,14424,United States,(866) 298-7999,,,,,0
Desert Sun Motors,,2600 N. White Sands Blvd.,,Alamogordo,NM,88310,United States,(866) 711-1173,,,,,0
Bravo Cadillac,,1601 S. Main Street,,Las Cruces,NM,88004,United States,(877) 833-4034,,,,,0
Walker Cadillac,,1492 N Park Street,,Carrollton,GA,30117,United States,(844) 581-4756,,,,,0
All Pro Chevrolet Buick GMC Cadillac,,709 New Franklin Road,,LaGrange,GA,30240,United States,(706) 407-4801,,,,,0
Cole Cadillac,,6600 S Westnedge Avenue,,Portage,MI,49002,United States,(877) 387-2278,,,,,0
"Paul Conte Cadillac, Inc.",,169 W Sunrise Hwy,,Freeport,NY,11520,United States,(516) 960-5618,,,,,0
Sarant Cadillac,,4339 Hempstead Tpke,,Farmingdale,NY,11735,United States,(877) 723-8191,,,,,0
Wakefield Cadillac,,300 West St. John Street,,Spartanburg,SC,29301,United States,(844) 549-2629,,,,,0
Dove Chevrolet Buick Cadillac,,4217 10th Street,,Great Bend,KS,67530,United States,(620) 603-0566,,,,,0
Ed Shults Cadillac,,300 Fluvanna Ave,,Jamestown,NY,14701,United States,(866) 892-7404,,,,,0
Everett Cadillac,,161 Hwy 70 SE,,Hickory,NC,28602,United States,(866) 412-7980,,,,,0
Sierra Blanca Motors,,304 Highway 70,,Ruidoso,NM,88355,United States,(866) 446-1758,,,,,0
Wiesner of Huntsville,,230 IH 45 North,,Huntsville,TX,77320,United States,(877) 344-7421,,,,,0
Bob Poynter GM,,1209 E Tipton Street,,Seymour,IN,47274,United States,(812) 672-4385,,,,,0
Sisbarro Cadillac,,4211 NM Hwy 549,,Deming,NM,88030,United States,(866) 864-9149,,,,,0
LeMond Chevrolet Buick & Cadillac,,412 E. Main Street,,Fairfield,IL,62837,United States,(618) 847-0415,,,,,0
Trapp Cadillac,,200 South Hollywood Drive,,Houma,LA,70360,United States,(844) 591-7265,,,,,0
Desert Sun Roswell,,2601 W. 2nd Street,,Roswell,NM,88201,United States,(866) 549-2252,,,,,0
Pinkerton Cadillac,,801 Graves Mill Road,,Lynchburg,VA,24502,United States,(877) 790-6135,,,,,0
Rally GM Superstore,,39012 Carriage Way,,Palmdale,CA,93551,United States,(866) 935-6844,,,,,0
Sutliff Cadillac,,169 West Aaron Drive,,State College,PA,16803,United States,(844) 212-3843,,,,,0
Voss Cadillac,,650 Miamisburg Centerville Road,,Dayton,OH,45459,United States,(937) 401-0984,,,,,0
Jeff Schmitt Cadillac,,631 S. Orchard Lane,,Beavercreek,OH,45434,United States,(937) 458-3165,,,,,0
Fagan Automotive,,3601 E Milwaukee St,,Janesville,WI,53546,United States,(866) 877-7610,,,,,0
Randy Marion Cadillac,,220 West Plaza Drive,,Mooresville,NC,28115,United States,(866) 360-4760,,,,,0
Team Cadillac,,404 Jake Alexander Blvd South,,Salisbury,NC,28147,United States,(844) 597-9354,,,,,0
Ben Mynatt Cadillac,,281 Concord Parkway South,,Concord,NC,28027,United States,(855) 790-3005,,,,,0
Valenti Cadillac,,99 Leibert Road,,Hartford,CT,06120,United States,(860) 967-3993,,,,,0
Bud Weiser Motors,,2676 Milwaukee Rd,,Beloit,WI,53511,United States,(877) 907-3151,,,,,0
Lassen Automotive,,995 W. Columbia,,Battle Creek,MI,49015,United States,(269) 841-4135,,,,,0
GR Cadillac,,930 Fairystone Park Highway,,Stanleytown,VA,24168,United States,(844) 203-0330,,,,,0
Cadillac of Greenwich,,144 Railroad Avenue,,Greenwich,CT,06830,United States,(203) 987-6006,,,,,0
McKenney Cadillac,,831 South Main Street,,Lowell,NC,28012,United States,(877) 815-1930,,,,,0
Burns Cadillac,,2515 Cherry Road,,Rock Hill,SC,29732,United States,(800) 424-0852,,,,,0
Cadillac of South Charlotte,,10725 Pineville Road,,Pineville,NC,28134,United States,(704) 900-2235,,,,,0
Orr Cadillac,,8750 Business Park Drive,,Shreveport,LA,71105,United States,(888) 543-4055,,,,,0
Findlay Cadillac,,993 Auto Show Dr,,Henderson,NV,89014,United States,(866) 283-8623,,,,,0
Jim Winter Cadillac,,3303 W Michigan Ave,,Jackson,MI,49202,United States,(855) 730-4342,,,,,0
Basil Cadillac of Fredonia,,212 E Main Street,,Fredonia,NY,14063,United States,(855) 895-3275,,,,,0
Terry Marxen Chevrolet Cadillac,,1118 Historic Rte 66,,Flagstaff,AZ,86001,United States,(877) 870-4982,,,,,0
Whitesides of Cambridge,,1051 Southgate Parkway,,Cambridge,OH,43725,United States,(877) 791-2601,,,,,0
Dale Earnhardt Jr Cadillac,,1850 Capital Circle NE,,Tallahassee,FL,32308,United States,(877) 730-1041,,,,,0
Vaden Cadillac Brunswick,,121 Altama Connector,,Brunswick,GA,31525,United States,(866) 480-0653,,,,,0
Central Houston Cadillac,,2520 Main St,,Houston,TX,77002,United States,(832) 369-8293,,,,,0
Tustin Cadillac,,50 Auto Center Drive,,Tustin,CA,92782,United States,(866) 665-0749,,,,,0
Renick Cadillac,,1100 S Euclid Street,,Fullerton,CA,92832,United States,(562) 264-0922,,,,,0
Grand Prize Cadillac,,32 Route 304,,Nanuet,NY,10954,United States,(844) 884-1609,,,,,0
Suburban Cadillac of Ann Arbor,,3515 Jackson Rd,,Ann Arbor,MI,48103,United States,(844) 830-7299,,,,,0
Cadillac of Novi,,41350 Grand River Ave,,Novi,MI,48375,United States,(866) 613-0740,,,,,0
Larsen Motor Company,,830 NE Highway 99W,,McMinnville,OR,97128,United States,(855) 352-9040,,,,,0
Lamesa Cadillac,,2713 Lubbock Highway,,Lamesa,TX,79331,United States,(855) 580-7316,,,,,0
Roth Cadillac,,5711 Peach Street,,Erie,PA,16509,United States,(814) 746-4342,,,,,0
John Jones Cadillac,,1450 S. State Road 60,,Salem,IN,47167,United States,(855) 634-3751,,,,,0
Pollard Chevrolet Buick Cadillac,,1501 E 4th,,Big Spring,TX,79720,United States,(877) 201-9922,,,,,0
Reno Cadillac,,900 Kietzke Lane,,Reno,NV,89502,United States,(866) 798-3449,,,,,0
Michael Hohl Motor Company,,3700 South Carson Street,,Carson City,NV,89701,United States,(844) 880-6073,,,,,0
Ritchey Cadillac,,932 N. Nova Road,,Daytona Beach,FL,32117,United States,(866) 721-0648,,,,,0
Riverton Elko Cadillac,,3750 Idaho St,,Elko,NV,89801,United States,(866) 901-3398,,,,,0
United Motors Incorporated,,1405 North Milt Phillips Ave,,Seminole,OK,74868,United States,(844) 894-8521,,,,,0
Joe Cooper Cadillac of Shawnee,,3303 N Harrison Ave,,Shawnee,OK,74801,United States,(855) 479-1097,,,,,0
Allen Cadillac,,28332 Camino Capistrano,,Laguna Niguel,CA,92677,United States,(855) 580-6487,,,,,0
Ron Craft Cadillac,,4114 Interstate 10 East,,Baytown,TX,77521,United States,(866) 955-8826,,,,,0
Permian Cadillac,,701 W. Navajo Dr.,,Hobbs,NM,88240,United States,(877) 417-8740,,,,,0
Riverside of Escanaba,,5273 U.S. 2 & 41,,Escanaba,MI,49829,United States,(906) 553-6463,,,,,0
Midland Cadillac,,3205 West Wall St,,Midland,TX,79701,United States,(877) 814-2294,,,,,0
Sam Taylor Cadillac,,329 Miracle Strip Parkway SW,,Fort Walton Beach,FL,32548,United States,(866) 650-5943,,,,,0
Moore Cadillac,,1415 Hwy 96 Bypass,,Silsbee,TX,77656,United States,(877) 509-6762,,,,,0
Kelly Grimsley Auto Group,,2603 E. 8TH,,Odessa,TX,79761,United States,(432) 614-4688,,,,,0
Suburban Cadillac of Costa Mesa,,2600 Harbor Blvd,,Costa Mesa,CA,92626,United States,(844) 662-0040,,,,,0
Boulevard Cadillac,,2850 Cherry Ave.,,Signal Hill,CA,90755,United States,(888) 390-1605,,,,,0
Classic Cadillac Galveston,,8020 Broadway,,Galveston,TX,77554,United States,(877) 891-3063,,,,,0
Griffith Cadillac,,1300 W Harmony St,,Neosho,MO,64850,United States,(844) 299-1529,,,,,0
Brown Automotive Center,,2520 Veterans Blvd,,Del Rio,TX,78840,United States,(877) 910-2395,,,,,0
Capitol Cadillac,,2855 Maple Ave NE,,Salem,OR,97301,United States,(877) 815-7005,,,,,0
Courtesy Cadillac,,2531 North Salisbury Blvd,,Salisbury,MD,21801,United States,(877) 876-5526,,,,,0
Eric von Schledorn Cadillac,,805 E Green Bay Ave,,Saukville,WI,53080,United States,(866) 244-0953,,,,,0
Maguire Cadillac,,35 Cinema Drive,,Ithaca,NY,14850,United States,(855) 926-8402,,,,,0
Fox Auto Group,,150 Robert Dann Drive,,Painted Post,NY,14870,United States,(888) 778-2795,,,,,0
Niles Sales and Service Cadillac,,3500 N. Roosevelt Blvd.,,Key West,FL,33040,United States,(877) 804-4871,,,,,0
Ocean Cadillac,,1000 Kane Concourse,,Miami Beach,FL,33154,United States,(786) 245-4952,,,,,0
Braman Cadillac,,2020 Biscayne Blvd,,Miami,FL,33137,United States,(305) 537-7121,,,,,0
Williamson Cadillac,,7815 SW 104th Street,,Miami,FL,33156,United States,(877) 882-0922,,,,,0
Keith Pierson Cadillac,,30501 S. Dixie Hwy,,Homestead,FL,33030,United States,(866) 400-2510,,,,,0
Cadillac of Las Vegas,,5185 W Sahara Ave,,Las Vegas,NV,89146,United States,(702) 979-2049,,,,,0
Montrose Cadillac,,1435 North Hermitage Road,,Hermitage,PA,16148,United States,(877) 792-9546,,,,,0
DAddario Cadillac,,329 Bridgeport Avenue,,Shelton,CT,06484,United States,(877) 526-3275,,,,,0
Powell Watson Motors,,6301 Arena Blvd,,Laredo,TX,78041,United States,(877) 285-8780,,,,,0
Holiday Automotive,,321 N Rolling Meadows Dr,,Fond du lac,WI,54937,United States,(844) 517-0297,,,,,0
Vera Cadillac,,300 South University Drive,,Pembroke Pines,FL,33025,United States,(844) 583-9043,,,,,0
