store_name,store_number,address,address2,city,state,zip_code,country,phone_number,latitude,longitude,store_hours,other_fields,coming_soon
The Scroll Bookstore,,2223 N Mulford Rd ,,Rockford ,IL,61107,United States,(815) 877-7046,,,,,0
The Christian Connection,,337 W State St ,,Sycamore ,IL,60178-1420,United States,(815) 899-3262,,,,,0
Kremer Publications Inc,,12585 W. Custer Ave. ,,Butler ,WI,53007,United States,(262) 783-5200,,,,,0
Christos Bookcenter,,3611 Salem Rd SW ,,Rochester ,MN,55902-6677,United States,(507) 252-9090,,,,,0
Salvation Army Resource Connection,,5550 Prairie Stone Parkway ,,Hoffman Estates ,IL,60192-6000,United States,(847) 294-2000,,,,,0
Rainbow Resource Center,,655 Township Rd 500 E ,,Toulon ,IL,61483,United States,(309) 695-6478,,,,,0
Chapters Bookstore / Wheaton Bible Church,,27 W. 500 North Ave. ,,West Chicago ,IL,60185,United States,(630) 876-6673,,,,,0
"Sonlight Books, A Parable Christian Store",,709 N 8th St ,,Sheboygan ,WI,53081-4504,United States,(920) 458-7888,,,,,0
Ftd,,3113 Woodcreek Drive ,,Downers Grove ,IL,60515,United States,(630) 724-6272,,,,,0
Royal Christian Bookstores,,7610 West Roosevelt Rd. # 150 ,,Forest Park ,IL,60130,United States,(708) 697-5333,,,,,0
Chicago Bibles & Books,,3931 W Irving Park Rd ,,Chicago ,IL,60618-3251,United States,(773) 478-0550,,,,,0
LifeWay Christian Store,4960,150 W Chicago Ave ,,Chicago ,IL,60610,United States,(312) 664-0799,,,,,0
Lighthouse Books & Gifts,,4330 8th St S Ste 200 ,,Wisconsin Rapids ,WI,54494-7814,United States,(715) 423-7773,,,,,0
ReachOut Books,,221 N Peters Ave ,,Fond du Lac ,WI,54935,United States,(920) 921-5102,,,,,0
"Brighter Life Bookshoppe, Ltd.",,292 E Simmons Street # 1 ,,Galesburg ,IL,61401,United States,(309) 344-3987,,,,,0
Christian Book & Gift Shoppe,,Westland Mall 550 S Gear Ave # 52 ,,West Burlington ,IA,52655,United States,(319) 752-8411,,,,,0
Lighthouse Christian Books,,2781 S Oneida ,,St Green Bay ,WI,54304-5750,United States,(920) 497-0636,,,,,0
Choices Christian Living Store,,101 W 2nd St N ,,Newton ,IA,50208-3251,United States,(641) 792-6033,,,,,0
Hoerr's Berean Bookstore,,801 W Lake Ave Ste 2 ,,Peoria ,IL,61614-5957,United States,(309) 685-5995,,,,,0
The Salvation Army,,440 W Nyack Rd ,,West Nyack ,NY,10994,United States,,,,,,0
Good News Bookstore & Renewal Center,,155 Larkfield Rd ,,East Northport ,NY,11731-1829,United States,(631) 757-5423,,,,,0
Becoming God's Answer Bookstore,,1832 Madison Ave ,,New York ,NY,10035-2707,United States,(646) 215-6119,,,,,0
The Olive Branch,,640 Willis Avenue ,,Williston ,NY,11596,United States,(516) 775-7040,,,,,0
Psalms Christian Bookstore,,119 Elm Street ,,Montclair ,NJ,07042,United States,(973) 746-8338,,,,,0
Living Word Parable Christian Store,,952 Troy Schenectady Rd ,,Latham ,NY,12110-1608,United States,(518) 479-7276,,,,,0
Crossroads Of Life Inc,,1567 Maple Ave ,,Hillside ,NJ,07205-1454,United States,(973) 923-3410,,,,,0
Cornerstone / Christian Cultural Center Bookstore,,12020 Flatlands Ave ,,Brooklyn ,NY,11207-8203,United States,(718) 306-1008,,,,,0
Body Builders Bookstore at Agape,,501 E Hazelwood Ave ,,Rahway ,NJ,07065,United States,(732) 680-9800,,,,,0
Tuscarora Book & Gift Shop,,3300 River Rd ,,Mount Bethel ,PA,18343-6122,United States,(570) 897-6000,,,,,0
Fishermen's Supply,,22 W Main St ,,Johnstown ,NY,12095-2308,United States,(518) 762-3548,,,,,0
LifeWay Christian Store,9165,3480 James Sanders Blvd ,,Paducah ,KY,42001-9469,United States,(270) 415-9977,,,,,0
The Christian Soldier,,321 N Berkeley Blvd ,,Goldsboro ,NC,27534-4325,United States,(919) 751-0665,,,,,0
LifeWay Christian Store,,341-55/56 South College Road ,,Wilmington ,NC,28403,United States,(910) 733-2930,,,,,0
Cross & Crown Christian Store,,3928 Lee Street ,,Ayden ,NC,28513,United States,(252) 746-6128,,,,,0
The Christian Supply Store,,2810 Cashwell Dr ,,Goldsboro ,NC,27534-4302,United States,(919) 751-1400,,,,,0
LifeWay Christian Store,4666,5449 Washington Pike ,,Knoxville ,TN,37918-7004,United States,(865) 329-9385,,,,,0
LifeWay Christian Store,9305,10990 Parkside Dr ,,Knoxville ,TN,37934-1958,United States,(865) 675-0106,,,,,0
Trinity Bookstore,,205 W Wall St ,,Cookeville ,TN,38506-5359,United States,(931) 537-9830,,,,,0
Jesus Book & Gift Store,,301 US Highway 22 ,,Green Brook ,NJ,08812-1701,United States,(732) 968-5588,,,,,0
Cornerstone Inspirational,,770 Long Hill Rd ,,Groton ,CT,06340-4273,United States,(860) 445-7064,,,,,0
Jesus Book & Gift Store,,175 Monmouth Rd Ste 11 ,,West Long Branch ,NJ,07764-1012,United States,(732) 229-4999,,,,,0
LifeWay Christian Store,4903,1016 Union University Dr ,,Jackson ,TN,38305-3656,United States,(731) 668-9492,,,,,0
Lifeway Christian Store,,127 Siemers Drive ,,Cape Girardeau ,MO,63701,United States,(573) 334-3570,,,,,0
LifeWay Christian Store,9345,2825 Wilma Rudolph Blvd Ste 930 ,,Clarksville ,TN,37040-5002,United States,(931) 920-2231,,,,,0
Promise Land Christian Bookstore,,3850 Highway 79 N ,,Paris ,TN,38242-8147,United States,(731) 641-4377,,,,,0
LifeWay Christian Store,9434,414 W Jackson St Ste A ,,Cookeville ,TN,38501-3788,United States,(931) 525-1024,,,,,0
LifeWay Christian Store,4454,3801 Mall Rd Ste 190 ,,Lexington ,KY,40503-4469,United States,(859) 271-0108,,,,,0
Lifeway Christian Store,,130 Terrace Ln. # 3 ,,Morristown ,TN,37813,United States,(423) 587-0769,,,,,0
Cedar Springs Christian Store,,6704 Clinton Hwy ,,Knoxville ,TN,37912-1016,United States,(865) 947-4444,,,,,0
LifeWay Christian Store,9426,133 S Frontage Rd ,,Meridian ,MS,39301,United States,(601) 482-0242,,,,,0
Spirit Filled Christian Bookstore,,1400 3rd Ave W ,,Birmingham ,AL,35208-5302,United States,(205) 780-0900,,,,,0
LifeWay Christian Store,9418,1713 Montgomery Hwy S Ste 115 ,,Birmingham ,AL,35244-1254,United States,(205) 403-0459,,,,,0
Solomons Books & Church Supply,,529 Reverend Abraham Woods Jr. Blv. ,,Birmingham ,AL,35204,United States,(205) 323-7391,,,,,0
His Word Christian Book Store,,6815 Sierra Center Pkwy Ste 200 ,,Reno ,NV,89511,United States,(775) 853-2665,,,,,0
LifeWay Christian Store,,1375 Blossom Hill Rd ,,San Jose ,CA,95118-3806,United States,(408) 265-1833,,,,,0
Simply Sacred Books & Gifts,,1791 Marlow Road # 11 ,,Santa Rosa ,CA,95401,United States,(707) 528-7749,,,,,0
Grace 251,,111 West Gordon Street ,,Dalton ,GA,30720,United States,(706) 529-5683,,,,,0
LifeWay Christian Store,4665,2200 Hamilton Place Blvd ,,Chattanooga ,TN,37421-6021,United States,(423) 893-3290,,,,,0
Abba's House Bookstore & Cafe,,5208 Hixson Pike ,,Hixson ,TN,37343-3929,United States,(423) 643-3085,,,,,0
LifeWay Christian Store,9431,5591 Highway 153 Ste 156 ,,Hixson ,TN,37343-6716,United States,(423) 870-8012,,,,,0
Myra's Framing and 23rd Psalm,,808B Independence Ave ,,Kennett ,MO,63857-2222,United States,(573) 888-9026,,,,,0
Cedar Springs Christian Store,,504 N Peters Rd ,,Knoxville ,TN,37922-7503,United States,(865) 690-5253,,,,,0
Harvest Books and Gifts,,225 Centerview Dr ,,Birmingham ,AL,35216-0800,United States,(205) 776-8100,,,,,0
LifeWay Christian Store,9115,3850 N Gloster St ,,Tupelo ,MS,38804-9732,United States,(662) 844-2201,,,,,0
Hebrews Cafe,,100 Derby Pkwy ,,Birmingham ,AL,35210-3764,United States,(205) 451-1750,,,,,0
LifeWay Christian Store,9265,1672 Gadsden Hwy ,,Birmingham ,AL,35235-3104,United States,(205) 655-9116,,,,,0
The Lighthouse Christian Gift & Bookstore,,11984 State Highway 88 Ste 2064 ,,Jackson ,CA,95642-9487,United States,(209) 223-2488,,,,,0
The Bible House,,7721 Laguna Blvd Ste 106 ,,Elk Grove ,CA,95758,United States,(916) 683-9111,,,,,0
Crosspointe Christian Books & Gifts,,646 Plumas St ,,Yuba City ,CA,95991-4434,United States,(530) 673-6188,,,,,0
Tree of Life Christian Store,,2349 Shawn Dr. ,,San Pablo ,CA,94806-1658,United States,(317) 888-5902,,,,,0
Lighthouse Christian Bookstore,,196 Wc Bryant Pkwy SW ,,Calhoun ,GA,30701-2624,United States,(706) 629-2243,,,,,0
White Wing Christian Bookstore,,3750 Keith Street ,,Cleveland ,TN,37312,United States,(423) 559-5425,,,,,0
Jacob's Well,,455 Bellwood Rd. SE # 74 ,,Calhoun ,GA,30701,United States,(706) 625-4940,,,,,0
Sanctuary Christian Books and Gifts,,100 S. Colonial Drive Suite 1600 ,,Alabaster ,AL,35007,United States,(205) 663-2370,,,,,0
Harvest Christian Books & Gifts,,1237 Noriega St ,,San Francisco ,CA,94122-4407,United States,(415) 665-9672,,,,,0
The Lighthouse on the Ridge,,5913 Clark Rd Ste F ,,Paradise ,CA,95969-4852,United States,(530) 877-7000,,,,,0
On The Third Day / The Master's Mercantile,,142 Shoemaker Rd ,,Pottstown ,PA,19464,United States,(610) 705-0130,,,,,0
LifeWay Christian Store,9461,5096A Jonestown Road ,,Harrisburg ,PA,17112,United States,(717) 545-1765,,,,,0
LifeWay Christian Store,9440,2945 Concord Rd. ,,York ,PA,17402-2203,United States,(717) 757-5311,,,,,0
Hearts & Minds,,234 E Main St ,,Dallastown ,PA,17313,United States,(717) 246-3333,,,,,0
Trinity Peace Religious Supplies,,475 S Market St (Rte 54) ,,Elysburg ,PA,17824,United States,(570) 672-9339,,,,,0
J.O.Y. Bookstore,,2487 Stiegel Pike ,,Schaefferstown ,PA,17088,United States,(717) 949-6569,,,,,0
"Hackman's Bible Book Store, Inc.",,1341 Mickley Rd ,,Whitehall ,PA,18052-4610,United States,(610) 264-8600,,,,,0
Friendly Book Store,,300 W Broad St ,,Quakertown ,PA,18951-1234,United States,(215) 536-1030,,,,,0
Alpha & Omega Parable Christian Store,,1540 Ridge Rd ,,W Rochester ,NY,14615-2420,United States,(585) 697-7693,,,,,0
Arrowhead Parable Christian Store,,One Harry L Dr ,,Johnson City ,NY,13790-1604,United States,(607) 798-1793,,,,,0
Sacred Melody Bookstore,,3501 James St ,,Syracuse ,NY,13206-2350,United States,(315) 437-1095,,,,,0
JC's Christian Book Store,,680 Route 211 ,,East Middletown ,NY,10941,United States,(845) 673-6102,,,,,0
CLC Bookcenter - Cedarbrook,,1000 Easton Road Suite 218 ,,Wyncote ,PA,19095,United States,(215) 887-4500,,,,,0
Kingdom Bookstore,,2323 Route 73 ,,Pennsauken ,NJ,08110,United States,(856) 661-1239,,,,,0
CLC Bookcenter - Moorestown,,401 W Route 38 Ste B9 ,,Moorestown ,NJ,08057-4700,United States,(856) 866-2688,,,,,0
CLC Bookcenter - Center City,,730 Chestnut Street ,,Philadelphia ,PA,19106,United States,(215) 542-1242,,,,,0
Joshua Tree,,561 N Evergreen Ave ,,Woodbury ,NJ,08096-1856,United States,(856) 848-2081,,,,,0
LifeWay Christian Store,4916,3211 Peoples St Ste 12 ,,Johnson City ,TN,37604-4113,United States,(423) 610-0888,,,,,0
LifeWay Christian Store,09472,8 Mall Rd Unit 910 ,,Barboursville ,WV,25504,United States,(304) 736-9078,,,,,0
The Well Bookstore & Gifts,,225 Pump Springs Road ,,Harrogate ,TN,37752,United States,(423) 801-3366,,,,,0
Christian Book & Gift Shop,,105 Village Dr ,,Greeneville ,TN,37745-4228,United States,(423) 639-3721,,,,,0
Emmanuel Bookstore,,653 E Main St ,,Pulaski ,VA,24301-5115,United States,(540) 994-9077,,,,,0
Mustard Seed Christian Bookstore,,Charlie Creek Plaza US52 367 County Road 406 Unit 2 ,,South Point ,OH,45680-8766,United States,(740) 894-7777,,,,,0
For Heavens Sake,,1919 US Highway 421 ,,Wilkesboro ,NC,28697,United States,(336) 838-8848,,,,,0
LifeWay Christian Store,9414,24 Cross Creek Pkwy Ste 30 ,,Hattiesburg ,MS,39402-4408,United States,(601) 264-2584,,,,,0
Cornerstone Christian Bookstore LLC,,1321 Sunset Dr. Suite M ,,Grenada ,MS,38901,United States,(662) 229-9777,,,,,0
Baptist Bible & Book House,,605 Commerce St ,,Laurel ,MS,39440-3923,United States,(601) 649-7682,,,,,0
Have It Yahweh Books & Gifts,,71 Spell Dr ,,Columbia ,MS,39429-9172,United States,(601) 441-8098,,,,,0
Mardel Christian & Educational Supply,16,12201 W Markham St Ste 1 ,,Little Rock ,AR,72211-2777,United States,(501) 312-0316,,,,,0
LifeWay Christian Store,4515,11600 Chenal Pkwy Ste 1 ,,Little Rock ,AR,72211-3707,United States,(501) 225-6009,,,,,0
Heart & Soul Christian Bookstore,,407 N Arkansas Ave Ste 9 ,,Russellville ,AR,72801-3928,United States,(479) 880-1833,,,,,0
Lighthouse Christian Supply,,670 Elsinger Blvd. ,,Conway ,AR,72032,United States,(501) 358-6060,,,,,0
LifeWay Christian Store,4478,9840 W Broad St Ste A ,,Glen Allen ,VA,23060-4199,United States,(804) 965-9485,,,,,0
Zoe Bookstore,,8491 Chamberlayne Rd ,,Richmond ,VA,23227-1550,United States,(804) 262-7104,,,,,0
LifeWay Christian Store,4450,6312 Springfield Plz ,,Springfield ,VA,22150-3431,United States,(703) 569-0067,,,,,0
Immanuel Christian Bookstore,,6911 Braddock Rd ,,Springfield ,VA,22151-3602,United States,(703) 354-5219,,,,,0
LifeWay Christian Store,9435,5211 Commonwealth Centre Pkwy ,,Midlothian ,VA,23112,United States,(804) 763-1121,,,,,0
Vision Christian Store,,10398 Piscataway Road ,,Clinton ,MD,20735,United States,(301) 234-0035,,,,,0
Gospel Spreading Bible Bookstore,,2002 Georgia Ave NW ,,Washington ,DC,20001-3027,United States,(202) 745-2665,,,,,0
His Inspirations,,200 S. Maine St. Ste. B ,,Fallon ,NV,89406,United States,(775) 423-0622,,,,,0
The Chapel Store,,460 Century Dr ,,Salt Lake City ,UT,84123-2534,United States,(801) 747-1257,,,,,0
LifeWay Christian Store,4908,6336 S State St ,,Murray ,UT,84107-7228,United States,(801) 293-3231,,,,,0
Media Center - First Baptist Church of Glenarden,,3600 Brightseat Rd ,,Landover ,MD,20785-2414,United States,(301) 773-3600,,,,,0
Living Well,,12004 Cherry Hill Rd ,,Silver Spring ,MD,20904-1985,United States,(301) 572-0700,,,,,0
Rainbow Parable Christian Store,,70 Southgate Sq ,,Colonial Heights ,VA,23834-3611,United States,(804) 526-7022,,,,,0
LifeWay Christian Store,9424,3901 Wards Rd ,,Lynchburg ,VA,24502-2941,United States,(434) 237-9271,,,,,0
LifeWay Christian Store,9442,17229 Cole Rd ,,Hagerstown ,MD,21740-6981,United States,(301) 582-0080,,,,,0
Logos of Fredericksburg,,12200 Amos Ln ,,Fredericksburg ,VA,22407-7107,United States,(540) 786-4023,,,,,0
Blessings Christian Bookstore,,313 Neff Ave. Suite B ,,Harrisonburg ,VA,22801,United States,(540) 433-8808,,,,,0
Joy Unlimited,,10400 Main St ,,Fairfax ,VA,22030-3301,United States,(703) 385-9125,,,,,0
Words For Life,,21673 Beaumeade Cir Suite 100 ,,Ashburn ,VA,20147,United States,(703) 724-4924,,,,,0
Gospel Book Store,,4842 South Laburnum Ave ,,Richmond ,VA,23231,United States,(804) 236-0885,,,,,0
Greater Mount Calvary Bookstore,,616 Rhode Island Ave NE ,,Washington ,DC,20002-1233,United States,(202) 529-4547,,,,,0
Glad Tidings Bookstore,,11400 Glenn Dale Blvd ,,Glenn Dale ,MD,20769-9049,United States,(301) 352-1773,,,,,0
Mardel Christian & Educational Supply,05,6080 S Hulen St Ste 200 ,,Fort Worth ,TX,76132-2634,United States,(817) 294-8800,,,,,0
Seminary Hill Bookstore / SW Baptist Theological S,,2101 Yates St. ,,Fort Worth ,TX,76115,United States,(817) 923-1921,,,,,0
The KJV Store,,201 W Lancaster Ave Suite # 216 ,,Fort Worth ,TX,76102-6663,United States,(817) 551-1500,,,,,0
Mardel Christian & Educational Supply,12,4652 S Cooper St ,,Arlington ,TX,76017-5826,United States,(817) 417-0888,,,,,0
LifeWay Christian Store,4792,884 NE Mall Blvd. ,,Hurst ,TX,76053,United States,(817) 590-4341,,,,,0
Mardel Christian & Educational Supply,13,664 Grapevine Hwy Ste A ,,Hurst ,TX,76054-2815,United States,(817) 577-7587,,,,,0
Gateway Bookstore HQ,,700 Blessed Way ,,Southlake ,TX,76092,United States,(817) 552-3600,,,,,0
LifeWay Christian Store,4912,5801 Long Prairie Rd Ste 380 ,,Flower Mound ,TX,75028-5621,United States,(972) 539-6348,,,,,0
Oak Cliff Bible Fellowship Book Store,,1808 W Camp Wisdom Rd ,,Dallas ,TX,75232-3332,United States,(214) 672-9119,,,,,0
Bibles Plus,,2740 Wyoming Blvd NE Ste 13 ,,Albuquerque ,NM,87111-4573,United States,(505) 275-0330,,,,,0
Cba,,1365 Garden of the Gods Rd. # 105 ,,Colorado Springs ,CO,80907,United States,(719) 265-9895,,,,,0
The Greatest Gift & Scripture Supply,,505 N Grand Ave ,,Pueblo ,CO,81003-3112,United States,(719) 542-3672,,,,,0
Mardel Christian & Educational Supply,18,2428 S Stemmons Fwy Ste B ,,Lewisville ,TX,75067-8767,United States,(972) 316-8444,,,,,0
Mardel Christian & Educational Supply,21,1800 S Loop 288 Ste 210 ,,Denton ,TX,76205-4807,United States,(940) 384-7076,,,,,0
Logos of Dallas,,6620 Snider Plz ,,Dallas ,TX,75205-1352,United States,(214) 369-3245,,,,,0
Focus on the Family Bookstore,,8605 Explorer Dr ,,Colorado Springs ,CO,80920-1049,United States,(719) 531-3464,,,,,0
New Life Bookstore,,11025 Voyager Pkwy ,,Colorado Springs ,CO,80921-3623,United States,(719) 594-6602,,,,,0
Mardel Christian & Educational Supply,22,5964 Barnes Rd ,,Colorado Springs ,CO,80922-3591,United States,(719) 573-0402,,,,,0
Mardel Christian & Educational Supply,17,4887 S Wadsworth Way Ste 150 ,,Littleton ,CO,80123-1895,United States,(303) 904-6015,,,,,0
Prestonwood Baptist Bookstore,,6801 W Park Blvd ,,Plano ,TX,75093-6389,United States,(972) 820-5158,,,,,0
LifeWay Christian Store,9145,1937 Preston Road Suite 1000 ,,Plano ,TX,75093,United States,(972) 735-9376,,,,,0
Insight for Living Bookstore,,5330 Parkwood Blvd. ,,Frisco ,TX,75034,United States,(972) 473-5000,,,,,0
Mardel Christian & Educational Supply,28,5222 Preston Rd ,,Frisco ,TX,75034-7412,United States,(469) 362-8794,,,,,0
Church Press Inc,,7818 W Oxford Cir ,,Lakewood ,CO,80235-1936,United States,(303) 980-8863,,,,,0
LifeWay Christian Store,4721,8222 S Yosemite St ,,Centennial ,CO,80112-2365,United States,(303) 649-1400,,,,,0
Words of Life Christian Books & Gifts,,615 Main St ,,Canon City ,CO,81212-3736,United States,(719) 275-4204,,,,,0
Inspirations Christian Bookstore,,1200 S Pokegama Ave Ste 100 ,,Grand Rapids ,MN,55744-4296,United States,(218) 326-5469,,,,,0
Restoration Books and Gifts,,111 W. Main St. ,,Crosby ,MN,56441,United States,(218) 545-4673,,,,,0
LifeWay Christian Store,4764,18775 Lyndon B Johnson Fwy ,,Mesquite ,TX,75150-6408,United States,(972) 270-0105,,,,,0
"Valu-Rite Pharmacy, Christian Books & Gifts",,709 Woodrow Wilson Ray Cir ,,Bridgeport ,TX,76426-5023,United States,(940) 683-2950,,,,,0
Gideon's Trumpet,,123 South Main ,,Minot ,ND,58701,United States,(701) 837-1880,,,,,0
Bethany Book & Gift,,13495 Elder Dr Suite 150 ,,Baxter ,MN,56425,United States,(218) 829-3668,,,,,0
Hidden Treasures Christian Supply,,542 N Main St ,,Duncanville ,TX,75116-3655,United States,(972) 296-5411,,,,,0
