store_name,store_number,address,address2,city,state,zip_code,country,phone_number,latitude,longitude,store_hours,other_fields,coming_soon
Front Range Village,316538,2721 Council Tree Avenue,Suite 103,Fort Collins ,CO,80525,United States,(970) 226-0337,,,Mo 10:00-21:00; Tu 10:00-21:00; We 10:00-21:00; Th 10:00-21:00; Fr 10:00-21:00; Sa 10:00-21:00; Su 12:00-18:00,,0
Promenade  Shops at Briargate,698357,1785 Briargate Parkway,,Colorado Springs ,CO,80920,United States,(719) 266-0480,,,Mo 10:00-21:00; Tu 10:00-21:00; We 10:00-21:00; Th 10:00-21:00; Fr 10:00-21:00; Sa 10:00-21:00; Su 11:00-18:00,,0
Southlands,316513,6240 S Main Street,Suite K-105,Aurora ,CO,80016,United States,(303) 766-3561,,,Mo 10:00-21:00; Tu 10:00-21:00; We 10:00-21:00; Th 10:00-21:00; Fr 10:00-21:00; Sa 10:00-21:00; Su 11:00-18:00,,0
Park Meadows,355786,8401 Park Meadows Center Dr.,Suite B125,Lone Tree ,CO,80124,United States,(303) 790-4339,,,Mo 10:00-21:00; Tu 10:00-21:00; We 10:00-21:00; Th 10:00-21:00; Fr 10:00-21:00; Sa 10:00-21:00; Su 11:00-18:00,,0
The Streets at SouthGlenn,316653,6955 S York St,Suite B4,Centennial ,CO,80122,United States,(303) 795-0196,,,Mo 10:00-20:00; Tu 10:00-20:00; We 10:00-20:00; Th 10:00-20:00; Fr 10:00-21:00; Sa 10:00-21:00; Su 11:00-18:00,,0
Belmar,316565,7240 W. Alaska Drive,,Lakewood ,CO,80226,United States,(303) 922-3932,,,Mo 10:00-20:00; Tu 10:00-20:00; We 10:00-20:00; Th 10:00-20:00; Fr 10:00-20:00; Sa 10:00-20:00; Su 11:00-18:00,,0
Twenty Ninth Street,351437,1685 29th St,Suite 1268,Boulder ,CO,80301,United States,(303) 442-0283,,,Mo 10:00-21:00; Tu 10:00-21:00; We 10:00-21:00; Th 10:00-21:00; Fr 10:00-21:00; Sa 10:00-21:00; Su 11:00-19:00,,0
The Orchard Town Center,472803,14644 Orchard Parkway,,Westminster ,CO,80023,United States,(303) 451-2476,,,Mo 10:00-20:00; Tu 10:00-20:00; We 10:00-20:00; Th 10:00-20:00; Fr 10:00-21:00; Sa 10:00-21:00; Su 11:00-18:00,,0
North County Fair,316636,200 E. Via Rancho Pkwy,Suite 183,Escondido ,CA,92025,United States,(760) 747-0032,,,Mo 10:00-21:00; Tu 10:00-21:00; We 10:00-21:00; Th 10:00-21:00; Fr 10:00-21:00; Sa 10:00-21:00; Su 11:00-19:00,,0
Parkway Shopping Mall,316573,335 Parkway Plaza,,El Cajon ,CA,92020,United States,(619) 579-7343,,,Mo 10:00-20:00; Tu 10:00-20:00; We 10:00-20:00; Th 10:00-20:00; Fr 10:00-20:00; Sa 10:00-20:00; Su 11:00-19:00,,0
Palm Desert Shopping Mall,316562,72-840 Highway 111,Suite G241,Palm Desert ,CA,92260,United States,(760) 340-2151,,,Mo 10:00-20:00; Tu 10:00-20:00; We 10:00-20:00; Th 10:00-20:00; Fr 10:00-21:00; Sa 10:00-21:00; Su 11:00-19:00,,0
Promenade Temecula,316576,40760 Winchester Road,Suite 110,Temecula ,CA,92591,United States,(951) 296-1312,,,Mo 10:00-21:00; Tu 10:00-21:00; We 10:00-21:00; Th 10:00-21:00; Fr 10:00-21:00; Sa 10:00-21:00; Su 12:00-18:00,,0
Palladio at Broadstone,316659,330 Palladio Pkwy,Suite 2001,Folsom ,CA,95630,United States,(916) 817-8390,,,Mo 10:00-21:00; Tu 10:00-21:00; We 10:00-21:00; Th 10:00-21:00; Fr 10:00-21:00; Sa 10:00-21:00; Su 11:00-18:00,,0
Yorktown Center,316483,332 Yorktown Shopping Center,,Shopping Center Lombard ,IL,60148,United States,(630) 953-9237,,,Mo 10:00-21:00; Tu 10:00-21:00; We 10:00-21:00; Th 10:00-21:00; Fr 10:00-21:00; Sa 10:00-21:00; Su 11:00-18:00,,0
Stonestown Galleria,542819,3251 20th Ave,,San Francisco ,CA,94132,United States,(415) 753-3801,,,Mo 10:00-21:00; Tu 10:00-21:00; We 10:00-21:00; Th 10:00-21:00; Fr 10:00-21:00; Sa 10:00-21:00; Su 12:00-18:00,,0
Victoria Gardens,529209,7831 Monticello Avenue,,Rancho Cucamonga ,CA,91739,United States,(909) 463-5849,,,Mo 10:00-21:00; Tu 10:00-21:00; We 10:00-21:00; Th 10:00-21:00; Fr 10:00-22:00; Sa 10:00-22:00; Su 11:00-19:00,,0
Vintage Faire Mall,316575,3401 Dale Road,Suite 656,Modesto ,CA,95356,United States,(209) 526-2059,,,Mo 10:00-21:00; Tu 10:00-21:00; We 10:00-21:00; Th 10:00-21:00; Fr 10:00-21:00; Sa 10:00-21:00; Su 12:00-18:00,,0
West Towne Mall,316547,17 West Towne Mall,Suite C16,Madison ,WI,53719,United States,(608) 831-2414,,,Mo 10:00-21:00; Tu 10:00-21:00; We 10:00-21:00; Th 10:00-21:00; Fr 10:00-21:00; Sa 10:00-21:00; Su 11:00-18:00,,0
The Shops at North Bridge,316552,520 N Michigan Avenue,Suite 323,Chicago ,IL,60611,United States,(312) 527-0491,,,Mo 10:00-21:00; Tu 10:00-21:00; We 10:00-21:00; Th 10:00-21:00; Fr 10:00-21:00; Sa 10:00-21:00; Su 12:00-18:00,,0
Hillside Town Center,351436,170 S. Mannheim Rd,,Hillside ,IL,60162,United States,(708) 547-5251,,,Mo 10:00-21:00; Tu 10:00-21:00; We 10:00-21:00; Th 10:00-21:00; Fr 10:00-21:00; Sa 10:00-21:00; Su 11:00-18:00,,0
Woodfield Mall,316584,F209 Woodfield Mall,,Schaumburg ,IL,60173,United States,(847) 517-1437,,,Mo 10:00-21:00; Tu 10:00-21:00; We 10:00-21:00; Th 10:00-21:00; Fr 10:00-21:00; Sa 10:00-21:00; Su 11:00-18:00,,0
The Arboretum of South Barrington,316498,100 West Higgins Road,,Barrington ,IL,60010,United States,(847) 551-8909,,,Mo 10:00-21:00; Tu 10:00-21:00; We 10:00-21:00; Th 10:00-21:00; Fr 10:00-21:00; Sa 10:00-21:00; Su 12:00-18:00,,0
Randhurst Village,316553,132 Randhurst Village Drive,,Prospect ,IL,60056,United States,(847) 870-7217,,,Mo 10:00-21:00; Tu 10:00-21:00; We 10:00-21:00; Th 10:00-21:00; Fr 10:00-21:00; Sa 10:00-21:00; Su 12:00-17:00,,0
Bloomingdale Court,358899,364 West Army Trail Rd,,Bloomingdale ,IL,60108,United States,(630) 539-4416,,,Mo 10:00-21:00; Tu 10:00-21:00; We 10:00-21:00; Th 10:00-21:00; Fr 10:00-21:00; Sa 10:00-21:00; Su 12:00-18:00,,0
Algonquin Commons,316540,2120 S. Randall Road,,Algonquin ,IL,60102,United States,(847) 658-2171,,,Mo 10:00-21:00; Tu 10:00-21:00; We 10:00-21:00; Th 10:00-21:00; Fr 10:00-21:00; Sa 10:00-21:00; Su 12:00-18:00,,0
Quentin Collection,316644,20771 North Rand Rd,Suite C2,Kildeer ,IL,60047,United States,(847) 438-2097,,,Mo 10:00-21:00; Tu 10:00-21:00; We 10:00-21:00; Th 10:00-21:00; Fr 10:00-21:00; Sa 10:00-21:00; Su 11:00-18:00,,0
Gurnee Mills,363388,6170 West Grand Avenue,Suite 845,Gurnee ,IL,60031,United States,(847) 855-2624,,,Mo 10:00-21:00; Tu 10:00-21:00; We 10:00-21:00; Th 10:00-21:00; Fr 10:00-21:00; Sa 10:00-21:00; Su 11:00-19:00,,0
Hawthorn Shopping Mall,316587,122 Hawthorn Center,Suite 515,Vernon Hills ,IL,60061,United States,(847) 573-1545,,,Mo 10:00-21:00; Tu 10:00-21:00; We 10:00-21:00; Th 10:00-21:00; Fr 10:00-21:00; Sa 10:00-21:00; Su 12:00-18:00,,0
Bayshore Town Center,316585,516 W Silver Spring Drive,,Glendale ,WI,53217,United States,(414) 967-1357,,,Mo 10:00-21:00; Tu 10:00-21:00; We 10:00-21:00; Th 10:00-21:00; Fr 10:00-21:00; Sa 10:00-21:00; Su 11:00-18:00,,0
Shoppes at Fox River,316657,1200 W Sunset Dr.,Suite B4,Waukesha ,WI,53189,United States,(262) 513-0316,,,Mo 10:00-21:00; Tu 10:00-21:00; We 10:00-21:00; Th 10:00-21:00; Fr 10:00-21:00; Sa 10:00-21:00; Su 11:00-18:00,,0
Galleria at Tyler,359272,1299 Galleria at Tyler,,Tyler Riverside ,CA,92503,United States,(951) 688-8542,,,Mo 10:00-21:00; Tu 10:00-21:00; We 10:00-21:00; Th 10:00-21:00; Fr 10:00-21:00; Sa 10:00-21:00; Su 11:00-19:00,,0
Shoppes at Prairie Ridge,316560,10347 77th Street,,Pleasant Prairie ,WI,53158,United States,(262) 697-8739,,,Mo 10:00-21:00; Tu 10:00-21:00; We 10:00-21:00; Th 10:00-21:00; Fr 10:00-21:00; Sa 10:00-21:00; Su 11:00-18:00,,0
Crossing at Corona,415068,3383 Grand Oaks,,Corona ,CA,92881,United States,(951) 738-9728,,,Mo 10:00-20:00; Tu 10:00-20:00; We 10:00-20:00; Th 10:00-20:00; Fr 10:00-20:00; Sa 10:00-20:00; Su 12:00-18:00,,0
Shoppes at Chino Hills,316633,13920 City Center Dr.,Suite 4040,Chino Hills ,CA,91709,United States,(909) 591-8759,,,Mo 10:00-21:00; Tu 10:00-21:00; We 10:00-21:00; Th 10:00-21:00; Fr 10:00-21:00; Sa 10:00-21:00; Su 11:00-18:00,,0
Five Points Plaza,316604,18595 Main Street,,Huntington Beach ,CA,92648,United States,(714) 842-9806,,,Mo 10:00-21:00; Tu 10:00-21:00; We 10:00-21:00; Th 10:00-21:00; Fr 10:00-21:00; Sa 10:00-20:00; Su 11:00-18:00,,0
The Marketplace Tustin,414740,2891 El Camino Real,,Camino Real Tustin ,CA,92782,United States,(714) 508-1648,,,Mo 10:00-21:00; Tu 10:00-21:00; We 10:00-21:00; Th 10:00-21:00; Fr 10:00-21:00; Sa 10:00-19:00; Su 11:00-18:00,,0
The Fountains at Roseville,316597,1005 Galleria Blvd.,Suite 130,Roseville ,CA,95678,United States,(916) 787-1900,,,Mo 10:00-20:00; Tu 10:00-20:00; We 10:00-20:00; Th 10:00-20:00; Fr 10:00-21:00; Sa 10:00-21:00; Su 11:00-18:00,,0
Stonecreek Village,454993,5757 Pacific Ave,,Stockton ,CA,95207,United States,(209) 477-5273,,,Mo 10:00-20:00; Tu 10:00-20:00; We 10:00-20:00; Th 10:00-20:00; Fr 10:00-20:00; Sa 10:00-20:00; Su 11:00-18:00,,0
South Shore Center,537677,2226 South Shore Center,,Alameda ,CA,94501,United States,(510) 263-0485,,,Mo 10:00-21:00; Tu 10:00-21:00; We 10:00-21:00; Th 10:00-21:00; Fr 10:00-21:00; Sa 10:00-21:00; Su 11:00-18:00,,0
Bay Street Emeryville,453637,5688 Bay Street,,Emeryville ,CA,94608,United States,(510) 594-7637,,,Mo 10:00-20:00; Tu 10:00-20:00; We 10:00-20:00; Th 10:00-21:00; Fr 10:00-21:00; Sa 10:00-21:00; Su 11:00-18:00,,0
Vintage Oaks,574397,208 Vintage Way,,Novato ,CA,94945,United States,(415) 878-2083,,,Mo 10:00-20:00; Tu 10:00-20:00; We 10:00-20:00; Th 10:00-20:00; Fr 10:00-20:00; Sa 10:00-20:00; Su 11:00-18:00,,0
Streets of Brentwood,318856,2545 Sand Creek Rd,Suite 120,Brentwood ,CA,94513,United States,(925) 240-0712,,,Mo 10:00-21:00; Tu 10:00-21:00; We 10:00-21:00; Th 10:00-21:00; Fr 10:00-21:00; Sa 10:00-21:00; Su 11:00-18:00,,0
Blackhawk Plaza,542813,3446 Blackhawk Plaza Circle,,Danville ,CA,94506,United States,(925) 648-7759,,,Mo 10:00-20:00; Tu 10:00-20:00; We 10:00-20:00; Th 10:00-20:00; Fr 10:00-20:00; Sa 10:00-20:00; Su 11:00-18:00,,0
Nut Tree,351438,1621 E. Monte Vista Ave,Suite E,Vacaville ,CA,95688,United States,(707) 469-1220,,,Mo 10:00-21:00; Tu 10:00-21:00; We 10:00-21:00; Th 10:00-21:00; Fr 10:00-21:00; Sa 10:00-21:00; Su 11:00-18:00,,0
Laguna Crossroads,453635,7601 Laguna Blvd,,Elk Grove ,CA,95758,United States,(916) 683-3969,,,Mo 10:00-21:00; Tu 10:00-21:00; We 10:00-21:00; Th 10:00-21:00; Fr 10:00-21:00; Sa 10:00-21:00; Su 12:00-18:00,,0
Santa Anita Shopping Mall,316577,400 S. Baldwin Avenue,Suite 2005,Arcadia ,CA,91007,United States,(626) 446-9269,,,Mo 10:00-21:00; Tu 10:00-21:00; We 10:00-21:00; Th 10:00-21:00; Fr 10:00-21:00; Sa 10:00-21:00; Su 12:00-18:00,,0
The Collection at Riverpark,366167,620 Town Center Drive,Suite 6010,Oxnard ,CA,93036,United States,(805) 988-6091,,,Mo 10:00-21:00; Tu 10:00-21:00; We 10:00-21:00; Th 10:00-21:00; Fr 10:00-21:00; Sa 10:00-21:00; Su 11:00-18:00,,0
The Oaks,316549,406 West Hillcrest Drive,,Thousand Oaks ,CA,91360,United States,(805) 777-3882,,,Mo 10:00-21:00; Tu 10:00-21:00; We 10:00-21:00; Th 10:00-21:00; Fr 10:00-21:00; Sa 10:00-21:00; Su 11:00-19:00,,0
Simi Valley Town Center,680175,1555 Simi Valley Town Center Way,,Simi Valley ,CA,93065,United States,(805) 955-0580,,,Mo 10:00-20:00; Tu 10:00-20:00; We 10:00-20:00; Th 10:00-21:00; Fr 10:00-21:00; Sa 10:00-21:00; Su 11:00-19:00,,0
Antelope Valley Mall,316594,1233 W. Rancho Vista Blvd.,Suite 713,Palmdale ,CA,93551,United States,(661) 267-1450,,,Mo 10:00-21:00; Tu 10:00-21:00; We 10:00-21:00; Th 10:00-21:00; Fr 10:00-21:00; Sa 10:00-21:00; Su 12:00-18:00,,0
Northridge Fashion Center,540657,9301 Tampa Ave,,Northridge ,CA,91324,United States,(818) 717-8576,,,Mo 10:00-21:00; Tu 10:00-21:00; We 10:00-21:00; Th 10:00-21:00; Fr 10:00-21:00; Sa 10:00-21:00; Su 11:00-19:00,,0
Westfield Valencia,351440,24201 West Valencia Blvd.,Suite 2350,Valencia ,CA,91355,United States,(661) 253-0822,,,Mo 10:00-21:00; Tu 10:00-21:00; We 10:00-21:00; Th 10:00-21:00; Fr 10:00-21:00; Sa 10:00-21:00; Su 11:00-18:00,,0
Adams Dairy Landing,316622,1254 NE Coronado Dr.,Suite K-13,Blue Springs ,MO,64014,United States,(816) 220-3324,,,Mo 10:00-21:00; Tu 10:00-21:00; We 10:00-21:00; Th 10:00-21:00; Fr 10:00-21:00; Sa 10:00-21:00; Su 12:00-18:00,,0
Zona Rosa,316494,8720 NW Prairie View Road,Suite E-100,Kansas City ,MO,64153,United States,(816) 587-1022,,,Mo 10:00-21:00; Tu 10:00-21:00; We 10:00-21:00; Th 10:00-21:00; Fr 10:00-21:00; Sa 10:00-21:00; Su 12:00-18:00,,0
The Shops at Northfield Stapleton,316579,8246 E 49th Avenue,Suite 1410,Denver ,CO,80238,United States,(303) 371-3060,,,Mo 10:00-20:00; Tu 10:00-20:00; We 10:00-20:00; Th 10:00-20:00; Fr 10:00-21:00; Sa 10:00-21:00; Su 12:00-18:00,,0
Legends Outlet,316598,1867 Village West Pkwy.,Suite D-101,Kansas City ,KS,66111,United States,(913) 299-0472,,,Mo 10:00-21:00; Tu 10:00-21:00; We 10:00-21:00; Th 10:00-21:00; Fr 10:00-21:00; Sa 10:00-21:00; Su 12:00-18:00,,0
Summit Fair,316485,840 Northwest Blue Parkway,Suite M,Lees Summit ,MO,64086,United States,(816) 246-5661,,,Mo 10:00-21:00; Tu 10:00-21:00; We 10:00-21:00; Th 10:00-21:00; Fr 10:00-21:00; Sa 10:00-21:00; Su 12:00-18:00,,0
Town Center Crossing,697431,4431  W. 119th Street,,Leawood ,KS,66209,United States,(913) 338-1144,,,Mo 10:00-21:00; Tu 10:00-21:00; We 10:00-21:00; Th 10:00-21:00; Fr 10:00-21:00; Sa 10:00-21:00; Su 12:00-17:00,,0
Geneva Commons,316568,202 Commons Drive,,Geneva ,IL,60134,United States,(630) 208-4836,,,Mo 10:00-21:00; Tu 10:00-21:00; We 10:00-21:00; Th 10:00-21:00; Fr 10:00-21:00; Sa 10:00-21:00; Su 11:00-18:00,,0
Louis Joliet Mall,316558,3340 Mall Loop Drive,Suite 1122,Joliet ,IL,60431,United States,(815) 254-4026,,,Mo 10:00-21:00; Tu 10:00-21:00; We 10:00-21:00; Th 10:00-21:00; Fr 10:00-21:00; Sa 10:00-21:00; Su 12:00-18:00,,0
Springfield,692315,2841 Veterans Parkway,,Springfield ,IL,62704,United States,(217) 546-6194,,,Mo 10:00-21:00; Tu 10:00-21:00; We 10:00-21:00; Th 10:00-21:00; Fr 10:00-21:00; Sa 10:00-21:00; Su 11:00-18:00,,0
Southlake Mall,316574,1916 Southlake Mall,,Merrillville ,IN,46410,United States,(219) 769-4102,,,Mo 10:00-21:00; Tu 10:00-21:00; We 10:00-21:00; Th 10:00-21:00; Fr 10:00-21:00; Sa 10:00-21:00; Su 12:00-18:00,,0
Orland Park Crossing,316476,14225 95th Avenue,Suite 418,Orland Park ,IL,60462,United States,(708) 403-5981,,,Mo 10:00-20:00; Tu 10:00-20:00; We 10:00-20:00; Th 10:00-20:00; Fr 10:00-20:00; Sa 10:00-20:00; Su 12:00-17:00,,0
Fox Valley,316566,195 Fox Valley Center,,Aurora ,IL,60504,United States,(630) 820-5881,,,Mo 10:00-21:00; Tu 10:00-21:00; We 10:00-21:00; Th 10:00-21:00; Fr 10:00-21:00; Sa 10:00-21:00; Su 12:00-18:00,,0
Town Square Wheaton,316620,351 Town Square,,Wheaton ,IL,60189,United States,(630) 668-4299,,,Mo 10:00-21:00; Tu 10:00-21:00; We 10:00-21:00; Th 10:00-21:00; Fr 10:00-21:00; Sa 10:00-18:00; Su 11:00-17:00,,0
Promenade Bolingbrook,316521,635 E Boughton Road,Suite 125,Bolingbrook ,IL,60440,United States,(630) 783-8275,,,Mo 10:00-20:00; Tu 10:00-20:00; We 10:00-20:00; Th 10:00-20:00; Fr 10:00-21:00; Sa 10:00-21:00; Su 11:00-18:00,,0
Cherryvale Mall,316541,7200 Harrison Avenue,Suite H54,Rockford ,IL,61112,United States,(815) 332-5871,,,Mo 10:00-21:00; Tu 10:00-21:00; We 10:00-21:00; Th 10:00-21:00; Fr 10:00-21:00; Sa 10:00-21:00; Su 12:00-18:00,,0
Shoppes At Grand Prairie,316504,5201 West War Memorial DR,Suite 325,Peoria ,IL,61615,United States,(309) 692-0247,,,Mo 10:00-21:00; Tu 10:00-21:00; We 10:00-21:00; Th 10:00-21:00; Fr 10:00-21:00; Sa 10:00-21:00; Su 11:00-18:00,,0
Chesterfield Mall,316482,291 Chesterfield Mall,,Chesterfield ,MO,63017,United States,(636) 536-1016,,,Mo 10:00-21:00; Tu 10:00-21:00; We 10:00-21:00; Th 10:00-21:00; Fr 10:00-21:00; Sa 10:00-21:00; Su 11:00-18:00,,0
The Meadows at Lake Saint Louis,316475,20 Meadows Circle Drive,,Lake Saint Louis ,MO,63367,United States,(636) 695-4234,,,Mo 10:00-21:00; Tu 10:00-21:00; We 10:00-21:00; Th 10:00-21:00; Fr 10:00-21:00; Sa 10:00-21:00; Su 11:00-18:00,,0
Saint Louis Galleria,546391,1155 St Louis Galleria,,Galleria Saint Louis ,MO,63177,United States,(314) 725-2204,,,Mo 10:00-21:00; Tu 10:00-21:00; We 10:00-21:00; Th 10:00-21:00; Fr 10:00-21:00; Sa 10:00-21:00; Su 11:00-18:00,,0
West County Center,316477,80 West County Center,Suite 1192,Des Peres ,MO,63131,United States,(314) 822-2941,,,Mo 10:00-21:00; Tu 10:00-21:00; We 10:00-21:00; Th 10:00-21:00; Fr 10:00-21:00; Sa 10:00-21:00; Su 11:00-18:00,,0
St. Clair Square,692899,134 St. Clair Square,,Fairview Heights ,IL,62208,United States,(618) 628-9019,,,Mo 10:00-20:00; Tu 10:00-20:00; We 10:00-20:00; Th 10:00-20:00; Fr 10:00-20:00; Sa 10:00-20:00; Su 12:00-18:00,,0
Colonial Promenade Tannehill,316646,4921 Promenade Pkwy,,Bessemer ,AL,35022,United States,(205) 426-5396,,,Mo 10:00-21:00; Tu 10:00-21:00; We 10:00-21:00; Th 10:00-21:00; Fr 10:00-21:00; Sa 10:00-21:00; Su 12:00-18:00,,0
Eastern Shore Centre,316501,30500 State Hwy 181,Suite 600,Spanish Fort ,AL,36527,United States,(251) 626-2012,,,Mo 10:00-21:00; Tu 10:00-21:00; We 10:00-21:00; Th 10:00-21:00; Fr 10:00-21:00; Sa 10:00-21:00; Su 12:00-18:00,,0
Midtown Village,316453,1800 McFarland Blvd. East,Suite 117,Tuscaloosa ,AL,35404,United States,(205) 344-6385,,,Mo 10:00-21:00; Tu 10:00-21:00; We 10:00-21:00; Th 10:00-21:00; Fr 10:00-21:00; Sa 10:00-21:00; Su 12:00-18:00,,0
The Summit Birmingham,316458,216 Summit Blvd. N,Suite 130,Birmingham ,AL,35243,United States,(205) 970-6545,,,Mo 10:00-21:00; Tu 10:00-21:00; We 10:00-21:00; Th 10:00-21:00; Fr 10:00-21:00; Sa 10:00-21:00; Su 12:00-18:00,,0
Parkway Place Mall,316497,2801 Memorial Parkway South,Suite 130,Huntsville ,AL,35801,United States,(256) 533-6353,,,Mo 10:00-21:00; Tu 10:00-21:00; We 10:00-21:00; Th 10:00-21:00; Fr 10:00-21:00; Sa 10:00-21:00; Su 12:00-18:00,,0
Tucson Mall,316489,4500 N Oracle Road,Suite 363,Tucson ,AZ,85705,United States,(520) 293-1707,,,Mo 10:00-21:00; Tu 10:00-21:00; We 10:00-21:00; Th 10:00-21:00; Fr 10:00-21:00; Sa 10:00-21:00; Su 12:00-18:00,,0
Palm Valley Pavillions West,316651,1400 N. Litchfield Rd,Suite F2-F3,Goodyear ,AZ,85395,United States,(623) 535-9245,,,Mo 10:00-21:00; Tu 10:00-21:00; We 10:00-21:00; Th 10:00-21:00; Fr 10:00-21:00; Sa 10:00-21:00; Su 11:00-18:00,,0
The Shops at Norterra,316492,2480 W Happy Valley Road,Suite 1215,Phoenix ,AZ,85085,United States,(623) 516-7966,,,Mo 10:00-21:00; Tu 10:00-21:00; We 10:00-21:00; Th 10:00-21:00; Fr 10:00-21:00; Sa 10:00-21:00; Su 11:00-18:00,,0
Parke West,452963,9784 W Northern Ave,,Peoria ,AZ,85345,United States,(623) 772-9590,,,Mo 10:00-19:00; Tu 10:00-19:00; We 10:00-19:00; Th 10:00-19:00; Fr 10:00-21:00; Sa 10:00-21:00; Su 11:00-18:00,,0
The District at Desert Ridge,316628,21001 N. Tatum Blvd,Suite 44-1390,Phoenix ,AZ,85050,United States,(480) 473-5015,,,Mo 10:00-21:00; Tu 10:00-21:00; We 10:00-21:00; Th 10:00-21:00; Fr 10:00-21:00; Sa 10:00-21:00; Su 11:00-18:00,,0
CityScape Phoenix,316503,1 E. Washington Street,Suite 120,Phoenix ,AZ,85004,United States,(602) 253-9456,,,Mo 10:00-19:00; Tu 10:00-19:00; We 10:00-19:00; Th 10:00-19:00; Fr 10:00-19:00; Sa 10:00-19:00; Su 12:00-18:00,,0
SanTan Village,316470,2218 E. Williams Field Road,Suite 114,Gilbert ,AZ,85295,United States,(480) 855-7005,,,Mo 10:00-21:00; Tu 10:00-21:00; We 10:00-21:00; Th 10:00-21:00; Fr 10:00-21:00; Sa 10:00-21:00; Su 11:00-18:00,,0
Shops of Grand River,316625,6200 Grand River Blvd East,Suite 672,Leeds ,AL,35094,United States,(205) 699-6050,,,Mo 10:00-21:00; Tu 10:00-21:00; We 10:00-21:00; Th 10:00-21:00; Fr 10:00-21:00; Sa 10:00-21:00; Su 12:00-18:00,,0
Scottsdale Fashion Square,316469,7014 East Camelback,Suite 2005,Scottsdale ,AZ,85251,United States,(480) 994-7300,,,Mo 10:00-21:00; Tu 10:00-21:00; We 10:00-21:00; Th 10:00-21:00; Fr 10:00-21:00; Sa 10:00-21:00; Su 11:00-18:00,,0
Tempe Marketplace,316616,2000 E Rio Salado Pkwy,Suite 1024,Tempe ,AZ,85281,United States,(480) 966-3050,,,Mo 11:00-21:00; Tu 11:00-21:00; We 11:00-21:00; Th 11:00-21:00; Fr 11:00-21:00; Sa 11:00-21:00; Su 11:00-18:00,,0
Aspen Place,675697,320 S Regent Street,,Flagstaff ,AZ,86001,United States,(928) 774-1775,,,Mo 10:00-20:00; Tu 10:00-20:00; We 10:00-20:00; Th 10:00-20:00; Fr 10:00-20:00; Sa 10:00-20:00; Su 11:00-18:00,,0
Scottsdale Center,316583,559 North 46th Street,,Rogers ,AR,72756,United States,(479) 636-1089,,,Mo 10:00-21:00; Tu 10:00-21:00; We 10:00-21:00; Th 10:00-21:00; Fr 10:00-21:00; Sa 10:00-21:00; Su 12:00-18:00,,0
The Promenade at Chenal,316474,17717 Chenal Parkway,Bldg. H,Little Rock ,AR,72223,United States,(501) 821-7299,,,Mo 10:00-21:00; Tu 10:00-21:00; We 10:00-21:00; Th 10:00-21:00; Fr 10:00-21:00; Sa 10:00-21:00; Su 12:00-18:00,,0
Ft. Smith Pavilion,316605,3925 Phoenix Ave,,Fort Smith ,AR,72903,United States,(479) 646-7277,,,Mo 10:00-21:00; Tu 10:00-21:00; We 10:00-21:00; Th 10:00-21:00; Fr 10:00-21:00; Sa 10:00-21:00; Su 12:00-18:00,,0
Northridge Mall,316600,426 Northridge Mall,Suite D05,Salinas ,CA,93906,United States,(831) 443-1033,,,Mo 10:00-21:00; Tu 10:00-21:00; We 10:00-21:00; Th 10:00-21:00; Fr 10:00-21:00; Sa 10:00-21:00; Su 12:00-18:00,,0
Plaza Bonita,316556,3030 Plaza Bonita Road,Suite 1096,National City ,CA,91950,United States,(619) 472-6613,,,Mo 10:00-21:00; Tu 10:00-21:00; We 10:00-21:00; Th 10:00-21:00; Fr 10:00-21:00; Sa 10:00-21:00; Su 12:00-18:00,,0
Otay Ranch Town Center,529213,2015 Birch Road,,Chula Vista ,CA,91915,United States,(619) 421-4553,,,Mo 10:00-21:00; Tu 10:00-21:00; We 10:00-21:00; Th 10:00-21:00; Fr 10:00-21:00; Sa 10:00-21:00; Su 11:00-18:00,,0
Horton Plaza,316623,115 Horton Plaza,Suite 181,San Diego ,CA,92101,United States,(619) 234-4040,,,Mo 11:00-19:00; Tu 11:00-19:00; We 11:00-19:00; Th 11:00-19:00; Fr 10:00-20:00; Sa 10:00-20:00; Su 12:00-18:00,,0
Fashion Fair,316550,639 East Shaw Ave.,Suite 107,Fresno ,CA,93710,United States,(559) 230-0560,,,Mo 10:00-21:00; Tu 10:00-21:00; We 10:00-21:00; Th 10:00-21:00; Fr 10:00-21:00; Sa 10:00-21:00; Su 11:00-19:00,,0
The Village at Meridian,420463,3597 E. Monarch Sky Lane,,Meridian ,ID,83646,United States,(208) 887-3771,,,Mo 10:00-21:00; Tu 10:00-21:00; We 10:00-21:00; Th 10:00-21:00; Fr 10:00-21:00; Sa 10:00-21:00; Su 11:00-18:00,,0
The Marketplace at Bakersfield,363389,9000 Ming Avenue,Suite L-A1,Bakersfield ,CA,93311,United States,(661) 654-8351,,,Mo 10:00-21:00; Tu 10:00-21:00; We 10:00-21:00; Th 10:00-21:00; Fr 10:00-21:00; Sa 10:00-21:00; Su 11:00-18:00,,0
The Avenue Webb Gin,316452,1350 Scenic Highway,Suite 420,Snellville ,GA,30078,United States,(770) 979-7080,,,Mo 10:00-21:00; Tu 10:00-21:00; We 10:00-21:00; Th 10:00-21:00; Fr 10:00-21:00; Sa 10:00-21:00; Su 12:00-18:00,,0
Mall of Georgia,316508,3333 Buford Drive,,Buford ,GA,30519,United States,(678) 714-7337,,,Mo 10:00-21:00; Tu 10:00-21:00; We 10:00-21:00; Th 10:00-21:00; Fr 10:00-21:00; Sa 10:00-21:00; Su 12:00-18:00,,0
Ashley Park Mall,316445,372 Newnan Crossing Bypass,,Newnan ,GA,30265,United States,(770) 254-4974,,,Mo 10:00-21:00; Tu 10:00-21:00; We 10:00-21:00; Th 10:00-21:00; Fr 10:00-21:00; Sa 10:00-21:00; Su 12:00-18:00,,0
The Avenue Forsyth,316454,410 Peachtree Parkway,,Cumming ,GA,30041,United States,(770) 844-9274,,,Mo 10:00-21:00; Tu 10:00-21:00; We 10:00-21:00; Th 10:00-21:00; Fr 10:00-21:00; Sa 10:00-21:00; Su 12:00-18:00,,0
Arbor Place Mall,316471,6700 Douglas Blvd.,Suite 1322,Douglasville ,GA,30135,United States,(770) 947-3901,,,Mo 10:00-21:00; Tu 10:00-21:00; We 10:00-21:00; Th 10:00-21:00; Fr 10:00-21:00; Sa 10:00-21:00; Su 12:00-18:00,,0
Augusta Mall,316655,3450 Wrightsboro Rd,Suite A 105,Augusta ,GA,30909,United States,(706) 736-3164,,,Mo 10:00-21:00; Tu 10:00-21:00; We 10:00-21:00; Th 10:00-21:00; Fr 10:00-21:00; Sa 10:00-21:00; Su 12:00-18:00,,0
The Forum on Peachtree Parkway,316446,5155 Peachtree Parkway,Suite 340,Norcross ,GA,30092,United States,(678) 291-9469,,,Mo 10:00-21:00; Tu 10:00-21:00; We 10:00-21:00; Th 10:00-21:00; Fr 10:00-21:00; Sa 10:00-21:00; Su 12:00-18:00,,0
The Shoppes at River Crossing,316448,5080 Riverside Drive,Suite 321,Macon ,GA,31210,United States,(478) 471-1630,,,Mo 10:00-21:00; Tu 10:00-21:00; We 10:00-21:00; Th 10:00-21:00; Fr 10:00-21:00; Sa 10:00-21:00; Su 12:00-18:00,,0
Cumberland Mall,351441,1000 Cumberland Mall,Suite 100,Atlanta ,GA,30339,United States,(770) 384-0595,,,Mo 10:00-21:00; Tu 10:00-21:00; We 10:00-21:00; Th 10:00-21:00; Fr 10:00-21:00; Sa 10:00-21:00; Su 12:00-18:00,,0
The Florida Mall,316487,8001 South Orange Blossom TR,Suite 1160,Orlando ,FL,32809,United States,(407) 855-1006,,,Mo 10:00-21:00; Tu 10:00-21:00; We 10:00-21:00; Th 10:00-21:00; Fr 10:00-21:00; Sa 10:00-21:00; Su 12:00-18:00,,0
The Avenue West Cobb,316491,3625 Dallas Highway SW.,Suite 380,Marietta ,GA,30064,United States,(770) 425-6021,,,Mo 10:00-21:00; Tu 10:00-21:00; We 10:00-21:00; Th 10:00-21:00; Fr 10:00-21:00; Sa 10:00-21:00; Su 12:00-18:00,,0
Oglethorpe Mall,316542,7804 Abercorn Extension,Suite 140,Savannah ,GA,31406,United States,(912) 352-7552,,,Mo 10:00-21:00; Tu 10:00-21:00; We 10:00-21:00; Th 10:00-21:00; Fr 10:00-21:00; Sa 10:00-21:00; Su 12:00-18:00,,0
Countryside Mall,420468,27001 US  Hwy 19 N,,Clearwater ,FL,33761,United States,(727) 791-6900,,,Mo 10:00-21:00; Tu 10:00-21:00; We 10:00-21:00; Th 10:00-21:00; Fr 10:00-21:00; Sa 10:00-21:00; Su 12:00-18:00,,0
Delray Market Place,316664,9195 West Atlantic Ave,Bldg. A-2,Delray Beach ,FL,33446,United States,(561) 638-6822,,,Mo 10:00-21:00; Tu 10:00-21:00; We 10:00-21:00; Th 10:00-21:00; Fr 10:00-21:00; Sa 10:00-21:00; Su 12:00-18:00,,0
The Village at Gulfstream Park,316526,600 Silks Run,Suite 1255,Hallandale Beach ,FL,33009,United States,(954) 457-8323,,,Mo 10:00-21:00; Tu 10:00-21:00; We 10:00-21:00; Th 10:00-21:00; Fr 10:00-21:00; Sa 10:00-21:00; Su 12:00-18:00,,0
The Shops at Pembroke Gardens,316486,14546 SW 5th Street,,Pembroke Pines ,FL,33027,United States,(954) 436-2064,,,Mo 10:00-21:00; Tu 10:00-21:00; We 10:00-21:00; Th 10:00-21:00; Fr 10:00-21:00; Sa 10:00-21:00; Su 11:00-19:00,,0
The Avenue Viera,316527,2281 Town Center Avenue,Suite 103,Viera ,FL,32940,United States,(321) 504-4101,,,Mo 10:00-21:00; Tu 10:00-21:00; We 10:00-21:00; Th 10:00-21:00; Fr 10:00-21:00; Sa 10:00-21:00; Su 12:00-18:00,,0
Westshore Plaza,316588,250 West Shore Plaza,,Tampa ,FL,33609,United States,(813) 207-5635,,,Mo 10:00-21:00; Tu 10:00-21:00; We 10:00-21:00; Th 10:00-21:00; Fr 10:00-21:00; Sa 10:00-21:00; Su 12:00-18:00,,0
Promenade at Coconut Creek,316608,4413 Lyons Rd,,Coconut Creek ,FL,33073,United States,(954) 973-9690,,,Mo 10:00-21:00; Tu 10:00-21:00; We 10:00-21:00; Th 10:00-21:00; Fr 10:00-21:00; Sa 10:00-21:00; Su 12:00-18:00,,0
The Shops at Wiregrass,316548,28249 Paseo Drive,Suite 180,Wesley Chapel ,FL,33543,United States,(813) 973-8216,,,Mo 10:00-21:00; Tu 10:00-21:00; We 10:00-21:00; Th 10:00-21:00; Fr 10:00-21:00; Sa 10:00-21:00; Su 12:00-18:00,,0
Plaza at Citrus Park,316614,12871 Citrus Park Dr.,,Tampa ,FL,33625,United States,(813) 792-1547,,,Mo 10:00-21:00; Tu 10:00-21:00; We 10:00-21:00; Th 10:00-21:00; Fr 10:00-21:00; Sa 10:00-21:00; Su 12:00-18:00,,0
City Place FL,420465,701 S. Rosemary Ave,,West Palm Beach ,FL,33401,United States,(561) 355-4070,,,Mo 11:00-21:00; Tu 11:00-21:00; We 11:00-21:00; Th 11:00-21:00; Fr 10:00-21:00; Sa 10:00-21:00; Su 12:00-18:00,,0
Legacy Place,316617,11330 Legacy Ave,Suite 100,Palm Beach Gardens ,FL,33410,United States,(561) 622-6855,,,Mo 10:00-21:00; Tu 10:00-21:00; We 10:00-21:00; Th 10:00-21:00; Fr 10:00-21:00; Sa 10:00-21:00; Su 12:00-18:00,,0
The Mall at Wellington Green,316557,10300 W. Forest Hill Blvd,Suite 206,Wellington ,FL,33414,United States,(561) 790-2302,,,Mo 10:00-21:00; Tu 10:00-21:00; We 10:00-21:00; Th 10:00-21:00; Fr 10:00-21:00; Sa 10:00-21:00; Su 12:00-18:00,,0
Westfield Brandon,420466,836 Brandon Town Center Dr.,,Brandon ,FL,33511,United States,(813) 685-2600,,,Mo 10:00-21:00; Tu 10:00-21:00; We 10:00-21:00; Th 10:00-21:00; Fr 10:00-21:00; Sa 10:00-21:00; Su 12:00-18:00,,0
Winter Garden Village,574393,3267 Daniels Road,,Winter Garden ,FL,34787,United States,(407) 654-7454,,,Mo 10:00-21:00; Tu 10:00-21:00; We 10:00-21:00; Th 10:00-21:00; Fr 10:00-21:00; Sa 10:00-21:00; Su 11:00-18:00,,0
Woodstock Square,415535,128 Woodstock Square Ave,,Woodstock ,GA,30189,United States,(770) 592-0017,,,Mo 10:00-21:00; Tu 10:00-21:00; We 10:00-21:00; Th 10:00-21:00; Fr 10:00-21:00; Sa 10:00-21:00; Su 11:00-18:00,,0
Altamonte Mall,547781,451 E. Altamonte Drive,,Altamonte Springs ,FL,32701,United States,(321) 207-0000,,,Mo 10:00-21:00; Tu 10:00-21:00; We 10:00-21:00; Th 10:00-21:00; Fr 10:00-21:00; Sa 10:00-21:00; Su 12:00-18:00,,0
Pointe Orlando,316642,9101 International Dr.,Suite 1316,Orlando ,FL,32819,United States,(407) 355-4742,,,Mo 11:00-22:00; Tu 11:00-22:00; We 11:00-22:00; Th 11:00-22:00; Fr 11:00-22:00; Sa 11:00-22:00; Su 12:00-20:00,,0
The Falls,698367,8888 SW 136th Street,,Miami ,FL,33176,United States,(305) 232-2555,,,Mo 10:00-21:00; Tu 10:00-21:00; We 10:00-21:00; Th 10:00-21:00; Fr 10:00-21:00; Sa 10:00-21:00; Su 12:00-19:00,,0
Collins Avenue,698363,735 Collins Ave,,Miami Beach ,FL,33139,United States,(305) 674-0172,,,Mo 10:00-21:00; Tu 10:00-21:00; We 10:00-21:00; Th 10:00-21:00; Fr 10:00-21:00; Sa 10:00-21:00; Su 11:00-20:00,,0
The Avenues,316480,10300 Southside Blvd.,Suite 1255B,Jacksonville ,FL,32256,United States,(904) 363-6050,,,Mo 10:00-21:00; Tu 10:00-21:00; We 10:00-21:00; Th 10:00-21:00; Fr 10:00-21:00; Sa 10:00-21:00; Su 12:00-18:00,,0
River City Marketplace,316606,13141 City Station Drive,Suite 103,Jacksonville ,FL,32218,United States,(904) 751-2975,,,Mo 10:00-21:00; Tu 10:00-21:00; We 10:00-21:00; Th 10:00-21:00; Fr 10:00-21:00; Sa 10:00-21:00; Su 12:00-18:00,,0
Coconut Point,316499,23106 Fashion Drive,Suite 115,Estero ,FL,33928,United States,(239) 390-0735,,,Mo 10:00-21:00; Tu 10:00-21:00; We 10:00-21:00; Th 10:00-21:00; Fr 10:00-21:00; Sa 10:00-21:00; Su 12:00-18:00,,0
Mercato,316490,9105 Strada Place,Suite 3135,Naples ,FL,34108,United States,(239) 254-1702,,,Mo 10:00-21:00; Tu 10:00-21:00; We 10:00-21:00; Th 10:00-21:00; Fr 10:00-21:00; Sa 10:00-21:00; Su 12:00-18:00,,0
The Palms at Town & Country,316593,8600 Mills Drs.,Suite 1585,Miami ,FL,33183,United States,(305) 596-1660,,,Mo 10:00-21:00; Tu 10:00-21:00; We 10:00-21:00; Th 10:00-21:00; Fr 10:00-21:00; Sa 10:00-21:00; Su 12:00-18:00,,0
Destin Commons,471743,4241 Legendary Dr,,Destin ,FL,32541,United States,(850) 269-0211,,,Mo 10:00-22:00; Tu 10:00-22:00; We 10:00-22:00; Th 10:00-22:00; Fr 10:00-22:00; Sa 10:00-22:00; Su 11:00-20:00,,0
Pier Park,316619,15600 Starfish St.,Suite 145,Panama City Beach ,FL,32413,United States,(850) 235-3550,,,Mo 10:00-20:00; Tu 10:00-20:00; We 10:00-20:00; Th 10:00-20:00; Fr 10:00-20:00; Sa 10:00-20:00; Su 12:00-18:00,,0
The Oaks Mall,542835,6419 W Newberry Rd,,Gainesville ,FL,32605,United States,(352) 333-3196,,,Mo 10:00-21:00; Tu 10:00-21:00; We 10:00-21:00; Th 10:00-21:00; Fr 10:00-21:00; Sa 10:00-21:00; Su 12:00-18:00,,0
International Speedway,316661,2500 International Speedway Blvd,Suite 550,Daytona Beach ,FL,32114,United States,(386) 226-3011,,,Mo 10:00-21:00; Tu 10:00-21:00; We 10:00-21:00; Th 10:00-21:00; Fr 10:00-21:00; Sa 10:00-21:00; Su 11:00-18:00,,0
Shoppes at Blackstone Valley,677235,70 Worcester-Providence Turnpike,,Millbury ,MA,01527,United States,(508) 865-2808,,,Mo 10:00-21:00; Tu 10:00-21:00; We 10:00-21:00; Th 10:00-21:00; Fr 10:00-21:00; Sa 10:00-21:00; Su 11:00-18:00,,0
Connecticut Commons,420461,282 New Britain Ave,,Plainville ,CT,06062,United States,(860) 747-5393,,,Mo 10:00-21:00; Tu 10:00-21:00; We 10:00-21:00; Th 10:00-21:00; Fr 10:00-21:00; Sa 10:00-21:00; Su 10:00-18:00,,0
Blue Back Square,316515,76 Memorial Road,,West Hartford ,CT,06107,United States,(860) 232-0708,,,Mo 10:00-20:00; Tu 10:00-20:00; We 10:00-20:00; Th 10:00-20:00; Fr 10:00-21:00; Sa 10:00-21:00; Su 11:00-18:00,,0
The Promenade Shops at Evergreen Walk,316511,500 Evergreen Way,Suite 508,South Windsor ,CT,06074,United States,(860) 648-0025,,,Mo 10:00-20:00; Tu 10:00-20:00; We 10:00-20:00; Th 10:00-20:00; Fr 10:00-21:00; Sa 10:00-21:00; Su 11:00-18:00,,0
Guildford Commons,692935,1919 Boston Post Road,,Guilford ,CT,06437,United States,(203) 453-0534,,,Mo 10:00-21:00; Tu 10:00-21:00; We 10:00-21:00; Th 10:00-21:00; Fr 10:00-21:00; Sa 10:00-21:00; Su 11:00-18:00,,0
Greenwood Park Mall,458885,1251 N. US 31,,Greenwood ,IN,46142,United States,(317) 881-4855,,,Mo 10:00-21:00; Tu 10:00-21:00; We 10:00-21:00; Th 10:00-21:00; Fr 10:00-21:00; Sa 10:00-21:00; Su 11:00-18:00,,0
Tippecanoe,453525,2415 Sagamore Parkway S,,Lafayette ,IN,47905,United States,(765) 446-8267,,,Mo 10:00-21:00; Tu 10:00-21:00; We 10:00-21:00; Th 10:00-21:00; Fr 10:00-21:00; Sa 10:00-21:00; Su 12:00-18:00,,0
Clay Terrace,316537,14311 Clay Terrace Blvd.,Suite 110,Carmel ,IN,46032,United States,(317) 581-1305,,,Mo 10:00-21:00; Tu 10:00-21:00; We 10:00-21:00; Th 10:00-21:00; Fr 10:00-21:00; Sa 10:00-21:00; Su 12:00-18:00,,0
Hamilton Town Center,316570,13971 Town Center Blvd.,Suite 500,Noblesville ,IN,46060,United States,(317) 773-6080,,,Mo 10:00-21:00; Tu 10:00-21:00; We 10:00-21:00; Th 10:00-21:00; Fr 10:00-21:00; Sa 10:00-21:00; Su 12:00-18:00,,0
South Shore Mall,476203,1701 Sunrise Highway,,Bay Shore ,NY,11706,United States,(631) 665-0209,,,Mo 10:00-21:30; Tu 10:00-21:30; We 10:00-21:30; Th 10:00-21:30; Fr 10:00-21:30; Sa 10:00-21:30; Su 10:00-19:00,,0
Jefferson Pointe,316514,4110 W. Jefferson Blvd.,Suite B-2,Ft. Wayne ,IN,46804,United States,(260) 432-7649,,,Mo 10:00-21:00; Tu 10:00-21:00; We 10:00-21:00; Th 10:00-21:00; Fr 10:00-21:00; Sa 10:00-21:00; Su 12:00-17:00,,0
Elmore Marketplace,451645,4219 Elmore Avenue,,Davenport ,IA,52807,United States,(563) 355-4294,,,Mo 10:00-21:00; Tu 10:00-21:00; We 10:00-21:00; Th 10:00-21:00; Fr 10:00-21:00; Sa 10:00-21:00; Su 12:00-18:00,,0
The Crossroads Mall,693773,6650 South Westnedge Avenue,,Portage ,MI,49024,United States,(269) 329-0213,,,Mo 10:00-21:00; Tu 10:00-21:00; We 10:00-21:00; Th 10:00-21:00; Fr 10:00-21:00; Sa 10:00-21:00; Su 12:00-18:00,,0
Jordan Creek Town Center,693793,6925 Mills Civic Parkway,,West Des Moines ,IA,50266,United States,(515) 226-2176,,,Mo 10:00-21:00; Tu 10:00-21:00; We 10:00-21:00; Th 10:00-21:00; Fr 10:00-21:00; Sa 10:00-21:00; Su 11:00-18:00,,0
Heritage Square,316531,7321 Heritage Square Drive,Suite 244,Granger ,IN,46530,United States,(574) 271-0530,,,Mo 10:00-20:00; Tu 10:00-20:00; We 10:00-20:00; Th 10:00-20:00; Fr 10:00-20:00; Sa 10:00-20:00; Su 12:00-17:00,,0
Village Pointe,316649,17255 Davenport St.,Suite 131,Omaha ,NE,68118,United States,(402) 289-2018,,,Mo 10:00-21:00; Tu 10:00-21:00; We 10:00-21:00; Th 10:00-21:00; Fr 10:00-21:00; Sa 10:00-21:00; Su 12:00-18:00,,0
East Hills,316555,3702 Frederick Avenue,Suite L6,St. Joseph ,MO,64506,United States,(816) 676-0491,,,Mo 10:00-21:00; Tu 10:00-21:00; We 10:00-21:00; Th 10:00-21:00; Fr 10:00-21:00; Sa 10:00-21:00; Su 12:00-17:00,,0
L Street Marketplace,316564,12320 L. Street,Suite 109,Omaha ,NE,68137,United States,(402) 334-4834,,,Mo 10:00-21:00; Tu 10:00-21:00; We 10:00-21:00; Th 10:00-21:00; Fr 10:00-21:00; Sa 10:00-21:00; Su 11:00-18:00,,0
Shadow Lake Towne Center,316544,7809 Towne Center Parkway,Suite 107,Papillion ,NE,68046,United States,(402) 331-0888,,,Mo 10:00-21:00; Tu 10:00-21:00; We 10:00-21:00; Th 10:00-21:00; Fr 10:00-21:00; Sa 10:00-21:00; Su 12:00-18:00,,0
Metro Crossing,316607,3815 Metro Drive,Suite 300,Council Bluffs ,IA,51501,United States,(712) 366-8973,,,Mo 10:00-21:00; Tu 10:00-21:00; We 10:00-21:00; Th 10:00-21:00; Fr 10:00-21:00; Sa 10:00-21:00; Su 11:00-17:00,,0
Huntington Mall,316536,500 Mall Road,Suite 160,Barboursville ,WV,25504,United States,(304) 733-6249,,,Mo 10:00-21:00; Tu 10:00-21:00; We 10:00-21:00; Th 10:00-21:00; Fr 10:00-21:00; Sa 10:00-21:00; Su 12:00-18:00,,0
Redmond Town Center,414738,16542 NE 74th St,,Redmond ,WA,98052,United States,(425) 558-4332,,,Mo 10:00-21:00; Tu 10:00-21:00; We 10:00-21:00; Th 10:00-21:00; Fr 10:00-21:00; Sa 10:00-21:00; Su 11:00-19:00,,0
Alderwood,693781,3000 184th St SW,,Lynnwood ,WA,98037,United States,(425) 673-8095,,,Mo 10:00-21:00; Tu 10:00-21:00; We 10:00-21:00; Th 10:00-21:00; Fr 10:00-21:00; Sa 10:00-21:00; Su 11:00-19:00,,0
Columbia Center Mall,677237,1321 N Columbia Center Blvd,,Kennewick ,WA,99336,United States,(509) 735-3715,,,Mo 10:00-21:00; Tu 10:00-21:00; We 10:00-21:00; Th 10:00-21:00; Fr 10:00-21:00; Sa 10:00-21:00; Su 11:00-18:00,,0
Annapolis Mall,316529,2320 Annapolis Mall,Suite 1810,Annapolis ,MD,21401,United States,(410) 224-5691,,,Mo 10:00-21:00; Tu 10:00-21:00; We 10:00-21:00; Th 10:00-21:00; Fr 10:00-21:00; Sa 10:00-21:00; Su 12:00-18:00,,0
Temple Town Center,316627,2112 SW H K Dodgen Loop,Suite 140,Temple ,TX,76504,United States,(254) 773-3546,,,Mo 10:00-21:00; Tu 10:00-21:00; We 10:00-21:00; Th 10:00-21:00; Fr 10:00-21:00; Sa 10:00-21:00; Su 11:00-18:00,,0
Central Mall,627167,3337 Mall Dr,,Texarkana ,TX,75501,United States,(903) 832-9382,,,Mo 10:00-21:00; Tu 10:00-21:00; We 10:00-21:00; Th 10:00-21:00; Fr 10:00-21:00; Sa 10:00-21:00; Su 12:30-18:00,,0
Central Texas Marketplace,669021,4633 South Jack Kultgen Expressway,,Waco ,TX,76706,United States,(254) 662-0016,,,Mo 10:00-21:00; Tu 10:00-21:00; We 10:00-21:00; Th 10:00-21:00; Fr 10:00-21:00; Sa 10:00-21:00; Su 12:00-18:00,,0
Lawton Town Center,540659,333 NW 2nd Street,,Lawton ,OK,73507,United States,(580) 591-0120,,,Mo 10:00-20:00; Tu 10:00-20:00; We 10:00-20:00; Th 10:00-20:00; Fr 10:00-20:00; Sa 10:00-20:00; Su 11:00-18:00,,0
Southside at McEwen,405227,1556 W McEwen Dr,,Franklin ,TN,37067,United States,(615) 778-9254,,,Mo 10:00-21:00; Tu 10:00-21:00; We 10:00-21:00; Th 10:00-21:00; Fr 10:00-21:00; Sa 10:00-21:00; Su 12:00-18:00,,0
The Avenue Murfreesboro,316451,2615 Medical Center Parkway,Suite 2330,Murfreesboro ,TN,37129,United States,(615) 904-2207,,,Mo 10:00-21:00; Tu 10:00-21:00; We 10:00-21:00; Th 10:00-21:00; Fr 10:00-21:00; Sa 10:00-21:00; Su 12:00-18:00,,0
The Streets of Indian Lake,316658,300 Indian Lake Blvd,Suite 200,Hendersonville ,TN,37075,United States,(615) 822-0147,,,Mo 10:00-21:00; Tu 10:00-21:00; We 10:00-21:00; Th 10:00-21:00; Fr 10:00-21:00; Sa 10:00-21:00; Su 12:00-18:00,,0
Oakwood Commons,316631,4648 Lebanon Pike,,Hermitage ,TN,37076,United States,(615) 884-7632,,,Mo 10:00-21:00; Tu 10:00-21:00; We 10:00-21:00; Th 10:00-21:00; Fr 10:00-21:00; Sa 10:00-21:00; Su 12:00-18:00,,0
Market Street,316429,9595 Six Pines Drive,Suite 1140,The Woodlands ,TX,77380,United States,(281) 465-4468,,,Mo 10:00-21:00; Tu 10:00-21:00; We 10:00-21:00; Th 10:00-21:00; Fr 10:00-21:00; Sa 10:00-21:00; Su 12:00-18:00,,0
Carriage Crossing,316450,4644 Merchants Park Circle,Suite 900,Collierville ,TN,38017,United States,(901) 861-1797,,,Mo 10:00-21:00; Tu 10:00-21:00; We 10:00-21:00; Th 10:00-21:00; Fr 10:00-21:00; Sa 10:00-21:00; Su 12:00-18:00,,0
Hillcrest Shopping Center,316630,1855 E Main St,Suite 19,Spartanburg ,SC,29307,United States,(864) 582-8059,,,Mo 10:00-21:00; Tu 10:00-21:00; We 10:00-21:00; Th 10:00-21:00; Fr 10:00-21:00; Sa 10:00-21:00; Su 12:00-18:00,,0
West Town Mall,529211,7600 Kingston Park Dr SW,,Knoxville ,TN,37919,United States,(865) 769-7966,,,Mo 10:00-21:00; Tu 10:00-21:00; We 10:00-21:00; Th 10:00-21:00; Fr 10:00-21:00; Sa 10:00-21:00; Su 12:00-18:00,,0
The Shops at Greenridge,316578,1125 Woodruff Road,Suite 1909,Greenville ,SC,29607,United States,(864) 288-0886,,,Mo 10:00-21:00; Tu 10:00-21:00; We 10:00-21:00; Th 10:00-21:00; Fr 10:00-21:00; Sa 10:00-21:00; Su 12:00-18:00,,0
Tanger Outlets Southaven,693843,"5205 Airways Blvd, Space 360",,Southaven ,MS,38671,United States,(662) 349-2777,,,Mo 10:00-21:00; Tu 10:00-21:00; We 10:00-21:00; Th 10:00-21:00; Fr 10:00-21:00; Sa 10:00-21:00; Su 12:00-18:00,,0
West Manchester Mall,627165,810 Town Center Drive,,York ,PA,17408,United States,(717) 764-2128,,,Mo 10:00-21:00; Tu 10:00-21:00; We 10:00-21:00; Th 10:00-21:00; Fr 10:00-21:00; Sa 10:00-21:00; Su 12:00-18:00,,0
Market Common,476205,3085 Howard Avenue,,Myrtle Beach ,SC,29577,United States,(843) 839-2134,,,Mo 10:00-19:00; Tu 10:00-19:00; We 10:00-19:00; Th 10:00-19:00; Fr 10:00-20:00; Sa 10:00-20:00; Su 12:00-18:00,,0
Turkey Creek,316618,11403 Parkside Dr.,,Farragut ,TN,37934,United States,(865) 671-5087,,,Mo 10:00-20:00; Tu 10:00-20:00; We 10:00-20:00; Th 10:00-20:00; Fr 10:00-20:00; Sa 10:00-20:00; Su 12:00-18:00,,0
Plymouth Meeting Mall,316626,500 W. Germantown Pike,Suite 1150,Plymouth Meeting ,PA,19462,United States,(610) 825-6917,,,Mo 10:00-21:00; Tu 10:00-21:00; We 10:00-21:00; Th 10:00-21:00; Fr 10:00-21:00; Sa 10:00-21:00; Su 11:00-18:00,,0
Shoppes At Flemington,654177,100 Reaville Avenue,,Flemington ,NJ,08822,United States,(908) 237-0821,,,Mo 10:00-21:00; Tu 10:00-21:00; We 10:00-21:00; Th 10:00-21:00; Fr 10:00-21:00; Sa 10:00-21:00; Su 12:00-18:00,,0
Marlton Square,316640,300 Route 73,,Marlton ,NJ,08053,United States,(856) 983-3520,,,Mo 10:00-20:00; Tu 10:00-20:00; We 10:00-20:00; Th 10:00-20:00; Fr 10:00-21:00; Sa 10:00-21:00; Su 11:00-18:00,,0
Mercer Mall,537679,3371 Brunswick Pike,,Lawrence Township ,NJ,08648,United States,(609) 580-1083,,,Mo 10:00-21:00; Tu 10:00-21:00; We 10:00-21:00; Th 10:00-21:00; Fr 10:00-21:00; Sa 10:00-21:00; Su 11:00-18:00,,0
Shoppes at North Brunswick,631581,774 Shoppes Boulevard,,North Brunswick ,NJ,08902,United States,(732) 435-0140,,,Mo 10:00-21:00; Tu 10:00-21:00; We 10:00-21:00; Th 10:00-21:00; Fr 10:00-21:00; Sa 10:00-21:00; Su 12:00-18:00,,0
Village at Cambridge Crossing,316624,4010 Dearborn Circle,,Laurel ,NJ,08054,United States,(856) 234-1814,,,Mo 10:00-21:00; Tu 10:00-21:00; We 10:00-21:00; Th 10:00-21:00; Fr 10:00-21:00; Sa 10:00-21:00; Su 11:00-17:00,,0
Shoppes at Brinton Lakes,316656,965 Baltimore Pike,,Glen Mills ,PA,19342,United States,(610) 459-1426,,,Mo 10:00-21:00; Tu 10:00-21:00; We 10:00-21:00; Th 10:00-21:00; Fr 10:00-21:00; Sa 10:00-21:00; Su 11:00-18:00,,0
Deptford Mall,316519,1750 Deptford Center Road,Suite 2000,Deptford ,NJ,08096,United States,(856) 384-5942,,,Mo 10:00-21:30; Tu 10:00-21:30; We 10:00-21:30; Th 10:00-21:30; Fr 10:00-21:30; Sa 10:00-21:30; Su 11:00-18:00,,0
The Outlets at Sands,316635,77 Sands Blvd,,Bethlehem ,PA,18015,United States,(610) 868-4857,,,Mo 10:00-21:00; Tu 10:00-21:00; We 10:00-21:00; Th 10:00-21:00; Fr 10:00-22:00; Sa 10:00-22:00; Su 10:00-21:00,,0
Providence Town Center,316533,60 Town Center Drive,,Collegeville ,PA,19426,United States,(610) 409-2583,,,Mo 10:00-21:00; Tu 10:00-21:00; We 10:00-21:00; Th 10:00-21:00; Fr 10:00-21:00; Sa 10:00-21:00; Su 11:00-18:00,,0
Promenade Shops at Saucon Valley,698361,2945  Center Valley Parkway,,Center Valley ,PA,18034,United States,(610) 791-1428,,,Mo 10:00-21:00; Tu 10:00-21:00; We 10:00-21:00; Th 10:00-21:00; Fr 10:00-21:00; Sa 10:00-21:00; Su 10:00-18:00,,0
Park City Center,546397,142 Park City Center,,Lancaster ,PA,17601,United States,(717) 393-2894,,,Mo 10:00-21:00; Tu 10:00-21:00; We 10:00-21:00; Th 10:00-21:00; Fr 10:00-21:00; Sa 10:00-21:00; Su 11:00-18:00,,0
Shoppes at Wyomissing,316650,792 Woodland Rd,Suite C1,Wyomissing ,PA,19610,United States,(610) 374-4619,,,Mo 10:00-21:00; Tu 10:00-21:00; We 10:00-21:00; Th 10:00-21:00; Fr 10:00-21:00; Sa 10:00-21:00; Su 11:00-18:00,,0
Wolfchase Galleria,316478,2760 N. Germantown Parkway,Suite 168,Memphis ,TN,38133,United States,(901) 385-8550,,,Mo 10:00-21:00; Tu 10:00-21:00; We 10:00-21:00; Th 10:00-21:00; Fr 10:00-21:00; Sa 10:00-21:00; Su 12:00-18:00,,0
Neshaminy Mall,547089,323 Neshaminy Mall,,Bensalem ,PA,19020,United States,(215) 355-7980,,,Mo 10:00-21:00; Tu 10:00-21:00; We 10:00-21:00; Th 10:00-21:00; Fr 10:00-21:00; Sa 10:00-21:00; Su 11:00-18:00,,0
Baybrook Mall,693783,700 Baybrook Mall Drive,,Friendswood ,TX,77546,United States,(281) 480-4288,,,Mo 10:00-21:00; Tu 10:00-21:00; We 10:00-21:00; Th 10:00-21:00; Fr 10:00-21:00; Sa 10:00-21:00; Su 12:00-18:00,,0
Brazos Town Center,316652,23519 Brazos Town Crossing,,Rosenberg ,TX,77471,United States,(832) 595-0062,,,Mo 10:00-21:00; Tu 10:00-21:00; We 10:00-21:00; Th 10:00-21:00; Fr 10:00-21:00; Sa 10:00-21:00; Su 11:00-18:00,,0
Sugar Land Town Square,316428,16250 City Walk,,Sugar Land ,TX,77479,United States,(281) 980-8703,,,Mo 10:00-21:00; Tu 10:00-21:00; We 10:00-21:00; Th 10:00-21:00; Fr 10:00-21:00; Sa 10:00-21:00; Su 11:00-18:00,,0
Meyerland Plaza,358900,420 Meyerland Plaza,,Houston ,TX,77096,United States,(713) 668-6629,,,Mo 10:00-21:00; Tu 10:00-21:00; We 10:00-21:00; Th 10:00-21:00; Fr 10:00-21:00; Sa 10:00-21:00; Su 12:00-18:00,,0
Katy,316432,400 West Grand Parkway,,Katy ,TX,77494,United States,(281) 395-1282,,,Mo 10:00-21:00; Tu 10:00-21:00; We 10:00-21:00; Th 10:00-21:00; Fr 10:00-21:00; Sa 10:00-21:00; Su 12:00-18:00,,0
Pearland Town Center,316434,11200 Broadway Street,Suite 750,Pearland ,TX,77584,United States,(713) 436-0964,,,Mo 10:00-21:00; Tu 10:00-21:00; We 10:00-21:00; Th 10:00-21:00; Fr 10:00-21:00; Sa 10:00-21:00; Su 11:00-19:00,,0
City Centre,316654,822 Town & Country Blvd,,Houston ,TX,77024,United States,(713) 722-0192,,,Mo 10:00-21:00; Tu 10:00-21:00; We 10:00-21:00; Th 10:00-21:00; Fr 10:00-21:00; Sa 10:00-21:00; Su 12:00-18:00,,0
Champions,316430,6915 FM 1960,,Houston ,TX,77069,United States,(281) 781-0099,,,Mo 10:00-21:00; Tu 10:00-21:00; We 10:00-21:00; Th 10:00-21:00; Fr 10:00-21:00; Sa 10:00-21:00; Su 12:00-18:00,,0
Cypress Town Center,316637,25719 Northwest Freeway,,Cypress ,TX,77429,United States,(281) 758-0786,,,Mo 10:00-21:00; Tu 10:00-21:00; We 10:00-21:00; Th 10:00-21:00; Fr 10:00-21:00; Sa 10:00-21:00; Su 12:00-18:00,,0
242 Crossing,316465,7990 Hwy 242,,Conroe ,TX,77384,United States,(936) 273-8637,,,Mo 10:00-20:00; Tu 10:00-20:00; We 10:00-20:00; Th 10:00-20:00; Fr 10:00-20:00; Sa 10:00-20:00; Su 12:00-18:00,,0
1890 Ranch Shopping Center,316439,1335 E. Whitestone Blvd,,Cedar Park ,TX,78613,United States,(512) 259-4262,,,Mo 10:00-21:00; Tu 10:00-21:00; We 10:00-21:00; Th 10:00-21:00; Fr 10:00-21:00; Sa 10:00-21:00; Su 12:00-18:00,,0
The Mall at Green Hills,316539,2126 Abbott Martin Road,Suite 177,Nashville ,TN,37215,United States,(615) 383-5762,,,Mo 10:00-21:00; Tu 10:00-21:00; We 10:00-21:00; Th 10:00-21:00; Fr 10:00-21:00; Sa 10:00-21:00; Su 12:00-18:00,,0
Stone Hill Town Center,415482,1512 Stone Hill Dr,,Pflugerville ,TX,78660,United States,(512) 252-7081,,,Mo 10:00-21:00; Tu 10:00-21:00; We 10:00-21:00; Th 10:00-21:00; Fr 10:00-21:00; Sa 10:00-21:00; Su 12:00-18:00,,0
Wolf Ranch Town Center,453523,1015 W. University Ave,,Georgetown ,TX,78628,United States,(512) 863-2580,,,Mo 10:00-21:00; Tu 10:00-21:00; We 10:00-21:00; Th 10:00-21:00; Fr 10:00-21:00; Sa 10:00-21:00; Su 12:00-18:00,,0
Atascocita Commons,316441,6621 FM 1960 East,,Atascocita ,TX,77346,United States,(281) 812-2618,,,Mo 10:00-20:00; Tu 10:00-20:00; We 10:00-20:00; Th 10:00-20:00; Fr 10:00-20:00; Sa 10:00-20:00; Su 12:00-18:00,,0
Quail Creek Crossing,316599,3201 Lawrence Rd.,Suite 330,Wichita Falls ,TX,76308,United States,(940) 692-0228,,,Mo 10:00-21:00; Tu 10:00-21:00; We 10:00-21:00; Th 10:00-21:00; Fr 10:00-21:00; Sa 10:00-21:00; Su 12:00-18:00,,0
Peninsula Town Center,316468,1440 Merchant Lane,,Hampton ,VA,23666,United States,(757) 838-1257,,,Mo 10:00-21:00; Tu 10:00-21:00; We 10:00-21:00; Th 10:00-21:00; Fr 10:00-21:00; Sa 10:00-22:00; Su 12:00-18:00,,0
New Town Shops on Main,316629,5105 Main St.,,Williamsburg ,VA,23188,United States,(757) 220-2109,,,Mo 10:00-21:00; Tu 10:00-21:00; We 10:00-21:00; Th 10:00-21:00; Fr 10:00-21:00; Sa 10:00-21:00; Su 12:00-18:00,,0
Bowie Town Center,316638,15412 Emerald Way,C1-5,Bowie ,MD,20716,United States,(301) 262-2796,,,Mo 10:00-21:00; Tu 10:00-21:00; We 10:00-21:00; Th 10:00-21:00; Fr 10:00-21:00; Sa 10:00-21:00; Su 12:00-18:00,,0
Village At Leesburg,316502,1606 Village Market Blvd. SE,Suite 115,Leesburg ,VA,20175,United States,(703) 771-6930,,,Mo 10:00-20:00; Tu 10:00-20:00; We 10:00-20:00; Th 10:00-20:00; Fr 10:00-20:00; Sa 10:00-20:00; Su 12:00-18:00,,0
MacArthur Center,316463,300 Monticello Avenue,Suite 203,Norfolk ,VA,23510,United States,(757) 314-3537,,,Mo 10:00-21:00; Tu 10:00-21:00; We 10:00-21:00; Th 10:00-21:00; Fr 10:00-21:00; Sa 10:00-21:00; Su 12:00-18:00,,0
Washingtonian Center,316512,101 Boardwalk Place,Suite 102,Gaithersburg ,MD,20878,United States,(301) 947-2540,,,Mo 10:00-21:00; Tu 10:00-21:00; We 10:00-21:00; Th 10:00-21:00; Fr 10:00-21:00; Sa 10:00-21:00; Su 12:00-18:00,,0
Virginia Gateway,453633,13962 Promenade Commons St.,,St. Gainesville ,VA,20155,United States,(703) 754-1357,,,Mo 10:00-21:00; Tu 10:00-21:00; We 10:00-21:00; Th 10:00-21:00; Fr 10:00-21:00; Sa 10:00-21:00; Su 11:00-18:00,,0
Fair Oaks Mall,316459,11794 Fair Oaks Mall,Suite A104A,Fairfax ,VA,22033,United States,(703) 865-5850,,,Mo 10:30-21:30; Tu 10:30-21:30; We 10:30-21:30; Th 10:30-21:30; Fr 10:30-21:30; Sa 10:30-21:30; Su 12:00-18:00,,0
National Harbor,316461,162 Waterfront Street,Suite K-K1,National Harbor ,MD,20745,United States,(301) 567-3191,,,Mo 10:00-21:00; Tu 10:00-21:00; We 10:00-21:00; Th 10:00-21:00; Fr 10:00-21:00; Sa 10:00-21:00; Su 11:00-19:00,,0
Stonebridge at Potomac Center,316643,15000 Potomac Town Place,Suite 160,Woodbridge ,VA,22191,United States,(703) 580-8492,,,Mo 10:00-21:00; Tu 10:00-21:00; We 10:00-21:00; Th 10:00-21:00; Fr 10:00-21:00; Sa 10:00-21:00; Su 11:00-18:00,,0
Shops at Waldorf,316662,2935 Festival Way,Suite 113,Waldorf ,MD,20603,United States,(301) 645-4467,,,Mo 10:00-21:00; Tu 10:00-21:00; We 10:00-21:00; Th 10:00-21:00; Fr 10:00-21:00; Sa 10:00-21:00; Su 11:00-18:00,,0
Spotsylvania Town Centre,316460,1 Towne Center Blvd.,Suite 3800,Fredericksburg ,VA,22407,United States,(540) 548-1651,,,Mo 10:00-21:30; Tu 10:00-21:30; We 10:00-21:30; Th 10:00-21:30; Fr 10:00-21:30; Sa 10:00-21:30; Su 11:00-18:00,,0
Clackamas Town Center,574757,12000 SE 82ND AVE,,Happy Valley ,OR,97086,United States,(503) 659-2608,,,Mo 10:00-21:00; Tu 10:00-21:00; We 10:00-21:00; Th 10:00-21:00; Fr 10:00-21:00; Sa 10:00-21:00; Su 11:00-18:00,,0
Streets of Tanasbourne,316612,19338 NW Emma Way,Suite 200,Hillsboro ,OR,97124,United States,(503) 533-5956,,,Mo 10:00-21:00; Tu 10:00-21:00; We 10:00-21:00; Th 10:00-21:00; Fr 10:00-21:00; Sa 10:00-21:00; Su 11:00-18:00,,0
Pioneer Place Mall,546979,700 SW 5th Avenue,,Portland ,OR,97204,United States,(503) 227-3078,,,Mo 10:00-20:00; Tu 10:00-20:00; We 10:00-20:00; Th 10:00-20:00; Fr 10:00-20:00; Sa 10:00-20:00; Su 11:00-18:00,,0
Gresham Station,464421,1152 NW Civic Drive,,Gresham ,OR,97030,United States,(503) 667-6541,,,Mo 10:00-21:00; Tu 10:00-21:00; We 10:00-21:00; Th 10:00-21:00; Fr 10:00-21:00; Sa 10:00-21:00; Su 11:00-18:00,,0
Bridgeport Village,546389,7485 SW Bridgeport Road,,Tigard ,OR,97224,United States,(503) 603-9991,,,Mo 10:00-20:00; Tu 10:00-20:00; We 10:00-20:00; Th 10:00-20:00; Fr 10:00-20:00; Sa 10:00-20:00; Su 11:00-18:00,,0
Capital Mall,692339,2511 4th Ave W,,W Olympia ,WA,98502,United States,(360) 943-9563,,,Mo 10:00-19:00; Tu 10:00-19:00; We 10:00-19:00; Th 10:00-19:00; Fr 10:00-20:00; Sa 10:00-20:00; Su 11:00-18:00,,0
Shoppes at Montage,316543,2551 Shoppes Blvd.,,Moosic ,PA,18507,United States,(570) 961-0847,,,Mo 10:00-21:00; Tu 10:00-21:00; We 10:00-21:00; Th 10:00-21:00; Fr 10:00-21:00; Sa 10:00-21:00; Su 12:00-18:00,,0
The Galleria of Mt. Lebanon,316551,1500 Washington Road,Suite 1305,Pittsburgh ,PA,15228,United States,(412) 531-1018,,,Mo 10:00-21:00; Tu 10:00-21:00; We 10:00-21:00; Th 10:00-21:00; Fr 10:00-21:00; Sa 10:00-21:00; Su 12:00-17:00,,0
Waterfront Town Center,414739,245 West Bridge St,,Homestead ,PA,15120,United States,(412) 461-0469,,,Mo 10:00-21:00; Tu 10:00-21:00; We 10:00-21:00; Th 10:00-21:00; Fr 10:00-21:00; Sa 10:00-21:00; Su 12:00-18:00,,0
South Hill Mall,316591,3500 S. Meridian,Suite 845,Puyallup ,WA,98373,United States,(253) 841-5739,,,Mo 10:00-21:00; Tu 10:00-21:00; We 10:00-21:00; Th 10:00-21:00; Fr 10:00-21:00; Sa 10:00-21:00; Su 11:00-18:00,,0
Millcreek Mall,316524,654 Millcreek Mall,,Erie ,PA,16565,United States,(814) 864-1266,,,Mo 10:00-21:00; Tu 10:00-21:00; We 10:00-21:00; Th 10:00-21:00; Fr 10:00-21:00; Sa 10:00-21:00; Su 11:00-18:00,,0
Woodbridge Center,546983,376 Woodbridge Center Dr,,Woodbridge ,NJ,07095,United States,(732) 634-3125,,,Mo 10:00-21:30; Tu 10:00-21:30; We 10:00-21:30; Th 10:00-21:30; Fr 10:00-21:30; Sa 10:00-21:30; Su 11:00-19:00,,0
Streets of Chester,546393,270 US 206 South,,South Chester ,NJ,07930,United States,(908) 879-0517,,,Mo 10:00-20:00; Tu 10:00-20:00; We 10:00-20:00; Th 10:00-20:00; Fr 10:00-20:00; Sa 10:00-19:00; Su 11:00-18:00,,0
Columbiana Centre,546977,100 Columbiana Circle,,Columbia ,SC,29212,United States,(803) 781-0307,,,Mo 10:00-21:00; Tu 10:00-21:00; We 10:00-21:00; Th 10:00-21:00; Fr 10:00-21:00; Sa 10:00-21:00; Su 12:00-18:00,,0
Market Street,631583,920 Market Street,,Lynnfield ,MA,01940,United States,(781) 334-6130,,,Mo 10:00-21:00; Tu 10:00-21:00; We 10:00-21:00; Th 10:00-21:00; Fr 10:00-21:00; Sa 10:00-21:00; Su 11:00-18:00,,0
Village at Colony Place,316603,194 Colony Place,,Plymouth ,MA,02360,United States,(508) 732-7360,,,Mo 10:00-21:00; Tu 10:00-21:00; We 10:00-21:00; Th 10:00-21:00; Fr 10:00-21:00; Sa 10:00-21:00; Su 12:00-18:00,,0
Hingham Shipyard,547777,6 Shipyard Drive,,Hingham ,MA,02043,United States,(781) 749-5938,,,Mo 10:00-21:00; Tu 10:00-21:00; We 10:00-21:00; Th 10:00-21:00; Fr 10:00-21:00; Sa 10:00-21:00; Su 11:00-18:00,,0
The Crossing At Smithfield,693777,371 Putnam Pike,,Smithfield ,RI,02917,United States,(401) 231-2310,,,Mo 10:00-20:00; Tu 10:00-20:00; We 10:00-20:00; Th 10:00-20:00; Fr 10:00-20:00; Sa 10:00-20:00; Su 12:00-18:00,,0
Wayside Shopping Center,693775,6 Wayside Rd.,,Burlington ,MA,01803,United States,(781) 273-0124,,,Mo 10:00-21:00; Tu 10:00-21:00; We 10:00-21:00; Th 10:00-21:00; Fr 10:00-21:00; Sa 10:00-21:00; Su 11:00-18:00,,0
Natick Mall,547779,1245 Worcester St,,Natick ,MA,01760,United States,(508) 652-1986,,,Mo 10:00-21:00; Tu 10:00-21:00; We 10:00-21:00; Th 10:00-21:00; Fr 10:00-21:00; Sa 10:00-21:00; Su 12:00-18:00,,0
University Station,626473,241 University Ave,,Westwood ,MA,02090,United States,(781) 461-2455,,,Mo 10:00-20:00; Tu 10:00-20:00; We 10:00-20:00; Th 10:00-20:00; Fr 10:00-20:00; Sa 10:00-20:00; Su 11:00-18:00,,0
Northborough Crossing,316572,9114 Shops Way,,Northborough ,MA,01532,United States,(508) 393-2278,,,Mo 10:00-20:00; Tu 10:00-20:00; We 10:00-20:00; Th 10:00-20:00; Fr 10:00-20:00; Sa 10:00-20:00; Su 11:00-18:00,,0
Biltmore Park Town Square,316571,8 Town Square Blvd.,Suite 170,Asheville ,NC,28803,United States,(828) 684-9320,,,Mo 10:00-21:00; Tu 10:00-21:00; We 10:00-21:00; Th 10:00-21:00; Fr 10:00-21:00; Sa 10:00-21:00; Su 12:00-18:00,,0
Freehold Raceway Mall,316520,3710 US Highway 9,Suite H-112,Freehold ,NJ,07728,United States,(732) 866-4092,,,Mo 10:00-21:30; Tu 10:00-21:30; We 10:00-21:30; Th 10:00-21:30; Fr 10:00-21:30; Sa 10:00-21:30; Su 11:00-18:00,,0
The Mall at Johnson City,316522,2011 North Roan Street,Suite 31,Johnson City ,TN,37601,United States,(423) 283-0061,,,Mo 10:00-21:00; Tu 10:00-21:00; We 10:00-21:00; Th 10:00-21:00; Fr 10:00-21:00; Sa 10:00-21:00; Su 12:00-18:00,,0
The Domain,316464,3220 Feathergrass Court,Suite 112,Austin ,TX,78758,United States,(512) 339-2848,,,Mo 10:00-21:00; Tu 10:00-21:00; We 10:00-21:00; Th 10:00-21:00; Fr 10:00-21:00; Sa 10:00-21:00; Su 12:00-18:00,,0
Rockwall Crossing,316609,959 E I-30,Suite 103,Rockwall ,TX,75087,United States,(972) 722-2355,,,Mo 10:00-21:00; Tu 10:00-21:00; We 10:00-21:00; Th 10:00-21:00; Fr 10:00-21:00; Sa 10:00-21:00; Su 12:00-18:00,,0
Town East Mall,316535,2063 Town East Mall,Suite 1048,Mesquite ,TX,75150,United States,(972) 270-0130,,,Mo 10:00-21:00; Tu 10:00-21:00; We 10:00-21:00; Th 10:00-21:00; Fr 10:00-21:00; Sa 10:00-21:00; Su 12:00-18:00,,0
Alamo Quarry Market,316507,225 E. Basse Road,Suite 300,San Antonio ,TX,78209,United States,(210) 826-5398,,,Mo 10:00-21:00; Tu 10:00-21:00; We 10:00-21:00; Th 10:00-21:00; Fr 10:00-21:00; Sa 10:00-21:00; Su 12:00-18:00,,0
Patriot Place,316532,259 Patriot Place,Suite J3,Foxborough ,MA,02035,United States,(508) 698-4950,,,Mo 10:00-21:00; Tu 10:00-21:00; We 10:00-21:00; Th 10:00-21:00; Fr 10:00-21:00; Sa 10:00-21:00; Su 10:00-19:00,,0
Watters Creek at Montgomery Farm,316443,925 Watters Creek Blvd.,,Allen ,TX,75013,United States,(469) 342-6729,,,Mo 10:00-21:00; Tu 10:00-21:00; We 10:00-21:00; Th 10:00-21:00; Fr 10:00-21:00; Sa 10:00-21:00; Su 12:00-18:00,,0
Uptown Village at Cedar Hill,316444,305 West FM 1382,Suite 304,Cedar Hill ,TX,75104,United States,(972) 293-9253,,,Mo 10:00-21:00; Tu 10:00-21:00; We 10:00-21:00; Th 10:00-21:00; Fr 10:00-21:00; Sa 10:00-21:00; Su 12:00-18:00,,0
Firewheel Town Center,316586,430 Winecup Way,,Garland ,TX,75040,United States,(972) 530-2458,,,Mo 10:00-21:00; Tu 10:00-21:00; We 10:00-21:00; Th 10:00-21:00; Fr 10:00-21:00; Sa 10:00-21:00; Su 12:00-18:00,,0
Trinity Commons,316569,3100 S. Hulen Street,Suite 136,Fort Worth ,TX,76109,United States,(817) 377-1029,,,Mo 10:00-21:00; Tu 10:00-21:00; We 10:00-21:00; Th 10:00-21:00; Fr 10:00-21:00; Sa 10:00-21:00; Su 12:00-18:00,,0
The Shops at Park Lane,316601,8190 Park Lane,Suite 350,Dallas ,TX,75231,United States,(214) 361-2801,,,Mo 10:00-21:00; Tu 10:00-21:00; We 10:00-21:00; Th 10:00-21:00; Fr 10:00-21:00; Sa 10:00-21:00; Su 12:00-18:00,,0
Village at Stone Oak,333763,22602 US Highway 281 North,Unit J-1,San Antonio ,TX,78258,United States,(210) 481-9577,,,Mo 10:00-21:00; Tu 10:00-21:00; We 10:00-21:00; Th 10:00-21:00; Fr 10:00-21:00; Sa 10:00-21:00; Su 12:00-18:00,,0
Sunrise Mall,316455,2370 N. Expressway,Suite 1242,Brownsville ,TX,78526,United States,(956) 574-9027,,,Mo 10:00-21:00; Tu 10:00-21:00; We 10:00-21:00; Th 10:00-21:00; Fr 10:00-21:00; Sa 10:00-21:00; Su 12:00-19:00,,0
Longview Mall,542817,3500 McCann Road,,Longview ,TX,75605,United States,(903) 236-8647,,,Mo 10:00-21:00; Tu 10:00-21:00; We 10:00-21:00; Th 10:00-21:00; Fr 10:00-21:00; Sa 10:00-21:00; Su 12:00-18:00,,0
The Rim,316435,17503 La Cantera Parkway,Suite 915,San Antonio ,TX,78257,United States,(210) 877-9031,,,Mo 10:00-21:00; Tu 10:00-21:00; We 10:00-21:00; Th 10:00-21:00; Fr 10:00-21:00; Sa 10:00-21:00; Su 12:00-18:00,,0
The Shops At West End,693779,2910 West Loop 289,,Lubbock ,TX,79407,United States,(806) 788-1012,,,Mo 10:00-21:00; Tu 10:00-21:00; We 10:00-21:00; Th 10:00-21:00; Fr 10:00-21:00; Sa 10:00-21:00; Su 11:00-19:00,,0
La Plaza Mall,316484,2200 S. 10th Street,Suite C05,McAllen ,TX,78503,United States,(956) 682-1847,,,Mo 10:00-21:00; Tu 10:00-21:00; We 10:00-21:00; Th 10:00-21:00; Fr 10:00-21:00; Sa 10:00-21:00; Su 12:00-18:00,,0
Preston Park Village,316442,1900 Preston Road,Suite 131,Plano ,TX,75093,United States,(972) 599-2800,,,Mo 10:00-21:00; Tu 10:00-21:00; We 10:00-21:00; Th 10:00-21:00; Fr 10:00-21:00; Sa 10:00-21:00; Su 12:00-18:00,,0
Arlington Highlands,316495,3901 Arlington Highlands Blvd.,Suite 101,Arlington ,TX,76018,United States,(817) 472-9065,,,Mo 10:00-21:00; Tu 10:00-21:00; We 10:00-21:00; Th 10:00-21:00; Fr 10:00-21:00; Sa 10:00-21:00; Su 12:00-18:00,,0
Westover Village,316613,661 Sherry Lane,,Fort Worth ,TX,76114,United States,(817) 735-5230,,,Mo 10:00-21:00; Tu 10:00-21:00; We 10:00-21:00; Th 10:00-21:00; Fr 10:00-21:00; Sa 10:00-21:00; Su 12:00-18:00,,0
Alliance Town Center,692901,9361 Sage Meadow Trail,,Worth ,TX,76244,United States,(817) 741-6446,,,Mo 10:00-21:00; Tu 10:00-21:00; We 10:00-21:00; Th 10:00-21:00; Fr 10:00-21:00; Sa 10:00-21:00; Su 12:00-18:00,,0
Vista Ridge Plaza,316592,440 E Round Grove Rd.,Suite 680,Lewisville ,TX,75067,United States,(972) 315-8502,,,Mo 10:00-21:00; Tu 10:00-21:00; We 10:00-21:00; Th 10:00-21:00; Fr 10:00-21:00; Sa 10:00-21:00; Su 12:00-18:00,,0
North East Mall,316518,1101 Melbourne Road,Suite 3003,Hurst ,TX,76053,United States,(817) 590-9574,,,Mo 10:00-21:00; Tu 10:00-21:00; We 10:00-21:00; Th 10:00-21:00; Fr 10:00-21:00; Sa 10:00-21:00; Su 12:00-18:00,,0
Southlake Town Square,316436,301 N Carroll Avenue,,Southlake ,TX,76092,United States,(817) 442-1309,,,Mo 10:00-21:00; Tu 10:00-21:00; We 10:00-21:00; Th 10:00-21:00; Fr 10:00-21:00; Sa 10:00-21:00; Su 12:00-18:00,,0
Town Center at Creekside,415483,227 Creekside Crossing,,New Braunfels ,TX,78130,United States,(830) 626-0355,,,Mo 10:00-21:00; Tu 10:00-21:00; We 10:00-21:00; Th 10:00-21:00; Fr 10:00-21:00; Sa 10:00-21:00; Su 12:00-18:00,,0
Hill Country Galleria,316582,12701 Hill Country Blvd.,Suite O120,Bee Cave ,TX,78738,United States,(512) 263-7862,,,Mo 10:00-21:00; Tu 10:00-21:00; We 10:00-21:00; Th 10:00-21:00; Fr 10:00-21:00; Sa 10:00-21:00; Su 12:00-18:00,,0
Hamilton Place Mall,316462,2100 Hamilton Place Blvd.,,Chattanooga ,TN,37421,United States,(423) 296-1201,,,Mo 10:00-21:00; Tu 10:00-21:00; We 10:00-21:00; Th 10:00-21:00; Fr 10:00-21:00; Sa 10:00-21:00; Su 12:00-18:00,,0
Sunset Valley Village,316440,5207 Brodie Lane,Suite 230,Sunset Valley ,TX,78745,United States,(512) 899-9575,,,Mo 10:00-21:00; Tu 10:00-21:00; We 10:00-21:00; Th 10:00-21:00; Fr 10:00-21:00; Sa 10:00-21:00; Su 12:00-18:00,,0
The Shops at Highland Village,316437,1401 Shoal Creek,Suite 160,Highland Village ,TX,75077,United States,(972) 317-6750,,,Mo 10:00-21:00; Tu 10:00-21:00; We 10:00-21:00; Th 10:00-21:00; Fr 10:00-21:00; Sa 10:00-21:00; Su 12:00-18:00,,0
Fountains at Farah,458883,8889 Gateway West,,El Paso ,TX,79925,United States,(915) 594-3319,,,Mo 10:00-20:00; Tu 10:00-20:00; We 10:00-20:00; Th 10:00-20:00; Fr 10:00-20:00; Sa 10:00-20:00; Su 11:00-18:00,,0
La Palmera,316467,5488 South Padre Island DR,Suite 1176,Corpus Christi ,TX,78411,United States,(361) 980-1323,,,Mo 10:00-21:00; Tu 10:00-21:00; We 10:00-21:00; Th 10:00-21:00; Fr 10:00-21:00; Sa 10:00-21:00; Su 12:00-18:00,,0
Texas Avenue Crossing,316431,1416 Texas Avenue South,,College Station ,TX,77840,United States,(979) 680-1681,,,Mo 10:00-21:00; Tu 10:00-21:00; We 10:00-21:00; Th 10:00-21:00; Fr 10:00-21:00; Sa 10:00-21:00; Su 12:00-18:00,,0
Westview Promenade,675699,5267 Buckeystown Pike,,Frederick ,MD,21704,United States,(301) 662-5013,,,Mo 10:00-21:00; Tu 10:00-21:00; We 10:00-21:00; Th 10:00-21:00; Fr 10:00-21:00; Sa 10:00-21:00; Su 12:00-18:00,,0
Regency Square,316466,1404 N. Parham Road,Suite 218,Richmond ,VA,23229,United States,(804) 740-1245,,,Mo 10:00-21:00; Tu 10:00-21:00; We 10:00-21:00; Th 10:00-21:00; Fr 10:00-21:00; Sa 10:00-21:00; Su 12:00-18:00,,0
University Mall,522971,575 E. University Parkway,,Orem ,UT,84097,United States,(801) 224-1135,,,Mo 10:00-21:00; Tu 10:00-21:00; We 10:00-21:00; Th 10:00-21:00; Fr 10:00-21:00; Sa 10:00-21:00,,0
Red Rock Commons,493325,15 S. River Road,,Saint George ,UT,84790,United States,(435) 628-9328,,,Mo 10:00-21:00; Tu 10:00-21:00; We 10:00-21:00; Th 10:00-21:00; Fr 10:00-21:00; Sa 10:00-21:00; Su 12:00-18:00,,0
Station Park,375293,195 N West Promontory,,Promontory Farmington ,UT,84025,United States,(801) 451-7752,,,Mo 10:00-21:00; Tu 10:00-21:00; We 10:00-21:00; Th 10:00-21:00; Fr 10:00-21:00; Sa 10:00-21:00; Su 12:00-18:00,,0
The Gateway,420464,56 S Rio Grande Street,,Salt Lake City ,UT,84101,United States,(801) 456-4671,,,Mo 10:00-21:00; Tu 10:00-21:00; We 10:00-21:00; Th 10:00-21:00; Fr 10:00-21:00; Sa 10:00-21:00; Su 12:00-18:00,,0
The District at South Jordan,415484,11565 South District Main Dr,,South Jordan ,UT,84095,United States,(801) 495-4692,,,Mo 10:00-21:00; Tu 10:00-21:00; We 10:00-21:00; Th 10:00-21:00; Fr 10:00-21:00; Sa 10:00-21:00; Su 12:00-17:00,,0
Jefferson Valley,698393,650 Lee Blvd.,,Yorktown Heights ,NY,10598,United States,(914) 245-4910,,,Mo 10:00-21:30; Tu 10:00-21:30; We 10:00-09:30; Th 10:00-21:30; Fr 10:00-21:30; Sa 10:00-21:30; Su 11:00-18:00,,0
Harriman Commons,451446,128 Bailey Farm Road,,Monroe ,NY,10950,United States,(845) 782-8293,,,Mo 10:00-21:00; Tu 10:00-21:00; We 10:00-21:00; Th 10:00-21:00; Fr 10:00-21:00; Sa 10:00-21:00; Su 11:00-19:00,,0
The Marketplace Mall,316559,1 Miracle Mile Drive,,Rochester ,NY,14623,United States,(585) 272-7841,,,Mo 10:00-21:30; Tu 10:00-21:30; We 10:00-21:30; Th 10:00-21:30; Fr 10:00-21:30; Sa 10:00-21:30; Su 11:00-18:00,,0
The Summit Reno,316525,13925 South Virginia Street,Suite 102,Reno ,NV,89511,United States,(775) 853-4306,,,Mo 10:00-21:00; Tu 10:00-21:00; We 10:00-21:00; Th 10:00-21:00; Fr 10:00-21:00; Sa 10:00-21:00; Su 11:00-18:00,,0
Brookhaven Village,400336,3720 West Robinson Street,,Norman ,OK,73072,United States,(405) 321-0023,,,Mo 10:00-20:00; Tu 10:00-20:00; We 10:00-20:00; Th 10:00-20:00; Fr 10:00-20:00; Sa 10:00-20:00; Su 12:00-18:00,,0
Spring Creek Plaza,573713,1448 S Bryant Ave,,Edmond ,OK,73034,United States,(405) 359-1338,,,Mo 10:00-20:00; Tu 10:00-20:00; We 10:00-20:00; Th 10:00-20:00; Fr 10:00-20:00; Sa 10:00-20:00; Su 12:00-18:00,,0
Battlefield Mall,316479,2825 South Glenstone Avenue,Suite G-17A,Springfield ,MO,65804,United States,(417) 887-6925,,,Mo 10:00-21:00; Tu 10:00-21:00; We 10:00-21:00; Th 10:00-21:00; Fr 10:00-21:00; Sa 10:00-21:00; Su 12:00-18:00,,0
Shops at Nanuet,493323,6127 Fashion Drive,,Nanuet ,NY,10954,United States,(845) 627-0439,,,Mo 10:00-21:00; Tu 10:00-21:00; We 10:00-21:00; Th 10:00-21:00; Fr 10:00-21:00; Sa 10:00-21:00; Su 11:00-19:00,,0
The Outlet Shoppes At Oklahoma City,693771,7630 W. Reno Ave,,Oklahoma City ,OK,73127,United States,(405) 491-2829,,,Mo 10:00-21:00; Tu 10:00-21:00; We 10:00-21:00; Th 10:00-21:00; Fr 10:00-21:00; Sa 10:00-21:00; Su 11:00-19:00,,0
Gallery at Westbury Plaza,464417,1028 Old Country Road,,Garden City ,NY,11530,United States,(516) 794-2548,,,Mo 10:00-21:00; Tu 10:00-21:00; We 10:00-21:00; Th 10:00-21:00; Fr 10:00-21:00; Sa 10:00-21:00; Su 11:00-19:00,,0
Westchester's Ridge Hill,316595,1 Ridge Hill Blvd.,Suite 1140,Yonkers ,NY,10710,United States,(914) 965-3517,,,Mo 10:00-21:30; Tu 10:00-21:30; We 10:00-21:30; Th 10:00-21:30; Fr 10:00-21:30; Sa 10:00-21:30; Su 11:00-19:00,,0
The Mall at Barnes Crossing,316567,1001 Barnes Crossing Road,Suite 618,Tupelo ,MS,38804,United States,(662) 840-0515,,,Mo 10:00-21:00; Tu 10:00-21:00; We 10:00-21:00; Th 10:00-21:00; Fr 10:00-21:00; Sa 10:00-21:00; Su 12:00-18:00,,0
Fountains of Arbor Lakes,316632,11501 Fountains Dr. North,,North Maple Grove ,MN,55369,United States,(763) 493-8709,,,Mo 10:00-21:00; Tu 10:00-21:00; We 10:00-21:00; Th 10:00-21:00; Fr 10:00-21:00; Sa 10:00-21:00; Su 12:00-18:00,,0
Riverdale Village,415534,12617 Riverdale Blvd,,Coon Rapids ,MN,55448,United States,(763) 712-3444,,,Mo 10:00-21:00; Tu 10:00-21:00; We 10:00-21:00; Th 10:00-21:00; Fr 10:00-21:00; Sa 10:00-21:00; Su 11:00-18:00,,0
The Shops at West End,316517,1676 West End Blvd,,Minneapolis ,MN,55416,United States,(763) 546-9530,,,Mo 10:00-21:00; Tu 10:00-21:00; We 10:00-21:00; Th 10:00-21:00; Fr 10:00-21:00; Sa 10:00-21:00; Su 12:00-18:00,,0
Woodbury Lakes,316516,9020 Hudson Road,Suite 403,Woodbury ,MN,55125,United States,(651) 702-0384,,,Mo 10:00-21:00; Tu 10:00-21:00; We 10:00-21:00; Th 10:00-21:00; Fr 10:00-21:00; Sa 10:00-21:00; Su 11:00-18:00,,0
Market Street Flowood,316611,173 Market Street,,Flowood ,MS,39232,United States,(601) 919-2305,,,Mo 10:00-21:00; Tu 10:00-21:00; We 10:00-21:00; Th 10:00-21:00; Fr 10:00-21:00; Sa 10:00-21:00; Su 11:00-18:00,,0
ABQ Uptown,400337,"2201 East Q St., NE",,Albuquerque ,NM,87110,United States,(505) 881-2061,,,Mo 10:00-21:00; Tu 10:00-21:00; We 10:00-21:00; Th 10:00-21:00; Fr 10:00-21:00; Sa 10:00-21:00; Su 12:00-18:00,,0
Paramus Park,546981,700 Paramus Park,,Paramus ,NJ,07652,United States,(201) 261-2502,,,Mo 10:00-21:30; Tu 10:00-21:30; We 10:00-21:30; Th 10:00-21:30; Fr 10:00-21:30; Sa 10:00-21:30,,0
The Promenade Shops at Clifton,316610,852 State Route 3,,Clifton ,NJ,07012,United States,(973) 777-3043,,,Mo 10:00-21:00; Tu 10:00-21:00; We 10:00-21:00; Th 10:00-21:00; Fr 10:00-21:00; Sa 10:00-21:00; Su 11:00-18:00,,0
City Place at the Promenade,316663,34 The Promenade,,Edgewater ,NJ,07020,United States,(201) 945-0459,,,Mo 10:00-21:00; Tu 10:00-21:00; We 10:00-21:00; Th 10:00-21:00; Fr 10:00-21:00; Sa 10:00-21:00,,0
5th Avenue Flagship Store,668363,445 5th Avenue,,New York ,NY,10016,United States,(212) 379-6276,,,Mo 10:00-20:00; Tu 10:00-20:00; We 10:00-20:00; Th 10:00-20:00; Fr 10:00-20:00; Sa 10:00-20:00; Su 11:00-18:00,,0
Staten Island Mall,546395,2655 Richmond Avenue,,Staten Island ,NY,10314,United States,(718) 477-2602,,,Mo 10:00-21:00; Tu 10:00-21:00; We 10:00-21:00; Th 10:00-21:00; Fr 10:00-21:00; Sa 10:00-21:00; Su 12:00-18:00,,0
Renaissance at Colony Park,316449,1000 Highland Colony Parkway,Suite 2010,Ridgeland ,MS,39157,United States,(601) 605-2105,,,Mo 10:00-21:00; Tu 10:00-21:00; We 10:00-21:00; Th 10:00-21:00; Fr 10:00-21:00; Sa 10:00-21:00; Su 12:00-18:00,,0
Columbia Mall,540843,2300 Bernadette Dr,,Columbia ,MO,65203,United States,(573) 445-2518,,,Mo 10:00-21:00; Tu 10:00-21:00; We 10:00-21:00; Th 10:00-21:00; Fr 10:00-21:00; Sa 10:00-21:00; Su 11:00-18:00,,0
Pheasant Lane Mall,476207,310 Daniel Webster Highway,,Nashua ,NH,03060,United States,(603) 888-1375,,,Mo 10:00-21:00; Tu 10:00-21:00; We 10:00-21:00; Th 10:00-21:00; Fr 10:00-21:00; Sa 10:00-21:00; Su 11:00-18:00,,0
Mall of New Hampshire,375292,1500 South Willow Street,,Manchester ,NH,03103,United States,(603) 621-9827,,,Mo 10:00-21:00; Tu 10:00-21:00; We 10:00-21:00; Th 10:00-21:00; Fr 10:00-21:00; Sa 10:00-21:00; Su 11:00-18:00,,0
District at Green Valley,420462,2240 Village Walk Dr,,Henderson ,NV,89052,United States,(702) 896-9969,,,Mo 10:00-21:00; Tu 10:00-21:00; We 10:00-21:00; Th 10:00-21:00; Fr 10:00-21:00; Sa 10:00-21:00; Su 11:00-18:00,,0
Tivoli Village,316530,400 South Rampart,Suite 120,Las Vegas ,NV,89145,United States,(702) 233-1192,,,Mo 10:00-20:00; Tu 10:00-20:00; We 10:00-20:00; Th 10:00-20:00; Fr 10:00-21:00; Sa 10:00-21:00; Su 11:00-18:00,,0
Town Square Las Vegas,316648,6521 Las Vegas Blvd South,Suite 105,Las Vegas ,NV,89119,United States,(702) 269-5342,,,Mo 10:00-20:00; Tu 10:00-20:00; We 10:00-20:00; Th 10:00-20:00; Fr 10:00-20:00; Sa 10:00-20:00; Su 11:00-18:00,,0
Fashion Show Mall,537577,3200 Las Vegas Blvd.,,Las Vegas ,NV,89109,United States,(702) 836-9619,,,Mo 10:00-21:00; Tu 10:00-21:00; We 10:00-21:00; Th 10:00-21:00; Fr 10:00-21:00; Sa 10:00-21:00; Su 11:00-19:00,,0
SouthPointe,351439,2940 Pine Lake Road,Suite N,Lincoln ,NE,68516,United States,(402) 421-1129,,,Mo 10:00-21:00; Tu 10:00-21:00; We 10:00-21:00; Th 10:00-21:00; Fr 10:00-21:00; Sa 10:00-21:00; Su 12:00-18:00,,0
Meadows Mall,464419,4300 Meadows Lane,,Las Vegas ,NV,89107,United States,(702) 293-4123,,,Mo 10:00-21:00; Tu 10:00-21:00; We 10:00-21:00; Th 10:00-21:00; Fr 10:00-21:00; Sa 10:00-21:00; Su 11:00-18:00,,0
Colonie Center,316590,131 Colonie Center,Suite 302,Albany ,NY,12205,United States,(518) 482-2107,,,Mo 10:00-21:00; Tu 10:00-21:00; We 10:00-21:00; Th 10:00-21:00; Fr 10:00-21:00; Sa 10:00-21:00; Su 12:00-18:00,,0
The Shops at Friendly Center,316473,812 Friendly Center Road,Suite 295,Greensboro ,NC,27408,United States,(336) 316-0150,,,Mo 10:00-21:00; Tu 10:00-21:00; We 10:00-21:00; Th 10:00-21:00; Fr 10:00-21:00; Sa 10:00-21:00; Su 12:00-18:00,,0
Park West Village,451085,2128 Village Market Dr,Bldg R15,Morrisville ,NC,27560,United States,(919) 465-0530,,,Mo 10:00-21:00; Tu 10:00-21:00; We 10:00-21:00; Th 10:00-21:00; Fr 10:00-21:00; Sa 10:00-21:00; Su 12:00-18:00,,0
Triangle Town Center,316563,3761 Sumner Blvd.,Suite 100,Raleigh ,NC,27616,United States,(919) 232-9497,,,Mo 10:00-21:00; Tu 10:00-21:00; We 10:00-21:00; Th 10:00-21:00; Fr 10:00-21:00; Sa 10:00-21:00; Su 12:00-18:00,,0
Belgate Village,453519,8204 Ikea Blvd,,Charlotte ,NC,28262,United States,(704) 596-4408,,,Mo 10:00-21:00; Tu 10:00-21:00; We 10:00-21:00; Th 10:00-21:00; Fr 10:00-21:00; Sa 10:00-21:00; Su 12:00-18:00,,0
Stonecrest at Piper Glen,698365,7832 Rea Road,,Charlotte ,NC,28277,United States,(704) 341-2142,,,Mo 10:00-21:00; Tu 10:00-21:00; We 10:00-21:00; Th 10:00-21:00; Fr 10:00-21:00; Sa 10:00-21:00; Su 12:00-18:00,,0
Holly Springs Towne Center,333764,128 Grand Hill Place,,Holly Springs ,NC,27540,United States,(919) 577-0307,,,Mo 10:00-21:00; Tu 10:00-21:00; We 10:00-21:00; Th 10:00-21:00; Fr 10:00-21:00; Sa 10:00-21:00; Su 12:00-18:00,,0
Birkdale Village,452965,16925 Birkdale Commons Pkwy,,Huntersville ,NC,28078,United States,(704) 987-5033,,,Mo 10:00-19:00; Tu 10:00-19:00; We 10:00-19:00; Th 10:00-19:00; Fr 10:00-20:00; Sa 10:00-20:00; Su 12:00-18:00,,0
Hanes Mall,316534,3320 Silas Creek Pkwy.,Suite HU8830,Winston Salem ,NC,27103,United States,(336) 768-4480,,,Mo 10:00-21:00; Tu 10:00-21:00; We 10:00-21:00; Th 10:00-21:00; Fr 10:00-21:00; Sa 10:00-21:00; Su 12:00-18:00,,0
Sandusky Mall,316581,4314 Milan Road,Suite 585,Sandusky ,OH,44870,United States,(419) 621-7395,,,Mo 10:00-21:00; Tu 10:00-21:00; We 10:00-21:00; Th 10:00-21:00; Fr 10:00-21:00; Sa 10:00-21:00; Su 12:00-18:00,,0
Crocker Park,316506,172 Crocker Blvd.,,Westlake ,OH,44145,United States,(440) 835-1639,,,Mo 10:00-21:00; Tu 10:00-21:00; We 10:00-21:00; Th 10:00-21:00; Fr 10:00-21:00; Sa 10:00-21:00; Su 11:00-18:00,,0
Fairlane Town Center,316596,18900 Michigan Ave.,Suite N203,Dearborn ,MI,48124,United States,(313) 982-3818,,,Mo 10:00-21:00; Tu 10:00-21:00; We 10:00-21:00; Th 10:00-21:00; Fr 10:00-21:00; Sa 10:00-21:00; Su 12:00-18:00,,0
The Greene Town Center,316488,4380 Holly Lane,,Beavercreek ,OH,45440,United States,(937) 426-2568,,,Mo 10:00-21:00; Tu 10:00-21:00; We 10:00-21:00; Th 10:00-21:00; Fr 10:00-21:00; Sa 10:00-21:00; Su 12:00-18:00,,0
Rookwood Commons & Pavillion,316505,2693A Edmondson Road,,Cincinnati ,OH,45209,United States,(513) 351-2251,,,Mo 10:00-21:00; Tu 10:00-21:00; We 10:00-21:00; Th 10:00-21:00; Fr 10:00-21:00; Sa 10:00-21:00; Su 12:00-18:00,,0
Bridgewater Falls,316621,3417 Princeton Rd,,Fairfield Township ,OH,45011,United States,(513) 863-0017,,,Mo 10:00-21:00; Tu 10:00-21:00; We 10:00-21:00; Th 10:00-21:00; Fr 10:00-21:00; Sa 10:00-21:00; Su 12:00-18:00,,0
Deerfield Towne Center,316496,5175 Deerfield Blvd.,,Mason ,OH,45040,United States,(513) 229-8305,,,Mo 10:00-21:00; Tu 10:00-21:00; We 10:00-21:00; Th 10:00-21:00; Fr 10:00-21:00; Sa 10:00-21:00; Su 12:00-18:00,,0
Crestview Hills Town Center,316493,2787 Towne Center Blvd.,Suite 1050,Crestview Hills ,KY,41017,United States,(859) 331-1038,,,Mo 10:00-21:00; Tu 10:00-21:00; We 10:00-21:00; Th 10:00-21:00; Fr 10:00-21:00; Sa 10:00-21:00; Su 12:00-18:00,,0
Polaris Fashion Place,316472,1554 Polaris Parkway,Suite 317,Columbus ,OH,43240,United States,(614) 846-6246,,,Mo 10:00-21:00; Tu 10:00-21:00; We 10:00-21:00; Th 10:00-21:00; Fr 10:00-21:00; Sa 10:00-21:00; Su 12:00-18:00,,0
Easton Gateway,542815,4182 Worth Avenue,,Columbus ,OH,43219,United States,(614) 418-4711,,,Mo 10:00-21:00; Tu 10:00-21:00; We 10:00-21:00; Th 10:00-21:00; Fr 10:00-22:00; Sa 10:00-22:00; Su 12:00-18:00,,0
Belden Village,316645,4230 Belden Village St NW,,Canton ,OH,44718,United States,(330) 497-5250,,,Mo 10:00-21:00; Tu 10:00-21:00; We 10:00-21:00; Th 10:00-21:00; Fr 10:00-21:00; Sa 10:00-21:00; Su 11:00-18:00,,0
Macedonia Commons,542837,8210 Macedonia Commons Blvd,,Macedonia ,OH,44056,United States,(330) 908-1070,,,Mo 10:00-21:00; Tu 10:00-21:00; We 10:00-21:00; Th 10:00-21:00; Fr 10:00-21:00; Sa 10:00-21:00; Su 11:00-18:00,,0
Legacy Village,316500,24503 Cedar Road,,Lyndhurst ,OH,44124,United States,(216) 297-9214,,,Mo 10:00-20:00; Tu 10:00-20:00; We 10:00-20:00; Th 10:00-20:00; Fr 10:00-21:00; Sa 10:00-21:00; Su 12:00-18:00,,0
Westland Center,529215,35000 W. Warren Road,,Westland ,MI,48185,United States,(734) 266-0221,,,Mo 10:00-21:00; Tu 10:00-21:00; We 10:00-21:00; Th 10:00-21:00; Fr 10:00-21:00; Sa 10:00-21:00; Su 11:00-18:00,,0
Franklin Park Mall,316641,5001 Monroe St.,Suite 1645,Toledo ,OH,43623,United States,(419) 475-4335,,,Mo 10:00-21:00; Tu 10:00-21:00; We 10:00-21:00; Th 10:00-21:00; Fr 10:00-21:00; Sa 10:00-21:00; Su 12:00-18:00,,0
The Shops at Fallen Timbers,316545,3100 Main Street,Suite 420,Maumee ,OH,43537,United States,(419) 878-0359,,,Mo 10:00-21:00; Tu 10:00-21:00; We 10:00-21:00; Th 10:00-21:00; Fr 10:00-21:00; Sa 10:00-21:00; Su 12:00-18:00,,0
RiverTown Crossings,355787,3700 RiverTown Parkway,Suite 1053,Grandville ,MI,49418,United States,(616) 531-3667,,,Mo 10:00-21:00; Tu 10:00-21:00; We 10:00-21:00; Th 10:00-21:00; Fr 10:00-21:00; Sa 10:00-21:00; Su 11:00-18:00,,0
The Mall at Partridge Creek,316561,17420 Hall Road,Suite 318,Clinton Township ,MI,48038,United States,(586) 226-1176,,,Mo 10:00-21:00; Tu 10:00-21:00; We 10:00-21:00; Th 10:00-21:00; Fr 10:00-21:00; Sa 10:00-21:00; Su 12:00-18:00,,0
Great Lakes Crossing Outlets,316589,4362 Baldwin Rd.,Suite M700,Auburn Hills ,MI,48326,United States,(248) 858-7141,,,Mo 10:00-21:00; Tu 10:00-21:00; We 10:00-21:00; Th 10:00-21:00; Fr 10:00-21:00; Sa 10:00-21:00; Su 11:00-18:00,,0
Hampton Village Center,515373,2865 S. Rochester Road,,Rochester ,MI,48307,United States,(248) 844-2159,,,Mo 10:00-21:00; Tu 10:00-21:00; We 10:00-21:00; Th 10:00-21:00; Fr 10:00-21:00; Sa 10:00-21:00; Su 11:00-18:00,,0
Shoppes at Bellemead,316602,6535 Youree Drive,Suite 301,Shreveport ,LA,71105,United States,(318) 797-0866,,,Mo 10:00-21:00; Tu 10:00-21:00; We 10:00-21:00; Th 10:00-21:00; Fr 10:00-21:00; Sa 10:00-21:00; Su 12:00-18:00,,0
Louisiana Boardwalk,573711,360 Boardwalk Boulevard,,Bossier City ,LA,71111,United States,(318) 746-0050,,,Mo 10:00-21:00; Tu 10:00-21:00; We 10:00-21:00; Th 10:00-21:00; Fr 10:00-21:00; Sa 10:00-21:00; Su 12:00-18:00,,0
Green Oak Village Place,453527,9900 Village Pl Blvd,,Brighton ,MI,48116,United States,(810) 229-4361,,,Mo 10:00-21:00; Tu 10:00-21:00; We 10:00-21:00; Th 10:00-21:00; Fr 10:00-21:00; Sa 10:00-21:00; Su 11:00-18:00,,0
Novi Town Center,366168,26020 Ingersol Drive,,Novi ,MI,48375,United States,(248) 305-8809,,,Mo 10:00-21:00; Tu 10:00-21:00; We 10:00-21:00; Th 10:00-21:00; Fr 10:00-21:00; Sa 10:00-21:00; Su 12:00-18:00,,0
Mall at Lexington Green,415485,161 Lexington Green Circle,,Lexington ,KY,40503,United States,(859) 373-0067,,,Mo 10:00-21:00; Tu 10:00-21:00; We 10:00-21:00; Th 10:00-21:00; Fr 10:00-21:00; Sa 10:00-21:00; Su 12:00-18:00,,0
Marketplace at Augusta,515715,4 Stephen King Dr.,,Augusta ,ME,04330,United States,(207) 622-6800,,,Mo 09:30-21:00; Tu 09:30-21:00; We 09:30-21:00; Th 09:30-21:00; Fr 09:30-21:00; Sa 09:30-21:00; Su 11:00-18:00,,0
Bramalea City Centre,540749,25 Peel Centre Dr,Unit 641,Brampton,ON,L6T 3R5,Canada,(905) 793-1449,,,Mo 10:00-21:00; Tu 10:00-21:00; We 10:00-21:00; Th 10:00-21:00; Fr 10:00-21:00; Sa 10:00-18:00; Su 11:00-17:00,,0
Vaughan Mills,540751,1 Bass Pro Mills Dr,Unit 733,Vaughan,ON,L4K 5W4,Canada,(905) 669-9702,,,Mo 10:00-21:00; Tu 10:00-21:00; We 10:00-21:00; Th 10:00-21:00; Fr 10:00-21:00; Sa 10:00-18:00; Su 11:00-17:00,,0
Guildford Town Center,547783,10355 152nd St,,Surrey,BC,V3R 7C1,Canada,(604) 581-1166,,,Mo 10:00-21:00; Tu 10:00-21:00; We 10:00-21:00; Th 10:00-21:00; Fr 10:00-21:00; Sa 10:00-21:00; Su 10:00-18:00,,0
Uptown Centre,547785,3600 Uptown Blvd.,Unit #113,Victoria,BC,V8Z 0B9,Canada,(250) 388-3570,,,Mo 10:00-19:00; Tu 10:00-19:00; We 10:00-20:00; Th 10:00-20:00; Fr 10:00-20:00; Sa 10:00-19:00; Su 11:00-17:00,,0
Kentucky Oaks Mall,316546,5101 Hinkleville Road,Suite 660,Paducah ,KY,42001,United States,(270) 442-0576,,,Mo 10:00-21:00; Tu 10:00-21:00; We 10:00-21:00; Th 10:00-21:00; Fr 10:00-21:00; Sa 10:00-21:00; Su 12:00-18:00,,0
Houma Crossing,316639,1779 Martin Luther King Blvd,,Houma ,LA,70360,United States,(985) 879-1585,,,Mo 10:00-21:00; Tu 10:00-21:00; We 10:00-21:00; Th 10:00-21:00; Fr 10:00-21:00; Sa 10:00-21:00; Su 12:00-18:00,,0
Riverchase,316615,69278 Hwy 21,,Covington ,LA,70433,United States,(985) 898-3449,,,Mo 10:00-21:00; Tu 10:00-21:00; We 10:00-21:00; Th 10:00-21:00; Fr 10:00-21:00; Sa 10:00-21:00; Su 12:00-17:00,,0
Hammond Square,316528,411 Palace Drive,,Hammond ,LA,70403,United States,(985) 345-7140,,,Mo 10:00-21:00; Tu 10:00-21:00; We 10:00-21:00; Th 10:00-21:00; Fr 10:00-21:00; Sa 10:00-21:00; Su 12:00-18:00,,0
Elmwood Shopping Center,316647,1126 South Clearview Pkwy,,New Orleans ,LA,70123,United States,(504) 733-1018,,,Mo 10:00-21:00; Tu 10:00-21:00; We 10:00-21:00; Th 10:00-21:00; Fr 10:00-21:00; Sa 10:00-21:00; Su 12:00-18:00,,0
Perkins Rowe,316447,7707 Bluebonnet Blvd.,Suite E130,Baton Rouge ,LA,70810,United States,(225) 767-0080,,,Mo 10:00-21:00; Tu 10:00-21:00; We 10:00-21:00; Th 10:00-21:00; Fr 10:00-21:00; Sa 10:00-21:00; Su 12:00-18:00,,0
The Mall of Acadiana,316456,5725 Johnston Street,Suite D-180,Lafayette ,LA,70503,United States,(337) 981-1895,,,Mo 10:00-21:00; Tu 10:00-21:00; We 10:00-21:00; Th 10:00-21:00; Fr 10:00-21:00; Sa 10:00-21:00; Su 12:00-18:00,,0
Manhattan West Shopping Center,316634,1500 Westbank Expressway,Suite C,Harvey ,LA,70058,United States,(504) 364-5708,,,Mo 10:00-21:00; Tu 10:00-21:00; We 10:00-21:00; Th 10:00-21:00; Fr 10:00-21:00; Sa 10:00-21:00; Su 12:00-18:00,,0
Pecanland Mall,415486,4700 Millhaven Rd,,Monroe ,LA,71203,United States,(318) 410-8153,,,Mo 10:00-21:00; Tu 10:00-21:00; We 10:00-21:00; Th 10:00-21:00; Fr 10:00-21:00; Sa 10:00-21:00; Su 12:00-18:00,,0
Prien Lake Mall,414735,496 West Prien Lake Road,,Charles ,LA,70601,United States,(337) 562-7832,,,Mo 10:00-21:00; Tu 10:00-21:00; We 10:00-21:00; Th 10:00-21:00; Fr 10:00-21:00; Sa 10:00-21:00; Su 12:00-18:00,,0
Capetown Plaza,499739,790 Iyannough Road,,Hyannis ,MA,02601,United States,(508) 771-4764,,,Mo 10:00-21:00; Tu 10:00-21:00; We 10:00-21:00; Th 10:00-21:00; Fr 10:00-21:00; Sa 10:00-21:00; Su 11:00-18:00,,0
