store_name,store_number,address,address2,city,state,zip_code,country,phone_number,latitude,longitude,store_hours,other_fields,coming_soon
PEARLRIDGE - HI,42,98-1005 MOANALUA ROAD ,,AIEA ,HI,96701,United States,8084863644,,,MONDAY 10:00 AM - 09:00 PM; TUESDAY 10:00 AM - 09:00 PM; WEDNESDAY 10:00 AM - 09:00 PM; THURSDAY 10:00 AM - 09:00 PM; FRIDAY 10:00 AM - 09:00 PM; SATURDAY 10:00 AM - 09:00 PM; SUNDAY 10:00 AM - 06:00 PM,,0
TOPANGA - CA,28,6600 TOPANGA CANYON BLVD ,,CANOGA PARK ,CA,91303,United States,8188845592,,,MONDAY 10:00 AM - 09:00 PM; TUESDAY 10:00 AM - 09:00 PM; WEDNESDAY 10:00 AM - 09:00 PM; THURSDAY 10:00 AM - 09:00 PM; FRIDAY 10:00 AM - 09:00 PM; SATURDAY 10:00 AM - 09:00 PM; SUNDAY 11:00 AM - 07:00 PM,,0
BURBANK - CA,328,201 E. MAGNOLIA BLVD ,,BURBANK ,CA,91502,United States,8185664480,,,MONDAY 10:00 AM - 09:00 PM; TUESDAY 10:00 AM - 09:00 PM; WEDNESDAY 10:00 AM - 09:00 PM; THURSDAY 10:00 AM - 09:00 PM; FRIDAY 10:00 AM - 09:00 PM; SATURDAY 10:00 AM - 09:00 PM; SUNDAY 11:00 AM - 07:00 PM,,0
GLENDALE - CA,35,2122 GLENDALE ,,GALLERIA GLENDALE ,CA,91210,United States,8185450486,,,MONDAY 10:00 AM - 09:00 PM; TUESDAY 10:00 AM - 09:00 PM; WEDNESDAY 10:00 AM - 09:00 PM; THURSDAY 10:00 AM - 09:00 PM; FRIDAY 10:00 AM - 09:00 PM; SATURDAY 10:00 AM - 09:00 PM; SUNDAY 10:00 AM - 07:00 PM,,0
WESTSIDE PAVILION - CA,741,10800 West Pico Blvd. ,,Los Angeles ,CA,90064,United States,3104747424,,,MONDAY 10:00 AM - 09:00 PM; TUESDAY 10:00 AM - 09:00 PM; WEDNESDAY 10:00 AM - 09:00 PM; THURSDAY 10:00 AM - 09:00 PM; FRIDAY 10:00 AM - 09:00 PM; SATURDAY 10:00 AM - 09:00 PM; SUNDAY 10:00 AM - 08:00 PM,,0
CULVER CITY - CA,782,6000 Sepulveda Blvd. ,,Culver City ,CA,90230,United States,3103915705,,,MONDAY 10:00 AM - 09:00 PM; TUESDAY 10:00 AM - 09:00 PM; WEDNESDAY 10:00 AM - 09:00 PM; THURSDAY 10:00 AM - 09:00 PM; FRIDAY 10:00 AM - 09:00 PM; SATURDAY 10:00 AM - 09:00 PM; SUNDAY 11:00 AM - 07:00 PM,,0
DEL AMO FASHION CENTER - CA,811,21540 HAWTHORNE BLVD. ,,TORRANCE ,CA,90503,United States,3103710515,,,MONDAY 10:00 AM - 09:00 PM; TUESDAY 10:00 AM - 09:00 PM; WEDNESDAY 10:00 AM - 09:00 PM; THURSDAY 10:00 AM - 09:00 PM; FRIDAY 10:00 AM - 09:00 PM; SATURDAY 10:00 AM - 08:00 PM; SUNDAY 11:00 AM - 07:00 PM,,0
PROVO - UT,251,1200 SOUTH TOWNE CENTER BLVD. ,,PROVO ,UT,84601,United States,8014942004,,,MONDAY 10:00 AM - 09:00 PM; TUESDAY 10:00 AM - 09:00 PM; WEDNESDAY 10:00 AM - 09:00 PM; THURSDAY 10:00 AM - 09:00 PM; FRIDAY 10:00 AM - 09:00 PM; SATURDAY 10:00 AM - 09:00 PM; SUNDAY 12:00 PM - 06:00 PM,,0
VALENCIA - CA,291,24201 WEST VALENCIA BLVD. ,,VALENCIA ,CA,91355,United States,6612550476,,,MONDAY 10:00 AM - 09:00 PM; TUESDAY 10:00 AM - 09:00 PM; WEDNESDAY 10:00 AM - 09:00 PM; THURSDAY 10:00 AM - 09:00 PM; FRIDAY 10:00 AM - 09:00 PM; SATURDAY 10:00 AM - 09:00 PM; SUNDAY 11:00 AM - 06:00 PM,,0
FASHION PLACE - UT,195,6191 SOUTH STATE ,,MURRAY ,UT,84107,United States,8012810226,,,MONDAY 10:00 AM - 09:00 PM; TUESDAY 10:00 AM - 09:00 PM; WEDNESDAY 10:00 AM - 09:00 PM; THURSDAY 10:00 AM - 09:00 PM; FRIDAY 10:00 AM - 09:00 PM; SATURDAY 10:00 AM - 09:00 PM; SUNDAY 12:00 PM - 06:00 PM,,0
THE OUTLETS AT TEJON - CA,768,5701 Outlets at Tejon Parkway ,,Arvin ,CA,93203,United States,6618582875,,,MONDAY 10:00 AM - 09:00 PM; TUESDAY 10:00 AM - 09:00 PM; WEDNESDAY 10:00 AM - 09:00 PM; THURSDAY 10:00 AM - 09:00 PM; FRIDAY 10:00 AM - 09:00 PM; SATURDAY 10:00 AM - 09:00 PM; SUNDAY 10:00 AM - 09:00 PM,,0
CAMARILLO OUTLET - CA,533,500 VENTURA BLVD ,,CAMARILLO ,CA,93010,United States,8054849848,,,MONDAY 10:00 AM - 09:00 PM; TUESDAY 10:00 AM - 09:00 PM; WEDNESDAY 10:00 AM - 09:00 PM; THURSDAY 10:00 AM - 09:00 PM; FRIDAY 10:00 AM - 09:00 PM; SATURDAY 10:00 AM - 09:00 PM; SUNDAY 10:00 AM - 08:00 PM,,0
BAKERSFIELD - CA,40,2701 MING AVENUE ,,BAKERSFIELD ,CA,93304,United States,6618361053,,,MONDAY 10:00 AM - 09:00 PM; TUESDAY 10:00 AM - 09:00 PM; WEDNESDAY 10:00 AM - 09:00 PM; THURSDAY 10:00 AM - 09:00 PM; FRIDAY 10:00 AM - 09:00 PM; SATURDAY 10:00 AM - 09:00 PM; SUNDAY 11:00 AM - 07:00 PM,,0
PUERTO RICO OUTLETS - PR,523,1 PRIME OUTLETS BLVD. KM 54.8 ,,BARCELONETA ,PR,00617,United States,7878467457,,,MONDAY 09:00 AM - 09:00 PM; TUESDAY 09:00 AM - 09:00 PM; WEDNESDAY 09:00 AM - 09:00 PM; THURSDAY 09:00 AM - 09:00 PM; FRIDAY 09:00 AM - 09:00 PM; SATURDAY 09:00 AM - 09:00 PM; SUNDAY 11:00 AM - 07:00 PM,,0
LAS CATALINAS - PR,519,PR # 52 ESQ # 156 (LAS AMERICAS EXP (52) ,,CAUGUAS ,PR,00725,United States,7877462707,,,MONDAY 10:00 AM - 09:00 PM; TUESDAY 10:00 AM - 09:00 PM; WEDNESDAY 10:00 AM - 09:00 PM; THURSDAY 10:00 AM - 09:00 PM; FRIDAY 10:00 AM - 09:00 PM; SATURDAY 10:00 AM - 09:00 PM; SUNDAY 11:00 AM - 07:00 PM,,0
PLAZA LAS AMER - PR,118,525 F.D. ROOSEVELT AVENUE ,,HATO REY ,PR,00918,United States,7877678649,,,MONDAY 09:00 AM - 09:00 PM; TUESDAY 09:00 AM - 09:00 PM; WEDNESDAY 09:00 AM - 09:00 PM; THURSDAY 09:00 AM - 09:00 PM; FRIDAY 09:00 AM - 09:00 PM; SATURDAY 09:00 AM - 09:00 PM; SUNDAY 11:00 AM - 07:00 PM,,0
NORTHRIDGE - CA,33,9301 TAMPA AVENUE ,,NORTHRIDGE ,CA,91324,United States,8187011892,,,MONDAY 10:00 AM - 09:00 PM; TUESDAY 10:00 AM - 09:00 PM; WEDNESDAY 10:00 AM - 09:00 PM; THURSDAY 10:00 AM - 09:00 PM; FRIDAY 10:00 AM - 09:00 PM; SATURDAY 10:00 AM - 09:00 PM; SUNDAY 11:00 AM - 07:00 PM,,0
PACIFIC VIEW - CA,304,3301-1 EAST MAIN STREET ,,VENTURA ,CA,93003,United States,8053399477,,,MONDAY 10:00 AM - 09:00 PM; TUESDAY 10:00 AM - 09:00 PM; WEDNESDAY 10:00 AM - 09:00 PM; THURSDAY 10:00 AM - 09:00 PM; FRIDAY 10:00 AM - 09:00 PM; SATURDAY 10:00 AM - 09:00 PM; SUNDAY 11:00 AM - 07:00 PM,,0
PLAZA CAROLINA - PR,114,65 INFANTRY HWY & FRAGOSO AVE. ,,CAROLINA ,PR,00983,United States,7877626912,,,MONDAY 09:00 AM - 09:00 PM; TUESDAY 09:00 AM - 09:00 PM; WEDNESDAY 09:00 AM - 09:00 PM; THURSDAY 09:00 AM - 09:00 PM; FRIDAY 09:00 AM - 09:00 PM; SATURDAY 09:00 AM - 09:00 PM; SUNDAY 11:00 AM - 06:00 PM,,0
SOUTHLAND - FL,392,S 20505 DIXIE HIGHWAY ,,MIAMI ,FL,33189,United States,3052524066,,,MONDAY 10:00 AM - 09:00 PM; TUESDAY 10:00 AM - 09:00 PM; WEDNESDAY 10:00 AM - 09:00 PM; THURSDAY 10:00 AM - 09:00 PM; FRIDAY 10:00 AM - 09:00 PM; SATURDAY 10:00 AM - 09:00 PM; SUNDAY 12:00 PM - 06:00 PM,,0
DOLPHIN - FL,137,11401 NW 12TH STREET ,,MIAMI ,FL,33172,United States,3055920347,,,MONDAY 10:00 AM - 09:30 PM; TUESDAY 10:00 AM - 09:30 PM; WEDNESDAY 10:00 AM - 09:30 PM; THURSDAY 10:00 AM - 09:30 PM; FRIDAY 10:00 AM - 09:30 PM; SATURDAY 10:00 AM - 09:30 PM; SUNDAY 11:00 AM - 08:00 PM,,0
FRESNO - CA,65,675-A EAST SHAW AVENUE ,,FRESNO ,CA,93710,United States,5592214343,,,MONDAY 10:00 AM - 09:00 PM; TUESDAY 10:00 AM - 09:00 PM; WEDNESDAY 10:00 AM - 09:00 PM; THURSDAY 10:00 AM - 09:00 PM; FRIDAY 10:00 AM - 09:00 PM; SATURDAY 10:00 AM - 09:00 PM; SUNDAY 11:00 AM - 07:00 PM,,0
SAWGRASS - FL,412,2602 SAWGRASS MILLS CIRCLE ,,SUNRISE ,FL,33323,United States,9548381390,,,MONDAY 10:00 AM - 09:30 PM; TUESDAY 10:00 AM - 09:30 PM; WEDNESDAY 10:00 AM - 09:30 PM; THURSDAY 10:00 AM - 09:30 PM; FRIDAY 10:00 AM - 09:30 PM; SATURDAY 10:00 AM - 09:30 PM; SUNDAY 11:00 AM - 08:00 PM,,0
BELZ - PR,136,STATE ROAD 3 KM 18.4 ,,CANOVANAS ,PR,00729,United States,7872560938,,,MONDAY 09:00 AM - 09:00 PM; TUESDAY 09:00 AM - 09:00 PM; WEDNESDAY 09:00 AM - 09:00 PM; THURSDAY 09:00 AM - 09:00 PM; FRIDAY 09:00 AM - 09:00 PM; SATURDAY 09:00 AM - 09:00 PM; SUNDAY 11:00 AM - 06:00 PM,,0
BOYNTON BEACH - FL,186,801 N. CONGRESS AVE. ,,BOYNTON BEACH ,FL,33426,United States,5617420371,,,MONDAY 10:00 AM - 09:00 PM; TUESDAY 10:00 AM - 09:00 PM; WEDNESDAY 10:00 AM - 09:00 PM; THURSDAY 10:00 AM - 09:00 PM; FRIDAY 10:00 AM - 09:00 PM; SATURDAY 10:00 AM - 09:00 PM; SUNDAY 12:00 PM - 06:00 PM,,0
WESTLAND - FL,237,W 1675 49TH STREET ,,HIALEAH ,FL,33012,United States,3058196210,,,MONDAY 10:00 AM - 09:00 PM; TUESDAY 10:00 AM - 09:00 PM; WEDNESDAY 10:00 AM - 09:00 PM; THURSDAY 10:00 AM - 09:00 PM; FRIDAY 10:00 AM - 09:00 PM; SATURDAY 10:00 AM - 09:00 PM; SUNDAY 11:00 AM - 06:00 PM,,0
CORAL - FL,71,9167 WEST ATLANTIC BOULEVARD ,,CORAL SPRINGS ,FL,33071,United States,9543460011,,,MONDAY 10:00 AM - 09:00 PM; TUESDAY 10:00 AM - 09:00 PM; WEDNESDAY 10:00 AM - 09:00 PM; THURSDAY 10:00 AM - 09:00 PM; FRIDAY 10:00 AM - 09:00 PM; SATURDAY 10:00 AM - 09:00 PM; SUNDAY 12:00 PM - 06:00 PM,,0
WELLINGTON GREEN - FL,165,10300 W. FOREST HILL BOULEVARD ,,WELLINGTON ,FL,33414,United States,5617841646,,,MONDAY 10:00 AM - 09:00 PM; TUESDAY 10:00 AM - 09:00 PM; WEDNESDAY 10:00 AM - 09:00 PM; THURSDAY 10:00 AM - 09:00 PM; FRIDAY 10:00 AM - 09:00 PM; SATURDAY 10:00 AM - 09:00 PM; SUNDAY 11:00 AM - 06:00 PM,,0
DEL SOL - PR,84,725 AVENIDA WEST MAIN ,,SIERRA BAYAMON ,PR,00961,United States,7877855078,,,MONDAY 09:00 AM - 09:00 PM; TUESDAY 09:00 AM - 09:00 PM; WEDNESDAY 09:00 AM - 09:00 PM; THURSDAY 09:00 AM - 09:00 PM; FRIDAY 08:00 AM - 09:00 PM; SATURDAY 09:00 AM - 09:00 PM; SUNDAY 11:00 AM - 07:00 PM,,0
FT LAUDERDALE - FL,184,2414 E. SUNRISE BLVD ,,FT LAUDERDALE ,FL,33304,United States,9545639544,,,MONDAY 10:00 AM - 09:00 PM; TUESDAY 10:00 AM - 09:00 PM; WEDNESDAY 10:00 AM - 09:00 PM; THURSDAY 10:00 AM - 09:00 PM; FRIDAY 10:00 AM - 09:00 PM; SATURDAY 10:00 AM - 09:00 PM; SUNDAY 12:00 PM - 06:00 PM,,0
PORT CHARLOTTE - FL,478,1441 TAMIAMI TRAIL PORT ,,CHARLOTTE ,FL,33948,United States,9412350161,,,MONDAY 10:00 AM - 09:00 PM; TUESDAY 10:00 AM - 09:00 PM; WEDNESDAY 10:00 AM - 09:00 PM; THURSDAY 10:00 AM - 09:00 PM; FRIDAY 10:00 AM - 09:00 PM; SATURDAY 10:00 AM - 09:00 PM; SUNDAY 12:00 PM - 06:00 PM,,0
PEMBROKE - FL,270,11401 PINES BOULEVARD ,,PEMBROKE PINES ,FL,33026,United States,9548854024,,,MONDAY 10:00 AM - 09:00 PM; TUESDAY 10:00 AM - 09:00 PM; WEDNESDAY 10:00 AM - 09:00 PM; THURSDAY 10:00 AM - 09:00 PM; FRIDAY 10:00 AM - 09:00 PM; SATURDAY 10:00 AM - 09:00 PM; SUNDAY 12:00 PM - 06:00 PM,,0
TREASURE COAST - FL,181,3410A N.W. FEDERAL HIGHWAY ,,JENSEN BEACH ,FL,34957,United States,7726925190,,,MONDAY 10:00 AM - 09:00 PM; TUESDAY 10:00 AM - 09:00 PM; WEDNESDAY 10:00 AM - 09:00 PM; THURSDAY 10:00 AM - 09:00 PM; FRIDAY 10:00 AM - 09:00 PM; SATURDAY 10:00 AM - 09:00 PM; SUNDAY 11:00 AM - 06:00 PM,,0
GULF COAST - FL,422,9903 GULF COAST MAIN ,,ST. FORT MYERS ,FL,33913,United States,2393379316,,,MONDAY 10:00 AM - 09:00 PM; TUESDAY 10:00 AM - 09:00 PM; WEDNESDAY 10:00 AM - 09:00 PM; THURSDAY 10:00 AM - 09:00 PM; FRIDAY 10:00 AM - 09:00 PM; SATURDAY 10:00 AM - 09:00 PM; SUNDAY 12:00 PM - 06:00 PM,,0
ELLENTON - FL,521,5119 FACTORY SHOPS BLVD ,,ELLENTON ,FL,34222,United States,9417229380,,,MONDAY 10:00 AM - 09:00 PM; TUESDAY 10:00 AM - 09:00 PM; WEDNESDAY 10:00 AM - 09:00 PM; THURSDAY 10:00 AM - 09:00 PM; FRIDAY 10:00 AM - 09:00 PM; SATURDAY 10:00 AM - 09:00 PM; SUNDAY 10:00 AM - 07:00 PM,,0
COASTLAND - FL,448,1752 TAMIAMI TRAIL NORTH ,,NAPLES ,FL,34102,United States,2394350145,,,MONDAY 10:00 AM - 09:00 PM; TUESDAY 10:00 AM - 09:00 PM; WEDNESDAY 10:00 AM - 09:00 PM; THURSDAY 10:00 AM - 09:00 PM; FRIDAY 10:00 AM - 09:00 PM; SATURDAY 10:00 AM - 09:00 PM; SUNDAY 12:00 PM - 06:00 PM,,0
INDIAN RIVER - FL,147,6200 20TH STREET ,,VERO BEACH ,FL,32966,United States,7725630518,,,MONDAY 10:00 AM - 09:00 PM; TUESDAY 10:00 AM - 09:00 PM; WEDNESDAY 10:00 AM - 09:00 PM; THURSDAY 10:00 AM - 09:00 PM; FRIDAY 10:00 AM - 09:00 PM; SATURDAY 10:00 AM - 09:00 PM; SUNDAY 12:00 PM - 06:00 PM,,0
TYRONE - FL,74,6901 22ND AVENUE ,,ST PETERSBURG ,FL,33710,United States,7273813229,,,MONDAY 10:00 AM - 09:00 PM; TUESDAY 10:00 AM - 09:00 PM; WEDNESDAY 10:00 AM - 09:00 PM; THURSDAY 10:00 AM - 09:00 PM; FRIDAY 10:00 AM - 09:00 PM; SATURDAY 10:00 AM - 09:00 PM; SUNDAY 11:00 AM - 07:00 PM,,0
PALM BEACH OUTLETS - FL,707,1721 Beach Lakes Blvd. ,,West Palm Beach ,FL,33401,United States,5616160071,,,MONDAY 10:00 AM - 09:00 PM; TUESDAY 10:00 AM - 09:00 PM; WEDNESDAY 10:00 AM - 09:00 PM; THURSDAY 10:00 AM - 09:00 PM; FRIDAY 10:00 AM - 09:00 PM; SATURDAY 10:00 AM - 09:00 PM; SUNDAY 11:00 AM - 07:00 PM,,0
DESOTO - FL,202,303 U.S. HWY 301 BLVD ,,WEST BRADENTON ,FL,34205,United States,9417509911,,,MONDAY 10:00 AM - 09:00 PM; TUESDAY 10:00 AM - 09:00 PM; WEDNESDAY 10:00 AM - 09:00 PM; THURSDAY 10:00 AM - 09:00 PM; FRIDAY 10:00 AM - 09:00 PM; SATURDAY 10:00 AM - 09:00 PM; SUNDAY 12:00 PM - 06:00 PM,,0
EAGLE RIDGE - FL,433,200 EAGLE RIDGE DR ,,LAKE WALES ,FL,33853,United States,8636783686,,,MONDAY 10:00 AM - 09:00 PM; TUESDAY 10:00 AM - 09:00 PM; WEDNESDAY 10:00 AM - 09:00 PM; THURSDAY 10:00 AM - 09:00 PM; FRIDAY 10:00 AM - 09:00 PM; SATURDAY 10:00 AM - 09:00 PM; SUNDAY 12:00 PM - 06:00 PM,,0
MELBOURNE - FL,68,W 1700 NEW HAVEN AVENUE ,,MELBOURNE ,FL,32904,United States,3217260098,,,MONDAY 10:00 AM - 09:00 PM; TUESDAY 10:00 AM - 09:00 PM; WEDNESDAY 10:00 AM - 09:00 PM; THURSDAY 10:00 AM - 09:00 PM; FRIDAY 10:00 AM - 09:00 PM; SATURDAY 10:00 AM - 09:00 PM; SUNDAY 12:00 PM - 06:00 PM,,0
BRANDON - FL,241,459 BRANDON TOWN CENTER MALL ,,BRANDON ,FL,33511,United States,8136556752,,,MONDAY 10:00 AM - 09:00 PM; TUESDAY 10:00 AM - 09:00 PM; WEDNESDAY 10:00 AM - 09:00 PM; THURSDAY 10:00 AM - 09:00 PM; FRIDAY 10:00 AM - 09:00 PM; SATURDAY 10:00 AM - 09:00 PM; SUNDAY 11:00 AM - 06:00 PM,,0
WESTSHORE - FL,178,253 WESTSHORE PLAZA ,,TAMPA ,FL,33609,United States,8132829455,,,MONDAY 10:00 AM - 09:00 PM; TUESDAY 10:00 AM - 09:00 PM; WEDNESDAY 10:00 AM - 09:00 PM; THURSDAY 10:00 AM - 09:00 PM; FRIDAY 10:00 AM - 09:00 PM; SATURDAY 10:00 AM - 09:00 PM; SUNDAY 12:00 PM - 06:00 PM,,0
LAKELAND SQ - FL,383,3800 US HIGHWAY 98 ,,NORTH LAKELAND ,FL,33809,United States,8638593360,,,MONDAY 10:00 AM - 09:00 PM; TUESDAY 10:00 AM - 09:00 PM; WEDNESDAY 10:00 AM - 09:00 PM; THURSDAY 10:00 AM - 09:00 PM; FRIDAY 10:00 AM - 09:00 PM; SATURDAY 10:00 AM - 09:00 PM; SUNDAY 12:00 PM - 06:00 PM,,0
AVENUE VIERA - FL,391,2251 TOWNE CENTER AVENUE ,,VIERA ,FL,32940,United States,3216365252,,,MONDAY 10:00 AM - 09:00 PM; TUESDAY 10:00 AM - 09:00 PM; WEDNESDAY 10:00 AM - 09:00 PM; THURSDAY 10:00 AM - 09:00 PM; FRIDAY 10:00 AM - 09:00 PM; SATURDAY 10:00 AM - 09:00 PM; SUNDAY 11:00 AM - 06:00 PM,,0
CITRUS PARK - FL,79,8021 CITRUS PARK TOWN CENTER MALL ,,TAMPA ,FL,33625,United States,8139268719,,,MONDAY 10:00 AM - 09:00 PM; TUESDAY 10:00 AM - 09:00 PM; WEDNESDAY 10:00 AM - 09:00 PM; THURSDAY 10:00 AM - 09:00 PM; FRIDAY 10:00 AM - 09:00 PM; SATURDAY 10:00 AM - 09:00 PM; SUNDAY 12:00 PM - 06:00 PM,,0
SARASOTA - FL,233,8201 SOUTH TAMIAMI TRAIL ,,SARASOTA ,FL,34238,United States,9419264402,,,MONDAY 10:00 AM - 09:00 PM; TUESDAY 10:00 AM - 09:00 PM; WEDNESDAY 10:00 AM - 09:00 PM; THURSDAY 10:00 AM - 09:00 PM; FRIDAY 10:00 AM - 09:00 PM; SATURDAY 10:00 AM - 09:00 PM; SUNDAY 12:00 PM - 05:30 PM,,0
ORLANDO OUTLET - FL,560,8174 VINELAND AVENUE ,,ORLANDO ,FL,32821,United States,4074777726,,,MONDAY 10:00 AM - 11:00 PM; TUESDAY 10:00 AM - 11:00 PM; WEDNESDAY 10:00 AM - 11:00 PM; THURSDAY 10:00 AM - 11:00 PM; FRIDAY 10:00 AM - 11:00 PM; SATURDAY 10:00 AM - 11:00 PM; SUNDAY 09:00 AM - 09:00 PM,,0
GULF VIEW SQUARE - FL,536,9409 US HWY 19 ,,PORT RICHEY ,FL,34668,United States,7278450426,,,MONDAY 10:00 AM - 09:00 PM; TUESDAY 10:00 AM - 09:00 PM; WEDNESDAY 10:00 AM - 09:00 PM; THURSDAY 10:00 AM - 09:00 PM; FRIDAY 10:00 AM - 09:00 PM; SATURDAY 10:00 AM - 09:00 PM; SUNDAY 12:00 PM - 06:00 PM,,0
WIREGRASS - FL,525,28211 PASEO DRIVE ,,WESLEY CHAPEL ,FL,33543,United States,8139915601,,,MONDAY 10:00 AM - 09:00 PM; TUESDAY 10:00 AM - 09:00 PM; WEDNESDAY 10:00 AM - 09:00 PM; THURSDAY 10:00 AM - 09:00 PM; FRIDAY 10:00 AM - 09:00 PM; SATURDAY 10:00 AM - 09:00 PM; SUNDAY 12:00 PM - 06:00 PM,,0
VOLUSIA - FL,403,1700 WEST INTL SPEEDWAY BLVD ,,DAYTONA BEACH ,FL,32114,United States,3862581323,,,MONDAY 10:00 AM - 09:00 PM; TUESDAY 10:00 AM - 09:00 PM; WEDNESDAY 10:00 AM - 09:00 PM; THURSDAY 10:00 AM - 09:00 PM; FRIDAY 10:00 AM - 09:00 PM; SATURDAY 10:00 AM - 09:00 PM; SUNDAY 10:00 AM - 09:00 PM,,0
ORLANDO OUTLETS - FL,458,4977 INTERNATIONAL DR. ,,ORLANDO ,FL,32819,United States,4073511044,,,MONDAY 10:00 AM - 11:00 PM; TUESDAY 10:00 AM - 11:00 PM; WEDNESDAY 10:00 AM - 11:00 PM; THURSDAY 10:00 AM - 11:00 PM; FRIDAY 10:00 AM - 11:00 PM; SATURDAY 10:00 AM - 11:00 PM; SUNDAY 10:00 AM - 09:00 PM,,0
ALTAMONTE - FL,142,451 ALTAMONTE DRIVE ,,ALTAMONTE SPRINGS ,FL,32701,United States,4078307870,,,MONDAY 10:00 AM - 09:00 PM; TUESDAY 10:00 AM - 09:00 PM; WEDNESDAY 10:00 AM - 09:00 PM; THURSDAY 10:00 AM - 09:00 PM; FRIDAY 10:00 AM - 09:00 PM; SATURDAY 10:00 AM - 09:00 PM; SUNDAY 12:00 PM - 06:00 PM,,0
OVIEDO - FL,47,1640 OVIEDO MARKETPLACE BLVD ,,OVIEDO ,FL,32765,United States,4079771083,,,MONDAY 10:00 AM - 09:00 PM; TUESDAY 10:00 AM - 09:00 PM; WEDNESDAY 10:00 AM - 09:00 PM; THURSDAY 10:00 AM - 09:00 PM; FRIDAY 10:00 AM - 09:00 PM; SATURDAY 10:00 AM - 09:00 PM; SUNDAY 12:00 PM - 06:00 PM,,0
THE OAKS MALL - FL,773,6345 W. Newberry Road ,,Gainesville ,FL,32605,United States,3523327044,,,MONDAY 10:00 AM - 09:00 PM; TUESDAY 10:00 AM - 09:00 PM; WEDNESDAY 10:00 AM - 09:00 PM; THURSDAY 10:00 AM - 09:00 PM; FRIDAY 10:00 AM - 09:00 PM; SATURDAY 10:00 AM - 09:00 PM; SUNDAY 12:00 PM - 06:00 PM,,0
ST. AUGUSTINE - FL,553,500 OUTLET MALL BLVD ,,ST. AUGUSTINE ,FL,32084,United States,9048196844,,,MONDAY 10:00 AM - 09:00 PM; TUESDAY 10:00 AM - 09:00 PM; WEDNESDAY 10:00 AM - 09:00 PM; THURSDAY 10:00 AM - 09:00 PM; FRIDAY 10:00 AM - 09:00 PM; SATURDAY 10:00 AM - 09:00 PM; SUNDAY 10:00 AM - 06:00 PM,,0
PADDOCK - FL,456,3100 COLLEGE RD. ,,OCALA ,FL,34474,United States,3528540679,,,MONDAY 10:00 AM - 09:00 PM; TUESDAY 10:00 AM - 09:00 PM; WEDNESDAY 10:00 AM - 09:00 PM; THURSDAY 10:00 AM - 09:00 PM; FRIDAY 10:00 AM - 09:00 PM; SATURDAY 10:00 AM - 09:00 PM; SUNDAY 12:00 PM - 05:30 PM,,0
THE AVENUES - FL,163,10300 SOUTHSIDE BLVD ,,JACKSONVILLE ,FL,32256,United States,9045198399,,,MONDAY 10:00 AM - 09:00 PM; TUESDAY 10:00 AM - 09:00 PM; WEDNESDAY 10:00 AM - 09:00 PM; THURSDAY 10:00 AM - 09:00 PM; FRIDAY 10:00 AM - 09:00 PM; SATURDAY 10:00 AM - 09:00 PM; SUNDAY 12:00 PM - 06:00 PM,,0
GOV SQ - FL,337,1500 APPACHE PARKWAY ,,TALLAHASSEE ,FL,32301,United States,8508784926,,,MONDAY 10:00 AM - 09:00 PM; TUESDAY 10:00 AM - 09:00 PM; WEDNESDAY 10:00 AM - 09:00 PM; THURSDAY 10:00 AM - 09:00 PM; FRIDAY 10:00 AM - 09:00 PM; SATURDAY 10:00 AM - 09:00 PM; SUNDAY 12:00 PM - 06:00 PM,,0
MARKETS AT TOWN CENTER - FL,729,4870 BIG ISLAND DRIVE ,,JACKSONVILLE ,FL,32246,United States,9048079217,,,MONDAY 10:00 AM - 09:00 PM; TUESDAY 10:00 AM - 09:00 PM; WEDNESDAY 10:00 AM - 09:00 PM; THURSDAY 10:00 AM - 09:00 PM; FRIDAY 10:00 AM - 09:00 PM; SATURDAY 10:00 AM - 09:00 PM; SUNDAY 12:00 PM - 06:00 PM,,0
SANTA ROSA - FL,326,300 MARY ESTHER BLVD. ,,MARY ESTHER ,FL,32569,United States,8502433270,,,MONDAY 10:00 AM - 09:00 PM; TUESDAY 10:00 AM - 09:00 PM; WEDNESDAY 10:00 AM - 09:00 PM; THURSDAY 10:00 AM - 09:00 PM; FRIDAY 10:00 AM - 10:00 PM; SATURDAY 09:00 AM - 10:00 PM; SUNDAY 11:00 AM - 07:00 PM,,0
PIER PARK - FL,740,15611 STARFISH ST. ,,PANAMA CITY ,FL,32413,United States,8502300938,,,MONDAY 10:00 AM - 09:00 PM; TUESDAY 10:00 AM - 09:00 PM; WEDNESDAY 10:00 AM - 09:00 PM; THURSDAY 10:00 AM - 09:00 PM; FRIDAY 10:00 AM - 09:00 PM; SATURDAY 10:00 AM - 09:00 PM; SUNDAY 12:00 PM - 07:00 PM,,0
FLORIDA - FL,97,8001 SOUTH ORANGE BLOSSOM TRAIL ,,ORLANDO ,FL,32809,United States,4078595133,,,MONDAY 10:00 AM - 10:00 PM; TUESDAY 10:00 AM - 10:00 PM; WEDNESDAY 10:00 AM - 10:00 PM; THURSDAY 10:00 AM - 10:00 PM; FRIDAY 10:00 AM - 10:00 PM; SATURDAY 10:00 AM - 10:00 PM; SUNDAY 11:00 AM - 08:00 PM,,0
BROWNSVILLE - TX,145,N 2370 ,,EXPRESSWAY BROWNSVILLE ,TX,78521,United States,9565419337,,,MONDAY 10:00 AM - 09:00 PM; TUESDAY 10:00 AM - 09:00 PM; WEDNESDAY 10:00 AM - 09:00 PM; THURSDAY 10:00 AM - 09:00 PM; FRIDAY 10:00 AM - 09:00 PM; SATURDAY 10:00 AM - 09:00 PM; SUNDAY 11:00 AM - 07:00 PM,,0
FOLEY OUTLET - AL,464,2601 SOUTH MCKENZIE ST. ,,FOLEY ,AL,36535,United States,2519702390,,,MONDAY 09:00 AM - 09:00 PM; TUESDAY 09:00 AM - 09:00 PM; WEDNESDAY 09:00 AM - 09:00 PM; THURSDAY 09:00 AM - 09:00 PM; FRIDAY 09:00 AM - 09:00 PM; SATURDAY 09:00 AM - 09:00 PM; SUNDAY 11:00 AM - 07:00 PM,,0
OUTLET AT RIVERWALK - LA,700,500 Port of New Orleans Place ,,New Orleans ,LA,70130,United States,5045589901,,,MONDAY 10:00 AM - 09:00 PM; TUESDAY 10:00 AM - 09:00 PM; WEDNESDAY 10:00 AM - 09:00 PM; THURSDAY 10:00 AM - 09:00 PM; FRIDAY 10:00 AM - 09:00 PM; SATURDAY 10:00 AM - 09:00 PM; SUNDAY 10:00 AM - 07:00 PM,,0
OAKWOOD - LA,466,197 WESTBANK EXPWY. ,,GRETNA ,LA,70056,United States,5043615559,,,MONDAY 10:00 AM - 09:00 PM; TUESDAY 10:00 AM - 09:00 PM; WEDNESDAY 10:00 AM - 09:00 PM; THURSDAY 10:00 AM - 09:00 PM; FRIDAY 10:00 AM - 09:00 PM; SATURDAY 10:00 AM - 09:00 PM; SUNDAY 12:00 PM - 06:00 PM,,0
ORLANDO - FL,43,3201 EAST COLONIAL DRIVE ,,ORLANDO ,FL,32803,United States,4072282060,,,MONDAY 10:00 AM - 09:00 PM; TUESDAY 10:00 AM - 09:00 PM; WEDNESDAY 10:00 AM - 09:00 PM; THURSDAY 10:00 AM - 09:00 PM; FRIDAY 10:00 AM - 09:00 PM; SATURDAY 10:00 AM - 09:00 PM; SUNDAY 11:00 AM - 06:00 PM,,0
University Town Center - FL,786,140 University Town Center Drive ,,Sarasota ,FL,34243,United States,9418931165,,,MONDAY 10:00 AM - 09:00 PM; TUESDAY 10:00 AM - 09:00 PM; WEDNESDAY 10:00 AM - 09:00 PM; THURSDAY 10:00 AM - 09:00 PM; FRIDAY 10:00 AM - 09:00 PM; SATURDAY 10:00 AM - 09:00 PM; SUNDAY 11:00 AM - 06:00 PM,,0
VALLE VISTA - TX,260,2020 SOUTH EXPRESSWAY 83 ,,HARLINGEN ,TX,78552,United States,9564127596,,,MONDAY 10:00 AM - 09:00 PM; TUESDAY 10:00 AM - 09:00 PM; WEDNESDAY 10:00 AM - 09:00 PM; THURSDAY 10:00 AM - 09:00 PM; FRIDAY 10:00 AM - 09:00 PM; SATURDAY 10:00 AM - 09:00 PM; SUNDAY 12:00 PM - 06:00 PM,,0
CORDOVA - FL,276,5100 NORTH 9TH AVENUE ,,PENSACOLA ,FL,32504,United States,8504739381,,,MONDAY 10:00 AM - 09:00 PM; TUESDAY 10:00 AM - 09:00 PM; WEDNESDAY 10:00 AM - 09:00 PM; THURSDAY 10:00 AM - 09:00 PM; FRIDAY 10:00 AM - 09:00 PM; SATURDAY 10:00 AM - 09:00 PM; SUNDAY 12:00 PM - 06:00 PM,,0
ORANGE PARK - FL,86,1910 WELLS ROAD ,,ORANGE PARK ,FL,32073,United States,9042694533,,,MONDAY 10:00 AM - 09:00 PM; TUESDAY 10:00 AM - 09:00 PM; WEDNESDAY 10:00 AM - 09:00 PM; THURSDAY 10:00 AM - 09:00 PM; FRIDAY 10:00 AM - 09:00 PM; SATURDAY 10:00 AM - 09:00 PM; SUNDAY 12:00 PM - 06:00 PM,,0
EDGEWATER - MS,418,2600 BEACH BLVD ,,BILOXI ,MS,39531,United States,2283858832,,,MONDAY 10:00 AM - 09:00 PM; TUESDAY 10:00 AM - 09:00 PM; WEDNESDAY 10:00 AM - 09:00 PM; THURSDAY 10:00 AM - 09:00 PM; FRIDAY 10:00 AM - 09:00 PM; SATURDAY 10:00 AM - 09:00 PM; SUNDAY 12:00 PM - 06:00 PM,,0
EASTERN SHORE - AL,397,30500 STATE ROAD HIGHWAY 181 ,,SPANISH FORT ,AL,36527,United States,2516212055,,,MONDAY 10:00 AM - 09:00 PM; TUESDAY 10:00 AM - 09:00 PM; WEDNESDAY 10:00 AM - 09:00 PM; THURSDAY 10:00 AM - 09:00 PM; FRIDAY 10:00 AM - 09:00 PM; SATURDAY 10:00 AM - 09:00 PM; SUNDAY 12:00 PM - 06:00 PM,,0
OGLETHORPE - GA,332,7804 Abercorn Street ,,Savannah ,GA,31406,United States,9123554355,,,MONDAY 10:00 AM - 09:00 PM; TUESDAY 10:00 AM - 09:00 PM; WEDNESDAY 10:00 AM - 09:00 PM; THURSDAY 10:00 AM - 09:00 PM; FRIDAY 10:00 AM - 09:00 PM; SATURDAY 10:00 AM - 09:00 PM; SUNDAY 12:00 PM - 06:00 PM,,0
LA PLAZA - TX,121,2200 SOUTH 10TH STREET ,,MCALLEN ,TX,78503,United States,9569948088,,,MONDAY 10:00 AM - 09:00 PM; TUESDAY 10:00 AM - 09:00 PM; WEDNESDAY 10:00 AM - 09:00 PM; THURSDAY 10:00 AM - 09:00 PM; FRIDAY 10:00 AM - 09:00 PM; SATURDAY 10:00 AM - 09:00 PM; SUNDAY 11:00 AM - 07:00 PM,,0
WIREGRASS - AL,499,900 COMMONS DRIVE ,,DOTHAN ,AL,36303,United States,3347121030,,,MONDAY 10:00 AM - 09:00 PM; TUESDAY 10:00 AM - 09:00 PM; WEDNESDAY 10:00 AM - 09:00 PM; THURSDAY 10:00 AM - 09:00 PM; FRIDAY 10:00 AM - 09:00 PM; SATURDAY 10:00 AM - 09:00 PM; SUNDAY 12:00 PM - 06:00 PM,,0
GONZALES - LA,509,2410 TANGER BLVD ,,GONZALES ,LA,70737,United States,2256440509,,,MONDAY 09:00 AM - 09:00 PM; TUESDAY 09:00 AM - 09:00 PM; WEDNESDAY 09:00 AM - 09:00 PM; THURSDAY 09:00 AM - 09:00 PM; FRIDAY 09:00 AM - 09:00 PM; SATURDAY 09:00 AM - 09:00 PM; SUNDAY 10:00 AM - 07:00 PM,,0
CITADEL - SC,379,2070 SAM RITTENBERG BLVD ,,CHARLESTON ,SC,29407,United States,8437630299,,,MONDAY 10:00 AM - 09:00 PM; TUESDAY 10:00 AM - 09:00 PM; WEDNESDAY 10:00 AM - 09:00 PM; THURSDAY 10:00 AM - 09:00 PM; FRIDAY 10:00 AM - 09:00 PM; SATURDAY 10:00 AM - 09:00 PM; SUNDAY 12:00 PM - 06:00 PM,,0
FREMAUX TOWN CENTER - LA,796,760 TOWN CENTER PARKWAY ,,SLIDELL ,LA,70458,United States,9856459293,,,MONDAY 10:00 AM - 09:00 PM; TUESDAY 10:00 AM - 09:00 PM; WEDNESDAY 10:00 AM - 09:00 PM; THURSDAY 10:00 AM - 09:00 PM; FRIDAY 10:00 AM - 09:00 PM; SATURDAY 10:00 AM - 09:00 PM; SUNDAY 12:00 PM - 06:00 PM,,0
TURTLE CREEK - MS,356,1000 TURTLE CREEK DRIVE ,,HATTIESBURG ,MS,39402,United States,6012615557,,,MONDAY 10:00 AM - 09:00 PM; TUESDAY 10:00 AM - 09:00 PM; WEDNESDAY 10:00 AM - 09:00 PM; THURSDAY 10:00 AM - 09:00 PM; FRIDAY 10:00 AM - 09:00 PM; SATURDAY 10:00 AM - 09:00 PM; SUNDAY 12:00 PM - 06:00 PM,,0
PEACHTREE - GA,331,3131 MANCHESTER EXPRESSWAY ,,COLUMBUS ,GA,31909,United States,7063247106,,,MONDAY 10:00 AM - 09:00 PM; TUESDAY 10:00 AM - 09:00 PM; WEDNESDAY 10:00 AM - 09:00 PM; THURSDAY 10:00 AM - 09:00 PM; FRIDAY 10:00 AM - 09:00 PM; SATURDAY 10:00 AM - 09:00 PM; SUNDAY 12:00 PM - 06:00 PM,,0
ACADIANA - LA,370,5725 JOHNSTON STREET ,,LAFAYETTE ,LA,70503,United States,3379931663,,,MONDAY 10:00 AM - 09:00 PM; TUESDAY 10:00 AM - 09:00 PM; WEDNESDAY 10:00 AM - 09:00 PM; THURSDAY 10:00 AM - 09:00 PM; FRIDAY 10:00 AM - 09:00 PM; SATURDAY 10:00 AM - 09:00 PM; SUNDAY 12:00 PM - 06:00 PM,,0
NORTHWOODS - SC,262,2150 NORTHWOODS BLVD NORTH ,,CHARLESTON ,SC,29406,United States,8435532956,,,MONDAY 10:00 AM - 09:00 PM; TUESDAY 10:00 AM - 09:00 PM; WEDNESDAY 10:00 AM - 09:00 PM; THURSDAY 10:00 AM - 09:00 PM; FRIDAY 10:00 AM - 09:00 PM; SATURDAY 10:00 AM - 09:00 PM; SUNDAY 12:00 PM - 06:00 PM,,0
EASTDALE - AL,442,1000 EASTDALE MALL ,,MONTGOMERY ,AL,36117,United States,3342726388,,,MONDAY 10:00 AM - 09:00 PM; TUESDAY 10:00 AM - 09:00 PM; WEDNESDAY 10:00 AM - 09:00 PM; THURSDAY 10:00 AM - 09:00 PM; FRIDAY 10:00 AM - 09:00 PM; SATURDAY 10:00 AM - 09:00 PM; SUNDAY 12:00 PM - 06:00 PM,,0
RIVER CROSSING - GA,476,5080 RIVERSIDE DR ,,MACON ,GA,31210,United States,4784748226,,,MONDAY 10:00 AM - 09:00 PM; TUESDAY 10:00 AM - 09:00 PM; WEDNESDAY 10:00 AM - 09:00 PM; THURSDAY 10:00 AM - 09:00 PM; FRIDAY 10:00 AM - 09:00 PM; SATURDAY 10:00 AM - 09:00 PM; SUNDAY 12:00 PM - 06:00 PM,,0
BAYBROOK - TX,179,1318 BAYBROOK MALL ,,FRIENDSWOOD ,TX,77546,United States,2814801371,,,MONDAY 10:00 AM - 09:00 PM; TUESDAY 10:00 AM - 06:00 PM; WEDNESDAY 10:00 AM - 06:00 PM; THURSDAY 10:00 AM - 09:00 PM; FRIDAY 10:00 AM - 09:00 PM; SATURDAY 10:00 AM - 09:00 PM; SUNDAY 12:00 PM - 06:00 PM,,0
COLONIAL - AL,354,3431 BEL AIR MALL ,,MOBILE ,AL,36606,United States,2514707103,,,MONDAY 10:00 AM - 09:00 PM; TUESDAY 10:00 AM - 09:00 PM; WEDNESDAY 10:00 AM - 09:00 PM; THURSDAY 10:00 AM - 09:00 PM; FRIDAY 10:00 AM - 09:00 PM; SATURDAY 10:00 AM - 09:00 PM; SUNDAY 12:00 PM - 05:30 PM,,0
PARKDALE MALL - TX,704,6155 EASTEX FREEWAY ,,BEAUMONT ,TX,77706,United States,4093470016,,,MONDAY 10:00 AM - 09:00 PM; TUESDAY 10:00 AM - 09:00 PM; WEDNESDAY 10:00 AM - 09:00 PM; THURSDAY 10:00 AM - 09:00 PM; FRIDAY 10:00 AM - 09:00 PM; SATURDAY 10:00 AM - 09:00 PM; SUNDAY 12:00 PM - 06:00 PM,,0
TANGER OUTLETS AT SAVANNAH - GA,748,200 TANGER OUTLET BOULEVARD ,,POOLER ,GA,31322,United States,9124500258,,,MONDAY 09:00 AM - 09:00 PM; TUESDAY 09:00 AM - 09:00 PM; WEDNESDAY 09:00 AM - 09:00 PM; THURSDAY 09:00 AM - 09:00 PM; FRIDAY 09:00 AM - 09:00 PM; SATURDAY 09:00 AM - 09:00 PM; SUNDAY 10:00 AM - 07:00 PM,,0
HOUSTON - TX,244,5135 WEST ALABAMA ,,HOUSTON ,TX,77056,United States,7136226660,,,MONDAY 10:00 AM - 09:00 PM; TUESDAY 10:00 AM - 09:00 PM; WEDNESDAY 10:00 AM - 09:00 PM; THURSDAY 10:00 AM - 09:00 PM; FRIDAY 10:00 AM - 09:00 PM; SATURDAY 10:00 AM - 09:00 PM; SUNDAY 11:00 AM - 07:00 PM,,0
PEARLAND - TX,511,11200 BROADWAY ST. ,,PEARLAND ,TX,77584,United States,7133401108,,,MONDAY 10:00 AM - 09:00 PM; TUESDAY 10:00 AM - 09:00 PM; WEDNESDAY 10:00 AM - 09:00 PM; THURSDAY 10:00 AM - 09:00 PM; FRIDAY 10:00 AM - 09:00 PM; SATURDAY 10:00 AM - 09:00 PM; SUNDAY 11:00 AM - 07:00 PM,,0
ESPLANADE - LA,322,1401 WEST ESPLANADE ,,KENNER ,LA,70065,United States,5044665503,,,MONDAY 10:00 AM - 09:00 PM; TUESDAY 10:00 AM - 09:00 PM; WEDNESDAY 10:00 AM - 09:00 PM; THURSDAY 10:00 AM - 09:00 PM; FRIDAY 10:00 AM - 09:00 PM; SATURDAY 10:00 AM - 09:00 PM; SUNDAY 12:00 PM - 06:00 PM,,0
FIRST COLONY - TX,428,16535 SOUTHWEST FREEWAY ,,SUGAR LAND ,TX,77479,United States,2819801333,,,MONDAY 10:00 AM - 09:00 PM; TUESDAY 10:00 AM - 09:00 PM; WEDNESDAY 10:00 AM - 09:00 PM; THURSDAY 10:00 AM - 09:00 PM; FRIDAY 10:00 AM - 09:00 PM; SATURDAY 10:00 AM - 09:00 PM; SUNDAY 12:00 PM - 06:00 PM,,0
MEMORIAL CITY - TX,284,292 MEMORIAL CITY MALL ,,HOUSTON ,TX,77024,United States,7139739789,,,MONDAY 10:00 AM - 09:00 PM; TUESDAY 10:00 AM - 09:00 PM; WEDNESDAY 10:00 AM - 09:00 PM; THURSDAY 10:00 AM - 09:00 PM; FRIDAY 10:00 AM - 09:00 PM; SATURDAY 10:00 AM - 09:00 PM; SUNDAY 11:00 AM - 07:00 PM,,0
VICTORIA MALL - TX,744,7800 N. Navarro St. ,,Victoria ,TX,77904,United States,3615720553,,,MONDAY 10:00 AM - 09:00 PM; TUESDAY 10:00 AM - 09:00 PM; WEDNESDAY 10:00 AM - 09:00 PM; THURSDAY 10:00 AM - 09:00 PM; FRIDAY 10:00 AM - 09:00 PM; SATURDAY 10:00 AM - 09:00 PM; SUNDAY 12:00 PM - 06:00 PM,,0
AUGUSTA - GA,449,3450 WRIGHTSBORO RD ,,AUGUSTA ,GA,30909,United States,7067336106,,,MONDAY 10:00 AM - 09:00 PM; TUESDAY 10:00 AM - 09:00 PM; WEDNESDAY 10:00 AM - 09:00 PM; THURSDAY 10:00 AM - 09:00 PM; FRIDAY 10:00 AM - 09:00 PM; SATURDAY 10:00 AM - 09:00 PM; SUNDAY 12:00 PM - 06:00 PM,,0
LOUISIANA - LA,254,6401 BLUEBONNET BLVD ,,BATON ROUGE ,LA,70836,United States,2257668894,,,MONDAY 10:00 AM - 09:00 PM; TUESDAY 10:00 AM - 09:00 PM; WEDNESDAY 10:00 AM - 09:00 PM; THURSDAY 10:00 AM - 09:00 PM; FRIDAY 10:00 AM - 09:00 PM; SATURDAY 10:00 AM - 09:00 PM; SUNDAY 12:00 PM - 06:00 PM,,0
LOCUST GROVE - GA,461,1000 TANGER DR. ,,LOCUST GROVE ,GA,30248,United States,7702883380,,,MONDAY 09:00 AM - 09:00 PM; TUESDAY 09:00 AM - 09:00 PM; WEDNESDAY 09:00 AM - 09:00 PM; THURSDAY 09:00 AM - 09:00 PM; FRIDAY 09:00 AM - 09:00 PM; SATURDAY 09:00 AM - 09:00 PM; SUNDAY 10:00 AM - 07:00 PM,,0
COASTAL GRAND - SC,293,2000 COASTAL GRAND CIRCLE ,,MYRTLE BEACH ,SC,29577,United States,8438392996,,,MONDAY 10:00 AM - 09:00 PM; TUESDAY 10:00 AM - 09:00 PM; WEDNESDAY 10:00 AM - 09:00 PM; THURSDAY 10:00 AM - 09:00 PM; FRIDAY 10:00 AM - 09:00 PM; SATURDAY 10:00 AM - 09:00 PM; SUNDAY 12:00 PM - 06:00 PM,,0
DEL NORTE - TX,183,5300 SAN DARIO AVE ,,LAREDO ,TX,78041,United States,9567221116,,,MONDAY Call Store for Hours; TUESDAY Call Store for Hours; WEDNESDAY Call Store for Hours; THURSDAY Call Store for Hours; FRIDAY Call Store for Hours; SATURDAY Call Store for Hours; SUNDAY Call Store for Hours,,0
KATY - TX,93,5000 KATY MILLS CIRCLE ,,KATY ,TX,77494,United States,2816442040,,,MONDAY 10:00 AM - 09:00 PM; TUESDAY 10:00 AM - 09:00 PM; WEDNESDAY 10:00 AM - 09:00 PM; THURSDAY 10:00 AM - 09:00 PM; FRIDAY 10:00 AM - 09:00 PM; SATURDAY 10:00 AM - 09:00 PM; SUNDAY 12:00 PM - 06:00 PM,,0
OUTLETS OF MISSISSIPPI - MS,720,200 BASS PRO DR. ,,PEARL ,MS,39208,United States,6019391313,,,MONDAY 10:00 AM - 09:00 PM; TUESDAY 10:00 AM - 09:00 PM; WEDNESDAY 10:00 AM - 09:00 PM; THURSDAY 10:00 AM - 09:00 PM; FRIDAY 10:00 AM - 09:00 PM; SATURDAY 10:00 AM - 09:00 PM; SUNDAY 12:00 PM - 07:00 PM,,0
HOUSTON - TX,477,29300 Hempstead Rd. ,,CYPRESS ,TX,77433,United States,2812562511,,,MONDAY 10:00 AM - 09:00 PM; TUESDAY 10:00 AM - 09:00 PM; WEDNESDAY 10:00 AM - 09:00 PM; THURSDAY 10:00 AM - 09:00 PM; FRIDAY 10:00 AM - 09:00 PM; SATURDAY 10:00 AM - 09:00 PM; SUNDAY 11:00 AM - 07:00 PM,,0
TUSCALOOSA - AL,471,1701 MCFARLAND BLVD E. ,,TUSCALOOSA ,AL,35404,United States,2054622041,,,MONDAY 10:00 AM - 09:00 PM; TUESDAY 10:00 AM - 09:00 PM; WEDNESDAY 10:00 AM - 09:00 PM; THURSDAY 10:00 AM - 09:00 PM; FRIDAY 10:00 AM - 09:00 PM; SATURDAY 10:00 AM - 09:00 PM; SUNDAY 12:00 PM - 06:00 PM,,0
COLUMBIANA - SC,512,100 COLUMBIANA CIRCLE ,,COLUMBIA ,SC,29212,United States,8034074446,,,MONDAY 10:00 AM - 09:00 PM; TUESDAY 10:00 AM - 09:00 PM; WEDNESDAY 10:00 AM - 09:00 PM; THURSDAY 10:00 AM - 09:00 PM; FRIDAY 10:00 AM - 09:00 PM; SATURDAY 10:00 AM - 09:00 PM; SUNDAY 12:00 PM - 06:00 PM,,0
ARBOR - GA,101,1440 ARBOR PLACE MALL ,,DOUGLASVILLE ,GA,30135,United States,6788381500,,,MONDAY 10:00 AM - 09:00 PM; TUESDAY 10:00 AM - 09:00 PM; WEDNESDAY 10:00 AM - 09:00 PM; THURSDAY 10:00 AM - 09:00 PM; FRIDAY 10:00 AM - 09:00 PM; SATURDAY 10:00 AM - 09:00 PM; SUNDAY 12:00 PM - 06:00 PM,,0
NORTHPARK - MS,377,1200 EAST COUNTY LINE ROAD ,,RIDGELAND ,MS,39157,United States,6019910778,,,MONDAY 10:00 AM - 09:00 PM; TUESDAY 10:00 AM - 09:00 PM; WEDNESDAY 10:00 AM - 09:00 PM; THURSDAY 10:00 AM - 09:00 PM; FRIDAY 10:00 AM - 09:00 PM; SATURDAY 10:00 AM - 09:00 PM; SUNDAY 12:00 PM - 06:00 PM,,0
DEERBROOK - TX,207,20131 HIGHWAY 59 ,,HUMBLE ,TX,77338,United States,2814468750,,,MONDAY 10:00 AM - 09:00 PM; TUESDAY 10:00 AM - 09:00 PM; WEDNESDAY 10:00 AM - 09:00 PM; THURSDAY 10:00 AM - 09:00 PM; FRIDAY 10:00 AM - 09:00 PM; SATURDAY 10:00 AM - 09:00 PM; SUNDAY 12:00 PM - 06:00 PM,,0
RIVERCHASE GALLERIA - AL,825,2000 RIVERCHASE ,,GALLERIA BIRMINGHAM ,AL,35244,United States,2059874873,,,MONDAY 10:00 AM - 09:00 PM; TUESDAY 10:00 AM - 09:00 PM; WEDNESDAY 10:00 AM - 09:00 PM; THURSDAY 10:00 AM - 09:00 PM; FRIDAY 10:00 AM - 09:00 PM; SATURDAY 10:00 AM - 09:00 PM; SUNDAY 12:00 PM - 06:00 PM,,0
COLUMBIA - SC,329,7201AU-556 TWO NOTCH RD ,,COLUMBIA ,SC,29223,United States,8037362212,,,MONDAY 10:00 AM - 09:00 PM; TUESDAY 10:00 AM - 09:00 PM; WEDNESDAY 10:00 AM - 09:00 PM; THURSDAY 10:00 AM - 09:00 PM; FRIDAY 10:00 AM - 09:00 PM; SATURDAY 10:00 AM - 09:00 PM; SUNDAY 12:00 PM - 06:00 PM,,0
THE WOODLANDS MALL - TX,774,1201 Lake Woodland Drive ,,The Woodlands ,TX,77380,United States,2814659480,,,MONDAY 10:00 AM - 09:00 PM; TUESDAY 10:00 AM - 09:00 PM; WEDNESDAY 10:00 AM - 09:00 PM; THURSDAY 10:00 AM - 09:00 PM; FRIDAY 10:00 AM - 09:00 PM; SATURDAY 10:00 AM - 09:00 PM; SUNDAY 12:00 PM - 06:00 PM,,0
BROOKWOOD - AL,394,764 BROOKWOOD VILLAGE ,,BIRMINGHAM ,AL,35209,United States,2058689400,,,MONDAY 10:00 AM - 09:00 PM; TUESDAY 10:00 AM - 09:00 PM; WEDNESDAY 10:00 AM - 09:00 PM; THURSDAY 10:00 AM - 09:00 PM; FRIDAY 10:00 AM - 09:00 PM; SATURDAY 10:00 AM - 09:00 PM; SUNDAY 12:00 PM - 06:00 PM,,0
GEORGIA SQUARE - GA,419,3700 ATLANTA HWY ,,ATHENS ,GA,30606,United States,7063531189,,,MONDAY 10:00 AM - 09:00 PM; TUESDAY 10:00 AM - 09:00 PM; WEDNESDAY 10:00 AM - 09:00 PM; THURSDAY 10:00 AM - 09:00 PM; FRIDAY 10:00 AM - 09:00 PM; SATURDAY 10:00 AM - 09:00 PM; SUNDAY 12:00 PM - 06:00 PM,,0
INDEPENDENCE - NC,162,3500 OLEANDER DRIVE ,,WILMINGTON ,NC,28403,United States,9104524559,,,MONDAY 10:00 AM - 09:00 PM; TUESDAY 10:00 AM - 09:00 PM; WEDNESDAY 10:00 AM - 09:00 PM; THURSDAY 10:00 AM - 09:00 PM; FRIDAY 10:00 AM - 09:00 PM; SATURDAY 10:00 AM - 09:00 PM; SUNDAY 12:00 PM - 06:00 PM,,0
MAGNOLIA - SC,297,2701 DAVID MCLEOD BOULEVARD ,,FLORENCE ,SC,29501,United States,8436298059,,,MONDAY 10:00 AM - 09:00 PM; TUESDAY 10:00 AM - 09:00 PM; WEDNESDAY 10:00 AM - 09:00 PM; THURSDAY 10:00 AM - 09:00 PM; FRIDAY 10:00 AM - 09:00 PM; SATURDAY 10:00 AM - 09:00 PM; SUNDAY 12:00 PM - 06:00 PM,,0
SHOPS AT GRAND RIVER - AL,583,6200 GRAND RIVER BLVD EAST ,,LEEDS ,AL,35094,United States,2056993955,,,MONDAY 10:00 AM - 09:00 PM; TUESDAY 10:00 AM - 09:00 PM; WEDNESDAY 10:00 AM - 09:00 PM; THURSDAY 10:00 AM - 09:00 PM; FRIDAY 10:00 AM - 09:00 PM; SATURDAY 10:00 AM - 09:00 PM; SUNDAY 12:00 PM - 06:00 PM,,0
PERIMETER - GA,78,4400 ASHFORD-DUNWOODY ROAD ,,ATLANTA ,GA,30346,United States,7706680004,,,MONDAY 10:00 AM - 09:00 PM; TUESDAY 10:00 AM - 09:00 PM; WEDNESDAY 10:00 AM - 09:00 PM; THURSDAY 10:00 AM - 09:00 PM; FRIDAY 10:00 AM - 09:00 PM; SATURDAY 10:00 AM - 09:00 PM; SUNDAY 12:00 PM - 07:00 PM,,0
DISCOVER - GA,175,5900 SUGARLOAF PKWY ,,LAWRENCEVILLE ,GA,30043,United States,6788475446,,,MONDAY 10:00 AM - 09:00 PM; TUESDAY 10:00 AM - 09:00 PM; WEDNESDAY 10:00 AM - 09:00 PM; THURSDAY 10:00 AM - 09:00 PM; FRIDAY 10:00 AM - 09:00 PM; SATURDAY 10:00 AM - 09:00 PM; SUNDAY 12:00 PM - 06:00 PM,,0
MALL OF GEORGIA - GA,87,3333 BUFORD DRIVE ,,BUFORD ,GA,30519,United States,6784826833,,,MONDAY 10:00 AM - 09:00 PM; TUESDAY 10:00 AM - 09:00 PM; WEDNESDAY 10:00 AM - 09:00 PM; THURSDAY 10:00 AM - 09:00 PM; FRIDAY 10:00 AM - 09:00 PM; SATURDAY 10:00 AM - 09:00 PM; SUNDAY 12:00 PM - 06:00 PM,,0
Tanger Outlet Commerce - GA,777,800 Steve B. Tanger Blvd ,,Commerce ,GA,30529,United States,7063366571,,,MONDAY 09:00 AM - 09:00 PM; TUESDAY 09:00 AM - 09:00 PM; WEDNESDAY 09:00 AM - 09:00 PM; THURSDAY 09:00 AM - 09:00 PM; FRIDAY 09:00 AM - 09:00 PM; SATURDAY 09:00 AM - 09:00 PM; SUNDAY 10:00 AM - 07:00 PM,,0
CUMBERLAND - GA,338,1216 CUMBERLAND MALL ,,ATLANTA ,GA,30339,United States,7708010830,,,MONDAY 10:00 AM - 09:00 PM; TUESDAY 10:00 AM - 09:00 PM; WEDNESDAY 10:00 AM - 09:00 PM; THURSDAY 10:00 AM - 09:00 PM; FRIDAY 10:00 AM - 09:00 PM; SATURDAY 10:00 AM - 09:00 PM; SUNDAY 12:00 PM - 06:00 PM,,0
POST OAK - TX,430,1500 HARVEY ROAD ,,COLLEGE STATION ,TX,77840,United States,9796937304,,,MONDAY 10:00 AM - 09:00 PM; TUESDAY 10:00 AM - 09:00 PM; WEDNESDAY 10:00 AM - 09:00 PM; THURSDAY 10:00 AM - 09:00 PM; FRIDAY 10:00 AM - 09:00 PM; SATURDAY 10:00 AM - 09:00 PM; SUNDAY 12:00 PM - 06:00 PM,,0
COBB - GA,66,400 ERNEST BARRETT PARKWAY ,,KENNESAW ,GA,30144,United States,7704212465,,,MONDAY 10:00 AM - 09:00 PM; TUESDAY 10:00 AM - 09:00 PM; WEDNESDAY 10:00 AM - 09:00 PM; THURSDAY 10:00 AM - 09:00 PM; FRIDAY 10:00 AM - 09:00 PM; SATURDAY 10:00 AM - 09:00 PM; SUNDAY 12:00 PM - 06:00 PM,,0
NBTC CREEKSIDE - TX,821,257 CREEKSIDE CROSSING ,,NEW BRAUNFELS ,TX,78130,United States,8306080011,,,MONDAY 10:00 AM - 09:00 PM; TUESDAY 10:00 AM - 09:00 PM; WEDNESDAY 10:00 AM - 09:00 PM; THURSDAY 10:00 AM - 09:00 PM; FRIDAY 10:00 AM - 09:00 PM; SATURDAY 10:00 AM - 09:00 PM; SUNDAY 12:00 PM - 06:00 PM,,0
PECANLAND - LA,453,4700 MILLHAVEN RD ,,MONROE ,LA,71203,United States,3183982699,,,MONDAY 10:00 AM - 09:00 PM; TUESDAY 10:00 AM - 09:00 PM; WEDNESDAY 10:00 AM - 09:00 PM; THURSDAY 10:00 AM - 09:00 PM; FRIDAY 10:00 AM - 09:00 PM; SATURDAY 10:00 AM - 09:00 PM; SUNDAY 12:00 PM - 06:00 PM,,0
N. GEORGIA OUTLET - GA,88,800 HIGHWAY 400 SOUTH ,,DAWSONVILLE ,GA,30534,United States,7062165575,,,MONDAY 10:00 AM - 09:00 PM; TUESDAY 10:00 AM - 09:00 PM; WEDNESDAY 10:00 AM - 09:00 PM; THURSDAY 10:00 AM - 09:00 PM; FRIDAY 10:00 AM - 09:00 PM; SATURDAY 10:00 AM - 09:00 PM; SUNDAY 11:00 AM - 07:00 PM,,0
RIO GRANDE - TX,423,EXPRESSWAY 83 & MILE 1-1/2 EAST RD ,,MERCEDES ,TX,78570,United States,9565142946,,,MONDAY 10:00 AM - 09:00 PM; TUESDAY 10:00 AM - 09:00 PM; WEDNESDAY 10:00 AM - 09:00 PM; THURSDAY 10:00 AM - 09:00 PM; FRIDAY 10:00 AM - 09:00 PM; SATURDAY 10:00 AM - 09:00 PM; SUNDAY 11:00 AM - 07:00 PM,,0
NORTHPOINT - GA,387,2040 NORTH POINT CIRCLE ,,ALPHARETTA ,GA,30022,United States,7707529901,,,MONDAY 10:00 AM - 09:00 PM; TUESDAY 10:00 AM - 09:00 PM; WEDNESDAY 10:00 AM - 09:00 PM; THURSDAY 10:00 AM - 09:00 PM; FRIDAY 10:00 AM - 09:00 PM; SATURDAY 10:00 AM - 09:00 PM; SUNDAY 12:00 PM - 07:00 PM,,0
SAN MARCOS - TX,281,4015 INTERSTATE 35 ,,SOUTH SAN MARCOS ,TX,78666,United States,5123921284,,,MONDAY 09:00 AM - 09:00 PM; TUESDAY 09:00 AM - 09:00 PM; WEDNESDAY 09:00 AM - 09:00 PM; THURSDAY 09:00 AM - 09:00 PM; FRIDAY 09:00 AM - 09:00 PM; SATURDAY 09:00 AM - 09:00 PM; SUNDAY 10:00 AM - 07:00 PM,,0
- ATLANTA OUTLET SHOPPES - GA,599,915 RIDGEWALK PARKWAY ,,WOODSTOCK ,GA,30188,United States,6784451597,,,MONDAY 10:00 AM - 09:00 PM; TUESDAY 10:00 AM - 09:00 PM; WEDNESDAY 10:00 AM - 09:00 PM; THURSDAY 10:00 AM - 09:00 PM; FRIDAY 10:00 AM - 09:00 PM; SATURDAY 10:00 AM - 09:00 PM; SUNDAY 11:00 AM - 07:00 PM,,0
LA CANTERA - TX,573,15900 LA CANTERA MALL ,,SAN ANTONIO ,TX,78256,United States,2106410130,,,MONDAY 10:00 AM - 09:00 PM; TUESDAY 10:00 AM - 09:00 PM; WEDNESDAY 10:00 AM - 09:00 PM; THURSDAY 10:00 AM - 09:00 PM; FRIDAY 10:00 AM - 09:00 PM; SATURDAY 10:00 AM - 09:00 PM; SUNDAY 12:00 PM - 06:00 PM,,0
ROLLING OAKS - TX,482,6909 NORTH LOOP 1604 ,,EAST SAN ANTONIO ,TX,78247,United States,2106514598,,,MONDAY 10:00 AM - 09:00 PM; TUESDAY 10:00 AM - 09:00 PM; WEDNESDAY 10:00 AM - 09:00 PM; THURSDAY 10:00 AM - 09:00 PM; FRIDAY 10:00 AM - 09:00 PM; SATURDAY 10:00 AM - 09:00 PM; SUNDAY 12:00 PM - 06:00 PM,,0
WESTGATE MALL - SC,705,205 WEST BLACKSTOCK ROAD ,,SPARTANBURG ,SC,29301,United States,8645875637,,,MONDAY 10:00 AM - 09:00 PM; TUESDAY 10:00 AM - 09:00 PM; WEDNESDAY 10:00 AM - 09:00 PM; THURSDAY 10:00 AM - 09:00 PM; FRIDAY 10:00 AM - 09:00 PM; SATURDAY 10:00 AM - 09:00 PM; SUNDAY 12:00 PM - 06:00 PM,,0
LAKELINE - TX,69,11200 LAKELINE MALL DRIVE ,,CEDAR PARK ,TX,78613,United States,5123314775,,,MONDAY 10:00 AM - 09:00 PM; TUESDAY 10:00 AM - 09:00 PM; WEDNESDAY 10:00 AM - 09:00 PM; THURSDAY 10:00 AM - 09:00 PM; FRIDAY 10:00 AM - 09:00 PM; SATURDAY 10:00 AM - 09:00 PM; SUNDAY 12:00 PM - 06:00 PM,,0
INGRAM - TX,200,6301 N.W. LOOP 410 ,,SAN ANTONIO ,TX,78238,United States,2107670801,,,MONDAY 10:00 AM - 09:00 PM; TUESDAY 10:00 AM - 09:00 PM; WEDNESDAY 10:00 AM - 09:00 PM; THURSDAY 10:00 AM - 09:00 PM; FRIDAY 10:00 AM - 09:00 PM; SATURDAY 10:00 AM - 09:00 PM; SUNDAY 12:00 PM - 06:00 PM,,0
ST. VINCENT - LA,257,1133 ST. VINCENT AVENUE ,,SHREVEPORT ,LA,71104,United States,3184591119,,,MONDAY 10:00 AM - 09:00 PM; TUESDAY 10:00 AM - 09:00 PM; WEDNESDAY 10:00 AM - 09:00 PM; THURSDAY 10:00 AM - 09:00 PM; FRIDAY 10:00 AM - 09:00 PM; SATURDAY 10:00 AM - 09:00 PM; SUNDAY 12:00 PM - 06:00 PM,,0
NORTHLAKE - NC,357,6801 NORTH LAKE MALL DR ,,CHARLOTTE ,NC,28216,United States,7045984249,,,MONDAY 10:00 AM - 09:00 PM; TUESDAY 10:00 AM - 09:00 PM; WEDNESDAY 10:00 AM - 09:00 PM; THURSDAY 10:00 AM - 09:00 PM; FRIDAY 10:00 AM - 09:00 PM; SATURDAY 10:00 AM - 09:00 PM; SUNDAY 12:00 PM - 06:00 PM,,0
ROUND ROCK OUTLET - TX,556,4401 NORTH IH-35 ,,ROUND ROCK ,TX,78664,United States,5128688102,,,MONDAY 10:00 AM - 09:00 PM; TUESDAY 10:00 AM - 09:00 PM; WEDNESDAY 10:00 AM - 09:00 PM; THURSDAY 10:00 AM - 09:00 PM; FRIDAY 10:00 AM - 09:00 PM; SATURDAY 10:00 AM - 09:00 PM; SUNDAY 11:00 AM - 07:00 PM,,0
HAYWOOD - SC,62,700 HAYWOOD ROAD ,,GREENVILLE ,SC,29607,United States,8646760577,,,MONDAY 10:00 AM - 09:00 PM; TUESDAY 10:00 AM - 09:00 PM; WEDNESDAY 10:00 AM - 09:00 PM; THURSDAY 10:00 AM - 09:00 PM; FRIDAY 10:00 AM - 09:00 PM; SATURDAY 10:00 AM - 09:00 PM; SUNDAY 12:30 PM - 07:00 PM,,0
TNGR OUTLET CHARLOTTE - NC,779,5512 New Fashion Way ,,Charlotte ,NC,28278,United States,7045883706,,,MONDAY 10:00 AM - 09:00 PM; TUESDAY 10:00 AM - 09:00 PM; WEDNESDAY 10:00 AM - 09:00 PM; THURSDAY 10:00 AM - 09:00 PM; FRIDAY 10:00 AM - 09:00 PM; SATURDAY 10:00 AM - 09:00 PM; SUNDAY 10:00 AM - 07:00 PM,,0
CROSS CREEK - NC,361,419 CROSS CREEK ROAD ,,FAYETTEVILLE ,NC,28303,United States,9108685222,,,MONDAY 10:00 AM - 09:00 PM; TUESDAY 10:00 AM - 09:00 PM; WEDNESDAY 10:00 AM - 09:00 PM; THURSDAY 10:00 AM - 09:00 PM; FRIDAY 10:00 AM - 09:00 PM; SATURDAY 10:00 AM - 09:00 PM; SUNDAY 12:00 PM - 06:00 PM,,0
EASTRIDGE - NC,516,246 NEW HOPE ROAD ,,GASTONIA ,NC,28054,United States,7048647637,,,MONDAY 10:00 AM - 08:00 PM; TUESDAY 10:00 AM - 08:00 PM; WEDNESDAY 10:00 AM - 08:00 PM; THURSDAY 10:00 AM - 08:00 PM; FRIDAY 10:00 AM - 09:00 PM; SATURDAY 10:00 AM - 09:00 PM; SUNDAY 12:00 PM - 06:00 PM,,0
GREENVILLE - NC,507,714 E. GREENVILLE BLVD ,,GREENVILLE ,NC,27858,United States,2523555630,,,MONDAY 10:00 AM - 09:00 PM; TUESDAY 10:00 AM - 09:00 PM; WEDNESDAY 10:00 AM - 09:00 PM; THURSDAY 10:00 AM - 09:00 PM; FRIDAY 10:00 AM - 09:00 PM; SATURDAY 10:00 AM - 09:00 PM; SUNDAY 12:00 PM - 06:00 PM,,0
PARKWAY - AL,421,2801 MEMORIAL PARKWAY SOUTH ,,HUNTSVILLE ,AL,35801,United States,2565335404,,,MONDAY 10:00 AM - 09:00 PM; TUESDAY 10:00 AM - 09:00 PM; WEDNESDAY 10:00 AM - 09:00 PM; THURSDAY 10:00 AM - 09:00 PM; FRIDAY 10:00 AM - 09:00 PM; SATURDAY 10:00 AM - 09:00 PM; SUNDAY 12:00 PM - 06:00 PM,,0
Killeen Mall - TX,743,2100 South W. S. Young Drive ,,Killeen ,TX,76543,United States,2546803977,,,MONDAY 10:00 AM - 09:00 PM; TUESDAY 10:00 AM - 09:00 PM; WEDNESDAY 10:00 AM - 09:00 PM; THURSDAY 10:00 AM - 09:00 PM; FRIDAY 10:00 AM - 09:00 PM; SATURDAY 10:00 AM - 09:00 PM; SUNDAY 12:00 PM - 06:00 PM,,0
CONCORD - NC,90,8111 CONCORD MILLS BOULEVARD ,,CONCORD ,NC,28027,United States,7049796636,,,MONDAY 10:00 AM - 09:00 PM; TUESDAY 10:00 AM - 09:00 PM; WEDNESDAY 10:00 AM - 09:00 PM; THURSDAY 10:00 AM - 09:00 PM; FRIDAY 10:00 AM - 09:00 PM; SATURDAY 10:00 AM - 09:00 PM; SUNDAY 12:00 PM - 07:00 PM,,0
BARNES CROSSING - MS,363,1001 BARNES CROSSING ROAD ,,TUPELO ,MS,38804,United States,6628418296,,,MONDAY 10:00 AM - 09:00 PM; TUESDAY 10:00 AM - 09:00 PM; WEDNESDAY 10:00 AM - 09:00 PM; THURSDAY 10:00 AM - 09:00 PM; FRIDAY 10:00 AM - 09:00 PM; SATURDAY 10:00 AM - 09:00 PM; SUNDAY 12:30 PM - 06:00 PM,,0
CARY - NC,334,1105 WALNUT STREET ,,CARY ,NC,27511,United States,9194699454,,,MONDAY 10:00 AM - 09:00 PM; TUESDAY 10:00 AM - 09:00 PM; WEDNESDAY 10:00 AM - 09:00 PM; THURSDAY 10:00 AM - 09:00 PM; FRIDAY 10:00 AM - 09:00 PM; SATURDAY 10:00 AM - 09:00 PM; SUNDAY 12:00 PM - 06:00 PM,,0
VALLEY HILLS - NC,398,1960 HIGHWAY 70 SE ,,HICKORY ,NC,28602,United States,8283223716,,,MONDAY 10:00 AM - 09:00 PM; TUESDAY 10:00 AM - 09:00 PM; WEDNESDAY 10:00 AM - 09:00 PM; THURSDAY 10:00 AM - 09:00 PM; FRIDAY 10:00 AM - 09:00 PM; SATURDAY 10:00 AM - 09:00 PM; SUNDAY 12:00 PM - 06:00 PM,,0
HAMILTON PLACE - TN,487,2100 HAMILTON PLACE BLVD ,,CHATTANOOGA ,TN,37421,United States,4235538135,,,MONDAY 10:00 AM - 09:00 PM; TUESDAY 10:00 AM - 09:00 PM; WEDNESDAY 10:00 AM - 09:00 PM; THURSDAY 10:00 AM - 09:00 PM; FRIDAY 10:00 AM - 09:00 PM; SATURDAY 10:00 AM - 09:00 PM; SUNDAY 12:00 PM - 06:00 PM,,0
RICHLAND MALL - TX,761,6001 West Waco Dr ,,Waco ,TX,76710,United States,2543996955,,,MONDAY 10:00 AM - 09:00 PM; TUESDAY 10:00 AM - 09:00 PM; WEDNESDAY 10:00 AM - 09:00 PM; THURSDAY 10:00 AM - 09:00 PM; FRIDAY 10:00 AM - 09:00 PM; SATURDAY 10:00 AM - 09:00 PM; SUNDAY 12:00 PM - 06:00 PM,,0
ASHEVILLE - NC,315,S 3 TUNNEL ROAD ,,ASHEVILLE ,NC,28805,United States,8282982821,,,MONDAY 10:00 AM - 09:00 PM; TUESDAY 10:00 AM - 09:00 PM; WEDNESDAY 10:00 AM - 09:00 PM; THURSDAY 10:00 AM - 09:00 PM; FRIDAY 10:00 AM - 09:00 PM; SATURDAY 10:00 AM - 09:00 PM; SUNDAY 12:00 PM - 06:00 PM,,0
FLORENCE MALL - AL,754,301 Cox Creek Parkway ,,Florence ,AL,35630,United States,2567650004,,,MONDAY 10:00 AM - 09:00 PM; TUESDAY 10:00 AM - 09:00 PM; WEDNESDAY 10:00 AM - 09:00 PM; THURSDAY 10:00 AM - 09:00 PM; FRIDAY 10:00 AM - 09:00 PM; SATURDAY 10:00 AM - 09:00 PM; SUNDAY 01:00 PM - 05:30 PM,,0
BROADWAY SQUARE - TX,801,4601 S. BROADWAY AVE. ,,TYLER ,TX,75703,United States,9039390814,,,MONDAY 10:00 AM - 09:00 PM; TUESDAY 10:00 AM - 09:00 PM; WEDNESDAY 10:00 AM - 09:00 PM; THURSDAY 10:00 AM - 09:00 PM; FRIDAY 10:00 AM - 09:00 PM; SATURDAY 10:00 AM - 09:00 PM; SUNDAY 12:00 PM - 06:00 PM,,0
NORTHGATE - NC,425,1058 WEST CLUB BLVD ,,DURHAM ,NC,27701,United States,9192862497,,,MONDAY 10:00 AM - 09:00 PM; TUESDAY 10:00 AM - 09:00 PM; WEDNESDAY 10:00 AM - 09:00 PM; THURSDAY 10:00 AM - 09:00 PM; FRIDAY 10:00 AM - 09:00 PM; SATURDAY 10:00 AM - 09:00 PM; SUNDAY 12:00 PM - 06:00 PM,,0
WEST TOWN MALL - TN,716,7600 KINGSTON PIKE ,,KNOXVILLE ,TN,37919,United States,8656924037,,,MONDAY 10:00 AM - 09:00 PM; TUESDAY 10:00 AM - 09:30 PM; WEDNESDAY 10:00 AM - 09:00 PM; THURSDAY 10:00 AM - 09:00 PM; FRIDAY 10:00 AM - 09:00 PM; SATURDAY 10:00 AM - 09:00 PM; SUNDAY 12:00 PM - 06:00 PM,,0
FOUR SEASONS - NC,408,410 FOUR SEASONS TOWNE CENTRE ,,GREENSBORO ,NC,27427,United States,3363153932,,,MONDAY 10:00 AM - 09:00 PM; TUESDAY 10:00 AM - 09:00 PM; WEDNESDAY 10:00 AM - 09:00 PM; THURSDAY 10:00 AM - 09:00 PM; FRIDAY 10:00 AM - 09:00 PM; SATURDAY 10:00 AM - 09:00 PM; SUNDAY 12:00 PM - 06:00 PM,,0
HANES - NC,261,3320 SILAS CREEK PARKWAY ,,WINSTON-SALEM ,NC,27103,United States,3367941353,,,MONDAY 10:00 AM - 09:00 PM; TUESDAY 10:00 AM - 09:00 PM; WEDNESDAY 10:00 AM - 09:00 PM; THURSDAY 10:00 AM - 09:00 PM; FRIDAY 10:00 AM - 09:00 PM; SATURDAY 10:00 AM - 09:00 PM; SUNDAY 12:00 PM - 06:00 PM,,0
CRABTREE - NC,355,4325 GLENWOOD AVENUE ,,RALEIGH ,NC,27612,United States,9194207900,,,MONDAY 10:00 AM - 09:00 PM; TUESDAY 10:00 AM - 09:00 PM; WEDNESDAY 10:00 AM - 09:00 PM; THURSDAY 10:00 AM - 09:00 PM; FRIDAY 10:00 AM - 09:00 PM; SATURDAY 10:00 AM - 09:00 PM; SUNDAY 12:00 PM - 07:00 PM,,0
TRIANGLE - NC,360,5959 TRIANGLE TOWN BLVD ,,RALEIGH ,NC,27616,United States,9197920246,,,MONDAY 10:00 AM - 09:00 PM; TUESDAY 10:00 AM - 09:00 PM; WEDNESDAY 10:00 AM - 09:00 PM; THURSDAY 10:00 AM - 09:00 PM; FRIDAY 10:00 AM - 09:00 PM; SATURDAY 10:00 AM - 09:00 PM; SUNDAY 12:00 PM - 06:00 PM,,0
MALL AT JOHNSON CITY - TN,737,2011 N. ROAN ST. ,,JOHNSON CITY ,TN,37601,United States,4232620053,,,MONDAY 10:00 AM - 09:00 PM; TUESDAY 10:00 AM - 09:00 PM; WEDNESDAY 10:00 AM - 09:00 PM; THURSDAY 10:00 AM - 09:00 PM; FRIDAY 10:00 AM - 09:00 PM; SATURDAY 10:00 AM - 09:00 PM; SUNDAY 12:00 PM - 06:00 PM,,0
STONES RIVER - TN,302,1720 OLD FORT PARKWAY ,,MURFREESBORO ,TN,37129,United States,6158671093,,,MONDAY 10:00 AM - 09:00 PM; TUESDAY 10:00 AM - 09:00 PM; WEDNESDAY 10:00 AM - 09:00 PM; THURSDAY 10:00 AM - 09:00 PM; FRIDAY 10:00 AM - 09:00 PM; SATURDAY 10:00 AM - 09:00 PM; SUNDAY 12:00 PM - 06:00 PM,,0
WOLFCHASE - TN,275,2760 N. GERMANTOWN ROAD ,,MEMPHIS ,TN,38133,United States,9013790409,,,MONDAY 10:00 AM - 09:00 PM; TUESDAY 10:00 AM - 09:00 PM; WEDNESDAY 10:00 AM - 09:00 PM; THURSDAY 10:00 AM - 09:00 PM; FRIDAY 10:00 AM - 09:00 PM; SATURDAY 10:00 AM - 09:00 PM; SUNDAY 12:00 PM - 06:00 PM,,0
HILLSIDE VILLAGE - TX,797,305 W. FM 1382 Suite 590 ,,CEDAR HILL ,TX,75104,United States,9722938510,,,MONDAY 10:00 AM - 09:00 PM; TUESDAY 11:00 AM - 09:00 PM; WEDNESDAY 10:00 AM - 09:00 PM; THURSDAY 10:00 AM - 09:00 PM; FRIDAY 10:00 AM - 09:00 PM; SATURDAY 10:00 AM - 09:00 PM; SUNDAY 12:00 PM - 06:00 PM,,0
GRAND PRAIRIE OUTLETS - TX,589,2950 WEST INTERSTATE 20 ,,GRAND PRAIRIE ,TX,75052,United States,9726411244,,,MONDAY 10:00 AM - 09:00 PM; TUESDAY 10:00 AM - 09:00 PM; WEDNESDAY 10:00 AM - 09:00 PM; THURSDAY 10:00 AM - 09:00 PM; FRIDAY 10:00 AM - 09:00 PM; SATURDAY 10:00 AM - 09:00 PM; SUNDAY 11:00 AM - 06:00 PM,,0
TOWN EAST - TX,130,2063 TOWN EAST MALL ,,MESQUITE ,TX,75150,United States,2142310181,,,MONDAY 10:00 AM - 09:00 PM; TUESDAY 10:00 AM - 09:00 PM; WEDNESDAY 10:00 AM - 09:00 PM; THURSDAY 10:00 AM - 09:00 PM; FRIDAY 10:00 AM - 09:00 PM; SATURDAY 10:00 AM - 09:00 PM; SUNDAY 12:00 PM - 06:00 PM,,0
FIREWHEEL - TX,366,370 CEDAR SAGE DRIVE ,,GARLAND ,TX,75040,United States,9725305422,,,MONDAY 10:00 AM - 09:00 PM; TUESDAY 10:00 AM - 09:00 PM; WEDNESDAY 10:00 AM - 09:00 PM; THURSDAY 10:00 AM - 09:00 PM; FRIDAY 10:00 AM - 09:00 PM; SATURDAY 10:00 AM - 09:00 PM; SUNDAY 12:00 PM - 06:00 PM,,0
ARLINGTON - TX,176,3811 SOUTH COOPER STREET ,,ARLINGTON ,TX,76015,United States,8173751985,,,MONDAY 10:00 AM - 09:00 PM; TUESDAY 10:00 AM - 09:00 PM; WEDNESDAY 10:00 AM - 09:00 PM; THURSDAY 10:00 AM - 09:00 PM; FRIDAY 10:00 AM - 09:00 PM; SATURDAY 10:00 AM - 09:00 PM; SUNDAY 12:00 PM - 06:00 PM,,0
TANGER OUTLETS SOUTHAVEN - MS,789,5205 AIRWAYS BLVD. ,,SOUTHAVEN ,MS,38671,United States,6625363755,,,MONDAY 09:00 AM - 09:00 PM; TUESDAY 09:00 AM - 09:00 PM; WEDNESDAY 09:00 AM - 09:00 PM; THURSDAY 09:00 AM - 09:00 PM; FRIDAY 09:00 AM - 10:00 PM; SATURDAY 09:00 AM - 10:00 PM; SUNDAY 12:00 PM - 06:00 PM,,0
OLD HICKORY MALL - TN,706,2021 NORTH HIGHLAND AVENUE ,,JACKSON ,TN,38305,United States,7316683483,,,MONDAY 10:00 AM - 09:00 PM; TUESDAY 10:00 AM - 09:00 PM; WEDNESDAY 10:00 AM - 09:00 PM; THURSDAY 10:00 AM - 09:00 PM; FRIDAY 10:00 AM - 09:00 PM; SATURDAY 10:00 AM - 09:00 PM; SUNDAY 12:00 PM - 06:00 PM,,0
COOLSPRINGS - TN,325,1800 GALLERIA BOULEVARD ,,FRANKLIN ,TN,37067,United States,6157711962,,,MONDAY 10:00 AM - 09:00 PM; TUESDAY 10:00 AM - 09:00 PM; WEDNESDAY 10:00 AM - 09:00 PM; THURSDAY 10:00 AM - 09:00 PM; FRIDAY 10:00 AM - 09:00 PM; SATURDAY 10:00 AM - 09:00 PM; SUNDAY 12:00 PM - 06:00 PM,,0
LYNNHAVEN - VA,177,701 LYNNHAVEN PKWY ,,VIRGINIA BEACH ,VA,23452,United States,7574868120,,,MONDAY 10:00 AM - 09:00 PM; TUESDAY 10:00 AM - 09:00 PM; WEDNESDAY 10:00 AM - 09:00 PM; THURSDAY 10:00 AM - 09:00 PM; FRIDAY 10:00 AM - 09:00 PM; SATURDAY 10:00 AM - 09:00 PM; SUNDAY 11:00 AM - 06:00 PM,,0
NORTHPARK - TX,569,8687 NORTH CENTRAL EXPRESSWAY ,,DALLAS ,TX,75225,United States,2142651446,,,MONDAY 10:00 AM - 09:00 PM; TUESDAY 10:00 AM - 09:00 PM; WEDNESDAY 10:00 AM - 09:00 PM; THURSDAY 10:00 AM - 09:00 PM; FRIDAY 10:00 AM - 09:00 PM; SATURDAY 10:00 AM - 09:00 PM; SUNDAY 12:00 PM - 06:00 PM,,0
GREENBRIER - VA,340,1401 GREENBRIER PARKWAY SOUTH ,,CHESAPEAKE ,VA,23320,United States,7573619039,,,MONDAY 10:00 AM - 09:00 PM; TUESDAY 10:00 AM - 09:00 PM; WEDNESDAY 10:00 AM - 09:00 PM; THURSDAY 10:00 AM - 09:00 PM; FRIDAY 10:00 AM - 09:00 PM; SATURDAY 10:00 AM - 09:00 PM; SUNDAY 12:00 PM - 05:30 PM,,0
HULEN - TX,402,S 4800 HULEN ST ,,FORT WORTH ,TX,76132,United States,8173611730,,,MONDAY 10:00 AM - 09:00 PM; TUESDAY 11:00 AM - 09:00 PM; WEDNESDAY 10:00 AM - 09:00 PM; THURSDAY 10:00 AM - 09:00 PM; FRIDAY 10:00 AM - 09:00 PM; SATURDAY 10:00 AM - 09:00 PM; SUNDAY 12:00 PM - 06:00 PM,,0
GALLERIA DALLAS - TX,452,13350 DALLAS PKWY ,,DALLAS ,TX,75240,United States,9722392082,,,MONDAY 10:00 AM - 09:00 PM; TUESDAY 10:00 AM - 09:00 PM; WEDNESDAY 10:00 AM - 09:00 PM; THURSDAY 10:00 AM - 09:00 PM; FRIDAY 10:00 AM - 09:00 PM; SATURDAY 10:00 AM - 09:00 PM; SUNDAY 11:00 AM - 07:00 PM,,0
ALLEN OUTLET - TX,564,820 WEST STACEY RD ,,ALLEN ,TX,75013,United States,9726784100,,,MONDAY 10:00 AM - 09:00 PM; TUESDAY 10:00 AM - 09:00 PM; WEDNESDAY 10:00 AM - 09:00 PM; THURSDAY 10:00 AM - 09:00 PM; FRIDAY 10:00 AM - 09:00 PM; SATURDAY 10:00 AM - 09:00 PM; SUNDAY 12:00 PM - 06:00 PM,,0
MCCAIN MALL - AR,537,3929 MCCAIN BLVD N. ,,LITTLE ROCK ,AR,72116,United States,5018125746,,,MONDAY 10:00 AM - 09:00 PM; TUESDAY 10:00 AM - 09:00 PM; WEDNESDAY 10:00 AM - 09:00 PM; THURSDAY 10:00 AM - 09:00 PM; FRIDAY 10:00 AM - 09:00 PM; SATURDAY 10:00 AM - 09:00 PM; SUNDAY 12:30 PM - 06:00 PM,,0
OPRY - TN,113,436 OPRY MILLS DRIVE ,,NASHVILLE ,TN,37214,United States,6156862028,,,MONDAY 10:00 AM - 09:00 PM; TUESDAY 10:00 AM - 09:00 PM; WEDNESDAY 10:00 AM - 09:00 PM; THURSDAY 10:00 AM - 09:00 PM; FRIDAY 10:00 AM - 09:00 PM; SATURDAY 10:00 AM - 09:00 PM; SUNDAY 11:00 AM - 07:00 PM,,0
OAK COURT - TN,311,4465 POPLAR AVENUE ,,MEMPHIS ,TN,38117,United States,9017665991,,,MONDAY 10:00 AM - 09:00 PM; TUESDAY 10:00 AM - 09:00 PM; WEDNESDAY 10:00 AM - 09:00 PM; THURSDAY 10:00 AM - 09:00 PM; FRIDAY 10:00 AM - 09:00 PM; SATURDAY 10:00 AM - 09:00 PM; SUNDAY 12:00 PM - 06:00 PM,,0
NORTH EAST - TX,125,1101 MELBOURNE RD ,,HURST ,TX,76053,United States,8175951499,,,MONDAY 10:00 AM - 09:00 PM; TUESDAY 10:00 AM - 09:00 PM; WEDNESDAY 10:00 AM - 09:00 PM; THURSDAY 10:00 AM - 09:00 PM; FRIDAY 10:00 AM - 09:00 PM; SATURDAY 10:00 AM - 09:00 PM; SUNDAY 12:00 PM - 06:00 PM,,0
GRAPEVINE - TX,45,3000 GRAPEVINE MILLS PARKWAY ,,GRAPEVINE ,TX,76051,United States,9725394668,,,MONDAY 10:00 AM - 09:00 PM; TUESDAY 10:00 AM - 09:00 PM; WEDNESDAY 10:00 AM - 09:00 PM; THURSDAY 10:00 AM - 09:00 PM; FRIDAY 10:00 AM - 09:00 PM; SATURDAY 10:00 AM - 09:00 PM; SUNDAY 11:00 AM - 07:00 PM,,0
PATRICK HENRY - VA,435,12300 JEFFERSON AVENUE ,,NEWPORT NEWS ,VA,23602,United States,7572492048,,,MONDAY 10:00 AM - 09:00 PM; TUESDAY 10:00 AM - 09:00 PM; WEDNESDAY 10:00 AM - 09:00 PM; THURSDAY 10:00 AM - 09:00 PM; FRIDAY 10:00 AM - 09:00 PM; SATURDAY 10:00 AM - 09:00 PM; SUNDAY 12:00 AM - 06:00 PM,,0
STONEBRIAR - TX,122,2601 PRESTON ROAD ,,FRISCO ,TX,75034,United States,9726680357,,,MONDAY 10:00 AM - 09:00 PM; TUESDAY 10:00 AM - 09:00 PM; WEDNESDAY 10:00 AM - 09:00 PM; THURSDAY 10:00 AM - 09:00 PM; FRIDAY 10:00 AM - 09:00 PM; SATURDAY 10:00 AM - 09:00 PM; SUNDAY 12:00 PM - 06:00 PM,,0
GOLDEN TRIANGLE MALL - TX,738,2201 SOUTH I-35E ,,DENTON ,TX,76205,United States,9403828289,,,MONDAY 10:00 AM - 09:00 PM; TUESDAY 10:00 AM - 09:00 PM; WEDNESDAY 10:00 AM - 09:00 PM; THURSDAY 10:00 AM - 09:00 PM; FRIDAY 10:00 AM - 09:00 PM; SATURDAY 10:00 AM - 09:00 PM; SUNDAY 12:00 PM - 06:00 PM,,0
MAC ARTHUR - VA,319,300 MONTICELLO AVENUE ,,NORFOLK ,VA,23510,United States,7576272807,,,MONDAY 10:00 AM - 09:00 PM; TUESDAY 10:00 AM - 09:00 PM; WEDNESDAY 10:00 AM - 09:00 PM; THURSDAY 10:00 AM - 09:00 PM; FRIDAY 10:00 AM - 09:00 PM; SATURDAY 10:00 AM - 09:00 PM; SUNDAY 12:00 PM - 06:00 PM,,0
435 PATRICK HENRY - VA HOLD (435),902,12300 Jefferson Avenue SP # 214 ,,NEWPORT NEWS ,VA,23602,United States,,,,MONDAY Call Store for Hours; TUESDAY Call Store for Hours; WEDNESDAY Call Store for Hours; THURSDAY Call Store for Hours; FRIDAY Call Store for Hours; SATURDAY Call Store for Hours; SUNDAY Call Store for Hours,,0
RIVER VALLEY - VA,496,782 NEW RIVER ROAD ,,CHRISTIANSBURG ,VA,24073,United States,5403814505,,,MONDAY 10:00 AM - 09:00 PM; TUESDAY 10:00 AM - 09:00 PM; WEDNESDAY 10:00 AM - 09:00 PM; THURSDAY 10:00 AM - 09:00 PM; FRIDAY 10:00 AM - 09:00 PM; SATURDAY 10:00 AM - 09:00 PM; SUNDAY 12:00 PM - 06:00 PM,,0
VISTA RIDGE - TX,339,2401 SOUTH STEMMONS FREEWAY ,,LEWISVILLE ,TX,75067,United States,2144887637,,,MONDAY 10:00 AM - 09:00 PM; TUESDAY 10:00 AM - 09:00 PM; WEDNESDAY 10:00 AM - 09:00 PM; THURSDAY 10:00 AM - 09:00 PM; FRIDAY 10:00 AM - 09:00 PM; SATURDAY 10:00 AM - 09:00 PM; SUNDAY 12:00 PM - 06:00 PM,,0
VALLEY VIEW - VA,362,4802 VALLEY VIEW BLVD NW ,,ROANOKE ,VA,24012,United States,5402650382,,,MONDAY 10:00 AM - 09:00 PM; TUESDAY 10:00 AM - 09:00 PM; WEDNESDAY 10:00 AM - 09:00 PM; THURSDAY 10:00 AM - 09:00 PM; FRIDAY 10:00 AM - 09:00 PM; SATURDAY 10:00 AM - 09:00 PM; SUNDAY 12:00 PM - 06:00 PM,,0
REGENCY SQ - VA,400,1420 PARHAM ROAD ,,RICHMOND ,VA,23229,United States,8047408436,,,MONDAY 10:00 AM - 09:00 PM; TUESDAY 10:00 AM - 09:00 PM; WEDNESDAY 10:00 AM - 09:00 PM; THURSDAY 10:00 AM - 09:00 PM; FRIDAY 10:00 AM - 09:00 PM; SATURDAY 10:00 AM - 10:00 PM; SUNDAY 12:00 PM - 06:00 PM,,0
COLLIN CREEK - TX,64,811 N. CENTRAL EXPRESSWAY ,,PLANO ,TX,75075,United States,9725090524,,,MONDAY 10:00 AM - 09:00 PM; TUESDAY 10:00 AM - 09:00 PM; WEDNESDAY 10:00 AM - 09:00 PM; THURSDAY 10:00 AM - 09:00 PM; FRIDAY 10:00 AM - 09:00 PM; SATURDAY 10:00 AM - 09:00 PM; SUNDAY 12:00 PM - 06:00 PM,,0
CHESTERFIELD - VA,455,11500 MIDLOTHIAN TURNPIKE ,,RICHMOND ,VA,23235,United States,8048977185,,,MONDAY 10:00 AM - 09:00 PM; TUESDAY 10:00 AM - 09:00 PM; WEDNESDAY 10:00 AM - 09:00 PM; THURSDAY 10:00 AM - 09:00 PM; FRIDAY 10:00 AM - 09:00 PM; SATURDAY 10:00 AM - 09:00 PM; SUNDAY 12:00 PM - 06:00 PM,,0
TURTLE CREEK - AR,375,3000 EAST HIGHLAND DRIVE ,,JONESBORO ,AR,72401,United States,8703362631,,,MONDAY 10:00 AM - 09:00 PM; TUESDAY 10:00 AM - 09:00 PM; WEDNESDAY 10:00 AM - 09:00 PM; THURSDAY 10:00 AM - 09:00 PM; FRIDAY 10:00 AM - 09:00 PM; SATURDAY 10:00 AM - 09:00 PM; SUNDAY 10:00 AM - 06:00 PM,,0
GREENWOOD - KY,426,2625 SCOTTSVILLE RD ,,BOWLING GREEN ,KY,42104,United States,2707837557,,,MONDAY 10:00 AM - 09:00 PM; TUESDAY 10:00 AM - 09:00 PM; WEDNESDAY 10:00 AM - 09:00 PM; THURSDAY 10:00 AM - 09:00 PM; FRIDAY 10:00 AM - 09:00 PM; SATURDAY 10:00 AM - 09:00 PM; SUNDAY 12:00 PM - 06:00 PM,,0
CHARLOTTESVILLE FASHION SQR-VA,714,1600 RIO ROAD ,,EAST CHARLOTTESVILLE ,VA,22901,United States,4349640186,,,MONDAY 10:00 AM - 06:00 PM; TUESDAY 10:00 AM - 08:00 PM; WEDNESDAY 10:00 AM - 09:00 PM; THURSDAY 10:00 AM - 09:00 PM; FRIDAY 10:00 AM - 09:00 PM; SATURDAY 10:00 AM - 09:00 PM; SUNDAY 12:00 PM - 05:30 PM,,0
GOVERNORS SQUARE MALL - TN,765,2801 Wilma Randoph Blvd. ,,Clarksville ,TN,37040,United States,9315522093,,,MONDAY 10:00 AM - 09:00 PM; TUESDAY 10:00 AM - 09:00 PM; WEDNESDAY 10:00 AM - 09:00 PM; THURSDAY 10:00 AM - 09:00 PM; FRIDAY 10:00 AM - 09:00 PM; SATURDAY 10:00 AM - 09:00 PM; SUNDAY 11:00 AM - 06:00 PM,,0
KENTUCKY OAKS - KY,359,5101 HINKLEVILLE ROAD ,,PADUCAH ,KY,42001,United States,2704424690,,,MONDAY 10:00 AM - 09:00 PM; TUESDAY 10:00 AM - 09:00 PM; WEDNESDAY 10:00 AM - 09:00 PM; THURSDAY 10:00 AM - 09:00 PM; FRIDAY 10:00 AM - 09:00 PM; SATURDAY 10:00 AM - 09:00 PM; SUNDAY 11:00 AM - 06:00 PM,,0
SPOTSYLVANIA - VA,330,230 SPOTSYLVANIA MALL ,,FREDERICKSBURG ,VA,22407,United States,5407869149,,,MONDAY 10:00 AM - 09:30 PM; TUESDAY 10:00 AM - 09:30 PM; WEDNESDAY 10:00 AM - 09:30 PM; THURSDAY 10:00 AM - 09:30 PM; FRIDAY 10:00 AM - 09:30 PM; SATURDAY 10:00 AM - 09:30 PM; SUNDAY 11:00 AM - 06:00 PM,,0
WILLIAMSBURG - VA,481,5625 RICHMOND RD. ,,WILLIAMSBURG ,VA,23188,United States,7572599326,,,MONDAY 10:00 AM - 09:00 PM; TUESDAY 10:00 AM - 09:00 PM; WEDNESDAY 10:00 AM - 09:00 PM; THURSDAY 10:00 AM - 09:00 PM; FRIDAY 10:00 AM - 09:00 PM; SATURDAY 10:00 AM - 09:00 PM; SUNDAY 10:00 AM - 07:00 PM,,0
HUNTINGTON - WV,389,ONE MALL ROAD ,,BARBOURSVILLE ,WV,25504,United States,3047332638,,,MONDAY 09:00 AM - 10:00 PM; TUESDAY 09:00 AM - 10:00 PM; WEDNESDAY 09:00 AM - 10:00 PM; THURSDAY 09:00 AM - 10:00 PM; FRIDAY 09:00 AM - 10:00 PM; SATURDAY 09:00 AM - 10:00 PM; SUNDAY 12:00 PM - 06:00 PM,,0
CHARLESTON - WV,373,1085 CHARLESTON TOWN CENTER ,,CHARLESTON ,WV,25389,United States,3043432781,,,MONDAY 10:00 AM - 09:00 PM; TUESDAY 10:00 AM - 09:00 PM; WEDNESDAY 10:00 AM - 09:00 PM; THURSDAY 10:00 AM - 09:00 PM; FRIDAY 10:00 AM - 09:00 PM; SATURDAY 10:00 AM - 09:00 PM; SUNDAY 12:30 PM - 06:00 PM,,0
WEST PARK - MO,505,3049 WILLIAMS ST. ,,CAPE GIRARDEAU ,MO,63703,United States,5733356968,,,MONDAY 10:00 AM - 09:00 PM; TUESDAY 10:00 AM - 09:00 PM; WEDNESDAY 10:00 AM - 09:00 PM; THURSDAY 10:00 AM - 09:00 PM; FRIDAY 10:00 AM - 09:00 PM; SATURDAY 10:00 AM - 09:00 PM; SUNDAY 12:00 PM - 06:00 PM,,0
CENTRAL MALL - AR,472,5111 ROGERS AVENUE ,,FORT SMITH ,AR,72903,United States,4794521794,,,MONDAY 10:00 AM - 09:00 PM; TUESDAY 10:00 AM - 09:00 PM; WEDNESDAY 10:00 AM - 09:00 PM; THURSDAY 10:00 AM - 09:00 PM; FRIDAY 10:00 AM - 09:00 PM; SATURDAY 10:00 AM - 09:00 PM; SUNDAY 12:00 PM - 06:00 PM,,0
MIDLAND PARK - TX,534,4511 NORTH MIDKIFF DRIVE ,,MIDLAND ,TX,79705,United States,4326898039,,,MONDAY 10:00 AM - 09:00 PM; TUESDAY 10:00 AM - 09:00 PM; WEDNESDAY 10:00 AM - 09:00 PM; THURSDAY 10:00 AM - 09:00 PM; FRIDAY 10:00 AM - 09:00 PM; SATURDAY 10:00 AM - 09:00 PM; SUNDAY 12:00 PM - 06:00 PM,,0
VIRGINIA CENTER COMMONS - VA,538,10101 BROOK ROAD GLEN ,,ALLEN ,VA,23059,United States,8042641774,,,MONDAY 10:00 AM - 09:00 PM; TUESDAY 10:00 AM - 09:00 PM; WEDNESDAY 10:00 AM - 09:00 PM; THURSDAY 10:00 AM - 09:00 PM; FRIDAY 10:00 AM - 09:00 PM; SATURDAY 10:00 AM - 09:00 PM; SUNDAY 10:00 AM - 06:00 PM,,0
OCEAN CITY OUTLET CENTER - MD,746,12741 Ocean Gateway ,,Ocean City ,MD,21842,United States,4102131875,,,MONDAY 09:00 AM - 09:00 PM; TUESDAY 09:00 AM - 09:00 PM; WEDNESDAY 09:00 AM - 09:00 PM; THURSDAY 09:00 AM - 09:00 PM; FRIDAY 09:00 AM - 09:00 PM; SATURDAY 09:00 AM - 09:00 PM; SUNDAY 10:00 AM - 07:00 PM,,0
ST. CHARLES - MD,335,11110 MALL CIRCLE ,,WALDORF ,MD,20603,United States,3019325377,,,MONDAY 10:00 AM - 09:00 PM; TUESDAY 10:00 AM - 09:00 PM; WEDNESDAY 10:00 AM - 09:00 PM; THURSDAY 10:00 AM - 09:00 PM; FRIDAY 10:00 AM - 09:00 PM; SATURDAY 10:00 AM - 09:00 PM; SUNDAY 11:00 AM - 06:00 PM,,0
OUTLET BLUEGRASS - KY,728,1155 Buck Creek Rd ,,Simpsonville ,KY,40067,United States,5027223180,,,MONDAY 10:00 AM - 09:00 PM; TUESDAY 10:00 AM - 09:00 PM; WEDNESDAY 10:00 AM - 09:00 PM; THURSDAY 10:00 AM - 09:00 PM; FRIDAY 10:00 AM - 09:00 PM; SATURDAY 10:00 AM - 09:00 PM; SUNDAY 10:00 AM - 07:00 PM,,0
JEFFERSON - KY,364,4801 OUTER LOOP ,,LOUISVILLE ,KY,40219,United States,5029684515,,,MONDAY 10:00 AM - 09:00 PM; TUESDAY 10:00 AM - 09:00 PM; WEDNESDAY 10:00 AM - 09:00 PM; THURSDAY 10:00 AM - 09:00 PM; FRIDAY 10:00 AM - 09:00 PM; SATURDAY 10:00 AM - 09:00 PM; SUNDAY 12:00 PM - 06:00 PM,,0
SALISBURY - MD,460,2300 N. SALISBURY BLVD. ,,SALISBURY ,MD,21801,United States,4105439320,,,MONDAY 10:00 AM - 09:00 PM; TUESDAY 10:00 AM - 09:00 PM; WEDNESDAY 10:00 AM - 09:00 PM; THURSDAY 10:00 AM - 09:00 PM; FRIDAY 10:00 AM - 09:00 PM; SATURDAY 10:00 AM - 09:00 PM; SUNDAY 11:00 AM - 06:00 PM,,0
Ashland Town Center - KY,770,500 Winchester Ave ,,Ashland ,KY,41101,United States,6069209601,,,MONDAY 10:00 AM - 09:00 PM; TUESDAY 10:00 AM - 09:00 PM; WEDNESDAY 10:00 AM - 09:00 PM; THURSDAY 10:00 AM - 09:00 PM; FRIDAY 10:00 AM - 09:00 PM; SATURDAY 10:00 AM - 09:00 PM; SUNDAY 12:00 PM - 06:00 PM,,0
ST. MATTHEWS - KY,273,5000 SHELBYVILLE ROAD ,,LOUISVILLE ,KY,40207,United States,5028932961,,,MONDAY 10:00 AM - 09:00 PM; TUESDAY 10:00 AM - 09:00 PM; WEDNESDAY 10:00 AM - 09:00 PM; THURSDAY 10:00 AM - 09:00 PM; FRIDAY 10:00 AM - 09:00 PM; SATURDAY 10:00 AM - 09:00 PM; SUNDAY 12:00 PM - 06:00 PM,,0
NORTHWEST - AR,336,4201 NORTH SHILOH DRIVE ,,FAYETTEVILLE ,AR,72703,United States,4794446524,,,MONDAY 10:00 AM - 09:00 PM; TUESDAY 10:00 AM - 09:00 PM; WEDNESDAY 10:00 AM - 09:00 PM; THURSDAY 10:00 AM - 09:00 PM; FRIDAY 10:00 AM - 09:00 PM; SATURDAY 10:00 AM - 09:00 PM; SUNDAY 12:00 PM - 06:00 PM,,0
SPRINGFIELD TOWN CTR - VA,764,6500 SPRINGFIELD MALL ,,SPRINGFIELD ,VA,22150,United States,7039213160,,,MONDAY 10:00 AM - 09:30 PM; TUESDAY 10:00 AM - 09:30 PM; WEDNESDAY 10:00 AM - 09:30 PM; THURSDAY 10:00 AM - 09:30 PM; FRIDAY 10:00 AM - 09:30 PM; SATURDAY 10:00 AM - 09:30 PM; SUNDAY 11:00 AM - 07:00 PM,,0
POTOMAC MILLS - VA,763,2700 POTOMAC MILLS CIRCLE ,,WOODBRIDGE ,VA,22192,United States,7034999324,,,MONDAY 10:00 AM - 09:00 PM; TUESDAY 10:00 AM - 09:00 PM; WEDNESDAY 10:00 AM - 09:00 PM; THURSDAY 10:00 AM - 09:00 PM; FRIDAY 10:00 AM - 09:00 PM; SATURDAY 10:00 AM - 09:00 PM; SUNDAY 11:00 AM - 06:00 PM,,0
MANASSAS - VA,498,8300 SUDLEY ROAD ,,MANASSAS ,VA,20109,United States,7032570907,,,MONDAY 10:00 AM - 09:00 PM; TUESDAY 10:00 AM - 09:00 PM; WEDNESDAY 10:00 AM - 09:00 PM; THURSDAY 10:00 AM - 09:00 PM; FRIDAY 10:00 AM - 09:00 PM; SATURDAY 10:00 AM - 09:00 PM; SUNDAY 11:00 AM - 06:00 PM,,0
EASTLAND - IN,369,800 NORTH GREEN RIVER ROAD ,,EVANSVILLE ,IN,47715,United States,8124751301,,,MONDAY 10:00 AM - 09:00 PM; TUESDAY 10:00 AM - 09:00 PM; WEDNESDAY 10:00 AM - 09:00 PM; THURSDAY 10:00 AM - 09:00 PM; FRIDAY 10:00 AM - 09:00 PM; SATURDAY 10:00 AM - 09:00 PM; SUNDAY 11:00 AM - 06:00 PM,,0
PINNACLE HILLS - AR,404,2203 PROMENADE BLVD ,,ROGERS ,AR,72758,United States,4796314501,,,MONDAY 10:00 AM - 09:00 PM; TUESDAY 10:00 AM - 09:00 PM; WEDNESDAY 10:00 AM - 09:00 PM; THURSDAY 10:00 AM - 09:00 PM; FRIDAY 10:00 AM - 09:00 PM; SATURDAY 10:00 AM - 09:00 PM; SUNDAY 12:00 PM - 06:00 PM,,0
TYSON'S CORNER - VA,542,7860 TYSON'S CORNER ,,CENTER MCLEAN ,VA,22102,United States,7038270030,,,MONDAY 10:00 AM - 09:30 PM; TUESDAY 10:00 AM - 09:30 PM; WEDNESDAY 10:00 AM - 09:30 PM; THURSDAY 10:00 AM - 09:30 PM; FRIDAY 10:00 AM - 09:30 PM; SATURDAY 10:00 AM - 09:30 PM; SUNDAY 11:00 AM - 07:00 PM,,0
BRANSON LANDING - MO,376,405 BRANSON LANDING BLVD ,,BRANSON ,MO,65616,United States,4172390690,,,MONDAY 10:00 AM - 09:00 PM; TUESDAY 10:00 AM - 09:00 PM; WEDNESDAY 10:00 AM - 09:00 PM; THURSDAY 10:00 AM - 09:00 PM; FRIDAY 10:00 AM - 10:00 PM; SATURDAY 10:00 AM - 10:00 PM; SUNDAY 10:00 AM - 08:00 PM,,0
NATIONAL HARBOR - MD,739,6800 OXON HILL RD ,,NATIONAL HARBOR ,MD,20745,United States,3016860671,,,MONDAY 09:00 AM - 09:00 PM; TUESDAY 09:00 AM - 09:00 PM; WEDNESDAY 09:00 AM - 09:00 PM; THURSDAY 09:00 AM - 09:00 PM; FRIDAY 09:00 AM - 09:00 PM; SATURDAY 09:00 AM - 09:00 PM; SUNDAY 10:00 AM - 07:00 PM,,0
WHEATON - MD,324,11160 VEIRS MILL ROAD ,,WHEATON ,MD,20902,United States,3019469646,,,MONDAY 10:00 AM - 09:00 PM; TUESDAY 10:00 AM - 09:00 PM; WEDNESDAY 10:00 AM - 09:00 PM; THURSDAY 10:00 AM - 09:00 PM; FRIDAY 10:00 AM - 09:00 PM; SATURDAY 10:00 AM - 09:00 PM; SUNDAY 10:00 AM - 07:00 PM,,0
ARUNDEL - MD,129,7000 ARUNDEL MILLS CIRCLE ,,HANOVER ,MD,21076,United States,4437559850,,,MONDAY 10:00 AM - 09:30 PM; TUESDAY 10:00 AM - 09:30 PM; WEDNESDAY 10:00 AM - 09:30 PM; THURSDAY 10:00 AM - 09:30 PM; FRIDAY 10:00 AM - 09:30 PM; SATURDAY 10:00 AM - 09:30 PM; SUNDAY Closed,,0
ANNAPOLIS - MD,197,2002 ANNAPOLIS MALL ,,ANNAPOLIS ,MD,21401,United States,4102669517,,,MONDAY 10:00 AM - 09:00 PM; TUESDAY 10:00 AM - 09:00 PM; WEDNESDAY 10:00 AM - 09:00 PM; THURSDAY 10:00 AM - 09:00 PM; FRIDAY 10:00 AM - 09:00 PM; SATURDAY 10:00 AM - 09:00 PM; SUNDAY 11:00 AM - 06:00 PM,,0
THE MALL IN COLUMBIA - MD,794,10300 LITTLE PATUXENT PKWY ,,COLUMBIA ,MD,21044-7035,United States,4107308136,,,MONDAY 10:00 AM - 09:00 PM; TUESDAY 10:00 AM - 09:00 PM; WEDNESDAY 10:00 AM - 09:00 PM; THURSDAY 10:00 AM - 09:00 PM; FRIDAY 10:00 AM - 09:00 PM; SATURDAY 10:00 AM - 09:00 PM; SUNDAY 10:00 AM - 07:00 PM,,0
LEESBURG PREM.OUTLET - VA,567,241 FORT EVANS ROAD N.E. ,,LEESBURG ,VA,20176,United States,7037791880,,,MONDAY 09:00 AM - 09:00 PM; TUESDAY 09:00 AM - 06:00 PM; WEDNESDAY 10:00 AM - 09:00 PM; THURSDAY 10:00 AM - 09:00 PM; FRIDAY 10:00 AM - 09:00 PM; SATURDAY 10:00 AM - 09:00 PM; SUNDAY 10:00 AM - 08:00 PM,,0
APPLE BLOSSOM - VA,480,1850 APPLEBLOSSOM DRIVE ,,WINCHESTER ,VA,22601,United States,5406624312,,,MONDAY 10:00 AM - 09:00 PM; TUESDAY 10:00 AM - 09:00 PM; WEDNESDAY 10:00 AM - 09:00 PM; THURSDAY 10:00 AM - 09:00 PM; FRIDAY 10:00 AM - 09:00 PM; SATURDAY 10:00 AM - 09:00 PM; SUNDAY 11:00 AM - 07:00 PM,,0
SOONER - OK,219,W 3329 MAIN STREET ,,NORMAN ,OK,73072,United States,4055739399,,,MONDAY 10:00 AM - 09:00 PM; TUESDAY 10:00 AM - 09:00 PM; WEDNESDAY 10:00 AM - 09:00 PM; THURSDAY 10:00 AM - 09:00 PM; FRIDAY 10:00 AM - 09:00 PM; SATURDAY 10:00 AM - 09:00 PM; SUNDAY 12:00 PM - 06:00 PM,,0
TULSA - OK,212,4107 SOUTH YALE ,,TULSA ,OK,74135,United States,9186650291,,,MONDAY 10:00 AM - 09:00 PM; TUESDAY 10:00 AM - 09:00 PM; WEDNESDAY 10:00 AM - 09:00 PM; THURSDAY 10:00 AM - 09:00 PM; FRIDAY 10:00 AM - 09:00 PM; SATURDAY 10:00 AM - 09:00 PM; SUNDAY 12:00 PM - 06:00 PM,,0
DULLES - VA,108,21100 DULLES TOWN CIRCLE ,,DULLES ,VA,20166,United States,7034335170,,,MONDAY 10:00 AM - 09:00 PM; TUESDAY 10:00 AM - 09:00 PM; WEDNESDAY 10:00 AM - 09:00 PM; THURSDAY 10:00 AM - 09:00 PM; FRIDAY 10:00 AM - 09:00 PM; SATURDAY 10:00 AM - 09:00 PM; SUNDAY 11:00 AM - 06:00 PM,,0
WOODLAND HILLS - OK,131,7021 S. MEMORIAL DRIVE ,,TULSA ,OK,74133,United States,9182494702,,,MONDAY 10:00 AM - 09:00 PM; TUESDAY 10:00 AM - 09:00 PM; WEDNESDAY 10:00 AM - 09:00 PM; THURSDAY 10:00 AM - 09:00 PM; FRIDAY 10:00 AM - 09:00 PM; SATURDAY 10:00 AM - 09:00 PM; SUNDAY 12:00 PM - 07:00 PM,,0
DOVER - DE,213,1365 NORTH DUPONT HWY ,,DOVER ,DE,19901,United States,3027412470,,,MONDAY 10:00 AM - 09:00 PM; TUESDAY 10:00 AM - 09:00 PM; WEDNESDAY 10:00 AM - 09:00 PM; THURSDAY 10:00 AM - 09:00 PM; FRIDAY 10:00 AM - 09:00 PM; SATURDAY 10:00 AM - 09:00 PM; SUNDAY 11:00 AM - 06:00 PM,,0
FSK - MD,483,5500 BUCKEYESTOWN PIKE ,,FREDRICK ,MD,21703,United States,3016951256,,,MONDAY 10:00 AM - 09:00 PM; TUESDAY 10:00 AM - 09:00 PM; WEDNESDAY 10:00 AM - 09:00 PM; THURSDAY 10:00 AM - 09:00 PM; FRIDAY 10:00 AM - 09:00 PM; SATURDAY 10:00 AM - 09:00 PM; SUNDAY 11:00 AM - 06:00 PM,,0
WHITE MARSH MALL - MD,776,8200 Perry Hall Blvd. ,,Baltimore ,MD,21236,United States,4109333411,,,MONDAY 10:00 AM - 09:00 PM; TUESDAY 10:00 AM - 09:00 PM; WEDNESDAY 10:00 AM - 09:00 PM; THURSDAY 10:00 AM - 09:00 PM; FRIDAY 10:00 AM - 09:00 PM; SATURDAY 10:00 AM - 09:00 PM; SUNDAY 11:00 AM - 06:00 PM,,0
LAKEFOREST - MD,112,701 RUSSELL AVENUE ,,GAITHERSBURG ,MD,20877,United States,3019471912,,,MONDAY 10:00 AM - 09:00 PM; TUESDAY 10:00 AM - 09:00 PM; WEDNESDAY 10:00 AM - 09:00 PM; THURSDAY 10:00 AM - 09:00 PM; FRIDAY 10:00 AM - 09:00 PM; SATURDAY 10:00 AM - 09:00 PM; SUNDAY 11:00 AM - 06:00 PM,,0
BATTLEFIELD - MO,279,2825 S GLENSTONE AVE ,,SPRINGFIELD ,MO,65804,United States,4178861308,,,MONDAY 10:00 AM - 09:00 PM; TUESDAY 10:00 AM - 06:00 PM; WEDNESDAY 10:00 AM - 06:00 PM; THURSDAY 10:00 AM - 09:00 PM; FRIDAY 10:00 AM - 09:00 PM; SATURDAY 10:00 AM - 09:00 PM; SUNDAY 12:00 PM - 06:00 PM,,0
THE OUTLET SHOPPES OKC - OK,804,7650 WEST RENO AVENUE ,,OKLAHOMA CITY ,OK,73127,United States,4054912698,,,MONDAY 10:00 AM - 09:00 PM; TUESDAY 10:00 AM - 09:00 PM; WEDNESDAY 10:00 AM - 09:00 PM; THURSDAY 10:00 AM - 09:00 PM; FRIDAY 10:00 AM - 09:00 PM; SATURDAY 10:00 AM - 09:00 PM; SUNDAY 11:00 AM - 07:00 PM,,0
PENN SQUARE - OK,191,1901 NW EXPRESSWAY ,,OKLAHOMA CITY ,OK,73118,United States,4058580858,,,MONDAY 10:00 AM - 09:00 PM; TUESDAY 10:00 AM - 09:00 PM; WEDNESDAY 10:00 AM - 09:00 PM; THURSDAY 10:00 AM - 09:00 PM; FRIDAY 10:00 AM - 09:00 PM; SATURDAY 10:00 AM - 09:00 PM; SUNDAY 12:00 PM - 06:00 PM,,0
HARFORD - MD,474,696 BEL AIR ROAD ,,BEL AIR ,MD,21014,United States,4104209371,,,MONDAY 10:00 AM - 09:00 PM; TUESDAY 10:00 AM - 09:00 PM; WEDNESDAY 10:00 AM - 09:00 PM; THURSDAY 10:00 AM - 09:00 PM; FRIDAY 10:00 AM - 09:00 PM; SATURDAY 10:00 AM - 09:00 PM; SUNDAY 11:00 AM - 05:00 PM,,0
HAMILTON - NJ,82,4403 BLACK HORSE PIKE ,,MAYS LANDING ,NJ,08330,United States,6096453883,,,MONDAY 10:00 AM - 09:00 PM; TUESDAY 10:00 AM - 09:00 PM; WEDNESDAY 10:00 AM - 09:00 PM; THURSDAY 10:00 AM - 09:00 PM; FRIDAY 10:00 AM - 09:00 PM; SATURDAY 10:00 AM - 09:00 PM; SUNDAY 11:00 AM - 06:00 PM,,0
HAGERSTOWN - MD,479,17301 VALLEY MALL ROAD ,,HAGERSTOWN ,MD,21740,United States,3015822515,,,MONDAY 10:00 AM - 09:00 PM; TUESDAY 10:00 AM - 09:00 PM; WEDNESDAY 10:00 AM - 09:00 PM; THURSDAY 10:00 AM - 09:00 PM; FRIDAY 10:00 AM - 09:00 PM; SATURDAY 10:00 AM - 09:00 PM; SUNDAY 11:00 AM - 06:00 PM,,0
MORGANTOWN MALL WV,730,9500 MALL ROAD ,,MORGANTOWN ,WV,26501,United States,3049832130,,,MONDAY 10:00 AM - 09:00 PM; TUESDAY 10:00 AM - 09:00 PM; WEDNESDAY 10:00 AM - 09:00 PM; THURSDAY 10:00 AM - 09:00 PM; FRIDAY 10:00 AM - 09:00 PM; SATURDAY 10:00 AM - 09:00 PM; SUNDAY 12:00 PM - 06:00 PM,,0
PARKERSBURG - WV,486,272 GRAND CENTRAL MALL ,,VIENNA ,WV,26101,United States,3044202453,,,MONDAY 10:00 AM - 09:00 PM; TUESDAY 10:00 AM - 09:00 PM; WEDNESDAY 10:00 AM - 09:00 PM; THURSDAY 10:00 AM - 09:00 PM; FRIDAY 10:00 AM - 09:00 PM; SATURDAY 10:00 AM - 09:00 PM; SUNDAY 12:00 PM - 06:00 PM,,0
LIBERTY CENTER - OH,788,7100 FOUNDRY ROW ,,LIBERTY TOWNSHIP ,OH,45069,United States,5137790083,,,MONDAY 10:00 AM - 09:00 PM; TUESDAY 10:00 AM - 09:00 PM; WEDNESDAY 10:00 AM - 09:00 PM; THURSDAY 10:00 AM - 09:00 PM; FRIDAY 10:00 AM - 10:00 PM; SATURDAY 10:00 AM - 10:00 PM; SUNDAY 12:00 PM - 06:00 PM,,0
EASTGATE - OH,390,4601 EASTGATE BOULEVARD ,,CINCINNATI ,OH,45245,United States,5139478103,,,MONDAY Call Store for Hours; TUESDAY Call Store for Hours; WEDNESDAY Call Store for Hours; THURSDAY Call Store for Hours; FRIDAY Call Store for Hours; SATURDAY Call Store for Hours; SUNDAY Call Store for Hours,,0
ATLANTIC CITY OUTLETS - NJ,582,122 CHRISTOPHER COLUMBUS BLVD ,,ATLANTIC CITY ,NJ,08401,United States,6093440326,,,MONDAY 10:00 AM - 08:00 PM; TUESDAY 10:00 AM - 08:00 PM; WEDNESDAY 10:00 AM - 08:00 PM; THURSDAY 10:00 AM - 08:00 PM; FRIDAY 10:00 AM - 08:00 PM; SATURDAY 10:00 AM - 08:00 PM; SUNDAY 10:00 AM - 07:00 PM,,0
SOUTH PLAINS MALL - TX,766,6002 Slide Road ,,Lubbock ,TX,79414,United States,8067970805,,,MONDAY 10:00 AM - 09:00 PM; TUESDAY 10:00 AM - 09:00 PM; WEDNESDAY 10:00 AM - 09:00 PM; THURSDAY 10:00 AM - 09:00 PM; FRIDAY 10:00 AM - 09:00 PM; SATURDAY 10:00 AM - 09:00 PM; SUNDAY 12:00 PM - 06:00 PM,,0
NORTHPARK - MO,409,101 NORTH RANGELINE ROAD ,,JOPLIN ,MO,64801,United States,4176231744,,,MONDAY Call Store for Hours; TUESDAY Call Store for Hours; WEDNESDAY Call Store for Hours; THURSDAY Call Store for Hours; FRIDAY Call Store for Hours; SATURDAY Call Store for Hours; SUNDAY Call Store for Hours,,0
QUAIL SPRINGS - OK,223,2501 W. MEMORIAL ROAD ,,OKLAHOMA CITY ,OK,73134,United States,4057557933,,,MONDAY 10:00 AM - 09:00 PM; TUESDAY 10:00 AM - 09:00 PM; WEDNESDAY 10:00 AM - 09:00 PM; THURSDAY 10:00 AM - 09:00 PM; FRIDAY 10:00 AM - 09:00 PM; SATURDAY 10:00 AM - 09:00 PM; SUNDAY 12:00 PM - 06:00 PM,,0
CINCINNATI OUTLET - OH,565,828 CINCINNATI PREMIUM OUTLET DR ,,MONROE ,OH,45050,United States,5135390046,,,MONDAY 10:00 AM - 09:00 PM; TUESDAY 10:00 AM - 09:00 PM; WEDNESDAY 10:00 AM - 09:00 PM; THURSDAY 10:00 AM - 09:00 PM; FRIDAY 10:00 AM - 09:00 PM; SATURDAY 10:00 AM - 09:00 PM; SUNDAY 10:00 AM - 07:00 PM,,0
EDINBURGH OUTLET - IN,562,11671 N EXECUTIVE DRIVE ,,EDINBURGH ,IN,46124,United States,8125262108,,,MONDAY 10:00 AM - 09:00 PM; TUESDAY 10:00 AM - 09:00 PM; WEDNESDAY 10:00 AM - 09:00 PM; THURSDAY 10:00 AM - 09:00 PM; FRIDAY 10:00 AM - 09:00 PM; SATURDAY 10:00 AM - 09:00 PM; SUNDAY 10:00 AM - 07:00 PM,,0
TRI-COUNTY - OH,96,11700 PRINCETON PIKE ,,CINCINNATI ,OH,45246,United States,5136713888,,,MONDAY 10:00 AM - 09:00 PM; TUESDAY 10:00 AM - 09:00 PM; WEDNESDAY 10:00 AM - 09:00 PM; THURSDAY 10:00 AM - 09:00 PM; FRIDAY 10:00 AM - 09:00 PM; SATURDAY 10:00 AM - 09:00 PM; SUNDAY 12:00 PM - 06:00 PM,,0
COLLEGE - IN,321,2840 EAST THIRD STREET ,,BLOOMINGTON ,IN,47401,United States,8123360290,,,MONDAY 10:00 AM - 09:00 PM; TUESDAY 10:00 AM - 09:00 PM; WEDNESDAY 10:00 AM - 09:00 PM; THURSDAY 10:00 AM - 09:00 PM; FRIDAY 10:00 AM - 09:00 PM; SATURDAY 10:00 AM - 09:00 PM; SUNDAY 11:00 AM - 06:00 PM,,0
JEFFERSONVILLE OUTLET - OH,595,8000 FACTORY SHOP BLVD. ,,JEFFERSONVILLE ,OH,43128,United States,7409489022,,,MONDAY 10:00 AM - 09:00 PM; TUESDAY 10:00 AM - 09:00 PM; WEDNESDAY 10:00 AM - 09:00 PM; THURSDAY 10:00 AM - 09:00 PM; FRIDAY 10:00 AM - 09:00 PM; SATURDAY 10:00 AM - 09:00 PM; SUNDAY 10:00 AM - 07:00 PM,,0
SOUTH COUNTY - MO,217,85 SOUTH COUNTY CENTERWAY ,,ST LOUIS ,MO,63129,United States,3144161076,,,MONDAY 10:00 AM - 09:00 PM; TUESDAY 10:00 AM - 09:00 PM; WEDNESDAY 10:00 AM - 09:00 PM; THURSDAY 10:00 AM - 09:00 PM; FRIDAY 10:00 AM - 09:00 PM; SATURDAY 10:00 AM - 09:00 PM; SUNDAY 11:00 AM - 06:00 PM,,0
SPRINGFIELD - PA,250,1250 BALTIMORE PIKE ,,SPRINGFIELD ,PA,19064,United States,6105447596,,,MONDAY 10:00 AM - 09:00 PM; TUESDAY 10:00 AM - 09:00 PM; WEDNESDAY 10:00 AM - 09:00 PM; THURSDAY 10:00 AM - 09:00 PM; FRIDAY 10:00 AM - 09:00 PM; SATURDAY 10:00 AM - 09:00 PM; SUNDAY 11:00 AM - 06:00 PM,,0
DEPTFORD - NJ,157,1750 DEPTFORD CENTER ROAD ,,DEPTFORD ,NJ,08096,United States,8568488010,,,MONDAY 10:00 AM - 09:30 PM; TUESDAY 10:00 AM - 09:30 PM; WEDNESDAY 10:00 AM - 09:30 PM; THURSDAY 10:00 AM - 09:30 PM; FRIDAY 10:00 AM - 09:30 PM; SATURDAY 10:00 AM - 09:30 PM; SUNDAY 10:00 AM - 09:30 PM,,0
CHERRY HILL - NJ,306,2000 ROUTE 38 ,,CHERRY HILL ,NJ,08002,United States,8564867667,,,MONDAY 10:00 AM - 09:30 PM; TUESDAY 10:00 AM - 09:30 PM; WEDNESDAY 10:00 AM - 09:30 PM; THURSDAY 10:00 AM - 09:30 PM; FRIDAY 10:00 AM - 09:30 PM; SATURDAY 10:00 AM - 09:30 PM; SUNDAY 11:00 AM - 06:00 PM,,0
MOORESTOWN MALL - NJ,733,400 ROUTE 38 ,,MOORESTOWN ,NJ,08057,United States,8564392701,,,MONDAY 10:00 AM - 09:00 PM; TUESDAY 10:00 AM - 09:00 PM; WEDNESDAY 10:00 AM - 09:00 PM; THURSDAY 10:00 AM - 09:00 PM; FRIDAY 10:00 AM - 09:00 PM; SATURDAY 10:00 AM - 09:00 PM; SUNDAY 11:00 AM - 06:00 PM,,0
DAYTON - OH,205,2700 MIAMISBURG-CENTERVILLE RD. ,,DAYTON ,OH,45459,United States,9372913455,,,MONDAY 10:00 AM - 09:00 PM; TUESDAY 10:00 AM - 09:00 PM; WEDNESDAY 10:00 AM - 09:00 PM; THURSDAY 10:00 AM - 09:00 PM; FRIDAY 10:00 AM - 09:00 PM; SATURDAY 10:00 AM - 09:00 PM; SUNDAY 12:00 PM - 06:00 PM,,0
ST. CLAIR - IL,545,134 ST. CLAIR SQUARE ,,FAIRVIEW HEIGHTS ,IL,62208,United States,6186228964,,,MONDAY 10:00 AM - 09:00 PM; TUESDAY 10:00 AM - 09:00 PM; WEDNESDAY 10:00 AM - 09:00 PM; THURSDAY 10:00 AM - 09:00 PM; FRIDAY 10:00 AM - 09:00 PM; SATURDAY 10:00 AM - 09:00 PM; SUNDAY 11:00 AM - 06:00 PM,,0
YORK - PA,427,2899 WHITEFORD ROAD ,,YORK ,PA,17402,United States,7177514799,,,MONDAY 10:00 AM - 09:00 PM; TUESDAY 10:00 AM - 09:00 PM; WEDNESDAY 10:00 AM - 09:00 PM; THURSDAY 10:00 AM - 09:00 PM; FRIDAY 10:00 AM - 09:00 PM; SATURDAY 10:00 AM - 09:00 PM; SUNDAY 11:00 AM - 05:00 PM,,0
EXTON SQUARE - PA,374,316 EXTON SQUARE PARKWAY ,,EXTON ,PA,19341,United States,6105246871,,,MONDAY 10:00 AM - 09:00 PM; TUESDAY 10:00 AM - 09:00 PM; WEDNESDAY 10:00 AM - 09:00 PM; THURSDAY 10:00 AM - 09:00 PM; FRIDAY 10:00 AM - 09:00 PM; SATURDAY 10:00 AM - 09:00 PM; SUNDAY 11:00 AM - 06:00 PM,,0
PARK CITY - PA,343,757 PARK CITY CENTER ,,LANCASTER ,PA,17601,United States,7173975102,,,MONDAY 10:00 AM - 09:00 PM; TUESDAY 10:00 AM - 09:00 PM; WEDNESDAY 10:00 AM - 09:00 PM; THURSDAY 10:00 AM - 09:00 PM; FRIDAY 10:00 AM - 09:00 PM; SATURDAY 10:00 AM - 09:00 PM; SUNDAY 11:00 AM - 06:00 PM,,0
FAIRFIELD COMMONS - OH,485,2727 FAIRFIELD COMMONS ,,BEAVERCREEK ,OH,45431,United States,9374292068,,,MONDAY 10:00 AM - 09:00 PM; TUESDAY 10:00 AM - 09:00 PM; WEDNESDAY 10:00 AM - 09:00 PM; THURSDAY 10:00 AM - 09:00 PM; FRIDAY 10:00 AM - 09:00 PM; SATURDAY 10:00 AM - 09:00 PM; SUNDAY 12:00 PM - 06:00 PM,,0
TOWSON TOWN CENTER - MD,802,825 DULANEY RD. ,,TOWSON ,MD,21204,United States,4108251696,,,MONDAY 10:00 AM - 09:00 PM; TUESDAY 10:00 AM - 09:00 PM; WEDNESDAY 10:00 AM - 09:00 PM; THURSDAY 10:00 AM - 09:00 PM; FRIDAY 10:00 AM - 09:00 PM; SATURDAY 10:00 AM - 09:00 PM; SUNDAY 11:00 AM - 05:00 PM,,0
- ST. LOUIS OUTLETS - MO,712,18521 OUTLET BOULEVARD ,,CHESTERFIELD ,MO,63005,United States,6367782250,,,MONDAY 10:00 AM - 09:00 PM; TUESDAY 10:00 AM - 09:00 PM; WEDNESDAY 10:00 AM - 09:00 PM; THURSDAY 10:00 AM - 09:00 PM; FRIDAY 10:00 AM - 09:00 PM; SATURDAY 10:00 AM - 09:00 PM; SUNDAY 10:00 AM - 07:00 PM,,0
OCEAN COUNTY - NJ,352,1201 HOOPER AVENUE ,,TOMS RIVER ,NJ,08753,United States,7322448232,,,MONDAY 10:00 AM - 09:30 PM; TUESDAY 10:00 AM - 09:30 PM; WEDNESDAY 10:00 AM - 09:30 PM; THURSDAY 10:00 AM - 09:30 PM; FRIDAY 10:00 AM - 09:30 PM; SATURDAY 10:00 AM - 09:30 PM; SUNDAY 11:00 AM - 06:00 PM,,0
OSAGE BEACH OUTLET - MO,563,4540 OSAGE BEACH PARKWAY ,,OSAGE BEACH ,MO,65065,United States,5733481495,,,MONDAY 10:00 AM - 09:00 PM; TUESDAY 10:00 AM - 09:00 PM; WEDNESDAY 10:00 AM - 09:00 PM; THURSDAY 10:00 AM - 09:00 PM; FRIDAY 10:00 AM - 09:00 PM; SATURDAY 10:00 AM - 09:00 PM; SUNDAY 10:00 AM - 07:00 PM,,0
ELLISBURG - NJ,819,1592 KINGS HIGHWAY ,,NORTH CHERRY HILL ,NJ,08034,United States,8566162980,,,MONDAY 10:00 AM - 09:00 PM; TUESDAY 10:00 AM - 09:00 PM; WEDNESDAY 10:00 AM - 09:00 PM; THURSDAY 10:00 AM - 09:00 PM; FRIDAY 10:00 AM - 09:00 PM; SATURDAY 10:00 AM - 09:00 PM; SUNDAY 11:00 AM - 06:00 PM,,0
KOP - PA,393,160 NORTH GULPH ROAD ,,KING OF PRUSSIA ,PA,19406,United States,6102659424,,,MONDAY 10:00 AM - 09:30 PM; TUESDAY 10:00 AM - 09:30 PM; WEDNESDAY 10:00 AM - 09:30 PM; THURSDAY 10:00 AM - 09:30 PM; FRIDAY 10:00 AM - 09:30 PM; SATURDAY 10:00 AM - 09:30 PM; SUNDAY 11:00 AM - 06:00 PM,,0
HONEY CREEK MALL - IN,709,3401 SOUTH US HIGHWAY 41 ,,TERRA HAUTE ,IN,47802,United States,8122328897,,,MONDAY 10:00 AM - 09:00 PM; TUESDAY 10:00 AM - 09:00 PM; WEDNESDAY 10:00 AM - 09:00 PM; THURSDAY 10:00 AM - 09:00 PM; FRIDAY 10:00 AM - 09:00 PM; SATURDAY 10:00 AM - 09:00 PM; SUNDAY 12:00 PM - 06:00 PM,,0
FRANKLIN - PA,83,1400 FRANKLIN MILLS CIRCLE ,,PHILADELPHIA ,PA,19154,United States,2156122830,,,MONDAY 10:00 AM - 09:00 PM; TUESDAY 10:00 AM - 09:00 PM; WEDNESDAY 10:00 AM - 09:00 PM; THURSDAY 10:00 AM - 09:00 PM; FRIDAY 10:00 AM - 09:00 PM; SATURDAY 10:00 AM - 09:00 PM; SUNDAY 11:00 AM - 07:00 PM,,0
GREENWOOD - IN,235,1251 U.S. HIGHWAY 31 ,,NORTH GREENWOOD ,IN,46142,United States,3178894307,,,MONDAY 10:00 AM - 09:00 PM; TUESDAY 10:00 AM - 09:00 PM; WEDNESDAY 10:00 AM - 09:00 PM; THURSDAY 10:00 AM - 09:00 PM; FRIDAY 10:00 AM - 09:00 PM; SATURDAY 10:00 AM - 09:00 PM; SUNDAY 11:00 AM - 06:00 PM,,0
WILLOW GROVE PARK - PA,790,2500 MORELAND ROAD ,,SPACE WILLOW GROVE ,PA,19090,United States,2156580126,,,MONDAY 10:00 AM - 09:00 PM; TUESDAY 10:00 AM - 09:00 PM; WEDNESDAY 10:00 AM - 09:00 PM; THURSDAY 10:00 AM - 09:00 PM; FRIDAY 10:00 AM - 09:00 PM; SATURDAY 10:00 AM - 09:00 PM; SUNDAY 11:00 AM - 06:00 PM,,0
NESHAMINY - PA,211,707 NESHAMINY MALL ,,BENSALEM ,PA,19020,United States,2153649112,,,MONDAY 10:00 AM - 09:00 PM; TUESDAY 10:00 AM - 09:00 PM; WEDNESDAY 10:00 AM - 09:00 PM; THURSDAY 10:00 AM - 09:00 PM; FRIDAY 10:00 AM - 09:00 PM; SATURDAY 10:00 AM - 09:00 PM; SUNDAY 11:00 AM - 06:00 PM,,0
TUTTLE CROSSING - OH,544,5043 TUTTLE CROSSING BLVD ,,DUBLIN ,OH,43016,United States,6147938102,,,MONDAY 10:00 AM - 09:00 PM; TUESDAY 10:00 AM - 09:00 PM; WEDNESDAY 10:00 AM - 09:00 PM; THURSDAY 10:00 AM - 09:00 PM; FRIDAY 10:00 AM - 09:00 PM; SATURDAY 10:00 AM - 09:00 PM; SUNDAY 11:00 AM - 06:00 PM,,0
CAPITAL CITY - PA,253,3574 CAPITAL CITY MALL DRIVE ,,CAMP HILL ,PA,17011,United States,7176129345,,,MONDAY 10:00 AM - 09:00 PM; TUESDAY 10:00 AM - 09:00 PM; WEDNESDAY 10:00 AM - 09:00 PM; THURSDAY 10:00 AM - 09:00 PM; FRIDAY 10:00 AM - 09:00 PM; SATURDAY 10:00 AM - 09:00 PM; SUNDAY 11:00 AM - 06:00 PM,,0
MID-RIVERS - MO,216,1600 MID-RIVERS MALL ,,SAINT PETERS ,MO,63376,United States,6362786060,,,MONDAY 10:00 AM - 09:00 PM; TUESDAY 10:00 AM - 09:00 PM; WEDNESDAY 10:00 AM - 09:00 PM; THURSDAY 10:00 AM - 09:00 PM; FRIDAY 10:00 AM - 09:00 PM; SATURDAY 10:00 AM - 09:00 PM; SUNDAY 11:00 AM - 06:00 PM,,0
WESTMORELAND - PA,265,ROUTE 30 EAST ,,GREENSBURG ,PA,15601,United States,7248348574,,,MONDAY 10:00 AM - 09:00 PM; TUESDAY 10:00 AM - 09:00 PM; WEDNESDAY 10:00 AM - 09:00 PM; THURSDAY 10:00 AM - 09:00 PM; FRIDAY 10:00 AM - 09:00 PM; SATURDAY 10:00 AM - 09:00 PM; SUNDAY 11:00 AM - 05:00 PM,,0
THE SHOPS AT PERRY CROSSING - IN,396,340 METROPOLIS ,,MILE PLAINFIELD ,IN,46168,United States,3178379682,,,MONDAY 10:00 AM - 09:00 PM; TUESDAY 10:00 AM - 09:00 PM; WEDNESDAY 10:00 AM - 09:00 PM; THURSDAY 10:00 AM - 09:00 PM; FRIDAY 10:00 AM - 09:00 PM; SATURDAY 10:00 AM - 09:00 PM; SUNDAY 12:00 PM - 06:00 PM,,0
MONTGOMERY - PA,135,230 MONTGOMERY MALL ,,NORTH WALES ,PA,19454,United States,2154128727,,,MONDAY 10:00 AM - 09:00 PM; TUESDAY 10:00 AM - 09:00 PM; WEDNESDAY 10:00 AM - 09:00 PM; THURSDAY 10:00 AM - 09:00 PM; FRIDAY 10:00 AM - 09:00 PM; SATURDAY 10:00 AM - 09:00 PM; SUNDAY 11:00 AM - 06:00 PM,,0
OXFORD - PA,132,2300 E. LINCOLN HIGHWAY ,,LANGHORNE ,PA,19047,United States,2158910520,,,MONDAY 10:00 AM - 09:00 PM; TUESDAY 10:00 AM - 09:00 PM; WEDNESDAY 10:00 AM - 09:00 PM; THURSDAY 10:00 AM - 09:00 PM; FRIDAY 10:00 AM - 09:00 PM; SATURDAY 10:00 AM - 09:00 PM; SUNDAY 11:00 AM - 06:00 PM,,0
POLARIS - OH,168,1500 POLARIS PARKWAY ,,COLUMBUS ,OH,43240,United States,6148885586,,,MONDAY 10:00 AM - 09:00 PM; TUESDAY 10:00 AM - 09:00 PM; WEDNESDAY 10:00 AM - 09:00 PM; THURSDAY 10:00 AM - 09:00 PM; FRIDAY 10:00 AM - 09:30 PM; SATURDAY 10:00 AM - 09:30 PM; SUNDAY 12:00 PM - 06:00 PM,,0
PHILADELPHIA OUTLET - PA,469,18 LIGHTCAP ROAD ,,POTTSTOWN ,PA,19464,United States,6107055982,,,MONDAY 10:00 AM - 07:00 PM; TUESDAY 10:00 AM - 07:00 PM; WEDNESDAY 10:00 AM - 07:00 PM; THURSDAY 10:00 AM - 09:00 PM; FRIDAY 10:00 AM - 09:00 PM; SATURDAY 10:00 AM - 09:00 PM; SUNDAY 10:00 AM - 07:00 PM,,0
JACKSON OUTLET - NJ,558,537 MONMOUTH ROAD ,,JACKSON ,NJ,08527,United States,7328331456,,,MONDAY 10:00 AM - 07:00 PM; TUESDAY 10:00 AM - 07:00 PM; WEDNESDAY 10:00 AM - 07:00 PM; THURSDAY 10:00 AM - 07:00 PM; FRIDAY 10:00 AM - 09:00 PM; SATURDAY 10:00 AM - 09:00 PM; SUNDAY 10:00 AM - 07:00 PM,,0
MERCER MALL - NJ,818,3345 US HIGHWAY 1 ,,LAWRENCE TOWNSHIP ,NJ,08648,United States,6097166808,,,MONDAY 10:00 AM - 09:00 PM; TUESDAY 10:00 AM - 09:00 PM; WEDNESDAY 10:00 AM - 09:00 PM; THURSDAY 10:00 AM - 09:00 PM; FRIDAY 10:00 AM - 09:00 PM; SATURDAY 10:00 AM - 09:00 PM; SUNDAY 11:00 AM - 06:00 PM,,0
CIRCLE CENTRE - IN,388,49 WEST MARYLAND DRIVE ,,INDIANAPOLIS ,IN,46204,United States,3176382672,,,MONDAY 10:00 AM - 09:00 PM; TUESDAY 10:00 AM - 09:00 PM; WEDNESDAY 10:00 AM - 09:00 PM; THURSDAY 10:00 AM - 09:00 PM; FRIDAY 10:00 AM - 09:00 PM; SATURDAY 10:00 AM - 09:00 PM; SUNDAY 11:00 AM - 06:00 PM,,0
JERSEY SHORE - NJ,527,1 PREMIUM OUTLET BLVD. ,,TINTON FALLS ,NJ,07753,United States,7324933388,,,MONDAY 10:00 AM - 09:00 PM; TUESDAY 10:00 AM - 09:00 PM; WEDNESDAY 10:00 AM - 09:00 PM; THURSDAY 10:00 AM - 09:00 PM; FRIDAY 10:00 AM - 10:00 PM; SATURDAY 10:00 AM - 10:00 PM; SUNDAY 10:00 AM - 09:00 PM,,0
MONROEVILLE - PA,116,114 MONROEVILLE MALL ,,MONROEVILLE ,PA,15146,United States,4123738330,,,MONDAY 10:00 AM - 09:00 PM; TUESDAY 10:00 AM - 09:00 PM; WEDNESDAY 10:00 AM - 09:00 PM; THURSDAY 10:00 AM - 09:00 PM; FRIDAY 10:00 AM - 09:00 PM; SATURDAY 10:00 AM - 09:00 PM; SUNDAY 12:00 PM - 06:00 PM,,0
ROBINSON - PA,169,100 ROBINSON CENTRE DR. ,,PITTSBURGH ,PA,15205,United States,4127873669,,,MONDAY 10:00 AM - 09:00 PM; TUESDAY 10:00 AM - 09:00 PM; WEDNESDAY 10:00 AM - 09:00 PM; THURSDAY 10:00 AM - 09:00 PM; FRIDAY 10:00 AM - 09:30 PM; SATURDAY 10:00 AM - 09:30 PM; SUNDAY 11:00 AM - 06:00 PM,,0
MONMOUTH - NJ,437,180 ROUTES 35 & 36 ,,EATONTOWN ,NJ,07724,United States,7325422596,,,MONDAY 10:00 AM - 09:30 PM; TUESDAY 10:00 AM - 09:30 PM; WEDNESDAY 10:00 AM - 09:30 PM; THURSDAY 10:00 AM - 09:30 PM; FRIDAY 10:00 AM - 09:30 PM; SATURDAY 10:00 AM - 09:30 PM; SUNDAY 11:00 AM - 07:00 PM,,0
FREEHOLD - NJ,440,3710 ROUTE 9 ,,FREEHOLD ,NJ,07728,United States,7324314258,,,MONDAY 10:00 AM - 09:30 PM; TUESDAY 10:00 AM - 09:30 PM; WEDNESDAY 10:00 AM - 09:30 PM; THURSDAY 10:00 AM - 09:30 PM; FRIDAY 10:00 AM - 09:30 PM; SATURDAY 10:00 AM - 09:30 PM; SUNDAY 11:00 AM - 07:00 PM,,0
CHESTERFIELD - MO,436,291 CHESTERFIELD MALL ,,CHESTERFIELD ,MO,63017,United States,6365361268,,,MONDAY 10:00 AM - 09:00 PM; TUESDAY 10:00 AM - 09:00 PM; WEDNESDAY 10:00 AM - 09:00 PM; THURSDAY 10:00 AM - 09:00 PM; FRIDAY 10:00 AM - 09:00 PM; SATURDAY 10:00 AM - 09:00 PM; SUNDAY 11:00 AM - 06:00 PM,,0
BRUNSWICK - NJ,395,755 ST ROUTE 18 ,,EAST BRUNSWICK ,NJ,08816,United States,7322574626,,,MONDAY 10:00 AM - 09:30 PM; TUESDAY 10:00 AM - 09:30 PM; WEDNESDAY 10:00 AM - 09:30 PM; THURSDAY 10:00 AM - 09:30 PM; FRIDAY 10:00 AM - 09:30 PM; SATURDAY 10:00 AM - 09:30 PM; SUNDAY 11:00 AM - 06:00 PM,,0
GALLERIA - PA,346,434 PITTSBURGH MILLS CIRCLE ,,TARENTUM ,PA,15084,United States,7242743901,,,MONDAY 10:00 AM - 09:00 PM; TUESDAY 10:00 AM - 09:00 PM; WEDNESDAY 10:00 AM - 09:00 PM; THURSDAY 10:00 AM - 09:00 PM; FRIDAY 10:00 AM - 09:00 PM; SATURDAY 10:00 AM - 09:00 PM; SUNDAY 11:00 AM - 06:00 PM,,0
LOGAN VALLEY - PA,316,ROUTE 220 & GOODS LANE ,,ALTOONA ,PA,16602,United States,8149434484,,,MONDAY 10:00 AM - 09:00 PM; TUESDAY 10:00 AM - 09:00 PM; WEDNESDAY 10:00 AM - 09:00 PM; THURSDAY 10:00 AM - 09:00 PM; FRIDAY 10:00 AM - 09:00 PM; SATURDAY 10:00 AM - 09:00 PM; SUNDAY 12:00 PM - 06:00 PM,,0
LEHIGH VALLEY - PA,386,124 LEHIGH VALLEY MALL ,,WHITEHALL ,PA,18052,United States,6102640574,,,MONDAY 10:00 AM - 09:00 PM; TUESDAY 10:00 AM - 09:00 PM; WEDNESDAY 10:00 AM - 09:00 PM; THURSDAY 10:00 AM - 09:00 PM; FRIDAY 10:00 AM - 09:00 PM; SATURDAY 10:00 AM - 09:00 PM; SUNDAY 11:00 AM - 06:00 PM,,0
CASTLETON - IN,140,6020 EAST 82ND STREET ,,INDIANAPOLIS ,IN,46250,United States,3179151844,,,MONDAY 10:00 AM - 09:00 PM; TUESDAY 10:00 AM - 09:00 PM; WEDNESDAY 10:00 AM - 09:00 PM; THURSDAY 10:00 AM - 09:00 PM; FRIDAY 10:00 AM - 09:00 PM; SATURDAY 10:00 AM - 09:00 PM; SUNDAY 11:00 AM - 06:00 PM,,0
MUNCIE - IN,317,3501 NORTH GRANVILLE AVENUE ,,MUNCIE ,IN,47303,United States,7652541393,,,MONDAY 10:00 AM - 09:00 PM; TUESDAY 10:00 AM - 09:00 PM; WEDNESDAY 10:00 AM - 09:00 PM; THURSDAY 10:00 AM - 09:00 PM; FRIDAY 10:00 AM - 09:00 PM; SATURDAY 10:00 AM - 09:00 PM; SUNDAY 12:00 PM - 05:30 PM,,0
HAMILTON TOWN CENTER - IN,751,13170 Harrell Parkway ,,Noblesville ,IN,46060,United States,3177769322,,,MONDAY 10:00 AM - 09:00 PM; TUESDAY 10:00 AM - 09:00 PM; WEDNESDAY 10:00 AM - 09:00 PM; THURSDAY 10:00 AM - 09:00 PM; FRIDAY 10:00 AM - 09:00 PM; SATURDAY 10:00 AM - 09:00 PM; SUNDAY 11:00 AM - 06:00 PM,,0
KING'S PLAZA - NY,503,5230 KING'S PLAZA ,,BROOKLYN ,NY,11234,United States,7187242377,,,MONDAY 10:00 AM - 09:30 PM; TUESDAY 10:00 AM - 09:30 PM; WEDNESDAY 10:00 AM - 09:30 PM; THURSDAY 10:00 AM - 09:30 PM; FRIDAY 10:00 AM - 09:30 PM; SATURDAY 10:00 AM - 10:00 PM; SUNDAY 11:00 AM - 08:00 PM,,0
STATEN ISLAND - NY,314,2655 RICHMOND AVENUE ,,STATEN ISLAND ,NY,10314,United States,7187610020,,,MONDAY 10:00 AM - 09:00 PM; TUESDAY 10:00 AM - 09:00 PM; WEDNESDAY 10:00 AM - 09:00 PM; THURSDAY 10:00 AM - 09:00 PM; FRIDAY 10:00 AM - 09:00 PM; SATURDAY 10:00 AM - 09:00 PM; SUNDAY 11:00 AM - 06:00 PM,,0
THE FOUNTAINS AT FARAH - TX,735,8889 GATEWAY WEST ,,EL PASO ,TX,79925,United States,9155993033,,,MONDAY 10:00 AM - 09:00 PM; TUESDAY 10:00 AM - 09:00 PM; WEDNESDAY 10:00 AM - 09:00 PM; THURSDAY 10:00 AM - 09:00 PM; FRIDAY 10:00 AM - 09:00 PM; SATURDAY 10:00 AM - 09:00 PM; SUNDAY 12:00 PM - 06:00 PM,,0
ROSS PARK - PA,115,1000 ROSS PARK MALL DR. ,,PITTSBURGH ,PA,15237,United States,4123646173,,,MONDAY 10:00 AM - 09:00 PM; TUESDAY 10:00 AM - 09:00 PM; WEDNESDAY 10:00 AM - 09:00 PM; THURSDAY 10:00 AM - 09:00 PM; FRIDAY 10:00 AM - 09:00 PM; SATURDAY 10:00 AM - 09:00 PM; SUNDAY 11:00 AM - 06:00 PM,,0
JERSEY GARDENS - NJ,91,651 KAPKWOSKI ROAD ,,ELIZABETH ,NJ,07201,United States,9082898094,,,MONDAY 10:00 AM - 09:00 PM; TUESDAY 10:00 AM - 09:00 PM; WEDNESDAY 10:00 AM - 09:00 PM; THURSDAY 10:00 AM - 09:00 PM; FRIDAY 10:00 AM - 09:00 PM; SATURDAY 10:00 AM - 09:00 PM; SUNDAY 11:00 AM - 07:00 PM,,0
GREEN ACRES - NY,444,1004 GREEN ACRES MALL VALLEY STREAM ,,,NY,11581,United States,5168250560,,,MONDAY 10:00 AM - 09:30 PM; TUESDAY 10:00 AM - 09:30 PM; WEDNESDAY 10:00 AM - 09:30 PM; THURSDAY 10:00 AM - 09:30 PM; FRIDAY 10:00 AM - 09:30 PM; SATURDAY 10:00 AM - 09:30 PM; SUNDAY 11:00 AM - 07:00 PM,,0
SHOP AT ATLAS PARK - NY,726,8028 COOPER AVE. ,,GLENDALE ,NY,11385,United States,7188940245,,,MONDAY 10:00 AM - 09:00 PM; TUESDAY 11:00 AM - 08:00 PM; WEDNESDAY 10:00 AM - 09:00 PM; THURSDAY 11:00 AM - 08:00 PM; FRIDAY 10:00 AM - 09:00 PM; SATURDAY 11:00 AM - 08:00 PM; SUNDAY 11:00 AM - 08:00 PM,,0
COLUMBIA MALL - MO,793,2300 BERNADETTE DRIVE ,,COLUMBIA ,MO,65203,United States,5734450501,,,MONDAY 10:00 AM - 09:00 PM; TUESDAY 10:00 AM - 09:00 PM; WEDNESDAY 10:00 AM - 09:00 PM; THURSDAY 10:00 AM - 09:00 PM; FRIDAY 10:00 AM - 09:00 PM; SATURDAY 10:00 AM - 09:00 PM; SUNDAY 11:00 AM - 06:00 PM,,0
NEWPORT - NJ,309,30 MALL DRIVE WEST ,,JERSEY CITY ,NJ,07310,United States,2014206999,,,MONDAY 10:00 AM - 09:30 PM; TUESDAY 10:00 AM - 09:30 PM; WEDNESDAY 10:00 AM - 09:30 PM; THURSDAY 10:00 AM - 09:30 PM; FRIDAY 10:00 AM - 09:30 PM; SATURDAY 10:00 AM - 09:30 PM; SUNDAY 10:00 AM - 06:00 PM,,0
QUEENS - NY,410,90-15 QUEENS BLVD ,,ELMHURST ,NY,11373,United States,7182715807,,,MONDAY 10:00 AM - 09:30 PM; TUESDAY 10:00 AM - 09:30 PM; WEDNESDAY 10:00 AM - 09:30 PM; THURSDAY 10:00 AM - 09:30 PM; FRIDAY 10:00 AM - 09:30 PM; SATURDAY 10:00 AM - 09:30 PM; SUNDAY 11:00 AM - 08:00 PM,,0
LIVINGSTON - NJ,194,112 EISENHOWER PARKWAY ,,LIVINGSTON ,NJ,07039,United States,9739944120,,,MONDAY 10:00 AM - 09:00 PM; TUESDAY 10:00 AM - 09:00 PM; WEDNESDAY 10:00 AM - 09:00 PM; THURSDAY 10:00 AM - 09:00 PM; FRIDAY 10:00 AM - 09:00 PM; SATURDAY 10:00 AM - 09:30 PM; SUNDAY 11:00 AM - 07:00 PM,,0
ROOSEVELT - NY,61,630 OLD COUNTRY RD ,,GARDEN CITY ,NY,11530,United States,5168737570,,,MONDAY 10:00 AM - 09:30 PM; TUESDAY 10:00 AM - 09:30 PM; WEDNESDAY 10:00 AM - 09:30 PM; THURSDAY 10:00 AM - 09:30 PM; FRIDAY 10:00 AM - 09:30 PM; SATURDAY 10:00 AM - 09:30 PM; SUNDAY 11:00 AM - 07:00 PM,,0
SUNRISE - NY,152,719 SUNRISE MALL ,,MASSAPEQUA ,NY,11758,United States,5167658100,,,MONDAY 10:00 AM - 09:30 PM; TUESDAY 10:00 AM - 09:30 PM; WEDNESDAY 10:00 AM - 09:30 PM; THURSDAY 10:00 AM - 09:30 PM; FRIDAY 10:00 AM - 09:30 PM; SATURDAY 10:00 AM - 09:30 PM; SUNDAY 11:00 AM - 06:00 PM,,0
BROADWAY - NY,144,878 BROADWAY MALL ,,HICKSVILLE ,NY,11801,United States,5168710031,,,MONDAY 10:00 AM - 09:00 PM; TUESDAY 10:00 AM - 09:00 PM; WEDNESDAY 10:00 AM - 09:00 PM; THURSDAY 10:00 AM - 09:00 PM; FRIDAY 10:00 AM - 09:00 PM; SATURDAY 10:00 AM - 09:00 PM; SUNDAY 11:00 AM - 07:00 PM,,0
BELDEN - OH,384,4145 BELDEN VILLAGE MALL ,,CANTON ,OH,44718,United States,3303051081,,,MONDAY 10:00 AM - 09:00 PM; TUESDAY 10:00 AM - 09:00 PM; WEDNESDAY 10:00 AM - 09:00 PM; THURSDAY 10:00 AM - 09:00 PM; FRIDAY 10:00 AM - 09:00 PM; SATURDAY 10:00 AM - 09:00 PM; SUNDAY 11:00 AM - 06:00 PM,,0
WHITE OAKS - IL,192,2501 W. WABASH AVE. ,,SPRINGFIELD ,IL,62704,United States,2177877313,,,MONDAY 10:00 AM - 09:00 PM; TUESDAY 10:00 AM - 09:00 PM; WEDNESDAY 10:00 AM - 09:00 PM; THURSDAY 10:00 AM - 09:00 PM; FRIDAY 10:00 AM - 09:00 PM; SATURDAY 10:00 AM - 09:00 PM; SUNDAY 11:00 AM - 06:00 PM,,0
ARCHES AT DEER PARK - NY,590,152 THE ARCHES CIRCLE ,,DEER PARK ,NY,11729,United States,6315862340,,,MONDAY 09:00 AM - 09:00 PM; TUESDAY 09:00 AM - 09:00 PM; WEDNESDAY 09:00 AM - 09:00 PM; THURSDAY 09:00 AM - 09:00 PM; FRIDAY 09:00 AM - 09:00 PM; SATURDAY 09:00 AM - 09:00 PM; SUNDAY 10:00 AM - 08:00 PM,,0
ROCKAWAY - NJ,201,301 MT. HOPE AVENUE ,,ROCKAWAY ,NJ,07866,United States,9735375599,,,MONDAY 10:00 AM - 09:30 PM; TUESDAY 10:00 AM - 09:30 PM; WEDNESDAY 10:00 AM - 09:30 PM; THURSDAY 10:00 AM - 09:30 PM; FRIDAY 10:00 AM - 09:30 PM; SATURDAY 10:00 AM - 09:30 PM; SUNDAY 11:00 AM - 06:00 PM,,0
EL PASO OUTLET - TX,588,7051 SOUTH DESERT BLVD ,,CANUTILLO ,TX,79835,United States,9158779373,,,MONDAY 10:00 AM - 09:00 PM; TUESDAY 10:00 AM - 09:00 PM; WEDNESDAY 10:00 AM - 09:00 PM; THURSDAY 10:00 AM - 09:00 PM; FRIDAY 10:00 AM - 09:00 PM; SATURDAY 10:00 AM - 09:00 PM; SUNDAY 10:00 AM - 07:00 PM,,0
NITTANY - PA,504,2901 EAST COLLEGE AVE ,,STATE COLLEGE ,PA,16801,United States,8142311872,,,MONDAY 10:00 AM - 09:00 PM; TUESDAY 10:00 AM - 09:00 PM; WEDNESDAY 10:00 AM - 09:00 PM; THURSDAY 10:00 AM - 09:00 PM; FRIDAY 10:00 AM - 09:00 PM; SATURDAY 10:00 AM - 09:00 PM; SUNDAY 11:00 AM - 06:00 PM,,0
MALL AT BAY PLAZA - NY,756,200 Baychester Ave. ,,Bronx ,NY,10457,United States,7186712302,,,MONDAY 10:00 AM - 10:00 PM; TUESDAY 10:00 AM - 10:00 PM; WEDNESDAY 10:00 AM - 10:00 PM; THURSDAY 10:00 AM - 10:00 PM; FRIDAY 10:00 AM - 10:00 PM; SATURDAY 10:00 AM - 10:00 PM; SUNDAY 11:00 AM - 08:00 PM,,0
SOUTHERN PARK - OH,148,7401 MARKET STREET ,,YOUNGSTOWN ,OH,44512,United States,3309651680,,,MONDAY 10:00 AM - 09:00 PM; TUESDAY 10:00 AM - 09:00 PM; WEDNESDAY 10:00 AM - 09:00 PM; THURSDAY 10:00 AM - 09:00 PM; FRIDAY 10:00 AM - 09:00 PM; SATURDAY 10:00 AM - 09:00 PM; SUNDAY 11:00 AM - 06:00 PM,,0
WESTGATE - TX,438,7701 WEST INTERSTATE 40 ,,AMARILLO ,TX,79121,United States,8063568704,,,MONDAY 10:00 AM - 09:00 PM; TUESDAY 10:00 AM - 09:00 PM; WEDNESDAY 10:00 AM - 09:00 PM; THURSDAY 10:00 AM - 09:00 PM; FRIDAY 10:00 AM - 09:00 PM; SATURDAY 10:00 AM - 09:00 PM; SUNDAY 12:00 PM - 06:00 PM,,0
MARKET PLACE - IL,508,2000 NORTH NEIL ST. ,,CHAMPAIGN ,IL,61821,United States,2173594090,,,MONDAY 10:00 AM - 09:00 PM; TUESDAY 10:00 AM - 09:00 PM; WEDNESDAY 10:00 AM - 09:00 PM; THURSDAY 10:00 AM - 09:00 PM; FRIDAY 10:00 AM - 09:00 PM; SATURDAY 10:00 AM - 09:00 PM; SUNDAY 11:00 AM - 06:00 PM,,0
WOODBRIDGE - NJ,185,250 WOODBRIDGE CENTER DRIVE ,,WOODBRIDGE ,NJ,07095,United States,7323260005,,,MONDAY 10:00 AM - 09:30 PM; TUESDAY 10:00 AM - 09:30 PM; WEDNESDAY 10:00 AM - 09:30 PM; THURSDAY 10:00 AM - 09:30 PM; FRIDAY 10:00 AM - 09:30 PM; SATURDAY 10:00 AM - 09:30 PM; SUNDAY 11:00 AM - 07:00 PM,,0
TIPPECANOE - IN,172,2415 SAGAMORE PARKWAY ,,SOUTH LAFAYETTE ,IN,47905,United States,7654483407,,,MONDAY 10:00 AM - 09:00 PM; TUESDAY 10:00 AM - 09:00 PM; WEDNESDAY 10:00 AM - 09:00 PM; THURSDAY 10:00 AM - 09:00 PM; FRIDAY 10:00 AM - 09:00 PM; SATURDAY 10:00 AM - 09:00 PM; SUNDAY 11:00 AM - 06:00 PM,,0
SMITH HAVEN - NY,141,458 SMITH ,,HAVEN MALL LAKE GROVE ,NY,11755,United States,6317241982,,,MONDAY 10:00 AM - 09:30 PM; TUESDAY 10:00 AM - 09:30 PM; WEDNESDAY 10:00 AM - 09:30 PM; THURSDAY 10:00 AM - 09:30 PM; FRIDAY 10:00 AM - 09:30 PM; SATURDAY 10:00 AM - 09:30 PM; SUNDAY 11:00 AM - 07:00 PM,,0
CHAPEL HILL - OH,380,2000 BRITAIN ROAD ,,AKRON ,OH,44310,United States,3306302863,,,MONDAY 10:00 AM - 09:00 PM; TUESDAY 10:00 AM - 09:00 PM; WEDNESDAY 10:00 AM - 09:00 PM; THURSDAY 10:00 AM - 09:00 PM; FRIDAY 10:00 AM - 09:00 PM; SATURDAY 10:00 AM - 09:00 PM; SUNDAY 12:00 PM - 06:00 PM,,0
RIVERHEAD - NY,286,1410 Tanger Mall Drive ,,RIVERHEAD ,NY,11901,United States,6312083049,,,MONDAY 10:00 AM - 09:00 PM; TUESDAY 10:00 AM - 09:00 PM; WEDNESDAY 10:00 AM - 09:00 PM; THURSDAY 10:00 AM - 09:00 PM; FRIDAY 10:00 AM - 09:00 PM; SATURDAY 10:00 AM - 09:00 PM; SUNDAY 10:00 AM - 08:00 PM,,0
CROSS COUNTY - NY,501,4 XAVIER DRIVE ,,YONKERS ,NY,10704,United States,9143752791,,,MONDAY 10:00 AM - 09:00 PM; TUESDAY 10:00 AM - 09:00 PM; WEDNESDAY 10:00 AM - 09:00 PM; THURSDAY 10:00 AM - 09:00 PM; FRIDAY 10:00 AM - 09:00 PM; SATURDAY 10:00 AM - 09:30 PM; SUNDAY 11:00 AM - 07:00 PM,,0
THE CROSSING OUTLET - PA,557,1000 PREMIUM OUTLETS DR. ,,TANNERSVILLE ,PA,18372,United States,5706297351,,,MONDAY 10:00 AM - 07:00 PM; TUESDAY 10:00 AM - 07:00 PM; WEDNESDAY 10:00 AM - 07:00 PM; THURSDAY 10:00 AM - 07:00 PM; FRIDAY 10:00 AM - 09:00 PM; SATURDAY 10:00 AM - 09:00 PM; SUNDAY 10:00 AM - 07:00 PM,,0
SUMMIT - OH,517,3265 WEST MARKET ST. ,,FAIRLAWN ,OH,44333,United States,3308641379,,,MONDAY 10:00 AM - 09:00 PM; TUESDAY 10:00 AM - 09:00 PM; WEDNESDAY 10:00 AM - 09:00 PM; THURSDAY 10:00 AM - 09:00 PM; FRIDAY 10:00 AM - 09:00 PM; SATURDAY 10:00 AM - 09:00 PM; SUNDAY 11:00 AM - 06:00 PM,,0
GROVE CITY - PA,543,1911 LEESBURG GROVE CITY ROAD ,,GROVE CITY ,PA,16127,United States,7247483186,,,MONDAY 10:00 AM - 09:00 PM; TUESDAY 10:00 AM - 09:00 PM; WEDNESDAY 10:00 AM - 09:00 PM; THURSDAY 10:00 AM - 09:00 PM; FRIDAY 10:00 AM - 09:00 PM; SATURDAY 10:00 AM - 09:00 PM; SUNDAY 10:00 AM - 07:00 PM,,0
WHITE PLAINS - NY,382,100 MAIN ST ,,WHITE PLAINS ,NY,10601,United States,9149493508,,,MONDAY 10:00 AM - 09:30 PM; TUESDAY 10:00 AM - 09:30 PM; WEDNESDAY 10:00 AM - 09:30 PM; THURSDAY 10:00 AM - 09:30 PM; FRIDAY 10:00 AM - 09:30 PM; SATURDAY 10:00 AM - 09:30 PM; SUNDAY 11:00 AM - 07:00 PM,,0
ROCKLAND PLAZA - NY,820,66 ROCKLAND PLAZA ROUTE 59 ,,NANUET ,NY,10954,United States,8456234170,,,MONDAY 10:00 AM - 09:00 PM; TUESDAY 10:00 AM - 09:00 PM; WEDNESDAY 10:00 AM - 09:00 PM; THURSDAY 10:00 AM - 09:00 PM; FRIDAY 10:00 AM - 09:00 PM; SATURDAY 10:00 AM - 09:00 PM; SUNDAY 11:00 AM - 06:00 PM,,0
PARAMUS - NJ,196,700 PARAMUS PARK ,,PARAMUS ,NJ,07652,United States,2012618190,,,MONDAY 10:00 AM - 09:30 PM; TUESDAY 10:00 AM - 09:30 PM; WEDNESDAY 10:00 AM - 09:30 PM; THURSDAY 10:00 AM - 09:30 PM; FRIDAY 10:00 AM - 09:30 PM; SATURDAY 10:00 AM - 09:30 PM; SUNDAY Closed,,0
MESILLA VALLEY - NM,494,700 S. TELSHOR BLVD. ,,LAS CRUCES ,NM,88011,United States,5755213012,,,MONDAY 10:00 AM - 09:00 PM; TUESDAY 10:00 AM - 09:00 PM; WEDNESDAY 10:00 AM - 09:00 PM; THURSDAY 10:00 AM - 09:00 PM; FRIDAY 10:00 AM - 09:00 PM; SATURDAY 10:00 AM - 09:00 PM; SUNDAY 12:00 PM - 06:00 PM,,0
WILLOWBROOK MALL - NJ,807,2115 WILLOWBROOK MALL ,,WAYNE ,NJ,07470,United States,9737851759,,,MONDAY 10:00 AM - 09:00 PM; TUESDAY 10:00 AM - 09:00 PM; WEDNESDAY 10:00 AM - 09:00 PM; THURSDAY 10:00 AM - 09:00 PM; FRIDAY 10:00 AM - 09:00 PM; SATURDAY 10:00 AM - 09:00 PM; SUNDAY 11:00 AM - 07:00 PM,,0
PALISADES - NY,75,2512 PALISADES CENTER DRIVE WEST ,,NYACK ,NY,10994,United States,8453581276,,,MONDAY 10:00 AM - 09:30 PM; TUESDAY 10:00 AM - 09:30 PM; WEDNESDAY 10:00 AM - 09:30 PM; THURSDAY 10:00 AM - 09:30 PM; FRIDAY 10:00 AM - 09:30 PM; SATURDAY 10:00 AM - 09:30 PM; SUNDAY 11:00 AM - 07:00 PM,,0
TRUMBULL - CT,548,5065 MAIN ST ,,TRUMBULL ,CT,06611,United States,2033739512,,,MONDAY 10:00 AM - 09:00 PM; TUESDAY 10:00 AM - 09:00 PM; WEDNESDAY 10:00 AM - 09:00 PM; THURSDAY 10:00 AM - 09:00 PM; FRIDAY 10:00 AM - 09:00 PM; SATURDAY 10:00 AM - 09:00 PM; SUNDAY 11:00 AM - 07:00 PM,,0
SOUTHPARK - OH,295,500 SOUTH PARK CENTER ,,STRONGSVILLE ,OH,44136,United States,4402389904,,,MONDAY 10:00 AM - 09:00 PM; TUESDAY 10:00 AM - 09:00 PM; WEDNESDAY 10:00 AM - 09:00 PM; THURSDAY 10:00 AM - 09:00 PM; FRIDAY 10:00 AM - 09:00 PM; SATURDAY 10:00 AM - 09:00 PM; SUNDAY 11:00 AM - 06:00 PM,,0
JEFFERSON VALLEY - NY,259,650 LEE BOULEVARD ,,YORKTOWN HEIGHTS ,NY,10598,United States,9149623286,,,MONDAY 10:00 AM - 09:30 PM; TUESDAY 10:00 AM - 09:30 PM; WEDNESDAY 10:00 AM - 09:30 PM; THURSDAY 10:00 AM - 09:30 PM; FRIDAY 10:00 AM - 09:30 PM; SATURDAY 10:00 AM - 09:30 PM; SUNDAY 11:00 AM - 07:00 PM,,0
SUMMIT FAIR - MO,753,880 Northwest Blue Parkway ,,Lees Summit ,MO,64086,United States,8165252159,,,MONDAY 10:00 AM - 09:00 PM; TUESDAY 10:00 AM - 09:00 PM; WEDNESDAY 10:00 AM - 09:00 PM; THURSDAY 10:00 AM - 09:00 PM; FRIDAY 10:00 AM - 09:00 PM; SATURDAY 10:00 AM - 09:00 PM; SUNDAY 12:00 PM - 06:00 PM,,0
STAMFORD - CT,342,100 GREYROCK PLACE ,,STAMFORD ,CT,06901,United States,2033253584,,,MONDAY 10:00 AM - 09:00 PM; TUESDAY 10:00 AM - 06:00 PM; WEDNESDAY 10:00 AM - 06:00 PM; THURSDAY 10:00 AM - 09:00 PM; FRIDAY 10:00 AM - 09:00 PM; SATURDAY 10:00 AM - 09:00 PM; SUNDAY 11:00 AM - 06:00 PM,,0
TOWNE WEST - KS,267,W 4600 ,,KELLOGG WICHITA ,KS,67209,United States,3169424760,,,MONDAY 10:00 AM - 09:00 PM; TUESDAY 10:00 AM - 09:00 PM; WEDNESDAY 10:00 AM - 09:00 PM; THURSDAY 10:00 AM - 09:00 PM; FRIDAY 10:00 AM - 09:00 PM; SATURDAY 10:00 AM - 09:00 PM; SUNDAY 12:00 PM - 06:00 PM,,0
GREAT NORTHERN - OH,238,700 GREAT NORTHERN MALL ,,OLMSTEAD ,OH,44070,United States,4408011137,,,MONDAY 10:00 AM - 09:00 PM; TUESDAY 10:00 AM - 09:00 PM; WEDNESDAY 10:00 AM - 09:00 PM; THURSDAY 10:00 AM - 09:00 PM; FRIDAY 10:00 AM - 09:00 PM; SATURDAY 10:00 AM - 09:00 PM; SUNDAY 11:00 AM - 06:00 PM,,0
TOWN EAST - KS,305,E 7700 KELLOGG DRIVE ,,WICHITA ,KS,67207,United States,3166880084,,,MONDAY 10:00 AM - 09:00 PM; TUESDAY 10:00 AM - 09:00 PM; WEDNESDAY 10:00 AM - 09:00 PM; THURSDAY 10:00 AM - 09:00 PM; FRIDAY 10:00 AM - 09:00 PM; SATURDAY 10:00 AM - 09:00 PM; SUNDAY 12:00 PM - 06:00 PM,,0
CONNECTICUT POST - CT,287,1201 BOSTON POST RD ,,MILFORD ,CT,06460,United States,2033019065,,,MONDAY 10:00 AM - 09:00 PM; TUESDAY 10:00 AM - 09:00 PM; WEDNESDAY 10:00 AM - 09:00 PM; THURSDAY 10:00 AM - 09:00 PM; FRIDAY 10:00 AM - 09:00 PM; SATURDAY 10:00 AM - 09:00 PM; SUNDAY 11:00 AM - 06:00 PM,,0
DANBURY FAIR - CT,554,7 BACKUS AVENUE ,,DANBURY ,CT,06810,United States,2037941996,,,MONDAY 10:00 AM - 07:00 PM; TUESDAY 10:00 AM - 07:00 PM; WEDNESDAY 10:00 AM - 07:00 PM; THURSDAY 10:00 AM - 07:00 PM; FRIDAY 10:00 AM - 07:00 PM; SATURDAY 10:00 AM - 07:00 PM; SUNDAY 11:00 AM - 07:00 PM,,0
GLENBROOK - IN,159,4201 COLDWATER ROAD FORT ,,WAYNE ,IN,46805,United States,2604719557,,,MONDAY 10:00 AM - 09:00 PM; TUESDAY 10:00 AM - 09:00 PM; WEDNESDAY 10:00 AM - 09:00 PM; THURSDAY 10:00 AM - 09:00 PM; FRIDAY 10:00 AM - 09:00 PM; SATURDAY 10:00 AM - 09:00 PM; SUNDAY 11:00 AM - 06:00 PM,,0
SOUTH SHORE - NY,736,1701 SUNRISE HIGHWAY ,,BAY SHORE ,NY,11706,United States,6316650462,,,MONDAY 10:00 AM - 09:30 PM; TUESDAY 10:00 AM - 09:30 PM; WEDNESDAY 10:00 AM - 09:30 PM; THURSDAY 10:00 AM - 09:30 PM; FRIDAY 10:00 AM - 09:30 PM; SATURDAY 10:00 AM - 09:30 PM; SUNDAY 11:00 AM - 06:00 PM,,0
VIEWMONT - PA,431,18 VIEWMONT MALL ,,SCRANTON ,PA,18508,United States,5703432446,,,MONDAY 10:00 AM - 09:00 PM; TUESDAY 10:00 AM - 09:00 PM; WEDNESDAY 10:00 AM - 09:00 PM; THURSDAY 10:00 AM - 09:00 PM; FRIDAY 10:00 AM - 09:00 PM; SATURDAY 10:00 AM - 09:00 PM; SUNDAY 11:00 AM - 06:00 PM,,0
ZONA ROSA - MO,429,7260 NE 86TH PL ,,KANSAS CITY ,MO,64153,United States,8167412547,,,MONDAY 10:00 AM - 09:00 PM; TUESDAY 10:00 AM - 09:00 PM; WEDNESDAY 10:00 AM - 09:00 PM; THURSDAY 10:00 AM - 09:00 PM; FRIDAY 10:00 AM - 09:00 PM; SATURDAY 10:00 AM - 09:00 PM; SUNDAY 12:00 PM - 05:00 PM,,0
POUGHKEEPSIE - NY,447,2001 SOUTH RD ,,POUGHKEEPSIE ,NY,12601,United States,8452961013,,,MONDAY 10:00 AM - 09:30 PM; TUESDAY 10:00 AM - 09:30 PM; WEDNESDAY 10:00 AM - 09:30 PM; THURSDAY 10:00 AM - 09:30 PM; FRIDAY 10:00 AM - 09:30 PM; SATURDAY 10:00 AM - 09:30 PM; SUNDAY 11:00 AM - 06:00 PM,,0
BRASS MILL - CT,492,BRASS MILL CENTER 495 UNION ST. ,,WATERBURY ,CT,06706,United States,2035731967,,,MONDAY 10:00 AM - 09:00 PM; TUESDAY 10:00 AM - 09:00 PM; WEDNESDAY 10:00 AM - 09:00 PM; THURSDAY 10:00 AM - 09:00 PM; FRIDAY 10:00 AM - 09:00 PM; SATURDAY 10:00 AM - 09:00 PM; SUNDAY 11:00 AM - 06:00 PM,,0
EASTLAND MALL - IL,769,1615 EAST EMPIRE ST. ,,BLOOMINGTON ,IL,61701,United States,3096612866,,,MONDAY 10:00 AM - 09:00 PM; TUESDAY 10:00 AM - 09:00 PM; WEDNESDAY 10:00 AM - 09:00 PM; THURSDAY 10:00 AM - 09:00 PM; FRIDAY 10:00 AM - 09:00 PM; SATURDAY 10:00 AM - 09:00 PM; SUNDAY 12:00 PM - 06:00 PM,,0
MERIDEN - CT,89,470 LEWIS AVENUE ,,MERIDEN ,CT,06451,United States,2036301348,,,MONDAY 10:00 AM - 09:00 PM; TUESDAY 10:00 AM - 09:00 PM; WEDNESDAY 10:00 AM - 09:00 PM; THURSDAY 10:00 AM - 09:00 PM; FRIDAY 10:00 AM - 09:00 PM; SATURDAY 10:00 AM - 09:00 PM; SUNDAY 11:00 AM - 06:00 PM,,0
NORTHWOODS - IL,510,2200 W. WAR MEMORIALl DR. ,,PEORIA ,IL,61613,United States,3096867049,,,MONDAY 10:00 AM - 09:00 PM; TUESDAY 10:00 AM - 09:00 PM; WEDNESDAY 10:00 AM - 09:00 PM; THURSDAY 10:00 AM - 09:00 PM; FRIDAY 10:00 AM - 09:00 PM; SATURDAY 10:00 AM - 09:00 PM; SUNDAY 11:00 AM - 06:00 PM,,0
FOXWOODS OUTLET CENTER - CT,745,455 TROLLEY LINE BLVD ,,MASHANTUCKET ,CT,06338,United States,8602135266,,,MONDAY 10:00 AM - 09:00 PM; TUESDAY 10:00 AM - 09:00 PM; WEDNESDAY 10:00 AM - 09:00 PM; THURSDAY 10:00 AM - 09:00 PM; FRIDAY 10:00 AM - 09:00 PM; SATURDAY 10:00 AM - 09:00 PM; SUNDAY 11:00 AM - 06:00 PM,,0
OAK PARK - KS,495,11615 W. 95TH ST. ,,OVERLAND PARK ,KS,66214,United States,9134959483,,,MONDAY 10:00 AM - 09:00 PM; TUESDAY 10:00 AM - 09:00 PM; WEDNESDAY 10:00 AM - 09:00 PM; THURSDAY 10:00 AM - 09:00 PM; FRIDAY 10:00 AM - 09:00 PM; SATURDAY 10:00 AM - 09:00 PM; SUNDAY 11:00 AM - 06:00 PM,,0
FRANKLIN PARK - OH,333,5001 MONROE STREET ,,TOLEDO ,OH,43623,United States,4194749504,,,MONDAY 09:00 AM - 10:00 PM; TUESDAY 09:00 AM - 10:00 PM; WEDNESDAY 09:00 AM - 10:00 PM; THURSDAY 09:00 AM - 10:00 PM; FRIDAY 09:00 AM - 10:00 PM; SATURDAY 09:00 AM - 10:00 PM; SUNDAY 11:00 AM - 07:00 PM,,0
BUCKLAND HILLS - CT,248,194 BUCKLAND HILLS DRIVE ,,MANCHESTER ,CT,06040,United States,8606489096,,,MONDAY 10:00 AM - 09:00 PM; TUESDAY 10:00 AM - 09:00 PM; WEDNESDAY 10:00 AM - 09:00 PM; THURSDAY 10:00 AM - 09:00 PM; FRIDAY 10:00 AM - 09:00 PM; SATURDAY 10:00 AM - 09:00 PM; SUNDAY 11:00 AM - 06:00 PM,,0
WEST RIDGE - KS,313,1801 SW WANAMAKER ROAD ,,TOPEKA ,KS,66604,United States,7852712119,,,MONDAY 10:00 AM - 09:00 PM; TUESDAY 10:00 AM - 09:00 PM; WEDNESDAY 10:00 AM - 09:00 PM; THURSDAY 10:00 AM - 09:00 PM; FRIDAY 10:00 AM - 09:00 PM; SATURDAY 10:00 AM - 09:00 PM; SUNDAY 11:00 AM - 06:00 PM,,0
GREAT LAKES - OH,349,7850 MENTOR AVENUE ,,MENTOR ,OH,44060,United States,4402051103,,,MONDAY 10:00 AM - 09:00 PM; TUESDAY 10:00 AM - 09:00 PM; WEDNESDAY 10:00 AM - 09:00 PM; THURSDAY 10:00 AM - 09:00 PM; FRIDAY 10:00 AM - 09:00 PM; SATURDAY 10:00 AM - 09:00 PM; SUNDAY 11:00 AM - 06:00 PM,,0
ARNOT - NY,243,3300 CHAMBERS ROAD SOUTH ,,HORSEHEADS ,NY,14845,United States,6077964180,,,MONDAY 10:00 AM - 09:00 PM; TUESDAY 10:00 AM - 09:00 PM; WEDNESDAY 10:00 AM - 09:00 PM; THURSDAY 10:00 AM - 09:00 PM; FRIDAY 10:00 AM - 09:30 PM; SATURDAY 10:00 AM - 09:30 PM; SUNDAY 11:00 AM - 06:00 PM,,0
WARWICK - RI,457,400 BALD HILLS RD. ,,WARWICK ,RI,02886,United States,4017380510,,,MONDAY 10:00 AM - 09:00 PM; TUESDAY 10:00 AM - 09:00 PM; WEDNESDAY 10:00 AM - 09:00 PM; THURSDAY 10:00 AM - 09:00 PM; FRIDAY 10:00 AM - 09:00 PM; SATURDAY 10:00 AM - 09:00 PM; SUNDAY 11:00 AM - 06:00 PM,,0
PROVIDENCE - RI,94,129 PROVIDENCE PLACE ,,PROVIDENCE ,RI,02903,United States,4012704370,,,MONDAY 10:00 AM - 09:00 PM; TUESDAY 10:00 AM - 09:00 PM; WEDNESDAY 10:00 AM - 09:00 PM; THURSDAY 10:00 AM - 09:00 PM; FRIDAY 10:00 AM - 09:00 PM; SATURDAY 10:00 AM - 09:00 PM; SUNDAY 12:00 PM - 06:00 PM,,0
MILLCREEK - PA,296,622 MILLCREEK MALL ,,ERIE ,PA,16565,United States,8148644843,,,MONDAY 10:00 AM - 09:00 PM; TUESDAY 10:00 AM - 09:00 PM; WEDNESDAY 10:00 AM - 09:00 PM; THURSDAY 10:00 AM - 09:00 PM; FRIDAY 10:00 AM - 09:00 PM; SATURDAY 10:00 AM - 09:00 PM; SUNDAY 11:00 AM - 06:00 PM,,0
OAKDALE - NY,432,601 HARRY L DRIVE ,,JOHNSON CITY ,NY,13790,United States,6077981606,,,MONDAY 10:00 AM - 09:00 PM; TUESDAY 10:00 AM - 09:00 PM; WEDNESDAY 10:00 AM - 09:00 PM; THURSDAY 10:00 AM - 09:00 PM; FRIDAY 10:00 AM - 09:00 PM; SATURDAY 10:00 AM - 09:00 PM; SUNDAY 11:00 AM - 07:00 PM,,0
UNIVERSITY PARK - IN,345,6501 NORTH GRAPE ROAD ,,MISHAWAKA ,IN,46545,United States,5742434712,,,MONDAY 10:00 AM - 09:00 PM; TUESDAY 10:00 AM - 09:00 PM; WEDNESDAY 10:00 AM - 09:00 PM; THURSDAY 10:00 AM - 09:00 PM; FRIDAY 10:00 AM - 09:00 PM; SATURDAY 10:00 AM - 09:00 PM; SUNDAY 11:00 AM - 06:00 PM,,0
ENFIELD - CT,294,90 ELM STREET ,,ENFIELD ,CT,06082,United States,8607415507,,,MONDAY 10:00 AM - 09:00 PM; TUESDAY 10:00 AM - 09:00 PM; WEDNESDAY 10:00 AM - 09:00 PM; THURSDAY 10:00 AM - 09:00 PM; FRIDAY 10:00 AM - 09:00 PM; SATURDAY 10:00 AM - 09:00 PM; SUNDAY 11:00 AM - 06:00 PM,,0
EAST HILLS MALL- MO,593,3702 FREDERICK AVE. ,,ST. JOSEPH ,MO,64506,United States,8163878688,,,MONDAY 10:00 AM - 09:00 PM; TUESDAY 10:00 AM - 09:00 PM; WEDNESDAY 10:00 AM - 09:00 PM; THURSDAY 10:00 AM - 09:00 PM; FRIDAY 10:00 AM - 09:00 PM; SATURDAY 10:00 AM - 09:00 PM; SUNDAY 12:00 PM - 05:00 PM,,0
DARTMOUTH MALL,732,200 N. DARTMOUTH MALL ,,DARTMOUTH ,MA,02747,United States,5089990105,,,MONDAY 10:00 AM - 09:00 PM; TUESDAY 10:00 AM - 09:00 PM; WEDNESDAY 10:00 AM - 09:00 PM; THURSDAY 10:00 AM - 09:00 PM; FRIDAY 10:00 AM - 09:00 PM; SATURDAY 10:00 AM - 09:00 PM; SUNDAY 11:00 AM - 06:00 PM,,0
HUDSON VALLEY - NY,514,1300 ULSTER AVENUE ,,KINGSTON ,NY,12401,United States,8453366132,,,MONDAY 10:00 AM - 09:00 PM; TUESDAY 10:00 AM - 09:00 PM; WEDNESDAY 10:00 AM - 09:00 PM; THURSDAY 10:00 AM - 09:00 PM; FRIDAY 10:00 AM - 09:00 PM; SATURDAY 10:00 AM - 09:00 PM; SUNDAY 11:00 AM - 06:00 PM,,0
SOUTHLAKE - IN,278,2063 SOUTHLAKE MALL ,,MERRILLVILLE ,IN,46410,United States,2197366280,,,MONDAY 10:00 AM - 09:00 PM; TUESDAY 10:00 AM - 09:00 PM; WEDNESDAY 10:00 AM - 09:00 PM; THURSDAY 10:00 AM - 09:00 PM; FRIDAY 10:00 AM - 09:00 PM; SATURDAY 10:00 AM - 09:00 PM; SUNDAY 11:00 AM - 06:00 PM,,0
EMERALD - MA,138,999 S. WASHINGTON STREET ,,NORTH ATTLEBORO ,MA,02760,United States,5086950141,,,MONDAY 10:00 AM - 09:00 PM; TUESDAY 10:00 AM - 09:00 PM; WEDNESDAY 10:00 AM - 09:00 PM; THURSDAY 10:00 AM - 09:00 PM; FRIDAY 10:00 AM - 09:00 PM; SATURDAY 10:00 AM - 09:00 PM; SUNDAY 11:00 AM - 06:00 PM,,0
ORLAND SQUARE - IL,758,836 Orland Square Dr ,,Orland Park ,IL,60462,United States,7084038973,,,MONDAY 10:00 AM - 09:00 PM; TUESDAY 10:00 AM - 09:00 PM; WEDNESDAY 10:00 AM - 09:00 PM; THURSDAY 10:00 AM - 09:00 PM; FRIDAY 10:00 AM - 09:00 PM; SATURDAY 10:00 AM - 09:00 PM; SUNDAY 11:00 AM - 06:00 PM,,0
TAYLOR - MI,475,23000 EUREKA ROAD ,,TAYLOR ,MI,48180,United States,7342872321,,,MONDAY 10:00 AM - 09:00 PM; TUESDAY 10:00 AM - 09:00 PM; WEDNESDAY 10:00 AM - 09:00 PM; THURSDAY 10:00 AM - 09:00 PM; FRIDAY 10:00 AM - 09:00 PM; SATURDAY 10:00 AM - 09:00 PM; SUNDAY 11:00 AM - 06:00 PM,,0
SILVER CITY - MA,399,2 GALLERIA MALL DRIVE ,,TAUNTON ,MA,02780,United States,5088843084,,,MONDAY 10:00 AM - 09:00 PM; TUESDAY 10:00 AM - 09:00 PM; WEDNESDAY 10:00 AM - 09:00 PM; THURSDAY 10:00 AM - 09:00 PM; FRIDAY 10:00 AM - 09:00 PM; SATURDAY 10:00 AM - 09:00 PM; SUNDAY 12:00 PM - 06:00 PM,,0
HOLYOKE - MA,103,50 HOLYOKE STREET ,,HOLYOKE ,MA,01040,United States,4135323770,,,MONDAY 10:00 AM - 09:30 PM; TUESDAY 10:00 AM - 09:30 PM; WEDNESDAY 10:00 AM - 09:30 PM; THURSDAY 10:00 AM - 09:30 PM; FRIDAY 10:00 AM - 09:30 PM; SATURDAY 10:00 AM - 09:30 PM; SUNDAY 11:00 AM - 06:00 PM,,0
FAIRLANE - MI,110,18900 MICHIGAN AVENUE ,,DEARBORN ,MI,48126,United States,3133366343,,,MONDAY 10:00 AM - 09:00 PM; TUESDAY 10:00 AM - 06:00 PM; WEDNESDAY 10:00 AM - 06:00 PM; THURSDAY 10:00 AM - 09:00 PM; FRIDAY 10:00 AM - 09:00 PM; SATURDAY 10:00 AM - 09:00 PM; SUNDAY 11:00 AM - 06:00 PM,,0
CHICAGO RIDGE - IL,190,571 CHICAGO RIDGE DRIVE MALL ,,CHICAGO RIDGE ,IL,60415,United States,7082291012,,,MONDAY 10:00 AM - 09:00 PM; TUESDAY 10:00 AM - 09:00 PM; WEDNESDAY 10:00 AM - 09:00 PM; THURSDAY 10:00 AM - 09:00 PM; FRIDAY 10:00 AM - 09:00 PM; SATURDAY 10:00 AM - 09:00 PM; SUNDAY 11:00 AM - 06:00 PM,,0
LOUIS JOLIET - IL,158,3340 Mall Loop Drive ,,JOLIET ,IL,60435,United States,8152542474,,,MONDAY 10:00 AM - 09:00 PM; TUESDAY 10:00 AM - 09:00 PM; WEDNESDAY 10:00 AM - 09:00 PM; THURSDAY 10:00 AM - 09:00 PM; FRIDAY 10:00 AM - 09:00 PM; SATURDAY 10:00 AM - 09:00 PM; SUNDAY 11:00 AM - 06:00 PM,,0
FORD CITY - IL,146,7601 S. CICERO AVENUE ,,CHICAGO ,IL,60652,United States,7735822188,,,MONDAY 10:00 AM - 09:00 PM; TUESDAY 10:00 AM - 09:00 PM; WEDNESDAY 10:00 AM - 09:00 PM; THURSDAY 10:00 AM - 09:00 PM; FRIDAY 10:00 AM - 09:00 PM; SATURDAY 10:00 AM - 09:00 PM; SUNDAY 11:00 AM - 06:00 PM,,0
INDEPENDENCE - MA,513,101 INDEPEDENCE MALL WAY ,,KINGSTON ,MA,02364,United States,7815851085,,,MONDAY 10:00 AM - 09:00 PM; TUESDAY 10:00 AM - 09:00 PM; WEDNESDAY 10:00 AM - 09:00 PM; THURSDAY 10:00 AM - 09:00 PM; FRIDAY 10:00 AM - 09:00 PM; SATURDAY 10:00 AM - 09:00 PM; SUNDAY 11:00 AM - 06:00 PM,,0
BOLINGBROOK - IL,424,635 E. BOUGHTON ROAD ,,BOLINGBROOK ,IL,60440,United States,6307832955,,,MONDAY 10:00 AM - 08:00 PM; TUESDAY 10:00 AM - 08:00 PM; WEDNESDAY 10:00 AM - 08:00 PM; THURSDAY 10:00 AM - 08:00 PM; FRIDAY 10:00 AM - 09:00 PM; SATURDAY 10:00 AM - 09:00 PM; SUNDAY 11:00 AM - 06:00 PM,,0
AUBURN - MA,230,385 SOUTHBRIDGE STREET ,,AUBURN ,MA,01501,United States,5088323428,,,MONDAY 10:00 AM - 09:00 PM; TUESDAY 10:00 AM - 09:00 PM; WEDNESDAY 10:00 AM - 09:00 PM; THURSDAY 10:00 AM - 09:00 PM; FRIDAY 10:00 AM - 09:00 PM; SATURDAY 10:00 AM - 09:00 PM; SUNDAY 11:00 AM - 06:00 PM,,0
NORTH RIVERSIDE - IL,173,7501 W. CERMACK ROAD ,,NORTH RIVERSIDE ,IL,60546,United States,7084427684,,,MONDAY 10:00 AM - 09:00 PM; TUESDAY 10:00 AM - 09:00 PM; WEDNESDAY 10:00 AM - 09:00 PM; THURSDAY 10:00 AM - 09:00 PM; FRIDAY 10:00 AM - 09:00 PM; SATURDAY 10:00 AM - 09:00 PM; SUNDAY 11:00 AM - 06:00 PM,,0
EASTLAND - MI,240,18000 VERNIER ROAD ,,HARPER WOODS ,MI,48225,United States,3138396568,,,MONDAY 10:00 AM - 09:00 PM; TUESDAY 10:00 AM - 07:00 PM; WEDNESDAY 10:00 AM - 06:00 PM; THURSDAY 10:00 AM - 09:00 PM; FRIDAY 10:00 AM - 09:00 PM; SATURDAY 10:00 AM - 09:00 PM; SUNDAY Closed,,0
WESTLAND - MI,300,35000 WEST WARREN ROAD ,,WESTLAND ,MI,48185,United States,7345253643,,,MONDAY 10:00 AM - 09:00 PM; TUESDAY 10:00 AM - 09:00 PM; WEDNESDAY 10:00 AM - 09:00 PM; THURSDAY 10:00 AM - 09:00 PM; FRIDAY 10:00 AM - 09:00 PM; SATURDAY 10:00 AM - 09:00 PM; SUNDAY 11:00 AM - 06:00 PM,,0
HARLEM IRVING PLAZA - IL,759,4158 N. Harlem Ave. ,,Norridge ,IL,60706,United States,7085832542,,,MONDAY 10:00 AM - 09:00 PM; TUESDAY 10:00 AM - 09:00 PM; WEDNESDAY 10:00 AM - 09:00 PM; THURSDAY 10:00 AM - 09:00 PM; FRIDAY 10:00 AM - 09:00 PM; SATURDAY 10:00 AM - 09:00 PM; SUNDAY 11:00 AM - 06:00 PM,,0
CROSSROADS - MI,445,6650 SOUTH WESTNEDGE AVENUE ,,PORTAGE ,MI,49024,United States,2693245893,,,MONDAY 10:00 AM - 09:00 PM; TUESDAY 10:00 AM - 09:00 PM; WEDNESDAY 10:00 AM - 09:00 PM; THURSDAY 10:00 AM - 09:00 PM; FRIDAY 10:00 AM - 09:00 PM; SATURDAY 10:00 AM - 09:00 PM; SUNDAY 12:00 PM - 06:00 PM,,0
SOUTH SHORE - MA,451,250 GRANITE ST. ,,BRAINTREE ,MA,02184,United States,7813800718,,,MONDAY 10:00 AM - 09:00 PM; TUESDAY 10:00 AM - 09:00 PM; WEDNESDAY 10:00 AM - 09:00 PM; THURSDAY 10:00 AM - 09:00 PM; FRIDAY 10:00 AM - 09:00 PM; SATURDAY 10:00 AM - 09:00 PM; SUNDAY 11:00 AM - 06:00 PM,,0
LINCOLNWOOD TC - IL,539,3333 WEST TOUHY AVE ,,LINCOLNWOOD ,IL,60712,United States,8477631004,,,MONDAY 10:00 AM - 09:00 PM; TUESDAY 10:00 AM - 09:00 PM; WEDNESDAY 10:00 AM - 09:00 PM; THURSDAY 10:00 AM - 09:00 PM; FRIDAY 10:00 AM - 09:00 PM; SATURDAY 10:00 AM - 08:00 PM; SUNDAY 11:00 AM - 06:00 PM,,0
TWELVE OAKS - MI,381,27212 NOVI ROAD ,,NOVI ,MI,48377,United States,2483493876,,,MONDAY 10:00 AM - 09:00 PM; TUESDAY 10:00 AM - 09:00 PM; WEDNESDAY 10:00 AM - 09:00 PM; THURSDAY 10:00 AM - 09:00 PM; FRIDAY 10:00 AM - 09:00 PM; SATURDAY 10:00 AM - 09:00 PM; SUNDAY Closed,,0
OAKLAND - MI,255,450 WEST 14 MILE ROAD ,,TROY ,MI,48083,United States,2485851391,,,MONDAY 10:00 AM - 09:00 PM; TUESDAY 10:00 AM - 06:00 PM; WEDNESDAY 10:00 AM - 06:00 PM; THURSDAY 10:00 AM - 09:00 PM; FRIDAY 10:00 AM - 09:00 PM; SATURDAY 10:00 AM - 09:00 PM; SUNDAY 11:00 AM - 06:00 PM,,0
NATICK MALL - MA,772,1245 Worcester Street ,,Natick ,MA,01760,United States,5086558590,,,MONDAY 10:00 AM - 09:00 PM; TUESDAY 10:00 AM - 09:00 PM; WEDNESDAY 10:00 AM - 09:00 PM; THURSDAY 10:00 AM - 09:00 PM; FRIDAY 10:00 AM - 09:00 PM; SATURDAY 10:00 AM - 09:00 PM; SUNDAY 11:00 AM - 06:00 PM,,0
HANOVER - MA,434,1775 WASHINGTON ST ,,HANOVER ,MA,02339,United States,7818265246,,,MONDAY 10:00 AM - 09:00 PM; TUESDAY 10:00 AM - 09:00 PM; WEDNESDAY 10:00 AM - 09:00 PM; THURSDAY 10:00 AM - 09:00 PM; FRIDAY 10:00 AM - 09:00 PM; SATURDAY 10:00 AM - 09:00 PM; SUNDAY 12:00 PM - 06:00 PM,,0
YORKTOWN - IL,220,203 YORKTOWN ,,LOMBARD ,IL,60148,United States,6308890620,,,MONDAY 10:00 AM - 09:00 PM; TUESDAY 10:00 AM - 09:00 PM; WEDNESDAY 10:00 AM - 09:00 PM; THURSDAY 10:00 AM - 09:00 PM; FRIDAY 10:00 AM - 09:00 PM; SATURDAY 10:00 AM - 09:00 PM; SUNDAY 11:00 AM - 06:00 PM,,0
SOLOMON POND MALL - MA,752,601 DONALD LYNCH BLVD. ,,MARLBOROUGH ,MA,01752,United States,5084868192,,,MONDAY 10:00 AM - 09:00 PM; TUESDAY 10:00 AM - 09:00 PM; WEDNESDAY 10:00 AM - 09:00 PM; THURSDAY 10:00 AM - 09:00 PM; FRIDAY 10:00 AM - 09:00 PM; SATURDAY 10:00 AM - 09:00 PM; SUNDAY 11:00 AM - 06:00 PM,,0
FOX VALLEY - IL,120,1500 FOX VALLEY CENTER DR ,,AURORA ,IL,60504,United States,6305857721,,,MONDAY 10:00 AM - 09:00 PM; TUESDAY 10:00 AM - 09:00 PM; WEDNESDAY 10:00 AM - 09:00 PM; THURSDAY 10:00 AM - 09:00 PM; FRIDAY 10:00 AM - 09:00 PM; SATURDAY 10:00 AM - 09:00 PM; SUNDAY 11:00 AM - 06:00 PM,,0
LAKESIDE - MI,204,14600 LAKESIDE CIRCLE ,,STERLING HEIGHTS ,MI,48313,United States,5865329580,,,MONDAY 10:00 AM - 09:00 PM; TUESDAY 10:00 AM - 06:00 PM; WEDNESDAY 10:00 AM - 06:00 PM; THURSDAY 10:00 AM - 09:00 PM; FRIDAY 10:00 AM - 09:00 PM; SATURDAY 10:00 AM - 09:00 PM; SUNDAY 12:00 PM - 06:00 PM,,0
ARSENAL MALL - MA,727,485 ARSENAL STREET ,,WATERTOWN ,MA,02472,United States,6179241117,,,MONDAY 10:00 AM - 09:00 PM; TUESDAY 10:00 AM - 09:00 PM; WEDNESDAY 10:00 AM - 09:00 PM; THURSDAY 10:00 AM - 09:00 PM; FRIDAY 10:00 AM - 09:00 PM; SATURDAY 10:00 AM - 09:00 PM; SUNDAY 11:00 AM - 06:00 PM,,0
CROSSGATES - NY,104,1 CRSSGATES MALL ROAD ,,ALBANY ,NY,12203,United States,5184522163,,,MONDAY 10:00 AM - 09:30 PM; TUESDAY 10:00 AM - 09:30 PM; WEDNESDAY 10:00 AM - 09:30 PM; THURSDAY 10:00 AM - 09:30 PM; FRIDAY 10:00 AM - 09:30 PM; SATURDAY 10:00 AM - 09:30 PM; SUNDAY 11:00 AM - 06:00 PM,,0
OLD ORCHARD - IL,577,4999 OLD ,,ORCHARD CENTER SKOKIE ,IL,60077,United States,8476799400,,,MONDAY 10:00 AM - 09:00 PM; TUESDAY 10:00 AM - 09:00 PM; WEDNESDAY 10:00 AM - 09:00 PM; THURSDAY 10:00 AM - 09:00 PM; FRIDAY 10:00 AM - 09:00 PM; SATURDAY 10:00 AM - 09:00 PM; SUNDAY 11:00 AM - 06:00 PM,,0
CAMBRIDGESIDE - MA,576,100 CAMBRIDGESIDE PL ,,CAMBRIDGE ,MA,02141,United States,6172252680,,,MONDAY 10:00 AM - 09:00 PM; TUESDAY 10:00 AM - 09:00 PM; WEDNESDAY 10:00 AM - 09:00 PM; THURSDAY 10:00 AM - 09:00 PM; FRIDAY 10:00 AM - 09:00 PM; SATURDAY 10:00 AM - 09:00 PM; SUNDAY 11:00 AM - 06:00 PM,,0
HOWELL OUTLET - MI,598,1475 NORTH BURKHART RD ,,HOWELL ,MI,48855,United States,5175454604,,,MONDAY 09:00 AM - 09:00 PM; TUESDAY 09:00 AM - 09:00 PM; WEDNESDAY 09:00 AM - 09:00 PM; THURSDAY 09:00 AM - 09:00 PM; FRIDAY 09:00 AM - 09:00 PM; SATURDAY 09:00 AM - 09:00 PM; SUNDAY 10:00 AM - 06:00 PM,,0
WOODFIELD - IL,126,5 WOODFIELD SHOPPING CENTER ,,SCHAUMBURG ,IL,60173,United States,8479951180,,,MONDAY 10:00 AM - 09:00 PM; TUESDAY 10:00 AM - 09:00 PM; WEDNESDAY 10:00 AM - 09:00 PM; THURSDAY 10:00 AM - 09:00 PM; FRIDAY 10:00 AM - 09:00 PM; SATURDAY 10:00 AM - 09:00 PM; SUNDAY 11:00 AM - 06:00 PM,,0
WALDEN - NY,80,G104 WALDEN ,,GALLERIA BUFFALO ,NY,14225,United States,7166816490,,,MONDAY 08:00 AM - 11:00 PM; TUESDAY 08:00 AM - 11:00 PM; WEDNESDAY 08:00 AM - 11:00 PM; THURSDAY 08:00 AM - 11:00 PM; FRIDAY 08:00 AM - 11:00 PM; SATURDAY 08:00 AM - 11:00 PM; SUNDAY 10:00 AM - 08:00 PM,,0
SQUARE ONE - MA,228,ROUTE 1 ,,SOUTH SAUGUS ,MA,01906,United States,7812319315,,,MONDAY 10:00 AM - 09:00 PM; TUESDAY 10:00 AM - 09:00 PM; WEDNESDAY 10:00 AM - 09:00 PM; THURSDAY 10:00 AM - 09:00 PM; FRIDAY 10:00 AM - 09:00 PM; SATURDAY 10:00 AM - 09:00 PM; SUNDAY 11:00 AM - 06:00 PM,,0
BOULEVARD - NY,420,730 ALBERTA DRIVE ,,AMHERST ,NY,14226,United States,7168362200,,,MONDAY 10:00 AM - 09:00 PM; TUESDAY 10:00 AM - 09:00 PM; WEDNESDAY 10:00 AM - 09:00 PM; THURSDAY 10:00 AM - 09:00 PM; FRIDAY 10:00 AM - 09:00 PM; SATURDAY 10:00 AM - 09:00 PM; SUNDAY 11:00 AM - 06:00 PM,,0
ALGONQUIN COMMONS - IL,594,1952 S. RANDALL RD ,,ALGONQUIN ,IL,60102,United States,8474585253,,,MONDAY 10:00 AM - 09:00 PM; TUESDAY 10:00 AM - 09:00 PM; WEDNESDAY 10:00 AM - 09:00 PM; THURSDAY 10:00 AM - 09:00 PM; FRIDAY 10:00 AM - 09:00 PM; SATURDAY 10:00 AM - 09:00 PM; SUNDAY 11:00 AM - 06:00 PM,,0
ASSEMBLY ROW - MA,725,1 Assembly Square Drive ,,Somerville ,MA,02145,United States,6176280146,,,MONDAY 10:00 AM - 09:00 PM; TUESDAY 10:00 AM - 09:00 PM; WEDNESDAY 10:00 AM - 09:00 PM; THURSDAY 10:00 AM - 09:00 PM; FRIDAY 10:00 AM - 09:00 PM; SATURDAY 10:00 AM - 09:00 PM; SUNDAY 11:00 AM - 06:00 PM,,0
MERIDIAN - MI,199,1982 E. GRAND RIVER AVENUE ,,OKEMOS ,MI,48864,United States,5173811440,,,MONDAY 10:00 AM - 09:00 PM; TUESDAY 10:00 AM - 09:00 PM; WEDNESDAY 10:00 AM - 09:00 PM; THURSDAY 10:00 AM - 09:00 PM; FRIDAY 10:00 AM - 09:00 PM; SATURDAY 10:00 AM - 09:00 PM; SUNDAY 11:00 AM - 06:00 PM,,0
EASTVIEW - NY,99,672 EASTVIEW MALL ,,VICTOR ,NY,14564,United States,5852234990,,,MONDAY 09:00 AM - 11:00 PM; TUESDAY 09:00 AM - 11:00 PM; WEDNESDAY 09:00 AM - 11:00 PM; THURSDAY 09:00 AM - 11:00 PM; FRIDAY 09:00 AM - 11:00 PM; SATURDAY 09:00 AM - 11:00 PM; SUNDAY 09:00 AM - 08:00 PM,,0
LANSING - MI,264,W 5330 SAGINAW HIGHWAY ,,LANSING ,MI,48917,United States,5173234361,,,MONDAY 10:00 AM - 09:00 PM; TUESDAY 10:00 AM - 09:00 PM; WEDNESDAY 10:00 AM - 09:00 PM; THURSDAY 10:00 AM - 09:00 PM; FRIDAY 10:00 AM - 09:00 PM; SATURDAY 10:00 AM - 09:00 PM; SUNDAY 12:00 PM - 06:00 PM,,0
SPRING HILL - IL,117,1072 SPRING HILL MALL ,,WEST DUNDEE ,IL,60118,United States,8477835220,,,MONDAY 10:00 AM - 09:00 PM; TUESDAY 10:00 AM - 09:00 PM; WEDNESDAY 10:00 AM - 09:00 PM; THURSDAY 10:00 AM - 09:00 PM; FRIDAY 10:00 AM - 09:00 PM; SATURDAY 10:00 AM - 09:00 PM; SUNDAY 11:00 AM - 06:00 PM,,0
HAWTHORNE - IL,280,122 HAWTHORN CENTER ,,VERNON HILLS ,IL,60061,United States,8473675720,,,MONDAY 10:00 AM - 09:00 PM; TUESDAY 10:00 AM - 06:00 PM; WEDNESDAY 10:00 AM - 06:00 PM; THURSDAY 10:00 AM - 09:00 PM; FRIDAY 10:00 AM - 09:00 PM; SATURDAY 10:00 AM - 09:00 PM; SUNDAY 12:00 PM - 06:00 PM,,0
PHEASANT LANE - NH,718,310 DANIEL WEBSTER HIGHWAY ,,NASHUA ,NH,03060,United States,6038880375,,,MONDAY 10:00 AM - 09:00 PM; TUESDAY 10:00 AM - 09:00 PM; WEDNESDAY 10:00 AM - 09:00 PM; THURSDAY 10:00 AM - 09:00 PM; FRIDAY 10:00 AM - 09:00 PM; SATURDAY 10:00 AM - 09:00 PM; SUNDAY 11:00 AM - 06:00 PM,,0
SANGERTOWN - NY,454,ROUTE 5 & 5A ,,NEW HARTFORD ,NY,13413,United States,3157325249,,,MONDAY 10:00 AM - 09:30 PM; TUESDAY 10:00 AM - 09:30 PM; WEDNESDAY 10:00 AM - 09:30 PM; THURSDAY 10:00 AM - 09:30 PM; FRIDAY 10:00 AM - 09:30 PM; SATURDAY 10:00 AM - 09:30 PM; SUNDAY 11:00 AM - 06:00 PM,,0
GREECE RIDGE - NY,263,252 GREECE RIDGE CENTER DRIVE ,,ROCHESTER ,NY,14626,United States,5852259740,,,MONDAY 10:00 AM - 09:30 PM; TUESDAY 10:00 AM - 09:30 PM; WEDNESDAY 10:00 AM - 09:30 PM; THURSDAY 10:00 AM - 09:30 PM; FRIDAY 10:00 AM - 09:30 PM; SATURDAY 10:00 AM - 09:30 PM; SUNDAY 11:00 AM - 06:00 PM,,0
GURNEE - IL,139,6170 GRAND AVENUE ,,GURNEE ,IL,60031,United States,8478551800,,,MONDAY 10:00 AM - 09:00 PM; TUESDAY 10:00 AM - 09:00 PM; WEDNESDAY 10:00 AM - 09:00 PM; THURSDAY 10:00 AM - 09:00 PM; FRIDAY 10:00 AM - 09:00 PM; SATURDAY 10:00 AM - 09:00 PM; SUNDAY 11:00 AM - 07:00 PM,,0
CORAL RIDGE - IA,834,1451 CORAL RIDGE AVENUE ,,CORALVILLE ,IA,52241,United States,,,,MONDAY 10:00 AM - 09:00 PM; TUESDAY 10:00 AM - 09:00 PM; WEDNESDAY 10:00 AM - 09:00 PM; THURSDAY 10:00 AM - 09:00 PM; FRIDAY 10:00 AM - 09:00 PM; SATURDAY 10:00 AM - 09:00 PM; SUNDAY 11:00 AM - 06:00 PM,,0
CHERRYVALE - IL,301,7200 HARRISON AVENUE ,,ROCKFORD ,IL,61112,United States,8153325925,,,MONDAY 10:00 AM - 09:00 PM; TUESDAY 10:00 AM - 09:00 PM; WEDNESDAY 10:00 AM - 09:00 PM; THURSDAY 10:00 AM - 09:00 PM; FRIDAY 10:00 AM - 09:00 PM; SATURDAY 10:00 AM - 09:00 PM; SUNDAY 11:00 AM - 06:00 PM,,0
ROCKINGHAM - NH,231,99 ROCKINGHAM PARK BLVD. ,,SALEM ,NH,03079,United States,6038906092,,,MONDAY 10:00 AM - 09:00 PM; TUESDAY 10:00 AM - 09:00 PM; WEDNESDAY 10:00 AM - 09:00 PM; THURSDAY 10:00 AM - 09:00 PM; FRIDAY 10:00 AM - 09:00 PM; SATURDAY 10:00 AM - 09:00 PM; SUNDAY 11:00 AM - 06:00 PM,,0
FASHION OUTLETS - NY,570,1982 MILITARY RD. ,,NIAGARA FALLS ,NY,14304,United States,7162970265,,,MONDAY 10:00 AM - 09:00 PM; TUESDAY 10:00 AM - 09:00 PM; WEDNESDAY 10:00 AM - 09:00 PM; THURSDAY 10:00 AM - 09:00 PM; FRIDAY 10:00 AM - 09:00 PM; SATURDAY 10:00 AM - 09:00 PM; SUNDAY 10:00 AM - 07:00 PM,,0
WILTON MALL - NY,755,3065 Route 50 ,,Saratoga Springs ,NY,12866,United States,5185832060,,,MONDAY 10:00 AM - 09:30 PM; TUESDAY 10:00 AM - 09:30 PM; WEDNESDAY 10:00 AM - 09:30 PM; THURSDAY 10:00 AM - 09:30 PM; FRIDAY 10:00 AM - 09:30 PM; SATURDAY 10:00 AM - 09:30 PM; SUNDAY 11:00 AM - 06:00 PM,,0
CORONADO - NM,193,6600 MENAUL BLVD. NE ,,ALBUQUERQUE ,NM,87110,United States,5058306999,,,MONDAY 10:00 AM - 09:00 PM; TUESDAY 10:00 AM - 09:00 PM; WEDNESDAY 10:00 AM - 09:00 PM; THURSDAY 10:00 AM - 09:00 PM; FRIDAY 10:00 AM - 09:00 PM; SATURDAY 08:00 AM - 10:00 PM; SUNDAY 12:00 PM - 06:00 PM,,0
CHARLOTTE RUSSE PLUS - RIVERTOWN - MI,830,3700 RIVERTOWN PARKWAY ,,GRANDVILLE ,MI,49418,United States,6165344640,,,MONDAY 10:00 AM - 09:00 PM; TUESDAY 10:00 AM - 09:00 PM; WEDNESDAY 10:00 AM - 09:00 PM; THURSDAY 10:00 AM - 09:00 PM; FRIDAY 10:00 AM - 09:00 PM; SATURDAY 10:00 AM - 09:00 PM; SUNDAY 11:00 AM - 06:00 PM,,0
DESTINY USA - NY,111,1 DESTINY USA DR. ,,SYRACUSE ,NY,13204,United States,3154787110,,,MONDAY 10:00 AM - 09:30 PM; TUESDAY 10:00 AM - 09:30 PM; WEDNESDAY 10:00 AM - 09:30 PM; THURSDAY 10:00 AM - 09:30 PM; FRIDAY 10:00 AM - 09:30 PM; SATURDAY 10:00 AM - 09:30 PM; SUNDAY 11:00 AM - 06:00 PM,,0
REGENCY - WI,206,5666 DURAND AVE. ,,RACINE ,WI,53406,United States,2625544480,,,MONDAY 10:00 AM - 09:00 PM; TUESDAY 10:00 AM - 09:00 PM; WEDNESDAY 10:00 AM - 09:00 PM; THURSDAY 10:00 AM - 09:00 PM; FRIDAY 10:00 AM - 09:00 PM; SATURDAY 10:00 AM - 08:00 PM; SUNDAY 11:00 AM - 06:00 PM,,0
NEW HAMPSHIRE - NH,150,1500 S. WILLOW STREET ,,MANCHESTER ,NH,03103,United States,6036220027,,,MONDAY 10:00 AM - 09:00 PM; TUESDAY 10:00 AM - 09:00 PM; WEDNESDAY 10:00 AM - 09:00 PM; THURSDAY 10:00 AM - 09:00 PM; FRIDAY 10:00 AM - 09:00 PM; SATURDAY 10:00 AM - 09:00 PM; SUNDAY 11:00 AM - 06:00 PM,,0
GENESEE - MI,127,3239 S. LINDEN ROAD ,,FLINT ,MI,48507,United States,8107332043,,,MONDAY 10:00 AM - 09:00 PM; TUESDAY 10:00 AM - 09:00 PM; WEDNESDAY 10:00 AM - 09:00 PM; THURSDAY 10:00 AM - 09:00 PM; FRIDAY 10:00 AM - 09:00 PM; SATURDAY 10:00 AM - 09:00 PM; SUNDAY 12:00 PM - 06:00 PM,,0
WOODLAND - MI,312,3195 28TH STREET SE ,,GRAND RAPIDS ,MI,49512,United States,6169420498,,,MONDAY 10:00 AM - 09:00 PM; TUESDAY 10:00 AM - 09:00 PM; WEDNESDAY 10:00 AM - 09:00 PM; THURSDAY 10:00 AM - 09:00 PM; FRIDAY 10:00 AM - 09:00 PM; SATURDAY 10:00 AM - 09:00 PM; SUNDAY 12:00 PM - 06:00 PM,,0
THE LAKES - MI,189,5600 HARVEY STREET ,,MUSKEGON ,MI,49444,United States,2317989780,,,MONDAY 10:00 AM - 09:00 PM; TUESDAY 10:00 AM - 09:00 PM; WEDNESDAY 10:00 AM - 09:00 PM; THURSDAY 10:00 AM - 09:00 PM; FRIDAY 10:00 AM - 09:00 PM; SATURDAY 10:00 AM - 09:00 PM; SUNDAY 11:00 AM - 06:00 PM,,0
PARK PLACE - AZ,102,5870 EAST BROADWAY BLVD ,,TUCSON ,AZ,85711,United States,5205128635,,,MONDAY 10:00 AM - 09:00 PM; TUESDAY 10:00 AM - 09:00 PM; WEDNESDAY 10:00 AM - 09:00 PM; THURSDAY 10:00 AM - 09:00 PM; FRIDAY 10:00 AM - 09:00 PM; SATURDAY 10:00 AM - 09:00 PM; SUNDAY 11:00 AM - 06:00 PM,,0
FASHION SQUARE - MI,282,4787 FASHION SQUARE MALL ,,SAGINAW ,MI,48604,United States,9897911746,,,MONDAY 10:00 AM - 09:00 PM; TUESDAY 10:00 AM - 09:00 PM; WEDNESDAY 10:00 AM - 09:00 PM; THURSDAY 10:00 AM - 09:00 PM; FRIDAY 10:00 AM - 09:00 PM; SATURDAY 10:00 AM - 09:00 PM; SUNDAY 11:00 AM - 06:00 PM,,0
STEEPLEGATE - NH,256,270 LOUDON ROAD ,,CONCORD ,NH,03301,United States,6032246315,,,MONDAY 10:00 AM - 09:00 PM; TUESDAY 10:00 AM - 09:00 PM; WEDNESDAY 10:00 AM - 09:00 PM; THURSDAY 10:00 AM - 09:00 PM; FRIDAY 10:00 AM - 09:00 PM; SATURDAY 10:00 AM - 09:00 PM; SUNDAY 12:00 PM - 06:00 PM,,0
JORDAN CREEK TWN CNTR - IA,775,101 JORDAN CREEK PARKWAY ,,WEST DES MOINES ,IA,50266,United States,5152212320,,,MONDAY 10:00 AM - 09:00 PM; TUESDAY 10:00 AM - 09:00 PM; WEDNESDAY 10:00 AM - 09:00 PM; THURSDAY 10:00 AM - 09:00 PM; FRIDAY 10:00 AM - 09:00 PM; SATURDAY 10:00 AM - 09:00 PM; SUNDAY 11:00 AM - 06:00 PM,,0
SOUTHRIDGE - WI,171,S 5300 76TH STREET ,,GREENDALE ,WI,53129,United States,4144219750,,,MONDAY 08:00 AM - 11:00 PM; TUESDAY 08:00 AM - 11:00 PM; WEDNESDAY 08:00 AM - 11:00 PM; THURSDAY 08:00 AM - 11:00 PM; FRIDAY 08:00 AM - 11:00 PM; SATURDAY 08:00 AM - 11:00 PM; SUNDAY 08:00 AM - 10:00 PM,,0
VALLEY WEST - IA,249,1551 VALLEY WEST DRIVE WEST ,,DES MOINES ,IA,50266,United States,5154577102,,,MONDAY 10:00 AM - 09:00 PM; TUESDAY 10:00 AM - 09:00 PM; WEDNESDAY 10:00 AM - 09:00 PM; THURSDAY 10:00 AM - 09:00 PM; FRIDAY 10:00 AM - 09:00 PM; SATURDAY 10:00 AM - 09:00 PM; SUNDAY 11:00 AM - 06:00 PM,,0
BROOKFIELD - WI,232,95 N. MOORLAND ROAD ,,BROOKFIELD ,WI,53005,United States,2627852719,,,MONDAY 10:00 AM - 09:00 PM; TUESDAY 10:00 AM - 09:00 PM; WEDNESDAY 10:00 AM - 09:00 PM; THURSDAY 10:00 AM - 09:00 PM; FRIDAY 10:00 AM - 09:00 PM; SATURDAY 10:00 AM - 09:00 PM; SUNDAY 11:00 AM - 06:00 PM,,0
RIVERTOWN - MI,98,3700 RIVERTOWN PARKWAY ,,GRANDVILLE ,MI,49418,United States,6162493835,,,MONDAY 10:00 AM - 09:00 PM; TUESDAY 10:00 AM - 09:00 PM; WEDNESDAY 10:00 AM - 09:00 PM; THURSDAY 10:00 AM - 09:00 PM; FRIDAY 10:00 AM - 09:00 PM; SATURDAY 10:00 AM - 09:00 PM; SUNDAY 11:00 AM - 06:00 PM,,0
BAYSHORE - WI,490,5800 N. BAYSHORE DR. ,,GLENDALE ,WI,53217,United States,4143322980,,,MONDAY 09:00 AM - 09:00 PM; TUESDAY 09:00 AM - 09:00 PM; WEDNESDAY 09:00 AM - 09:00 PM; THURSDAY 09:00 AM - 09:00 PM; FRIDAY 09:00 AM - 09:00 PM; SATURDAY 09:00 AM - 09:00 PM; SUNDAY 11:00 AM - 07:00 PM,,0
GATEWAY - NE,308,# 5 GATEWAY MALL ,,LINCOLN ,NE,68505,United States,4024666121,,,MONDAY 10:00 AM - 09:00 PM; TUESDAY 10:00 AM - 09:00 PM; WEDNESDAY 10:00 AM - 09:00 PM; THURSDAY 10:00 AM - 09:00 PM; FRIDAY 10:00 AM - 09:00 PM; SATURDAY 10:00 AM - 09:00 PM; SUNDAY 11:00 AM - 06:00 PM,,0
NORTHPARK - IA,489,320 WEST KIMBERLY ROAD ,,DAVENPORT ,IA,52806,United States,5634457902,,,MONDAY 10:00 AM - 09:00 PM; TUESDAY 10:00 AM - 09:00 PM; WEDNESDAY 10:00 AM - 09:00 PM; THURSDAY 10:00 AM - 09:00 PM; FRIDAY 10:00 AM - 09:00 PM; SATURDAY 10:00 AM - 09:00 PM; SUNDAY 12:00 PM - 06:00 PM,,0
MAYFAIR MALL - WI,823,2500 NORTH MAYFAIR ROAD ,,WAUWATOSA ,WI,53226,United States,4143020950,,,MONDAY 10:00 AM - 09:00 PM; TUESDAY 10:00 AM - 09:00 PM; WEDNESDAY 10:00 AM - 09:00 PM; THURSDAY 10:00 AM - 09:00 PM; FRIDAY 10:00 AM - 09:00 PM; SATURDAY 10:00 AM - 09:00 PM; SUNDAY 11:00 AM - 06:00 PM,,0
FOX RUN - NH,385,50 FOX RUN ROAD ,,NEWINGTON ,NH,03801,United States,6034360192,,,MONDAY 10:00 AM - 09:00 PM; TUESDAY 10:00 AM - 09:00 PM; WEDNESDAY 10:00 AM - 09:00 PM; THURSDAY 10:00 AM - 09:00 PM; FRIDAY 10:00 AM - 09:00 PM; SATURDAY 10:00 AM - 09:00 PM; SUNDAY 11:00 AM - 06:00 PM,,0
OAK VIEW - NE,378,3001 SOUTH 144TH STREET ,,OMAHA ,NE,68144,United States,4023344980,,,MONDAY 10:00 AM - 09:00 PM; TUESDAY 10:00 AM - 09:00 PM; WEDNESDAY 10:00 AM - 09:00 PM; THURSDAY 10:00 AM - 09:00 PM; FRIDAY 10:00 AM - 09:00 PM; SATURDAY 10:00 AM - 09:00 PM; SUNDAY 11:00 AM - 06:00 PM,,0
SUPERSTITION - AZ,221,E 6555 SOUTHERN AVENUE ,,MESA ,AZ,85206,United States,4808071732,,,MONDAY 10:00 AM - 09:00 PM; TUESDAY 10:00 AM - 09:00 PM; WEDNESDAY 10:00 AM - 09:00 PM; THURSDAY 10:00 AM - 09:00 PM; FRIDAY 10:00 AM - 09:00 PM; SATURDAY 10:00 AM - 09:00 PM; SUNDAY 11:00 AM - 06:00 PM,,0
PUEBLO MALL - CO,710,3429 DILLON DRIVE ,,PUEBLO ,CO,81008,United States,7195451399,,,MONDAY 10:00 AM - 09:00 PM; TUESDAY 10:00 AM - 09:00 PM; WEDNESDAY 10:00 AM - 09:00 PM; THURSDAY 10:00 AM - 09:00 PM; FRIDAY 10:00 AM - 09:00 PM; SATURDAY 10:00 AM - 07:00 PM; SUNDAY 11:00 AM - 06:00 PM,,0
PHOENIX PREMIUM OUTLETS - AZ,711,4976 PREMIUM OUTLETS WAY ,,CHANDLER ,AZ,85226,United States,4806391882,,,MONDAY 10:00 AM - 09:00 PM; TUESDAY 10:00 AM - 09:00 PM; WEDNESDAY 10:00 AM - 09:00 PM; THURSDAY 10:00 AM - 09:00 PM; FRIDAY 10:00 AM - 09:00 PM; SATURDAY 10:00 AM - 09:00 PM; SUNDAY 10:00 AM - 07:00 PM,,0
EAST TOWNE-WI,327,89 EAST TOWNE MALL ,,MADISON ,WI,53704,United States,6082429170,,,MONDAY 10:00 AM - 09:00 PM; TUESDAY 10:00 AM - 09:00 PM; WEDNESDAY 10:00 AM - 09:00 PM; THURSDAY 10:00 AM - 09:00 PM; FRIDAY 10:00 AM - 09:00 PM; SATURDAY 10:00 AM - 09:00 PM; SUNDAY 11:00 AM - 06:00 PM,,0
UNIVERSITY MALL - VT,731,155 DORSET ST ,,SOUTH BURLINGTON ,VT,05403,United States,8026520079,,,MONDAY 09:30 AM - 09:00 PM; TUESDAY 09:30 AM - 09:00 PM; WEDNESDAY 09:30 AM - 09:00 PM; THURSDAY 09:30 AM - 09:00 PM; FRIDAY 09:30 AM - 09:00 PM; SATURDAY 09:30 AM - 09:00 PM; SUNDAY 10:00 AM - 06:00 PM,,0
FOX RIVER MALL - WI,827,4301 WEST WISCONSIN AVE. ,,APPLETON ,WI,54913,United States,9208300714,,,MONDAY 10:00 AM - 09:00 PM; TUESDAY 10:00 AM - 09:00 PM; WEDNESDAY 10:00 AM - 09:00 PM; THURSDAY 10:00 AM - 09:00 PM; FRIDAY 10:00 AM - 09:00 PM; SATURDAY 10:00 AM - 09:00 PM; SUNDAY 10:00 AM - 06:00 PM,,0
GRAND TRAVERSE - MI,266,3200 S. AIRPORT ROAD ,,WEST TRAVERSE CITY ,MI,49684,United States,2319354504,,,MONDAY 10:00 AM - 09:00 PM; TUESDAY 10:00 AM - 09:00 PM; WEDNESDAY 10:00 AM - 09:00 PM; THURSDAY 10:00 AM - 09:00 PM; FRIDAY 10:00 AM - 09:00 PM; SATURDAY 10:00 AM - 09:00 PM; SUNDAY 12:00 PM - 06:00 PM,,0
WESTROADS - NE,198,10000 CALIFORNIA STREET ,,OMAHA ,NE,68114,United States,4023901293,,,MONDAY 10:00 AM - 09:00 PM; TUESDAY 10:00 AM - 09:00 PM; WEDNESDAY 10:00 AM - 09:00 PM; THURSDAY 10:00 AM - 09:00 PM; FRIDAY 10:00 AM - 09:00 PM; SATURDAY 10:00 AM - 09:00 PM; SUNDAY 11:00 AM - 06:00 PM,,0
TUCSON - AZ,32,4500 NORTH ORACLE ROAD ,,TUCSON ,AZ,85705,United States,5202921695,,,MONDAY 10:00 AM - 09:00 PM; TUESDAY 10:00 AM - 09:00 PM; WEDNESDAY 10:00 AM - 09:00 PM; THURSDAY 10:00 AM - 09:00 PM; FRIDAY 10:00 AM - 09:00 PM; SATURDAY 10:00 AM - 09:00 PM; SUNDAY 12:00 PM - 06:00 PM,,0
SCOTTSDALE - AZ,17,7014 CAMELBACK ROAD ,,SCOTTSDALE ,AZ,85251,United States,4809470399,,,MONDAY 10:00 AM - 09:00 PM; TUESDAY 10:00 AM - 09:00 PM; WEDNESDAY 10:00 AM - 09:00 PM; THURSDAY 10:00 AM - 09:00 PM; FRIDAY 10:00 AM - 09:00 PM; SATURDAY 10:00 AM - 09:00 PM; SUNDAY 11:00 AM - 06:00 PM,,0
SOUTHERN HILLS - IA,488,4400 SERGEANT RD. ,,SIOUX CITY ,IA,51106,United States,7122762720,,,MONDAY 10:00 AM - 09:00 PM; TUESDAY 10:00 AM - 09:00 PM; WEDNESDAY 10:00 AM - 09:00 PM; THURSDAY 10:00 AM - 09:00 PM; FRIDAY 10:00 AM - 09:00 PM; SATURDAY 10:00 AM - 09:00 PM; SUNDAY 11:00 AM - 06:00 PM,,0
BAY PARK - WI,268,915 BAY PARK SQUARE GREEN ,,BAY ,WI,54304,United States,9204905560,,,MONDAY 10:00 AM - 09:00 PM; TUESDAY 10:00 AM - 09:00 PM; WEDNESDAY 10:00 AM - 09:00 PM; THURSDAY 10:00 AM - 09:00 PM; FRIDAY 10:00 AM - 09:00 PM; SATURDAY 10:00 AM - 09:00 PM; SUNDAY 11:00 AM - 06:00 PM,,0
TEMPE MARKETPLACE - AZ,446,2000 E. RIO SALADO PKWY ,,TEMPE ,AZ,85281,United States,4809660944,,,MONDAY 10:00 AM - 09:00 PM; TUESDAY 10:00 AM - 09:00 PM; WEDNESDAY 10:00 AM - 09:00 PM; THURSDAY 10:00 AM - 09:00 PM; FRIDAY 10:00 AM - 09:00 PM; SATURDAY 10:00 AM - 09:00 PM; SUNDAY 11:00 AM - 06:00 PM,,0
SALMON RUN -NY,443,21182 SALMON RUN MALL LOOP ,,WEST WATERTOWN ,NY,13601,United States,3157880801,,,MONDAY 09:30 AM - 09:00 PM; TUESDAY 09:30 AM - 09:00 PM; WEDNESDAY 09:30 AM - 09:00 PM; THURSDAY 09:30 AM - 09:00 PM; FRIDAY 09:30 AM - 09:00 PM; SATURDAY 09:30 AM - 09:00 PM; SUNDAY 11:00 AM - 06:00 PM,,0
SANTAN VILLAGE - AZ,467,2196 E. WILLIAMS FIELD RD ,,GILBERT ,AZ,85296,United States,4808557262,,,MONDAY 10:00 AM - 09:00 PM; TUESDAY 10:00 AM - 09:00 PM; WEDNESDAY 10:00 AM - 09:00 PM; THURSDAY 10:00 AM - 09:00 PM; FRIDAY 10:00 AM - 09:00 PM; SATURDAY 10:00 AM - 09:00 PM; SUNDAY 11:00 AM - 06:00 PM,,0
ARIZONA - AZ,49,S 5000 ARIZONA MILLS CIRCLE TEMPE ,,,AZ,85282,United States,4808973005,,,MONDAY 10:00 AM - 09:00 PM; TUESDAY 10:00 AM - 09:00 PM; WEDNESDAY 10:00 AM - 09:00 PM; THURSDAY 10:00 AM - 09:00 PM; FRIDAY 10:00 AM - 09:00 PM; SATURDAY 10:00 AM - 09:00 PM; SUNDAY 11:00 AM - 06:00 PM,,0
WESTGATE OUTLET - AZ,591,6800 N 95TH AVENUE ,,GLENDALE ,AZ,85305,United States,6237725655,,,MONDAY 09:00 AM - 09:00 PM; TUESDAY 09:00 AM - 09:00 PM; WEDNESDAY 09:00 AM - 09:00 PM; THURSDAY 09:00 AM - 09:00 PM; FRIDAY 09:00 AM - 09:00 PM; SATURDAY 09:00 AM - 09:00 PM; SUNDAY 10:00 AM - 07:00 PM,,0
- CASTLE ROCK OUTLETS - CO,723,5050 FACTORY SHOPS BLVD. ,,CASTLE ROCK ,CO,80108,United States,3036632755,,,MONDAY 10:00 AM - 08:00 PM; TUESDAY 10:00 AM - 08:00 PM; WEDNESDAY 10:00 AM - 08:00 PM; THURSDAY 10:00 AM - 08:00 PM; FRIDAY 10:00 AM - 08:00 PM; SATURDAY 10:00 AM - 08:00 PM; SUNDAY 11:00 AM - 06:00 PM,,0
CHAPEL HILLS - CO,209,1710 BRIARGATE BLVD. ,,COLORADO SPRINGS ,CO,80920,United States,7192669558,,,MONDAY 10:00 AM - 09:00 PM; TUESDAY 10:00 AM - 09:00 PM; WEDNESDAY 10:00 AM - 09:00 PM; THURSDAY 10:00 AM - 09:00 PM; FRIDAY 10:00 AM - 09:00 PM; SATURDAY 10:00 AM - 09:00 PM; SUNDAY 11:00 AM - 06:00 PM,,0
OAKWOOD - WI,497,4800 GOLF ROAD ,,EAU CLAIRE ,WI,54701,United States,7158331402,,,MONDAY 08:00 AM - 10:00 PM; TUESDAY 08:00 AM - 10:00 PM; WEDNESDAY 08:00 AM - 10:00 PM; THURSDAY 08:00 AM - 10:00 PM; FRIDAY 08:00 AM - 10:00 PM; SATURDAY 08:00 AM - 10:00 PM; SUNDAY 09:00 AM - 09:00 PM,,0
SOUTHWEST PLAZA - CO,826,8501 WEST BOWLES AVE ,,LITTLETON ,CO,80123,United States,3039733203,,,MONDAY 10:00 AM - 09:00 PM; TUESDAY 10:00 AM - 09:00 PM; WEDNESDAY 10:00 AM - 09:00 PM; THURSDAY 10:00 AM - 09:00 PM; FRIDAY 10:00 AM - 09:00 PM; SATURDAY 10:00 AM - 09:00 PM; SUNDAY 11:00 AM - 06:00 PM,,0
BANGOR - ME,441,663 STILLWATER AVE ,,BANGOR ,ME,04401,United States,2079475400,,,MONDAY 10:00 AM - 09:00 PM; TUESDAY 11:00 AM - 06:00 PM; WEDNESDAY 10:00 AM - 09:00 PM; THURSDAY 11:00 AM - 06:00 PM; FRIDAY 10:00 AM - 09:00 PM; SATURDAY 11:00 AM - 06:00 PM; SUNDAY 11:00 AM - 06:00 PM,,0
NORTHFIELD - CO,407,8316 NORTHFIELD BLVD ,,DENVER ,CO,80238,United States,3033751404,,,MONDAY 10:00 AM - 08:00 PM; TUESDAY 10:00 AM - 08:00 PM; WEDNESDAY 10:00 AM - 08:00 PM; THURSDAY 10:00 AM - 08:00 PM; FRIDAY 10:00 AM - 09:00 PM; SATURDAY 10:00 AM - 09:00 PM; SUNDAY 11:00 AM - 06:00 PM,,0
RIVER HILLS - MN,439,1850 ADAMS ST ,,MANKATO ,MN,56001,United States,5076256940,,,MONDAY 10:00 AM - 09:00 PM; TUESDAY 10:00 AM - 09:00 PM; WEDNESDAY 10:00 AM - 09:00 PM; THURSDAY 10:00 AM - 09:00 PM; FRIDAY 10:00 AM - 09:00 PM; SATURDAY 10:00 AM - 09:00 PM; SUNDAY 11:00 AM - 06:00 PM,,0
AURORA - CO,348,14200 EAST ALAMEDA AVENUE ,,AURORA ,CO,80012,United States,7208590880,,,MONDAY 10:00 AM - 09:00 PM; TUESDAY 10:00 AM - 09:00 PM; WEDNESDAY 10:00 AM - 09:00 PM; THURSDAY 10:00 AM - 09:00 PM; FRIDAY 10:00 AM - 09:00 PM; SATURDAY 10:00 AM - 09:00 PM; SUNDAY 11:00 AM - 06:00 PM,,0
BELMAR - CO,585,7239 W. ALASKA DRIVE ,,LAKEWOOD ,CO,80226,United States,3039365272,,,MONDAY 10:00 AM - 08:00 PM; TUESDAY 10:00 AM - 08:00 PM; WEDNESDAY 10:00 AM - 08:00 PM; THURSDAY 10:00 AM - 08:00 PM; FRIDAY 10:00 AM - 09:00 PM; SATURDAY 10:00 AM - 09:00 PM; SUNDAY 11:00 AM - 06:00 PM,,0
FLAGSTAFF - AZ,226,N 4650 US HIGHWAY 89 ,,FLAGSTAFF ,AZ,86004,United States,9287140545,,,MONDAY 10:00 AM - 09:00 PM; TUESDAY 10:00 AM - 09:00 PM; WEDNESDAY 10:00 AM - 09:00 PM; THURSDAY 10:00 AM - 09:00 PM; FRIDAY 10:00 AM - 09:00 PM; SATURDAY 10:00 AM - 09:00 PM; SUNDAY 11:00 AM - 06:00 PM,,0
EMPIRE - SD,344,1660 WEST EMPIRE MALL ,,SIOUX FALLS ,SD,57106,United States,6053615688,,,MONDAY 10:00 AM - 09:00 PM; TUESDAY 10:00 AM - 09:00 PM; WEDNESDAY 10:00 AM - 09:00 PM; THURSDAY 10:00 AM - 09:00 PM; FRIDAY 10:00 AM - 09:00 PM; SATURDAY 10:00 AM - 09:00 PM; SUNDAY 12:00 PM - 07:00 PM,,0
ARROWHEAD - AZ,30,7700 W. ARROWHEAD TOWN CENTER ,,GLENDALE ,AZ,85308,United States,6234867708,,,MONDAY 10:00 AM - 09:00 PM; TUESDAY 10:00 AM - 09:00 PM; WEDNESDAY 10:00 AM - 09:00 PM; THURSDAY 10:00 AM - 09:00 PM; FRIDAY 10:00 AM - 09:00 PM; SATURDAY 10:00 AM - 09:00 PM; SUNDAY 11:00 AM - 06:00 PM,,0
MALL OF AMERICA - MN,274,141 E. BROADWAY ,,BLOOMINGTON ,MN,55425,United States,9528546862,,,MONDAY 10:00 AM - 09:30 PM; TUESDAY 10:00 AM - 09:30 PM; WEDNESDAY 10:00 AM - 09:30 PM; THURSDAY 10:00 AM - 09:30 PM; FRIDAY 10:00 AM - 09:30 PM; SATURDAY 10:00 AM - 09:30 PM; SUNDAY 11:00 AM - 07:00 PM,,0
FLATIRON - CO,123,1 WEST FLATIRON CIRCLE ,,BROOMFIELD ,CO,80021,United States,7208876833,,,MONDAY 10:00 AM - 09:00 PM; TUESDAY 10:00 AM - 09:00 PM; WEDNESDAY 10:00 AM - 09:00 PM; THURSDAY 10:00 AM - 09:00 PM; FRIDAY 10:00 AM - 09:00 PM; SATURDAY 10:00 AM - 09:00 PM; SUNDAY 11:00 AM - 06:00 PM,,0
METRO - AZ,20,N 9617 METRO PKWY ,,PHOENIX ,AZ,85051,United States,6028700310,,,MONDAY 10:00 AM - 09:00 PM; TUESDAY 10:00 AM - 09:00 PM; WEDNESDAY 10:00 AM - 09:00 PM; THURSDAY 10:00 AM - 09:00 PM; FRIDAY 10:00 AM - 09:00 PM; SATURDAY 10:00 AM - 09:00 PM; SUNDAY 11:00 AM - 06:00 PM,,0
PROMENADE CENTERRA - CO,368,5897 SKY POND DRIVE ,,LOVELAND ,CO,80538,United States,9706670885,,,MONDAY 10:00 AM - 08:00 PM; TUESDAY 10:00 AM - 08:00 PM; WEDNESDAY 10:00 AM - 08:00 PM; THURSDAY 10:00 AM - 08:00 PM; FRIDAY 10:00 AM - 09:00 PM; SATURDAY 10:00 AM - 09:00 PM; SUNDAY 11:00 AM - 06:00 PM,,0
EDEN PRAIRIE - MN,160,8251 FLYING CLOUD DRIVE ,,EDEN PRAIRIE ,MN,55344,United States,9529428245,,,MONDAY 10:00 AM - 09:00 PM; TUESDAY 10:00 AM - 06:00 PM; WEDNESDAY 10:00 AM - 07:00 PM; THURSDAY 10:00 AM - 09:00 PM; FRIDAY 10:00 AM - 09:00 PM; SATURDAY 10:00 AM - 09:00 PM; SUNDAY 11:00 AM - 06:00 PM,,0
ROSEDALE - MN,151,142 ROSEDALE CENTER ,,ROSEVILLE ,MN,55113,United States,6516335511,,,MONDAY 10:00 AM - 09:00 PM; TUESDAY 10:00 AM - 09:00 PM; WEDNESDAY 10:00 AM - 09:00 PM; THURSDAY 10:00 AM - 09:00 PM; FRIDAY 10:00 AM - 09:00 PM; SATURDAY 10:00 AM - 09:00 PM; SUNDAY 11:00 AM - 06:00 PM,,0
BURNSVILLE - MN,500,1178 BURNSVILLE CENTER ,,BURNSVILLE ,MN,55306,United States,9528926556,,,MONDAY 10:00 AM - 09:00 PM; TUESDAY 10:00 AM - 09:00 PM; WEDNESDAY 10:00 AM - 09:00 PM; THURSDAY 10:00 AM - 09:00 PM; FRIDAY 10:00 AM - 09:00 PM; SATURDAY 10:00 AM - 09:00 PM; SUNDAY 11:00 AM - 06:00 PM,,0
MESA MALL - CO,717,2424 US HIGHWAY 6 GRAND JUNCTION ,,,CO,81505,United States,9702410507,,,MONDAY 10:00 AM - 09:00 PM; TUESDAY 10:00 AM - 09:00 PM; WEDNESDAY 10:00 AM - 09:00 PM; THURSDAY 10:00 AM - 09:00 PM; FRIDAY 10:00 AM - 09:00 PM; SATURDAY 10:00 AM - 09:00 PM; SUNDAY 11:00 AM - 06:00 PM,,0
ALBERTVILLE OUTLET - MN,561,6415 LABEAUX AVENUE NE ,,ALBERTVILLE ,MN,55301,United States,7634972163,,,MONDAY 10:00 AM - 09:00 PM; TUESDAY 10:00 AM - 09:00 PM; WEDNESDAY 10:00 AM - 09:00 PM; THURSDAY 10:00 AM - 09:00 PM; FRIDAY 10:00 AM - 09:00 PM; SATURDAY 10:00 AM - 09:00 PM; SUNDAY 10:00 AM - 07:00 PM,,0
CHARLOTTE RUSSE PLUS - CROSSROADS CENTER - MN,831,4101 W. DIVISION STREET ,,ST. CLOUD ,MN,56301,United States,3202531307,,,MONDAY Call Store for Hours; TUESDAY Call Store for Hours; WEDNESDAY Call Store for Hours; THURSDAY Call Store for Hours; FRIDAY Call Store for Hours; SATURDAY Call Store for Hours; SUNDAY Call Store for Hours,,0
COLORADO - CO,224,W 14500 COLFAX AVENUE ,,LAKEWOOD ,CO,80401,United States,3032150230,,,MONDAY CLOSED; TUESDAY CLOSED; WEDNESDAY CLOSED; THURSDAY CLOSED; FRIDAY CLOSED; SATURDAY CLOSED; SUNDAY CLOSED,,0
GRAN PLAZA OUTLETS - CA,719,888 WEST SECOND ST ,,CALEXICO ,CA,92231,United States,7607689637,,,MONDAY 11:00 AM - 10:00 PM; TUESDAY 11:00 AM - 10:00 PM; WEDNESDAY 11:00 AM - 10:00 PM; THURSDAY 11:00 AM - 10:00 PM; FRIDAY 11:00 AM - 10:00 PM; SATURDAY 11:00 AM - 10:00 PM; SUNDAY 11:00 AM - 07:00 PM,,0
CROSSROADS CENTER - MN,816,4101 W. Division Street Suite B0012 ,,SAINT CLOUD ,MN,56301,United States,3202533056,,,MONDAY 10:00 AM - 09:00 PM; TUESDAY 10:00 AM - 09:00 PM; WEDNESDAY 10:00 AM - 09:00 PM; THURSDAY 10:00 AM - 09:00 PM; FRIDAY 10:00 AM - 09:00 PM; SATURDAY 10:00 AM - 09:00 PM; SUNDAY 11:00 AM - 06:00 PM,,0
Mall at Victor Valley - CA,767,14400 Bear Valley Road ,,Victorville ,CA,92392,United States,7602453200,,,MONDAY 10:00 AM - 09:00 PM; TUESDAY 10:00 AM - 09:00 PM; WEDNESDAY 10:00 AM - 09:00 PM; THURSDAY 10:00 AM - 09:00 PM; FRIDAY 10:00 AM - 09:00 PM; SATURDAY 10:00 AM - 08:00 PM; SUNDAY 11:00 AM - 07:00 PM,,0
VIEJAS OUTLETS - CA,703,5005 WILLOWS ROAD ,,ALPINE ,CA,91901,United States,6196595048,,,MONDAY 10:00 AM - 08:00 PM; TUESDAY 10:00 AM - 08:00 PM; WEDNESDAY 10:00 AM - 08:00 PM; THURSDAY 10:00 AM - 08:00 PM; FRIDAY 10:00 AM - 08:00 PM; SATURDAY 10:00 AM - 08:00 PM; SUNDAY 11:00 AM - 08:00 PM,,0
MAPLEWOOD - MN,156,3001 WHITE BEAR AVENUE ,,ST PAUL ,MN,55109,United States,6517735999,,,MONDAY 10:00 AM - 09:00 PM; TUESDAY 10:00 AM - 09:00 PM; WEDNESDAY 10:00 AM - 09:00 PM; THURSDAY 10:00 AM - 09:00 PM; FRIDAY 10:00 AM - 09:00 PM; SATURDAY 10:00 AM - 09:00 PM; SUNDAY 11:00 AM - 06:00 PM,,0
INTL. GATEWAY - CA,174,4345 CAMINO DE LA PLAZA ,,SAN DIEGO ,CA,92173,United States,6199347221,,,MONDAY 10:00 AM - 09:00 PM; TUESDAY 10:00 AM - 09:00 PM; WEDNESDAY 10:00 AM - 09:00 PM; THURSDAY 10:00 AM - 09:00 PM; FRIDAY 10:00 AM - 09:00 PM; SATURDAY 10:00 AM - 09:00 PM; SUNDAY 10:00 AM - 07:00 PM,,0
RIDGEDALE MALL - MN,828,12401 WAYZATA BLVD. ,,MINNETONKA ,MN,55305,United States,9525440819,,,MONDAY 10:00 AM - 09:00 PM; TUESDAY 10:00 AM - 09:00 PM; WEDNESDAY 10:00 AM - 09:00 PM; THURSDAY 10:00 AM - 09:00 PM; FRIDAY 10:00 AM - 09:00 PM; SATURDAY 10:00 AM - 09:00 PM; SUNDAY 11:00 AM - 06:00 PM,,0
OTAY RANCH TOWN CENTER - CA,815,2015 Birch Rd Ste. 305 ,,CHULA VISTA ,CA,91915,United States,6192166980,,,MONDAY 10:00 AM - 09:00 PM; TUESDAY 10:00 AM - 09:00 PM; WEDNESDAY 10:00 AM - 09:00 PM; THURSDAY 10:00 AM - 09:00 PM; FRIDAY 10:00 AM - 09:00 PM; SATURDAY 10:00 AM - 07:00 PM; SUNDAY 11:00 AM - 07:00 PM,,0
PARKWAY - CA,4,627 PARKWAY PLAZA ,,EL CAJON ,CA,92020,United States,6194405401,,,MONDAY 10:00 AM - 09:00 PM; TUESDAY 10:00 AM - 09:00 PM; WEDNESDAY 10:00 AM - 09:00 PM; THURSDAY 10:00 AM - 09:00 PM; FRIDAY 10:00 AM - 09:00 PM; SATURDAY 10:00 AM - 09:00 PM; SUNDAY 11:00 AM - 07:00 PM,,0
GROSSMONT - CA,7,5500 GROSSMONT CENTER ,,LA MESA ,CA,91942,United States,6194622060,,,MONDAY 10:00 AM - 09:00 PM; TUESDAY 10:00 AM - 09:00 PM; WEDNESDAY 10:00 AM - 09:00 PM; THURSDAY 10:00 AM - 09:00 PM; FRIDAY 10:00 AM - 09:00 PM; SATURDAY 10:00 AM - 07:00 PM; SUNDAY 11:00 AM - 07:00 PM,,0
N.C.F. - CA,9,200 EAST VIA RANCHO PARKWAY ,,ESCONDIDO ,CA,92025,United States,7604899292,,,MONDAY 10:00 AM - 09:00 PM; TUESDAY 10:00 AM - 09:00 PM; WEDNESDAY 10:00 AM - 09:00 PM; THURSDAY 10:00 AM - 09:00 PM; FRIDAY 10:00 AM - 09:00 PM; SATURDAY 10:00 AM - 09:00 PM; SUNDAY 11:00 AM - 07:00 PM,,0
FASHION - CA,5,7007 FRIARS ROAD ,,SAN DIEGO ,CA,92108,United States,6192967733,,,MONDAY 10:00 AM - 10:00 PM; TUESDAY 10:00 AM - 10:00 PM; WEDNESDAY 10:00 AM - 10:00 PM; THURSDAY 10:00 AM - 10:00 PM; FRIDAY 10:00 AM - 10:00 PM; SATURDAY 10:00 AM - 10:00 PM; SUNDAY 11:00 AM - 07:00 PM,,0
MILLER HILL - MN,473,1600 MILLER TRUNK HWY. ,,DULUTH ,MN,55811,United States,2187271007,,,MONDAY 10:00 AM - 09:00 PM; TUESDAY 10:00 AM - 09:00 PM; WEDNESDAY 10:00 AM - 09:00 PM; THURSDAY 10:00 AM - 09:00 PM; FRIDAY 10:00 AM - 09:00 PM; SATURDAY 10:00 AM - 09:00 PM; SUNDAY 11:00 AM - 06:00 PM,,0
TEMECULA - CA,92,40820 WINCHESTER ROAD ,,TEMECULA ,CA,92591,United States,9512960553,,,MONDAY 10:00 AM - 09:00 PM; TUESDAY 10:00 AM - 09:00 PM; WEDNESDAY 10:00 AM - 09:00 PM; THURSDAY 10:00 AM - 09:00 PM; FRIDAY 10:00 AM - 09:00 PM; SATURDAY 10:00 AM - 09:00 PM; SUNDAY 11:00 AM - 07:00 PM,,0
PALM DESERT - CA,222,72-840 HIGHWAY 111 ,,PALM DESERT ,CA,92260,United States,7607761064,,,MONDAY 10:00 AM - 09:00 PM; TUESDAY 10:00 AM - 09:00 PM; WEDNESDAY 10:00 AM - 09:00 PM; THURSDAY 10:00 AM - 09:00 PM; FRIDAY 10:00 AM - 09:00 PM; SATURDAY 10:00 AM - 09:00 PM; SUNDAY 12:00 PM - 06:00 PM,,0
CHULA VISTA - CA,12,555 BROADWAY ,,CHULA VISTA ,CA,91910,United States,6194262787,,,MONDAY 10:00 AM - 09:00 PM; TUESDAY 10:00 AM - 09:00 PM; WEDNESDAY 10:00 AM - 09:00 PM; THURSDAY 10:00 AM - 09:00 PM; FRIDAY 10:00 AM - 09:00 PM; SATURDAY 10:00 AM - 08:00 PM; SUNDAY 11:00 AM - 07:00 PM,,0
MISSION - CA,2,1640 CAMINO DEL RIO ,,NORTH SAN DIEGO ,CA,92108,United States,6192978661,,,MONDAY 10:00 AM - 09:00 PM; TUESDAY 10:00 AM - 09:00 PM; WEDNESDAY 10:00 AM - 09:00 PM; THURSDAY 10:00 AM - 09:00 PM; FRIDAY 10:00 AM - 09:00 PM; SATURDAY 10:00 AM - 09:00 PM; SUNDAY 11:00 AM - 07:00 PM,,0
CARLSBAD - CA,1,2525 EL CAMINO REAL ,,CARLSBAD ,CA,92008,United States,7607293232,,,MONDAY 10:00 AM - 09:00 PM; TUESDAY 10:00 AM - 09:00 PM; WEDNESDAY 10:00 AM - 09:00 PM; THURSDAY 10:00 AM - 09:00 PM; FRIDAY 10:00 AM - 09:00 PM; SATURDAY 10:00 AM - 09:00 PM; SUNDAY 11:00 AM - 07:00 PM,,0
BONITA - CA,6,3030 PLAZA BONITA ROAD ,,NATIONAL CITY ,CA,91950,United States,6194703476,,,MONDAY 10:00 AM - 09:00 PM; TUESDAY 10:00 AM - 09:00 PM; WEDNESDAY 10:00 AM - 09:00 PM; THURSDAY 10:00 AM - 09:00 PM; FRIDAY 10:00 AM - 09:00 PM; SATURDAY 10:00 AM - 09:00 PM; SUNDAY 11:00 AM - 07:00 PM,,0
IMPERIAL VALLEY - CA,323,3451 DOGWOOD ROAD ,,EL CENTRO ,CA,92243,United States,7603528104,,,MONDAY 09:00 AM - 10:00 PM; TUESDAY 09:00 AM - 10:00 PM; WEDNESDAY 09:00 AM - 10:00 PM; THURSDAY 09:00 AM - 11:00 PM; FRIDAY 09:00 AM - 11:00 PM; SATURDAY 09:00 AM - 11:00 PM; SUNDAY 11:00 AM - 08:00 PM,,0
DESERT HILLS - CA,411,48650 SEMINOLE DR ,,CABAZON ,CA,92230,United States,9518496441,,,MONDAY 10:00 AM - 09:00 PM; TUESDAY 10:00 AM - 09:00 PM; WEDNESDAY 10:00 AM - 09:00 PM; THURSDAY 10:00 AM - 09:00 PM; FRIDAY 10:00 AM - 09:00 PM; SATURDAY 10:00 AM - 09:00 PM; SUNDAY 10:00 AM - 08:00 PM,,0
FASHION OUTLETS - NV,307,32100 LAS VEGAS BOULEVARD ,,SOUTH JEAN ,NV,89019,United States,7028741138,,,MONDAY 10:00 AM - 08:00 PM; TUESDAY 10:00 AM - 08:00 PM; WEDNESDAY 10:00 AM - 08:00 PM; THURSDAY 10:00 AM - 08:00 PM; FRIDAY 10:00 AM - 08:00 PM; SATURDAY 10:00 AM - 08:00 PM; SUNDAY 10:00 AM - 08:00 PM,,0
LAS VEGAS PREM SOUTH - NV,218,7400 LAS VEGAS BLVD ,,SO. LAS VEGAS ,NV,89123,United States,7024921778,,,MONDAY 09:00 AM - 09:00 PM; TUESDAY 09:00 AM - 09:00 PM; WEDNESDAY 09:00 AM - 09:00 PM; THURSDAY 09:00 AM - 09:00 PM; FRIDAY 09:00 AM - 09:00 PM; SATURDAY 09:00 AM - 09:00 PM; SUNDAY 09:00 AM - 08:00 PM,,0
GALLERIA AT SUNSET - NV,37,1300 WEST SUNSET ROAD ,,HENDERSON ,NV,89014,United States,7028988677,,,MONDAY 10:00 AM - 09:00 PM; TUESDAY 10:00 AM - 09:00 PM; WEDNESDAY 10:00 AM - 09:00 PM; THURSDAY 10:00 AM - 09:00 PM; FRIDAY 10:00 AM - 09:00 PM; SATURDAY 10:00 AM - 09:00 PM; SUNDAY 11:00 AM - 06:00 PM,,0
MEADOWS - NV,29,4300 MEADOWS LANE ,,LAS VEGAS ,NV,89107,United States,7028780002,,,MONDAY 10:00 AM - 09:00 PM; TUESDAY 10:00 AM - 09:00 PM; WEDNESDAY 10:00 AM - 09:00 PM; THURSDAY 10:00 AM - 09:00 PM; FRIDAY 10:00 AM - 09:00 PM; SATURDAY 10:00 AM - 09:00 PM; SUNDAY 10:00 AM - 06:00 PM,,0
DOS LAGOS - CA,405,2795 CABOT DRIVE ,,CORONA ,CA,92883,United States,9512770463,,,MONDAY 10:00 AM - 08:00 PM; TUESDAY 10:00 AM - 08:00 PM; WEDNESDAY 10:00 AM - 08:00 PM; THURSDAY 10:00 AM - 08:00 PM; FRIDAY 10:00 AM - 08:00 PM; SATURDAY 10:00 AM - 08:00 PM; SUNDAY 11:00 AM - 06:00 PM,,0
RUSHMORE - SD,484,2200 NORTH MAPLE AVENUE ,,RAPID CITY ,SD,57701,United States,6053420786,,,MONDAY 10:00 AM - 09:00 PM; TUESDAY 10:00 AM - 09:00 PM; WEDNESDAY 10:00 AM - 09:00 PM; THURSDAY 10:00 AM - 09:00 PM; FRIDAY 10:00 AM - 09:00 PM; SATURDAY 10:00 AM - 08:00 PM; SUNDAY 11:00 AM - 06:00 PM,,0
DOWNTOWN SUMMERLIN - NV,792,1980 FESTIVAL PLAZA DRIVE ,,LAS VEGAS ,NV,89135,United States,7022273347,,,MONDAY 10:00 AM - 09:00 PM; TUESDAY 10:00 AM - 09:00 PM; WEDNESDAY 10:00 AM - 09:00 PM; THURSDAY 10:00 AM - 09:00 PM; FRIDAY 10:00 AM - 09:00 PM; SATURDAY 10:00 AM - 09:00 PM; SUNDAY 11:00 AM - 07:00 PM,,0
GALLERIA AT TYLER - CA,780,1269 GALLERIA AT ,,TYLER RIVERSIDE ,CA,92503,United States,9515880193,,,MONDAY 10:00 AM - 09:00 PM; TUESDAY 10:00 AM - 09:00 PM; WEDNESDAY 10:00 AM - 09:00 PM; THURSDAY 10:00 AM - 09:00 PM; FRIDAY 10:00 AM - 09:00 PM; SATURDAY 10:00 AM - 09:00 PM; SUNDAY 11:00 AM - 07:00 PM,,0
INLAND CENTER - CA,817,500 INLAND CENTER DRIVE ,,SAN BERNARDINO ,CA,92408,United States,9093810525,,,MONDAY 10:00 AM - 09:00 PM; TUESDAY 10:00 AM - 09:00 PM; WEDNESDAY 10:00 AM - 09:00 PM; THURSDAY 10:00 AM - 09:00 PM; FRIDAY 10:00 AM - 09:00 PM; SATURDAY 10:00 AM - 09:00 PM; SUNDAY 11:00 AM - 07:00 PM,,0
LAS VEGAS PREM NORTH - NV,292,755 SOUTH GRAND CENTRAL PARKWAY ,,LAS VEGAS ,NV,89106,United States,7023824280,,,MONDAY 09:00 AM - 09:00 PM; TUESDAY 09:00 AM - 09:00 PM; WEDNESDAY 09:00 AM - 09:00 PM; THURSDAY 09:00 AM - 09:00 PM; FRIDAY 09:00 AM - 09:00 PM; SATURDAY 09:00 AM - 09:00 PM; SUNDAY 09:00 AM - 08:00 PM,,0
IRVINE SPECTRUM - CA,578,658 SPECTRUM CENTER DRIVE ,,IRVINE ,CA,92618,United States,9497271417,,,MONDAY 10:00 AM - 09:00 PM; TUESDAY 10:00 AM - 09:00 PM; WEDNESDAY 10:00 AM - 09:00 PM; THURSDAY 10:00 AM - 09:00 PM; FRIDAY 10:00 AM - 10:00 PM; SATURDAY 10:00 AM - 10:00 PM; SUNDAY 10:00 AM - 09:00 PM,,0
SANTA ANA - CA,10,2800 NORTH MAIN PLACE ,,SANTA ANA ,CA,92705,United States,7144790058,,,MONDAY 10:00 AM - 09:00 PM; TUESDAY 10:00 AM - 09:00 PM; WEDNESDAY 10:00 AM - 09:00 PM; THURSDAY 10:00 AM - 09:00 PM; FRIDAY 10:00 AM - 09:00 PM; SATURDAY 10:00 AM - 09:00 PM; SUNDAY 10:00 AM - 08:00 PM,,0
ONTARIO - CA,38,1 MILLS CIRCLE ,,ONTARIO ,CA,91764,United States,9094813410,,,MONDAY 10:00 AM - 09:00 PM; TUESDAY 10:00 AM - 06:00 PM; WEDNESDAY 10:00 AM - 09:00 PM; THURSDAY 10:00 AM - 09:00 PM; FRIDAY 10:00 AM - 09:00 PM; SATURDAY 10:00 AM - 09:00 PM; SUNDAY 11:00 AM - 08:00 PM,,0
MORENO VALLEY - CA,25,22500 TOWN CIRCLE ,,MORENO VALLEY ,CA,92553,United States,9516537161,,,MONDAY 10:00 AM - 09:00 PM; TUESDAY 10:00 AM - 09:00 PM; WEDNESDAY 10:00 AM - 09:00 PM; THURSDAY 10:00 AM - 09:00 PM; FRIDAY 10:00 AM - 09:00 PM; SATURDAY 10:00 AM - 09:00 PM; SUNDAY 11:00 AM - 07:00 PM,,0
STONEWOOD - CA,310,410 STONEWOOD STREET ,,DOWNEY ,CA,90241,United States,5629235197,,,MONDAY 10:00 AM - 09:00 PM; TUESDAY 10:00 AM - 09:00 PM; WEDNESDAY 10:00 AM - 09:00 PM; THURSDAY 10:00 AM - 09:00 PM; FRIDAY 10:00 AM - 09:00 PM; SATURDAY 10:00 AM - 09:00 PM; SUNDAY 11:00 AM - 07:00 PM,,0
WESTMINSTER - CA,14,2150 WESTMINSTER MALL ,,WESTMINSTER ,CA,92683,United States,7143730366,,,MONDAY 10:00 AM - 09:00 PM; TUESDAY 10:00 AM - 09:00 PM; WEDNESDAY 10:00 AM - 09:00 PM; THURSDAY 10:00 AM - 09:00 PM; FRIDAY 10:00 AM - 09:00 PM; SATURDAY 10:00 AM - 07:00 PM; SUNDAY 11:00 AM - 06:00 PM,,0
WEST COVINA - CA,27,735 PLAZA DRIVE WEST ,,COVINA ,CA,91790,United States,6269621462,,,MONDAY 10:00 AM - 09:00 PM; TUESDAY 10:00 AM - 09:00 PM; WEDNESDAY 10:00 AM - 09:00 PM; THURSDAY 10:00 AM - 09:00 PM; FRIDAY 10:00 AM - 09:00 PM; SATURDAY 10:00 AM - 09:00 PM; SUNDAY 11:00 AM - 07:00 PM,,0
VINTAGE FAIRE MALL - CA,783,3401 DALE RD ,,MODESTO ,CA,95356,United States,2095244387,,,MONDAY 10:00 AM - 09:00 PM; TUESDAY 10:00 AM - 09:00 PM; WEDNESDAY 10:00 AM - 09:00 PM; THURSDAY 10:00 AM - 09:00 PM; FRIDAY 10:00 AM - 09:00 PM; SATURDAY 10:00 AM - 09:00 PM; SUNDAY 11:00 AM - 07:00 PM,,0
OAKRIDGE - CA,277,925 BLOSSOM HILL ROAD ,,SAN JOSE ,CA,95123,United States,4082258941,,,MONDAY 10:00 AM - 09:00 PM; TUESDAY 10:00 AM - 09:00 PM; WEDNESDAY 10:00 AM - 09:00 PM; THURSDAY 10:00 AM - 09:00 PM; FRIDAY 10:00 AM - 10:00 PM; SATURDAY 10:00 AM - 10:00 PM; SUNDAY 11:00 AM - 07:30 PM,,0
MONTEBELLO - CA,34,1843 MONTEBELLO TOWN CENTER ,,MONTEBELLO ,CA,90640,United States,3232789216,,,MONDAY 10:00 AM - 09:00 PM; TUESDAY 10:00 AM - 09:00 PM; WEDNESDAY 10:00 AM - 09:00 PM; THURSDAY 10:00 AM - 09:00 PM; FRIDAY 10:00 AM - 09:00 PM; SATURDAY 10:00 AM - 09:00 PM; SUNDAY 11:00 AM - 07:00 PM,,0
MEADOWOOD - NV,288,5352 MEADOWOOD MALL CIRCLE ,,RENO ,NV,89502,United States,7758298304,,,MONDAY 10:00 AM - 09:00 PM; TUESDAY 10:00 AM - 09:00 PM; WEDNESDAY 10:00 AM - 09:00 PM; THURSDAY 10:00 AM - 09:00 PM; FRIDAY 10:00 AM - 09:00 PM; SATURDAY 10:00 AM - 09:00 PM; SUNDAY 11:00 AM - 07:00 PM,,0
LAKEWOOD - CA,21,78 LAKEWOOD ,,FASHION CENTER LAKEWOOD ,CA,90712,United States,5626309131,,,MONDAY 10:00 AM - 09:00 PM; TUESDAY 10:00 AM - 09:00 PM; WEDNESDAY 10:00 AM - 09:00 PM; THURSDAY 10:00 AM - 09:00 PM; FRIDAY 10:00 AM - 09:00 PM; SATURDAY 10:00 AM - 08:00 PM; SUNDAY 11:00 AM - 07:00 PM,,0
LOS CERRITOS - CA,303,244 LOS CERRITOS CENTER ,,CERRITOS ,CA,90703,United States,5629241965,,,MONDAY CLOSED; TUESDAY CLOSED; WEDNESDAY CLOSED; THURSDAY CLOSED; FRIDAY CLOSED; SATURDAY CLOSED; SUNDAY CLOSED,,0
WEST VALLEY - CA,350,3200 NORTH NAGLEE ROAD ,,TRACY ,CA,95304,United States,2098340743,,,MONDAY 10:00 AM - 09:00 PM; TUESDAY 10:00 AM - 09:00 PM; WEDNESDAY 10:00 AM - 09:00 PM; THURSDAY 10:00 AM - 09:00 PM; FRIDAY 10:00 AM - 09:00 PM; SATURDAY 10:00 AM - 09:00 PM; SUNDAY 10:00 AM - 07:00 PM,,0
GILROY - CA,239,8300 ARROYO CIRCLE ,,GILROY ,CA,95020,United States,4088475216,,,MONDAY 10:00 AM - 09:00 PM; TUESDAY 10:00 AM - 09:00 PM; WEDNESDAY 10:00 AM - 09:00 PM; THURSDAY 10:00 AM - 09:00 PM; FRIDAY 10:00 AM - 09:00 PM; SATURDAY 10:00 AM - 09:00 PM; SUNDAY 10:00 AM - 07:00 PM,,0
BREA - CA,15,1118A BREA MALL ,,BREA ,CA,92821,United States,7142569313,,,MONDAY 10:00 AM - 09:00 PM; TUESDAY 10:00 AM - 09:00 PM; WEDNESDAY 10:00 AM - 09:00 PM; THURSDAY 10:00 AM - 09:00 PM; FRIDAY 10:00 AM - 09:00 PM; SATURDAY 10:00 AM - 08:00 PM; SUNDAY 11:00 AM - 06:00 PM,,0
OUTLETS AT SPARKS - NV,832,1310 SCHEELS DRIVE ,,SPARKS ,NV,89434,United States,,,,MONDAY 10:00 AM - 09:00 PM; TUESDAY 10:00 AM - 09:00 PM; WEDNESDAY 10:00 AM - 09:00 PM; THURSDAY 10:00 AM - 09:00 PM; FRIDAY 10:00 AM - 09:00 PM; SATURDAY 10:00 AM - 09:00 PM; SUNDAY 11:00 AM - 06:00 PM,,0
PALLADIO AT BROADSTONE - CA,701,240 PALLADIO PARKWAY ,,FOLSOM ,CA,95630,United States,9169843080,,,MONDAY 10:00 AM - 09:00 PM; TUESDAY 10:00 AM - 09:00 PM; WEDNESDAY 10:00 AM - 09:00 PM; THURSDAY 10:00 AM - 09:00 PM; FRIDAY 10:00 AM - 09:00 PM; SATURDAY 10:00 AM - 09:00 PM; SUNDAY 11:00 AM - 07:00 PM,,0
EASTRIDGE - CA,371,2200 EASTRIDGE LOOP ,,SAN JOSE ,CA,95122,United States,4082746070,,,MONDAY 10:00 AM - 09:00 PM; TUESDAY 10:00 AM - 09:00 PM; WEDNESDAY 10:00 AM - 09:00 PM; THURSDAY 10:00 AM - 09:00 PM; FRIDAY 10:00 AM - 09:00 PM; SATURDAY 10:00 AM - 09:00 PM; SUNDAY 11:00 AM - 07:00 PM,,0
WEBERSTOWN MALL - CA,778,4950 Pacific Ave ,,Stockton ,CA,95207,United States,2094729850,,,MONDAY 10:00 AM - 09:00 PM; TUESDAY 10:00 AM - 09:00 PM; WEDNESDAY 10:00 AM - 09:00 PM; THURSDAY 10:00 AM - 09:00 PM; FRIDAY 10:00 AM - 09:00 PM; SATURDAY 10:00 AM - 09:00 PM; SUNDAY 11:00 AM - 06:00 PM,,0
NEW PARK - CA,133,2093-2086 NEW PARK MALL ,,NEWARK ,CA,94560,United States,5108570016,,,MONDAY 10:00 AM - 09:00 PM; TUESDAY 10:00 AM - 09:00 PM; WEDNESDAY 10:00 AM - 09:00 PM; THURSDAY 10:00 AM - 09:00 PM; FRIDAY 10:00 AM - 09:00 PM; SATURDAY 10:00 AM - 09:00 PM; SUNDAY 11:00 AM - 07:00 PM,,0
ARDEN FAIR - CA,784,1689 ARDEN WAY ,,SACRAMENTO ,CA,95815,United States,9169245985,,,MONDAY 10:00 AM - 09:00 PM; TUESDAY 10:00 AM - 09:00 PM; WEDNESDAY 10:00 AM - 09:00 PM; THURSDAY 10:00 AM - 09:00 PM; FRIDAY 10:00 AM - 09:00 PM; SATURDAY 10:00 AM - 09:00 PM; SUNDAY 11:00 AM - 07:00 PM,,0
TANFORAN - CA,365,1150 EL CAMINO REAL ,,SAN BRUNO ,CA,94066,United States,6509521037,,,MONDAY 10:00 AM - 09:00 PM; TUESDAY 10:00 AM - 09:00 PM; WEDNESDAY 10:00 AM - 09:00 PM; THURSDAY 10:00 AM - 09:00 PM; FRIDAY 10:00 AM - 09:00 PM; SATURDAY 10:00 AM - 09:00 PM; SUNDAY 11:00 AM - 07:00 PM,,0
VACAVILLE OUTLET - CA,559,370 NUT TREE RD. ,,VACAVILLE ,CA,95687,United States,7074481698,,,MONDAY 10:00 AM - 09:00 PM; TUESDAY 10:00 AM - 09:00 PM; WEDNESDAY 10:00 AM - 09:00 PM; THURSDAY 10:00 AM - 09:00 PM; FRIDAY 10:00 AM - 09:00 PM; SATURDAY 10:00 AM - 09:00 PM; SUNDAY 11:00 AM - 07:00 PM,,0
SOLANO MALL - CA,702,1350 TRAVIS BLVD ,,FAIRFIELD ,CA,94533,United States,7074272612,,,MONDAY 10:00 AM - 09:00 PM; TUESDAY 10:00 AM - 09:00 PM; WEDNESDAY 10:00 AM - 09:00 PM; THURSDAY 10:00 AM - 09:00 PM; FRIDAY 10:00 AM - 09:00 PM; SATURDAY 10:00 AM - 09:00 PM; SUNDAY 11:00 AM - 06:00 PM,,0
SAN FRANCISCO PREMIUM - CA,597,3084 LIVERMORE OUTLETS DRIVE ,,LIVERMORE ,CA,94551,United States,9254471050,,,MONDAY 10:00 AM - 09:00 PM; TUESDAY 10:00 AM - 09:00 PM; WEDNESDAY 10:00 AM - 09:00 PM; THURSDAY 10:00 AM - 09:00 PM; FRIDAY 10:00 AM - 09:00 PM; SATURDAY 10:00 AM - 09:00 PM; SUNDAY 10:00 AM - 07:00 PM,,0
VALLEY RIVER - OR,347,293 VALLEY RIVER CTR ,,EUGENE ,OR,97401,United States,5413387124,,,MONDAY 10:00 AM - 09:00 PM; TUESDAY 10:00 AM - 09:00 PM; WEDNESDAY 10:00 AM - 09:00 PM; THURSDAY 10:00 AM - 09:00 PM; FRIDAY 10:00 AM - 09:00 PM; SATURDAY 10:00 AM - 09:00 PM; SUNDAY 11:00 AM - 07:00 PM,,0
ROSEVILLE - CA,124,1151 GALLERIA BLVD ,,ROSEVILLE ,CA,95678,United States,9167884300,,,MONDAY 10:00 AM - 09:00 PM; TUESDAY 10:00 AM - 09:00 PM; WEDNESDAY 10:00 AM - 09:00 PM; THURSDAY 10:00 AM - 09:00 PM; FRIDAY 10:00 AM - 09:00 PM; SATURDAY 10:00 AM - 09:00 PM; SUNDAY 11:00 AM - 07:00 PM,,0
WOODBURN OUTLET - OR,596,1001 ARNEY ROAD ,,WOODBURN ,OR,97071,United States,5039811229,,,MONDAY 10:00 AM - 09:00 PM; TUESDAY 10:00 AM - 09:00 PM; WEDNESDAY 10:00 AM - 09:00 PM; THURSDAY 10:00 AM - 09:00 PM; FRIDAY 10:00 AM - 09:00 PM; SATURDAY 10:00 AM - 09:00 PM; SUNDAY 10:00 AM - 07:00 PM,,0
LLOYD - OR,214,974 LLOYD CENTER ,,PORTLAND ,OR,97232,United States,5032490219,,,MONDAY 10:00 AM - 09:00 PM; TUESDAY 10:00 AM - 09:00 PM; WEDNESDAY 10:00 AM - 09:00 PM; THURSDAY 10:00 AM - 09:00 PM; FRIDAY 10:00 AM - 09:00 PM; SATURDAY 10:00 AM - 09:00 PM; SUNDAY 11:00 AM - 06:00 PM,,0
CLACKAMAS - OR,153,12000 SE. 82ND AVENUE ,,PORTLAND ,OR,97266,United States,5036530017,,,MONDAY 10:00 AM - 09:00 PM; TUESDAY 10:00 AM - 09:00 PM; WEDNESDAY 10:00 AM - 09:00 PM; THURSDAY 10:00 AM - 09:00 PM; FRIDAY 10:00 AM - 09:00 PM; SATURDAY 10:00 AM - 09:00 PM; SUNDAY 11:00 AM - 06:00 PM,,0
SERRAMONTE CENTER - CA,760,3 Serramonte Center ,,Daly City ,CA,94015,United States,6507562863,,,MONDAY 10:00 AM - 09:00 PM; TUESDAY 10:00 AM - 09:00 PM; WEDNESDAY 10:00 AM - 09:00 PM; THURSDAY 10:00 AM - 09:00 PM; FRIDAY 10:00 AM - 09:00 PM; SATURDAY 10:00 AM - 09:00 PM; SUNDAY 11:00 AM - 07:00 PM,,0
TACOMA - WA,715,4502 SOUTH STEEL STREET ,,TACOMA ,WA,98409,United States,2534740883,,,MONDAY 10:00 AM - 09:00 PM; TUESDAY 10:00 AM - 09:00 PM; WEDNESDAY 10:00 AM - 09:00 PM; THURSDAY 10:00 AM - 09:00 PM; FRIDAY 10:00 AM - 09:00 PM; SATURDAY 10:00 AM - 09:00 PM; SUNDAY 10:00 AM - 07:00 PM,,0
VANCOUVER - WA,470,8700 N.E. VANCOUVER MALL DR. ,,VANCOUVER ,WA,98662,United States,3608839185,,,MONDAY 10:00 AM - 09:00 PM; TUESDAY 10:00 AM - 09:00 PM; WEDNESDAY 10:00 AM - 09:00 PM; THURSDAY 10:00 AM - 09:00 PM; FRIDAY 10:00 AM - 09:00 PM; SATURDAY 10:00 AM - 09:00 PM; SUNDAY 11:00 AM - 06:00 PM,,0
BOISE TOWNE SQUARE - ID,781,350 North Milwaukee St. ,,Boise ,ID,83704,United States,2083750410,,,MONDAY 10:00 AM - 09:00 PM; TUESDAY 10:00 AM - 09:00 PM; WEDNESDAY 10:00 AM - 09:00 PM; THURSDAY 10:00 AM - 09:00 PM; FRIDAY 10:00 AM - 09:00 PM; SATURDAY 10:00 AM - 09:00 PM; SUNDAY 11:00 AM - 07:00 PM,,0
SUNVALLEY - CA,109,450-A SUNVALLEY MALL ,,CONCORD ,CA,94520,United States,9254050032,,,MONDAY 10:00 AM - 09:00 PM; TUESDAY 10:00 AM - 09:00 PM; WEDNESDAY 10:00 AM - 09:00 PM; THURSDAY 10:00 AM - 09:00 PM; FRIDAY 10:00 AM - 09:00 PM; SATURDAY 10:00 AM - 09:00 PM; SUNDAY 11:00 AM - 07:00 PM,,0
OUTLET COLL SEATTLE - WA,771,1101 OUTLET COLLECTION WAY ,,AUBURN ,WA,98001,United States,2538339023,,,MONDAY 10:00 AM - 09:00 PM; TUESDAY 10:00 AM - 09:00 PM; WEDNESDAY 10:00 AM - 09:00 PM; THURSDAY 10:00 AM - 09:00 PM; FRIDAY 10:00 AM - 09:00 PM; SATURDAY 10:00 AM - 09:00 PM; SUNDAY 11:00 AM - 06:00 PM,,0
SOUTHCENTER - WA,522,621 SOUTHCENTER ,,TUKWILA ,WA,98188,United States,2064317960,,,MONDAY 10:00 AM - 09:00 PM; TUESDAY 10:00 AM - 09:00 PM; WEDNESDAY 10:00 AM - 09:00 PM; THURSDAY 10:00 AM - 09:00 PM; FRIDAY 10:00 AM - 09:00 PM; SATURDAY 10:00 AM - 09:00 PM; SUNDAY 11:00 AM - 07:00 PM,,0
SANTA ROSA PLAZA - CA,795,2009B SANTA ROSA PLAZA ,,SANTA ROSA ,CA,95401,United States,7079210106,,,MONDAY 10:00 AM - 09:00 PM; TUESDAY 10:00 AM - 09:00 PM; WEDNESDAY 10:00 AM - 09:00 PM; THURSDAY 10:00 AM - 09:00 PM; FRIDAY 10:00 AM - 09:00 PM; SATURDAY 10:00 AM - 08:00 PM; SUNDAY 11:00 AM - 06:00 PM,,0
BELLIS FAIR - WA,493,ONE BELLIS FAIR PKWY ,,BELLINGHAM ,WA,98226,United States,3607146151,,,MONDAY 10:00 AM - 09:00 PM; TUESDAY 10:00 AM - 09:00 PM; WEDNESDAY 10:00 AM - 09:00 PM; THURSDAY 10:00 AM - 09:00 PM; FRIDAY 10:00 AM - 09:00 PM; SATURDAY 10:00 AM - 09:00 PM; SUNDAY 11:00 AM - 06:00 PM,,0
QUEEN KA'AHUMANU - HI,742,275 West Ka'ahumanu Ave. ,,Kahului ,HI,96762,United States,8088776602,,,MONDAY 09:30 AM - 09:00 PM; TUESDAY 09:30 AM - 09:00 PM; WEDNESDAY 09:30 AM - 09:00 PM; THURSDAY 09:30 AM - 09:00 PM; FRIDAY 09:30 AM - 09:00 PM; SATURDAY 09:30 AM - 09:00 PM; SUNDAY 10:00 AM - 05:00 PM,,0
ALA MOANA - HI,822,1450 ALA MOANA BLVD. ,,HONOLULU ,HI,96814,United States,8089443466,,,MONDAY 09:30 AM - 09:00 PM; TUESDAY 09:30 AM - 09:00 PM; WEDNESDAY 09:30 AM - 09:00 PM; THURSDAY 09:30 AM - 09:00 PM; FRIDAY 09:30 AM - 09:00 PM; SATURDAY 09:30 AM - 09:00 PM; SUNDAY 10:00 AM - 07:00 PM,,0
WINDWARD - HI,587,46-056 KAMEHAMEHA HWY ,,KANEOHE ,HI,96744,United States,8082345300,,,MONDAY 10:00 AM - 09:00 PM; TUESDAY 10:00 AM - 09:00 PM; WEDNESDAY 10:00 AM - 09:00 PM; THURSDAY 10:00 AM - 09:00 PM; FRIDAY 10:00 AM - 09:00 PM; SATURDAY 10:00 AM - 09:00 PM; SUNDAY 10:00 AM - 06:00 PM,,0
CAPITAL - WA,459,625 BLACK LAKE BLVD. ,,OLYMPIA ,WA,98502,United States,3603573375,,,MONDAY 10:00 AM - 08:00 PM; TUESDAY 10:00 AM - 08:00 PM; WEDNESDAY 10:00 AM - 08:00 PM; THURSDAY 10:00 AM - 08:00 PM; FRIDAY 10:00 AM - 09:00 PM; SATURDAY 10:00 AM - 09:00 PM; SUNDAY 11:00 AM - 06:00 PM,,0
