store_name,store_number,address,address2,city,state,zip_code,country,phone_number,latitude,longitude,store_hours,other_fields,coming_soon
Arrowhead Towne Center,,7700-1073 W Arrowhead Towne Ctr.,,Glendale,AZ,85308,United States,623-979-8805,,,Monday-Saturday 10-9; Sunday 11-6.,,0
Hunt Club,,6557 Grand Ave.,,Gurnee,IL,60031,United States,847-855-2735,,,Monday-Friday 10-9; Saturday 10-7; Sunday 11-6,,0
Joliet Commons,,2645 Plainfield Rd.,,Joliet,IL,60435,United States,815-439-9277,,,Monday-Friday 10-9; Saturday 10-7; Sunday 12-6,,0
Market Place,,2000 N. Neil Street,,Champaign,IL,61820,United States,217-355-1811,,,Monday-Saturday 10-9; Sunday 11-6,,0
Oak Brook Promenade,,3031 E Butterfield Road,,Oakbrook,IL,60523,United States,630-928-1628,,,Monday-Friday 10-9; Saturday 10-7; Sunday 11-6,,0
OUTLET - Fashion Outlets of Chicago,,5220 Rose Street,,Rosemont,IL,60018,United States,847-678-7814,,,Monday-Saturday 10-9; Sunday 10-7,,0
Orland Square,,424 Orland Square Drive,,Orland Park,IL,60462,United States,708-349-1083,,,Monday-Saturday 10-9; Sunday 11-6,,0
Northwoods Mall,,2200 West War Memorial Drive,,Peoria,IL,61613,United States,309-688-0439,,,Monday-Saturday 10-9; Sunday 11-6.,,0
Harlem Irving,,4109 N. Harlem,,Norridge,IL,60706,United States,708-457-8552,,,Monday-Friday 10-9; Saturday 10-7; Sunday 11-6,,0
Fox Valley Mall,,1408 Fox Valley Center,,Aurora,IL,60504,United States,630-820-8508,,,Monday- Saturday 10-9; Sunday 11-6,,0
Boise Towne Square,,350 N Milwaukee,,Boise,ID,83704,United States,208-658-6485,,,Monday-Saturday 10-9; Sunday 11-7,,0
Town Center,,400 Ernest Barrett Pkwy,,Kennesaw,GA,30144,United States,770-423-9475,,,Monday-Saturday 10-9; Sunday 12-6,,0
Crystal Lake,,6340 NW Highway,,Crystal Lake,IL,60014,United States,815-459-0855,,,Monday-Friday 10-9; Saturday 10-7; Sunday 11-6,,0
Southlake Mall,,1241 Southlake Mall,,Morrow,GA,30260,United States,770-961-7844,,,Monday-Saturday 10-9; Sunday 12-6,,0
Perimeter Mall,,4400 Ashford Dunwoody Rd.,,Atlanta,GA,30346,United States,770-804-9553,,,Monday-Saturday 10-9; Sunday 12-6,,0
Ogelthorpe Mall,,7804 Abercorn Ex.,,Savannah,GA,31406,United States,912-353-8136,,,Monday-Saturday 10-9; Sunday 12-6,,0
Valley View Mall,,3800 State Rd 16,,LaCrosse,WI,54601,United States,608-781-5252,,,Monday-Saturday 10-9; Sunday11-6,,0
Oakwood Mall,,4800 Golf Road,,Eau Claire,WI,54701,United States,715-833-2322,,,Monday-Saturday 10-9; Sunday 11-6,,0
Tacoma Mall,,4502 South Steele Street,,Tacoma,WA,98409,United States,253-474-7775,,,Monday-Saturday 10-9; Sunday 11-7,,0
Alderwood,,3000 184th Street SW,,Lynnwood,WA,98037,United States,425-774-6956,,,Monday-Friday 10-9; Saturday 10-9:30; Sunday 11-7,,0
Southcenter,,601 Southcenter Mall,,Seattle,WA,98188,United States,206-444-0840,,,Monday-Saturday 10-9; Sunday 11-7,,0
Spotsylvania Mall,,550 Spotsylvania mall,,Fredericksburg,VA,22407,United States,540-786-8242,,,Monday-Saturday 10-9:30; Sunday 11-6,,0
Tysons Corner Center,,7931L Tysons Corner Ctr.,,McLean,VA,22102,United States,703-848-9008,,,Monday-Saturday 10-9:30; Sunday 11-7,,0
Patrick Henry Mall,,12300 Jefferson Avenue,,Newport News,VA,23602,United States,757-882-8905,,,Monday-Saturday 10-9; Sunday 12-6,,0
OUTLET-Potomac Mills Mall,,2700 Potomac Mills Circle,,Woodbridge,VA,22192,United States,703-490-5738,,,Monday-Saturday 10-9; Sunday 11-6,,0
MacArthur Center,,300 Monticello Avenue,,Norfolk,VA,23510,United States,757-627-5840,,,Monday-Saturday 10-9; Sunday 12-6,,0
Lynnhaven Mall,,701 Lynnhaven Parkway,,Virginia Beach,VA,23452,United States,757-340-1600,,,Monday-Saturday 10-9; Sunday 12-6,,0
Fashion Centre @ Pentagon,,1100 S. Hayes Street,,Arlington,VA,22202,United States,703-415-2440,,,Monday-Saturday 10-9:30; Sunday 11-6,,0
Fair Oaks,,11918 Lee Jackson Memorial Highway,,Fairfax,VA,22033,United States,571-432-0244,,,Monday-Saturday 10-9; Sunday 11-6,,0
Colonial Heights,,690 Southpark Blvd.,,Colonial Heights,VA,23834,United States,804-520-0471,,,Monday-Saturday 10-9; Sunday 12:30-5:30,,0
Woodlands Mall,,1201 Lake Woodlands Mall,,The Woodlands,TX,77380,United States,281-681-1679,,,Monday-Saturday 10-9; Sunday 12-6,,0
Willowbrook Mall-TX,,1598 Willowbrook Mall,,Houston,TX,77070,United States,281-890-6561,,,Monday-Saturday 10-9; Sunday 12-6.,,0
Town East Mall,,1230 Town East Mall,,Mesquite,TX,75150,United States,972-270-9192,,,Monday-Saturday 10-9; Sunday 12-6,,0
The Shops at La Cantera,,15900 La Cantera Pkwy.,,San Antonio,TX,78256,United States,210-641-1515,,,Monday-Saturday 10-9; Sunday 12-6,,0
The Parks at Arlington,,3811 S. Cooper,,Arlington,TX,76015,United States,817-468-3636,,,Monday-Saturday 10-9; Sunday 12-6,,0
Stonebriar Centre,,2601 Preston Road,,Frisco,TX,75034,United States,972-731-0407,,,Monday-Saturday 10-9; Sunday 12-6,,0
South Plains Mall,,"6002 Slide Rd., Ste G24",,Lubbock,TX,79414,United States,806-785-7500,,,Monday-Saturday 10-9; Sunday 12-6,,0
Ridgmar Mall,,2274 Green Oaks Rd.,,Fort Worth,TX,76116,United States,817-738-0263,,,Monday-Saturday 10-9; Sunday 12-6,,0
OUTLET - San Marcos Premium Outlets,,3939 IH-35 South,,San Marcos,TX,78666,United States,(512) 393-2902,,,Monday-Saturday 10-9; Sunday 10-7,,0
OUTLET - Grapevine Mills,,3000 Grapevine Mills Pkwy,,Grapevine,Texas,76051,United States,469-293-6006,,,Monday-Saturday 10-9; Sunday 11-7,,0
North Star,,7400 San Pedro,,San Antonio,TX,78216,United States,210-525-8611,,,Monday-Saturday 10-9; Sunday 12-6,,0
North East Mall,,1101 Melbourne Rd.,,Hurst,TX,76053,United States,817-284-5311,,,Monday-Saturday 10-9; Sunday 12-6,,0
Memorial City,,303 Memorial City Way,,Houston,TX,77024,United States,713-467-4872,,,Monday-Saturday 10-9; Sunday 12-6,,0
Lakeline Mall,,11200 Lakeline Mall Drive,,Cedar Park,TX,78613,United States,512-257-0235,,,Monday-Saturday 10-9; Sunday 12-6,,0
LaPlaza,,2200 South 10th Street,,McAllen,TX,78503,United States,956-972-1851,,,Monday-Saturday 10-9; Sunday 11-7,,0
Irving Mall,,3702 Irving Mall,,Irving,TX,75062,United States,972-570-4811,,,Monday-Saturday 10-9; Sunday 12-6,,0
Ingram Park,,6301 NW Loop 410,,San Antonio,TX,78238,United States,210-682-9201,,,Monday-Saturday 10-9; Sunday 12-6,,0
Hulen Mall,,4800 S. Hulen,,Fort Worth,TX,76132,United States,817-370-9071,,,Monday-Saturday 10-9; Sunday 12-6,,0
First Colony,,16535 Southwest Fwy,,Sugarland,TX,77479,United States,281-980-5544,,,Monday-Saturday 10-9; Sunday 12-6,,0
Deerbrook Mall,,20131 Highway 59,,Humble,TX,77338,United States,281-446-8134,,,Monday-Saturday 10-9; Sunday 12-6,,0
Cielo Vista Mall,,8401 Gateway Blvd West,,El Paso,TX,79925,United States,915-772-2527,,,Monday-Saturday 10-9; Sunday 12-6,,0
Broadway Square,,4601 S. Broadway,,Tyler,TX,75703,United States,903-509-1029,,,Monday-Saturday 10-9; Sunday 12-6,,0
Baybrook Mall,,1020 Baybrook Mall,,Friendswood,TX,77546,United States,281-280-8663,,,Monday-Saturday 10-9; Sunday 11-7,,0
West Town,,7600 Kingston Pike,,Knoxville,TN,37919,United States,865-470-4858,,,Monday-Saturday 10-9; Sunday 12:30-6,,0
Barton Creek Square,,2901 Cap. of TX Hwy,,Austin,TX,78746,United States,512-327-6921,,,Monday-Saturday 10-9; Sunday 12-6,,0
Empire Mall,,4001 W. 41st,,Sioux Falls,SD,57106,United States,605-361-9771,,,Monday-Saturday 10-9; Sunday 11-7,,0
Haywood Mall,,700 Haywood Road,,Greenville,SC,29607,United States,864-234-7577,,,Monday-Saturday 10-9; Sunday 12:30-6,,0
Westgate Mall,,205 W. Blackstock Rd.,,Spartanburg,SC,29301,United States,864-587-6040,,,Monday-Saturday 10-9; Sunday 12-6,,0
Westmoreland Mall,,5256 Route 30 East,,Greensburg,PA,15601,United States,724-836-6615,,,Monday-Saturday 10-9:30; Sunday 11-5,,0
The Plaza at King of Prussia,,160 North Gulph Road,,King of Prussia,PA,19406,United States,610-265-8330,,,,,0
South Hills Village,,301 South Hills Village,,Pittsburgh,PA,15241,United States,412-835-9471,,,Monday-Saturday 10-9; Sunday 11-6,,0
Montgomery Mall-PA,,280 Montgomery Mall,,North Wales,PA,19454,United States,215-361-3457,,,Monday-Saturday 10-9; Sunday 11-6,,0
Oxford Valley,,2338 E. Lincoln Hwy.,,Langhorne,PA,19047,United States,215-741-6193,,,Monday-Saturday 10-9; Sunday 11-5,,0
Lehigh Valley Mall,,274 Lehigh Valley Mall,,Whitehall,PA,18052,United States,610-264-3543,,,Monday-Saturday 10-9; Sunday 11-6,,0
Brandywine,,1038 E. Lancaster Ave.,,Downingtown,PA,19335,United States,610-518-0664,,,Monday-Saturday 10-9; Sunday 11-5,,0
OUTLET - Woodburn Outlets,,1001 Arney Rd,,Woodburn,OR,97071,United States,503-981-1417,,,Monday-Saturday 10-7; Sunday 10-8,,0
Washington Square,,9618 SW Washington Sq. Rd.,,Portland,OR,97223,United States,503-670-7885,,,Monday-Saturday 10-9; Sunday 10-7,,0
Woodland Hills,,7021 S Memorial Dr.,,Tulsa,OK,74133,United States,918-254-1552,,,Monday-Saturday 10-9; Sunday 12-7,,0
Tulsa Promenade,,4107 S. Yale,,Tulsa,OK,74135,United States,918-665-6648,,,Monday-Saturday 10-9; Sunday 12-6,,0
Quail Springs,,2501 W. Memorial Rd.,,Oklahoma City,OK,73134,United States,405-752-9693,,,Monday-Saturday 10-9; Sunday 12-6,,0
Penn Square,,1901 NW Expressway,,Oklahoma City,OK,73118,United States,405-843-6020,,,Monday-Saturday 10-9; Sunday 12-6,,0
Tuttle Crossing,,5043 Tuttle Crossing Blvd.,,Dublin,OH,43016,United States,614-760-2590,,,Monday-Saturday 10-9; Sunday 12-6,,0
Fairfield Crossing,,"3286 Pentagon Park Blvd., Ste. G",,Beavercreek,OH,45431,United States,937-320-0036,,,Monday-Saturday 10-9; Sunday 12-6,,0
Dayton South,,2290 Miamisburg Centerville Rd.,,Dayton,OH,45459,United States,937-291-0186,,,Monday-Saturday 10-9; Sunday 12-6,,0
Belden Village,,4466 Everhard Road NW,,Canton,OH,44718,United States,330-497-7165,,,Monday-Saturday 10-9; Sunday 12-5,,0
West Acres,,3902 13th Ave S,,Fargo,ND,58103,United States,701-282-6341,,,Monday-Saturday 10-9; Sunday 12-6,,0
Columbia Mall-ND,,2800 S. Columbia Rd.,,Grand Forks,ND,58201,United States,701-746-7321,,,Monday-Saturday 10-9; Sunday 12-6,,0
Jacksonville Mall,,375 Jacksonville Mall,,Jacksonville,NC,28546,United States,910-353-2322,,,Monday-Saturday 10-9; Sunday 12-6,,0
Hanes Mall,,3320 Silas Creek Pkwy,,Winston-Salem,NC,27103,United States,336.659.9778,,,Monday-Saturday 10-9; Sunday 12:30-6,,0
Four Seasons Town Centre,,139 Four Seasons Town Centre,,Greensboro,NC,27407,United States,336-297-1977,,,Monday-Saturday 10-9; Sunday 12:30-6,,0
Cross Creek Mall,,419 Cross Creek Mall,,Fayetteville,NC,28303,United States,910-487-0070,,,10:00-9:00 Monday - Saturday; 12:00-6:00 Sunday,,0
Carolina Place,,"11025 Carolina Place Parkway, Space B-7",,Pineville,NC,28134,United States,704-544-1144,,,Monday-Saturday 10-9; Sunday 12-6,,0
Concord Mills,,8111 Concord Mills Blvd,,Concord Mills,NC,28027,United States,704-979-1809,,,Monday-Saturday 10-9; Sunday 12-7,,0
Asheville Mall,,3 South Tunnel Road,,Asheville,NC,28805,United States,828-296-1888,,,Monday-Saturday 10-9; Sunday 12-6,,0
Smith Haven,,532 Smith Haven Mall,,Lake Grove,NY,11755,United States,631-265-2680,,,10:00-9:00 M-Sat; 11:00-6:00 Sun.,,0
Staten Island,,2655 Richmond Avenue,,Staten Island,NY,10314,United States,718-761-9249,,,Monday-Saturday 10-9; Sunday 11-6,,0
Roosevelt Field,,630 Old Country Road,,Garden City,NY,11530,United States,516-294-0178,,,Monday-Saturday 10-9:30; Sunday 11-7,,0
Queens Center,,9015 Queens Blvd,,Elmhurst,NY,11373,United States,718-760-2100,,,Monday-Saturday 10-9:30; Sunday 11-8,,0
Willowbrook Mall-NJ,,1110 Willowbrook Mall,,Wayne,NJ,07470,United States,973-812-2323,,,Monday-Saturday 10-9:30; Sunday 11-7,,0
Woodbridge Center,,219 Woodbridge CTR,,Woodbridge,NJ,07095,United States,732-596-9094,,,Monday-Saturday 10-9:30; Sunday 11-7,,0
Coronado Center,,6600 Menaul Blvd. NE,,Albuquerque,NM,87110,United States,505-888-1300,,,Monday-Saturday 10-9; Sunday 12-6,,0
Rockaway Townsquare,,301 Mount Hope Avenue Space 2054A,,Rockaway,NJ,07866,United States,973-989-2121,,,Monday-Saturday 10-9:30; Sunday 11-6,,0
Hamilton,,4307 Black Horse Pike,,Mays Landing,NJ,08330,United States,609-569-1999,,,Monday-Saturday 10-9; Sunday 11-5,,0
Garden State Plaza,,One Garden State Plaza,,Paramus,NJ,07652,United States,201-843-7979,,,10:00-9:30 Monday-Saturday; Closed Sundays,,0
Deptford,,1756 Clements Bridge Rd.,,Deptford,NJ,08096,United States,856-251-9054,,,Monday-Saturday 10-9; Sunday 11-5,,0
Meadowood Mall,,5112 Meadowood Mall Cr.,,Reno,NV,89502,United States,775-829-1858,,,Monday-Saturday 10-9; Sunday 11-6,,0
Westroads Mall,,10000 California St,,Omaha,NE,68114,United States,402-391-1173,,,Monday-Saturday 10-9; Sunday 11-6,,0
OUTLET- Nebraska Crossing Outlets,,21355 Nebraska Crossing Drive,,Gretna,NE,68028,United States,4023323812,,,Monday-Saturday 10-9; Sunday 11-6,,0
Oakview Mall,,3001 S 144th Street,,Omaha,NE,68144,United States,402-330-8999,,,Monday-Saturday 10-9; Sunday 12-6,,0
Gateway Mall,,"6100 East ""O"" Street",,Lincoln,NE,68505,United States,402-465-0070,,,Monday-Saturday 10-9; Sunday 12-6,,0
Zona Rosa,,7210 NW 86th Place,,Kansas City,MO,64153,United States,816-741-7333,,,Monday-Thursday 10-9; Friday-Saturday 10-9; Sunday 12-6,,0
West County,,145 West County,,Des Peres,MO,63131,United States,314-965-3901,,,Monday-Saturday 10-9:00; Sunday 11-6,,0
SummitWoods Crossing,,1710 NW Chipman Rd.,,Lee's Summit,MO,64081,United States,816-524-2242,,,Monday-Saturday 10-9; Sunday 12-6,,0
St. Louis Galleria,,1077 St. Louis Galleria,,St. Louis,MO,63117,United States,314-721-0190,,,Monday-Saturday 10-9; Sunday 11-6,,0
South County Center,,402 South County Center Parkway,,St. Louis,MO,63129,United States,314-487-8904,,,Monday-Saturday 10-9; Sunday 11-6,,0
OUTLET - Branson Tanger Outlet Center,,300 Tanger Blvd,,Branson,MO,65616,United States,417-334-5316,,,"Monday - Saturday: 9 a.m. - 9 p.m.Sunday: 10 a.m. - 7 p.m.",,0
Northpark-MO,,101 North Range Line Road,,Joplin,MO,64801,United States,417-206-4931,,,Monday-Saturday 10-9; Sunday 12-6,,0
Mid Rivers Mall,,2104 Mid Rivers Mall,,St. Peters,MO,63376,United States,636-970-6118,,,Monday-Saturday 10-9; Sunday 11-6,,0
Independence Center,,18813 E. 39th Street,,Independence,MO,64057,United States,816-795-8270,,,Monday-Saturday 10-9; Sunday 12-6,,0
Columbia Mall-MO,,2300 Bernadette Drive,,Columbia,MO,65203,United States,573-445-5432,,,Monday-Saturday 10-9; Sunday 11-6,,0
Country Club Plaza,,400 Nichols Road,,Kansas City,MO,64112,United States,816-531-4100,,,"Monday, Tuesday, Wednesday, Friday, Saturday: 10-7; Thursday 10-9; Sunday 12-5",,0
Battlefield Mall,,2825 S. Glenstone,,Springfield,MO,65804,United States,417-881-6066,,,Monday-Saturday 10-9; Sunday 12-6,,0
St. Cloud,,4134 West Division St.,,St. Cloud,MN,56301,United States,320-240-1333,,,Monday-Friday 10-9; Saturday 10-8; Sunday 11-5,,0
Rosedale Center,,301 Rosedale Center,,Roseville,MN,55113,United States,651-633-9508,,,Monday-Saturday 10-9; Sunday 11-6,,0
Ridgedale,,12725 Wayzata Blvd.,,Minnetonka,MN,55305,United States,952-544-0168,,,Monday-Saturday 10-9; Sunday 12-6,,0
OUTLET - Twin Cities Premium Outlets,,3925 Eagan Outlets Pkwy,,Eagan,MN,55122,United States,651-686-1070,,,Monday - Saturday: 10 a.m. to 9 p.m.; Sunday: 10 a.m. to 7 p.m.,,0
Northtown,,358 Northtown Dr.,,Blaine,MN,55434,United States,763-786-7786,,,Monday-Friday 10-9; Saturday 10-8; Sunday 11-6,,0
Miller Hill Mall,,1600 Miller Trunk Hwy.,,Duluth,MN,55811,United States,218-727-8391,,,Monday-Friday 10-9; Saturday 10-7; Sunday 11-6,,0
Maplewood Mall,,3001 White Bear Ave.,,St. Paul,MN,55109,United States,651-773-7013,,,Monday-Friday 10-9; Saturday 10-8; Sunday 11-6,,0
Mall of America,,154 West Market,,Bloomington,MN,55425,United States,952-851-0057,,,Monday-Saturday 10-9:30; Sunday 11-7,,0
Westland Center,,35000 W. Warren Road,,Westland,MI,48185,United States,734-421-8866,,,Monday-Saturday 10-9; Sunday 11-6,,0
Twelve Oaks Mall,,27464 Novi Road,,Novi,MI,48377,United States,248-305-9030,,,Monday-Saturday 10-9; Sunday 11-6,,0
Southland Center,,23000 Eureka Road,,Taylor,MI,48180,United States,734-287-6655,,,Monday-Saturday 10-9; Sunday 12-6,,0
Southland Shopping Center,,6018 South Westnedge Ave.,,Portage,MI,49002,United States,269-327-8771,,,Monday-Saturday 10-9; Sunday 11-5,,0
RiverTown Crossing,,3700 RiverTown Parkway,,Grandville,MI,49418,United States,616-534-7731,,,Monday-Saturday 10-9; Sunday 12-6,,0
Oakland Mall,,426 W. 14 Mile Road #B,,Troy,MI,48083,United States,248-577-5541,,,Monday-Saturday 10-9; Sunday 11-6.,,0
OUTLET - Great Lakes Crossing Outlet,,4000 Baldwin Road,,Auburn Hills,MI,48326,United States,248-639-4871,,,Monday-Saturday 10-9; Sunday 11-6,,0
OUTLET- National Harbor,,6800 Oxon Hill Road,,National Harbor,MD,20745,United States,3018393288,,,Monday-Saturday 10-9; Sunday 11-6,,0
OUTLET- Arundel Mills,,7000 Arundel Mills Circle,,Hanover,MD,21076,United States,410-796-3704,,,Monday-Saturday 10-9:30Sunday 11-7,,0
OUTLET - Clarksburg,,22705 Clarksburg Road,,Clarksburg,Maryland,20871,United States,301-556-0932,,,Monday-Saturday 10-9pmSunday 10-7,,0
Annapolis Mall,,1670 Annapolis Mall,,Annapolis,MD,21401,United States,410-224-7050,,,Monday-Saturday 10:00am-9:00pm; Sunday 11:00am -7:00pm,,0
Mall in Columbia,,10300 Little Patuxent Parkway,,Columbia,MD,21044,United States,410-730-9076,,,Monday-Saturday 10-9; Sunday 12-6,,0
Fayette Mall,,3401 Nicholasville Rd.,,Lexington,KY,40503,United States,859-272-2446,,,Monday-Saturday 10-9; Sunday 12-6,,0
West Ridge Mall,,1801 SW Wanamaker,,Topeka,KS,66604,United States,785-273-0151,,,Monday-Saturday 10-9; Sunday 12-6,,0
Towne West,,4600 W Kellogg Dr.,,Wichita,KS,67209,United States,316-945-5013,,,Monday-Saturday 10-9; Sunday 12-6,,0
Towne East,,7700 E. Kellogg,,Wichita,KS,67207,United States,316-684-5233,,,Monday-Saturday 10-9; Sunday 12-6,,0
Town Center Plaza,,5232 W 119th Street,,Leawood,KS,66209,United States,913-469-9690,,,Monday-Saturday 10-9; Sunday 12-5,,0
Oak Park Mall,,11347 W. 95th Street,,Overland Park,KS,66214,United States,913-492-6920,,,Monday-Saturday 10-9; Sunday 11-6,,0
OUTLET- Legends Outlets of Kansas City,,1811 Village West Parkway,,Kansas City,KS,66111,United States,913-334-9817,,,Monday-Saturday 10-9; Sunday 11-6,,0
Valley West,,1551 Valley West Drive,,W. Des Moines,IA,50266,United States,515-225-3624,,,Monday-Saturday 10-9; Sunday 11-6,,0
Southern Hills,,4400 Sergeant Road,,Sioux City,IA,51106,United States,712-274-2772,,,Monday-Saturday 10-9; Sunday 12-6,,0
Northpark-IA,,320 W. Kimberly Rd.,,Davenport,IA,52806,United States,563-391-2050,,,Monday-Saturday 10-9; Sunday 12-6,,0
Merle Hay,,3800 Merle Hay Rd.,,Des Moines,IA,50310,United States,515-278-5529,,,Monday-Saturday 10-9; Sunday 12-5:30,,0
Lindale,,4444 First Ave. NE,,Cedar Rapids,IA,52402,United States,319-395-9243,,,Monday-Saturday 10-9; Sunday 12-6,,0
Jordan Creek Town Center,,101 Jordan Creek Parkway,,West Des Moines,IA,50266,United States,515-226-9111,,,Monday-Saturday 10-9; Sunday 11-6,,0
Coral Ridge Mall,,1451 Coral Ridge Ave,,Coralville,IA,52241,United States,319-625-2322,,,Monday-Saturday 10-9; Sunday 11-6.,,0
Southlake Plaza,,2871 E. 81st,,Merrillville,IN,46410,United States,219-947-3926,,,Monday-Friday 10-9; Saturday 10-7; Sunday 11-6,,0
Plainfield Commons,,2663 E. Main St.,,Plainfield,IN,46168,United States,317-839-8720,,,Monday-Saturday 10-9; Sunday 12-5,,0
Greenwood Park,,1251 US 31 North,,Greenwood,IN,46142,United States,317-882-8641,,,Monday-Saturday 10-9; Sunday 11-6,,0
Glenbrook Square,,4201 Coldwater Road,,Fort Wayne,IN,46805,United States,260-482-2528,,,Monday-Saturday 10-9; Sunday 12-6,,0
Eastland Mall,,800 N. Green River Rd.,,Evansville,IN,47715,United States,812-471-1801,,,Monday-Saturday 10-9; Sunday 12-6,,0
Castleton Square,,6020 E. 82nd Street,,Indianapolis,IN,46250,United States,317-841-0041,,,Monday-Saturday 10-9; Sunday 11-6,,0
Woodfield Village Green,,1410 E. Golf Rd.,,Schaumburg,IL,60173,United States,847-240-1831,,,Monday-Friday 10-9; Saturday 10-7; Sunday 11-6,,0
White Oaks Mall,,2501 West Wabash,,Springfield,IL,62704,United States,217-787-8730,,,Monday-Saturday 10-9; Sunday 11-6,,0
The Promenade Bolingbrook,,643 E. Boughton Rd,,Bolingbrook,IL,60440,United States,630-783-8373,,,Monday-Thursday 10-8; Friday & Saturday 10-9; Sunday 11-6; Monday-Saturday 10-9; Sunday 11-6,,0
Southpark,,4500 16th Street,,Moline,IL,61265,United States,309-797-5569,,,Monday-Saturday 10-9; Sunday 12-6,,0
St. Clair Square,,260 St. Clair Square,,Fairview Heights,IL,62208,United States,618-632-9535,,,Monday-Saturday 10-9; Sunday 11-6,,0
North Point Mall,,1168 Northpoint Mall,,Alpharetta,GA,30022,United States,770-667-1762,,,Monday-Saturday 10-9; Sunday 12-6,,0
Mall of Georgia,,"3333 Buford Drive,",,Buford,GA,30519,United States,678-482-6628,,,Monday-Saturday 10-9; Sunday 12-6,,0
Mall at Stonecrest,,2929 Turner Hill Road,,Lithonia,GA,30038,United States,770-482-7992,,,Monday-Saturday 10-9; Sunday 12-6,,0
Cumberland Mall,,1204 Cumberland Mall,,Atlanta,GA,30339,United States,770-434-6539,,,Monday-Saturday 10-9; Sunday 12-6,,0
Augusta Mall,,3450 Wrighsboro Rd.,,Augusta,GA,30909,United States,706-736-0888,,,Monday-Saturday 10-9; Sunday 12-6,,0
The Oaks,,6221 Newberry Road,,Gainesville,FL,32605,United States,352-332-9295,,,Monday-Saturday 10-9; Sunday 12-6,,0
Wellington Green,,10300 West Forest Hill Blvd,,Wellington,FL,33414,United States,561-790-0800,,,Monday-Saturday 10-9; Sunday 11-6,,0
The Avenues,,10300 Southside Blvd,,Jacksonville,FL,32256,United States,904-363-8897,,,Monday-Saturday 10-9; Sunday 12-6,,0
Tampa Premium Outlets,,2382 Grand Cypress Drive,,Lutz,FL,33559,United States,813-345-3138,,,,,0
Pembroke Lakes,,11401 Pines Boulevard,,Pembroke Pines,FL,33026,United States,954-322-5016,,,Monday-Saturday 10-9; Sunday 12-6,,0
Orange Park,,1910 Wells Road,,Orange Park,FL,32073,United States,904-264-4322,,,Monday-Saturday 10-9; Sunday 12-6,,0
OUTLET - Sawgrass Mills,,12801 West Sun Rise Blvd,,Sunrise,FL,33323,United States,954-838-9457,,,10:00-9:30 M-Sat; 11:00-8:00 Sun,,0
International Plaza,,2223 N. West Shore Blvd.,,Tampa,FL,33607,United States,813-877-1013,,,Monday-Saturday 10-9; Sunday 12-6,,0
Governor's Square,,1500 Apalachee Parkway,,Tallahassee,FL,32301,United States,850-219-4489,,,Monday-Saturday 10-9; Sunday 12-6,,0
Florida Mall,,8001 S. Orange Blossom Trail,,Orlando,FL,32809,United States,407-438-3454,,,Monday-Saturday 10-9; Sunday 12-6,,0
Countryside,,27001 US Hwy 19,,Clearwater,FL,33761,United States,727-712-0013,,,Monday-Saturday 10-9; Sunday 12-6,,0
Cordova Mall,,5100 N. 9th Avenue,,Pensacola,FL,32504,United States,850-477-3173,,,Monday-Saturday 10-9; Sunday 12-6,,0
Citrus Park,,7969 Citrus Park Town Center,,Tampa,FL,33625,United States,813-792-5090,,,Monday-Saturday 10-9; Sunday 12-6,,0
Brandon Town Center,,448 Brandon Town Center,,Brandon,FL,33511,United States,813-657-4804,,,Monday-Saturday 10-9; Sunday 11-6,,0
Altamonte Mall,,451 Altamonte Ave,,Altamonte Springs,FL,32701,United States,407-265-8072,,,Monday-Saturday 10-9; Sunday 12-6,,0
Concord Square,,4451 Concord Pike,,Wilmington,DE,19803,United States,302-478-2950,,,Monday-Saturday 10-7; Sunday 11-5,,0
The Promenade Shops at Centerra,,5985 SkyPond Dr.,,Loveland,CO,80538,United States,970-461-3774,,,Monday-Thursday 10:00-8:00; Friday- Saturday 10-9; Sunday 11-6,,0
WestFarms,,39 Westfarms Mall,,Farmington,CT,06032,United States,860-561-1150,,,Monday-Saturday 10-9:30; Sunday 11-6,,0
The Citadel,,750 Citadel Dr. E.,,Colorado Springs,CO,80909,United States,719-596-9066,,,Monday-Saturday 10-9; Sunday 11-6,,0
Park Meadows,,8405 S Park Meadows Ctr,,Lone Tree,CO,80124,United States,303-706-9330,,,Monday-Saturday 10-9; Sunday 11-6,,0
Southwest Plaza,,8501 W. Bowles Ave.,,Littleton,CO,80123,United States,303-973-1846,,,Monday-Saturday 10-9; Sunday 11-6,,0
Flatiron Crossing,,1 West Flatiron Circle,,Broomfield,CO,80021,United States,303-469-6563,,,Monday-Saturday 10-9; Sunday 11-6,,0
Chapel Hills Mall,,1710 Briargate Blvd.,,Colorado Springs,CO,80920,United States,719-264-7657,,,Monday-Saturday 10-9; Sunday 11-6.,,0
Aurora Mall,,14200 E. Alameda Ave.,,Aurora,CO,80012,United States,303-344-4300,,,Monday-Saturday 10-9; Sunday 11-6,,0
Victoria Gardens,,12491 N. Main St.,,Rancho Cucamonga,CA,91739,United States,909-899-2266,,,Monday-Saturday 10-9; Sunday 11-7,,0
Valley Plaza,,2701 Ming Ave.,,Bakersfield,CA,93304,United States,661-834-3992,,,Monday-Saturday 10-9; Sunday 11-6,,0
Valley Fair,,2855 Stevens Creek Blvd,,Santa Clara,CA,95050,United States,408-248-3511,,,Monday-Friday 10:00am-9:30pm; Saturday 10:00am-9:00pm; Sunday 11:00am-7:00pm,,0
Sun Valley,,244 Sunvalley,,Concord,CA,94520,United States,925-671-2571,,,Monday-Saturday 10-9; Sunday 11-6,,0
Promenade in Temecula,,40820 Winchester Road,,Temecula,CA,92591,United States,951-296-0181,,,Monday-Saturday 10-9; Sunday 11-7,,0
OUTLET - Ontario Mills,,1 Mills Circle,,Ontario,CA,91764,United States,909-919-7213,,,Monday - Saturday 10:00-9:00; Sunday 11:00-8:00,,0
OUTLET - Livermore Valley,,650 Livermore Outlets Drive,,Livermore,CA,94551,United States,925-456-0541,,,Monday-Friday 10:30-9; Saturday 10-9:30; Sunday 11-7,,0
OUTLET - Citadel Outlets,,100 Citadel Dr,,City of Commerce,CA,90040,United States,323-721-1912,,,Monday-Sunday 10-9,,0
Northridge Fashion Center,,9301 Tampa Ave.,,Northridge,CA,91324,United States,818-886-0787,,,Monday-Saturday 10-9; Sunday 11-6,,0
North County Fair,,200 E Via Rancho Pkwy,,Escondido,CA,92025,United States,760-745-6420,,,Monday-Friday 10-9; Saturday 10-8; Sunday 11-6,,0
Moreno Valley,,22500 Town Circle,,Moreno Valley,CA,92553,United States,951-653-7669,,,Monday-Saturday 10-9; Sunday 11-7,,0
Inland Center,,348 Inland Center,,San Bernardino,CA,92408,United States,909-381-3319,,,Monday-Friday 10-9; Saturday 10-8; Sunday 11-7,,0
Glendale Galleria,,1123 Glendale Galleria,,Glendale,CA,91210,United States,818-246-8241,,,Monday-Saturday 10-9; Sunday 11-7,,0
Galleria at Tyler,,1285 Galleria at Tyler,,Riverside,CA,92503,United States,951-687-3694,,,Monday-Saturday 10-9; Sunday 11-7,,0
Galleria at Roseville,,1151 Galleria Blvd,,Roseville,CA,95678,United States,916-788-1160,,,Monday-Saturday 10-9; Sunday 11-7,,0
Antelope Valley Mall,,1233 W. Ave P,,Palmdale,CA,93551,United States,661-274-9477,,,Monday-Friday 10-9; Saturday 11-8; Sunday 11-6,,0
Northwest Arkansas Mall,,4201 North Shiloh Drive,,Fayetteville,AR,72703,United States,479-521-8686,,,Monday-Saturday 10-9; Sunday 12-6,,0
Tucson Mall,,4500 N. Oracle Rd.,,Tucson,AZ,85705,United States,520-293-7696,,,Monday-Saturday 10-9; Sunday 12-6,,0
Superstition Springs,,6555 E Southern Ave.,,Mesa,AZ,85206,United States,480-924-1033,,,Monday-Saturday 10-9; Sunday 11-6.,,0
SanTan Village,,2174 E. Williams Field Road,,Gilbert,AZ,85295,United States,480-821-2256,,,Monday-Saturday 10-9; Sunday 11-6,,0
Park Place,,5870 E. Broadway,,Tucson,AZ,85711,United States,520-790-0214,,,Monday-Saturday 10-9; Sunday 12-6,,0
OUTLET - Westgate Outlet,,6800 N 95th Street,,Glendale,AZ,85305,United States,(623) 872 - 6147,,,Monday-Saturday 9-9; Sunday 10-7,,0
Paradise  Valley,,4550-2 East Cactus Rd.,,Phoenix,AZ,85032,United States,602-996-5229,,,Monday-Saturday 10-9; Sunday 11-6,,0
OUTLET - Tucson Premium Outlets,,6401 W. Marana Center Blvd.,,Tucson,AZ,85742,United States,(520) 837 - 0781,,,Monday-Saturday 9-9; Sunday 10-7,,0
OUTLET - Phoenix Premium Outlets,,4976 Premium Outlets Way,,Chandler,AZ,85226,United States,(480) 639-1862,,,Monday-Saturday 10-9; Sunday 10-7,,0
Chandler Fashion Center,,3111 West Chandler Blvd,,Chandler,AZ,85226,United States,480-732-0055,,,Monday-Saturday 10-9; Sunday 11-6,,0
