store_name,store_number,address,address2,city,state,zip_code,country,phone_number,latitude,longitude,store_hours,other_fields,coming_soon
Acura Of Concord,,1340 Concord Avenue,,Concord,CA,94520,United States,,,,,,0
Acura of Pleasanton,,4355 Rosewood Drive,,Pleasanton,CA,94588,United States,,,,,,0
Acura of Riverside,,8101 Auto Drive,,Riverside,CA,92504,United States,,,,,,0
Hendrick Acura,,6824 E Independence Blvd,,Charlotte,NC,28227,United States,,,,,,0
Hendrick Acura Overland Park,,7727 Frontage Road,,Overland Park,KS,66204,United States,,,,,,0
Hendrick Automotive Group,,6000 Monroe Road,,Charlotte,NC,28212,United States,,,,,,0
Performance Acura,,1814 Durham-Chapel Hill Boulevard,,Chapel Hill,NC,27514,United States,,,,,,0
Hendrick Alfa Romeo of Cary,,91 MacKenan Dr,,Cary,NC,27511,United States,,,,,,0
Hendrick Alfa Romeo of Fayetteville,,539 N McPherson Church Rd,,Fayetteville,NC,28303,United States,,,,,,0
Hendrick Automotive Group,,6000 Monroe Road,,Charlotte,NC,28212,United States,,,,,,0
Hendrick of Concord,,7610 Hendrick Auto Plaza NW,,Concord,NC,28027,United States,,,,,,0
Rick Hendrick Alfa Romeo of North Charleston,,8355 Rivers Ave,,North Charleston,SC,29406,United States,,,,,,0
Audi Northlake,,10831 Northlake Auto Plaza Blvd,,Charlotte,NC,28269,United States,,,,,,0
Audi South Austin,,4738 IH-35 South,,Austin,TX,78745,United States,,,,,,0
Hendrick Automotive Group,,6000 Monroe Road,,Charlotte,NC,28212,United States,,,,,,0
BMW of Kansas City South,,1200 W. 104th St,,Kansas City,MO,64114,United States,,,,,,0
BMW of Murrieta,,26825 Auto Mall Pkwy,,Murrieta,CA,92562,United States,,,,,,0
East Bay BMW,,4350 Rosewood Drive,,Pleasanton,CA,94588,United States,,,,,,0
Hendrick Automotive Group,,6000 Monroe Road,,Charlotte,NC,28212,United States,,,,,,0
Hendrick BMW,,6950 E Independence Blvd,,Charlotte,NC,28227,United States,,,,,,0
Hendrick BMW Northlake,,10720 Northlake Auto Plaza Blvd,,Charlotte,NC,28269,United States,,,,,,0
Hendrick BMW of South Austin,,6000 Monroe Rd,,CHARLOTTE,NC,28212,United States,,,,,,0
Performance BMW,,1806 Durham-Chapel Hill Blvd,,Chapel Hill,NC,27514,United States,,,,,,0
Rick Hendrick BMW Charleston,,1518 Savannah Highway,,Charleston,SC,29407,United States,,,,,,0
Dale Earnhardt Jr. Buick GMC,,1850 Capital Circle NE,,Tallahassee,FL,32308,United States,,,,,,0
Darrell Waltrip Buick GMC,,1440 Murfreesboro Road,,Franklin,TN,37067,United States,,,,,,0
Hendrick Automotive Group,,6000 Monroe Road,,Charlotte,NC,28212,United States,,,,,,0
Hendrick Buick GMC,,907 West 104th Street,,Kansas City,MO,64114,United States,,,,,,0
Hendrick Buick GMC Cary,,115 Team Hendrick Way,,Cary,NC,27511,United States,,,,,,0
Hendrick Chevrolet Buick GMC Southpoint,,127 Kentington Drive,,Durham,NC,27713,United States,,,,,,0
Rick Hendrick Buick GMC,,3244 Commerce Avenue,,Duluth,GA,30096,United States,,,,,,0
Rick Hendrick Chevrolet Buick GMC,,12050 W Broad Street,,Richmond,VA,23233,United States,,,,,,0
Dale Earnhardt Jr. Buick GMC,,1850 Capital Circle NE,,Tallahassee,FL,32308,United States,,,,,,0
Hendrick Automotive Group,,6000 Monroe Road,,Charlotte,NC,28212,United States,,,,,,0
Hendrick Cadillac,,1151 West 104th Street,,Kansas City,MO,64114,United States,,,,,,0
Hendrick Cadillac Cary,,115 Team Hendrick Way,,Cary,NC,27511,United States,,,,,,0
Hendrick Chevrolet,,3112 Highway 74 W,,Monroe,NC,28110,United States,,,,,,0
Hendrick Chevrolet Buick GMC Southpoint,,127 Kentington Drive,,Durham,NC,27713,United States,,,,,,0
Rick Hendrick Cadillac,,6222 Virginia Beach Blvd,,Norfolk,VA,23502,United States,,,,,,0
Dale Earnhardt Jr. Chevrolet,,3127 West Tennessee Street,,Tallahassee,FL,32304,United States,,,,,,0
Hendrick Automotive Group,,6000 Monroe Road,,Charlotte,NC,28212,United States,,,,,,0
Hendrick Chevrolet,,3112 Highway 74 W,,Monroe,NC,28110,United States,,,,,,0
Hendrick Chevrolet Buick GMC Southpoint,,127 Kentington Drive,,Durham,NC,27713,United States,,,,,,0
Hendrick Chevrolet Cary,,100 Auto Mall Dr.,,Cary,NC,27511,United States,,,,,,0
Hendrick Chevrolet Hoover,,1620 Montgomery Hwy,,Hoover,AL,35216,United States,,,,,,0
Hendrick Chevrolet Shawnee Mission,,8300 Shawnee Mission Parkway,,Merriam,KS,66202,United States,,,,,,0
Jeff Gordon Chevrolet,,228 South College Road,,Wilmington,NC,28403,United States,,,,,,0
Jimmie Johnson Kearny Mesa Chevrolet,,7978 Balboa Ave,,San Diego,CA,92111,United States,,,,,,0
Performance Pre-Owned,,1810 Durham Chapel Hill Boulevard,,Chapel Hill,NC,27514,United States,,,,,,0
Rick Hendrick Chevrolet Buick GMC,,12050 W Broad Street,,Richmond,VA,23233,United States,,,,,,0
Rick Hendrick Chevrolet Charleston,,1500 Savannah Highway,,Charleston,SC,29407,United States,,,,,,0
Rick Hendrick Chevrolet Duluth,,3277 Satellite Boulevard,,Duluth,GA,30096,United States,,,,,,0
Rick Hendrick Chevrolet Norfolk,,6252 Virginia Beach Blvd,,Norfolk,VA,23502,United States,,,,,,0
Rick Hendrick Chevrolet of Buford,,4490 South Lee Street,,Buford,GA,30518,United States,,,,,,0
Rick Hendrick Chevrolet of Naples,,5665 N. Airport Pulling Road,,Naples,FL,34109,United States,,,,,,0
Rick Hendrick City Chevrolet,,5101 E Independence Blvd,,Charlotte,NC,28212,United States,,,,,,0
Terry Labonte Chevrolet,,1401 Bridford Parkway,,Greensboro,NC,27407,United States,,,,,,0
Charleston Chrysler Dodge Jeep Ram,,6000 Monroe Rd,,Charlotte,NC,28212,United States,,,,,,0
Hendrick Automotive Group,,6000 Monroe Road,,Charlotte,NC,28212,United States,,,,,,0
Hendrick Chrysler Dodge Jeep Ram,,1624 Montgomery Highway,,Birmingham,AL,35216,United States,,,,,,0
Hendrick Chrysler Dodge Jeep Ram of Concord,,7630 Hendrick Auto Plaza NW,,Concord,NC,28027,United States,,,,,,0
Hendrick Chrysler Jeep,,543 N McPherson Church Rd,,Fayetteville,NC,28303,United States,,,,,,0
Rick Hendrick Chrysler Dodge Jeep RAM Duluth,,2473 Pleasant Hill Rd,,Duluth,GA,30096,United States,,,,,,0
Rick Hendrick Chrysler Dodge Jeep RAM Duluth,,6000 Monroe Rd,,CHARLOTTE,NC,28212,United States,,,,,,0
Rick Hendrick Dodge Chrysler Jeep RAM,,1468 Savannah Highway,,Charleston,SC,29407,United States,,,,,,0
Rick Hendrick Jeep Chrysler Dodge RAM,,8333 Rivers Avenue,,North Charleston,SC,29406,United States,,,,,,0
Dale Earnhardt Jr. Chevrolet - Collision Center,,3127 W Tennessee St,,Tallahassee,FL,32304 2728,United States,,,,,,0
Hendrick Chevrolet Shawnee Mission - Collision Center,,8300 Shawnee Mission Pkwy,,Merriam,KS,66202 2947,United States,,,,,,0
Hendrick Collision Center,,543 N McPherson Church Rd,,Fayetteville,NC,28303,United States,,,,,,0
Hendrick Collision Center Cary,,100 Auto Mall Dr,,Cary,NC,27511,United States,,,,,,0
Hendrick Collision Center Concord,,7650 Bruton Smith Blvd,,Concord,NC,28027 0148,United States,,,,,,0
Hendrick Collision Center Fayetteville,,5510 Cliffdale Rd,,Fayetteville,NC,28314,United States,,,,,,0
Hendrick Collision Center Hwy 55,,5403 NC Hwy 55,,Durham,NC,27713,United States,,,,,,0
Hendrick Collision Center South,,8901 South Blvd,,Charlotte,NC,28273,United States,,,,,,0
Hendrick Collision Center at Gwinnett Place Honda,,3325 Satellite Blvd,,Duluth,GA,30096,United States,,,,,,0
Hendrick Collision Center of Kansas City,,9400 Troost Ave,,Kansas City,MO,64131,United States,,,,,,0
Hendrick Collision Center of Rock Hill,,735 Automall Pkwy,,Rock Hill,SC,29732,United States,,,,,,0
Hendrick Collision North,,9300 NW Prairie View Rd,,Kansas City,MO,64153,United States,,,,,,0
Hendrick Luxury Collision Center,,5141 E Independence Blvd,,Charlotte,NC,28212,United States,,,,,,0
Hendrick Luxury Collision Charleston,,1535B Savannah Hwy,,Charleston,SC,29407,United States,,,,,,0
Jeff Gordon Chevrolet - Collision Center,,228 S College Rd,,Wilmington,NC,28403 1610,United States,,,,,,0
Jimmie Johnson's Kearny Mesa Chevrolet - Collision Center,,7978 Balboa Ave,,San Diego,CA,92111 2415,United States,,,,,,0
Performance Cosmetic Care,,1810 Fordham Blvd,,Chapel Hill,NC,27514 2201,United States,,,,,,0
Rick Hendrick City Chevrolet - Collision Center,,5101 E Independence Blvd,,Charlotte,NC,28212 6168,United States,,,,,,0
Rick Hendrick Collision Center - Durham,,500 Pettigrew St,,Durham,NC,27701,United States,,,,,,0
Rick Hendrick Collision Center Chesapeake,,956 Providence Rd,,Chesapeake,VA,23325,United States,,,,,,0
Rick Hendrick Collision Center Portsmouth,,3310 Airline Blvd,,Portsmouth,VA,23701,United States,,,,,,0
Rick Hendrick Collision Center Richmond,,10920 Midlothian Turnpike,,Richmond,VA,23235,United States,,,,,,0
Rick Hendrick Collision Center Virginia Beach,,2700 International Parkway,,Virginia Beach,VA,23452,United States,,,,,,0
Rick Hendrick Luxury Collision Center of Buford,,4510 South Lee Street,,Buford,GA,30518 3317,United States,,,,,,0
Rick Hendrick Toyota Sandy Springs Collision,,6475 Roswell Rd,,Atlanta,GA,30328,United States,,,,,,0
Terry Labonte Chevrolet - Collision Center,,1401 Bridford Pkwy,,Greensboro,NC,27407,United States,,,,,,0
Charleston Chrysler Dodge Jeep Ram,,6000 Monroe Rd,,Charlotte,NC,28212,United States,,,,,,0
Hendrick Automotive Group,,6000 Monroe Road,,Charlotte,NC,28212,United States,,,,,,0
Hendrick Chrysler Dodge Jeep Ram,,1624 Montgomery Highway,,Birmingham,AL,35216,United States,,,,,,0
Hendrick Chrysler Dodge Jeep Ram of Concord,,7630 Hendrick Auto Plaza NW,,Concord,NC,28027,United States,,,,,,0
Hendrick Dodge,,81 MacKenan Drive,,Cary,NC,27511,United States,,,,,,0
Rick Hendrick Chrysler Dodge Jeep RAM Duluth,,2473 Pleasant Hill Rd,,Duluth,GA,30096,United States,,,,,,0
Rick Hendrick Chrysler Dodge Jeep RAM Duluth,,6000 Monroe Rd,,CHARLOTTE,NC,28212,United States,,,,,,0
Rick Hendrick Dodge Chrysler Jeep RAM,,1468 Savannah Highway,,Charleston,SC,29407,United States,,,,,,0
Rick Hendrick Jeep Chrysler Dodge RAM,,8333 Rivers Avenue,,North Charleston,SC,29406,United States,,,,,,0
Hendrick Alfa Romeo FIAT of Cary,,91 Mackenan Drive,,Cary,NC,27511,United States,,,,,,0
Hendrick Alfa Romeo FIAT of Concord,,7610 Hendrick Auto Plaza NW,,Concord,NC,28027,United States,,,,,,0
Hendrick Alfa Romeo Fiat of Fayetteville,,539 N McPherson Church Rd,,Fayetteville,NC,28303,United States,,,,,,0
Hendrick Automotive Group,,6000 Monroe Road,,Charlotte,NC,28212,United States,,,,,,0
Hendrick Chrysler Dodge Jeep Ram of Concord,,7630 Hendrick Auto Plaza NW,,Concord,NC,28027,United States,,,,,,0
Rick Hendrick Alfa Romeo FIAT North Charleston,,8355 Rivers Avenue,,North Charleston,SC,29406-9204,United States,,,,,,0
Dale Earnhardt Jr. Buick GMC,,1850 Capital Circle NE,,Tallahassee,FL,32308,United States,,,,,,0
Darrell Waltrip Buick GMC,,1440 Murfreesboro Road,,Franklin,TN,37067,United States,,,,,,0
Hendrick Automotive Group,,6000 Monroe Road,,Charlotte,NC,28212,United States,,,,,,0
Hendrick Buick GMC,,907 West 104th Street,,Kansas City,MO,64114,United States,,,,,,0
Hendrick Buick GMC Cary,,115 Team Hendrick Way,,Cary,NC,27511,United States,,,,,,0
Hendrick Chevrolet Buick GMC Southpoint,,127 Kentington Drive,,Durham,NC,27713,United States,,,,,,0
Rick Hendrick Buick GMC,,3244 Commerce Avenue,,Duluth,GA,30096,United States,,,,,,0
Rick Hendrick Chevrolet Buick GMC,,12050 W Broad Street,,Richmond,VA,23233,United States,,,,,,0
Hendrick Genesis,,(Located at Hendrick Hyundai) 1523 Savannah Hwy,,Charleston,SC,29407,United States,,,,,,0
Old Glory Harley Davidson,,11800 Laurel Bowie Road,,Laurel,MD,20708,United States,,,,,,0
Barbour-Hendrick Honda Greenville,,3300 S Memorial Dr,,Greenville,NC,27834,United States,,,,,,0
Darrell Waltrip Honda,,1430 Murfreesboro Road,,Franklin,TN,37067,United States,,,,,,0
Gwinnett Place Honda,,3325 Satellite Blvd,,Duluth,GA,30096,United States,,,,,,0
Hendrick Automotive Group,,6000 Monroe Road,,Charlotte,NC,28212,United States,,,,,,0
Hendrick Honda,,8901 South Blvd,,Charlotte,NC,28273,United States,,,,,,0
Hendrick Honda Bradenton,,5515 14th Street W,,Bradenton,FL,34207,United States,,,,,,0
Hendrick Honda Daytona,,330 N Nova Road,,Daytona Beach,FL,32114,United States,,,,,,0
Hendrick Honda Easley,,4609 Calhoun Memorial Highway,,Easley,SC,29640,United States,,,,,,0
Hendrick Honda Hickory,,945 U. S. Highway 70 SE,,Hickory,NC,28602,United States,,,,,,0
Hendrick Honda Pompano Beach,,5381 N Federal Highway,,Pompano Beach,FL,33064,United States,,,,,,0
Hendrick Honda Woodbridge,,14201 Jefferson Davis Highway,,Woodbridge,VA,22191,United States,,,,,,0
Hendrick Honda of Charleston,,1539 Savannah Highway,,Charleston,SC,29407,United States,,,,,,0
Hendrick Honda of Hickory,,945 U.S Highway 70,,Hickory,NC,28602,United States,,,,,,0
Honda Cars of McKinney,,601 S Central Expy,,McKinney,TX,75070,United States,,,,,,0
Honda Cars of Rock Hill,,686 Galleria Boulevard,,Rock Hill,SC,29730,United States,,,,,,0
Honda of Concord,,7650 Bruton Smith Blvd,,Concord,NC,28027,United States,,,,,,0
Honda of El Cerrito,,11755 San Pablo Ave,,El Cerrito,CA,94530,United States,,,,,,0
Hendrick Automotive Group,,6000 Monroe Road,,Charlotte,NC,28212,United States,,,,,,0
Hendrick Hyundai Charleston,,1523 Savannah Highway,,Charleston,SC,29407,United States,,,,,,0
Hendrick Hyundai North Charleston,,8485 Rivers Avenue,,North Charleston,SC,29406,United States,,,,,,0
Charleston Chrysler Dodge Jeep Ram,,6000 Monroe Rd,,Charlotte,NC,28212,United States,,,,,,0
Hendrick Automotive Group,,6000 Monroe Road,,Charlotte,NC,28212,United States,,,,,,0
Hendrick Chrysler Dodge Jeep Ram,,1624 Montgomery Highway,,Birmingham,AL,35216,United States,,,,,,0
Hendrick Chrysler Dodge Jeep Ram of Concord,,7630 Hendrick Auto Plaza NW,,Concord,NC,28027,United States,,,,,,0
Hendrick Chrysler Jeep,,543 N McPherson Church Rd,,Fayetteville,NC,28303,United States,,,,,,0
Rick Hendrick Chrysler Dodge Jeep RAM Duluth,,2473 Pleasant Hill Rd,,Duluth,GA,30096,United States,,,,,,0
Rick Hendrick Chrysler Dodge Jeep RAM Duluth,,6000 Monroe Rd,,CHARLOTTE,NC,28212,United States,,,,,,0
Rick Hendrick Dodge Chrysler Jeep RAM,,1468 Savannah Highway,,Charleston,SC,29407,United States,,,,,,0
Rick Hendrick Jeep Chrysler Dodge RAM,,8333 Rivers Avenue,,North Charleston,SC,29406,United States,,,,,,0
Hendrick Automotive Group,,6000 Monroe Road,,Charlotte,NC,28212,United States,,,,,,0
Hendrick Kia Charlotte,,5141 East Independence Blvd,,Charlotte,NC,28212,United States,,,,,,0
Hendrick Kia of Cary,,90 MacKenan Dr.,,Cary,NC,27511,United States,,,,,,0
Hendrick Kia of Concord,,7550 Hendrick Auto Plaza NW,,Concord,NC,28027,United States,,,,,,0
Hendrick Automotive Group,,6000 Monroe Road,,Charlotte,NC,28212,United States,,,,,,0
Land Rover Charlotte,,6940 E. Independence Blvd.,,Charlotte,NC,28227,United States,,,,,,0
Hendrick Automotive Group,,6000 Monroe Road,,Charlotte,NC,28212,United States,,,,,,0
Hendrick Lexus,,6025 E Independence Blvd,,Charlotte,NC,28212,United States,,,,,,0
Hendrick Lexus Charleston,,2424 Savannah Highway,,Charleston,SC,29414,United States,,,,,,0
Hendrick Lexus Kansas City,,6395 W. Frontage Road,,Merriam,KS,66203,United States,,,,,,0
Hendrick Lexus Kansas City North,,9300 NW Prairie View Road,,Kansas City,MO,64153,United States,,,,,,0
Hendrick Lexus Northlake,,10830 Northlake Auto Plaza Blvd,,Charlotte,NC,28269,United States,,,,,,0
Lexus of Pleasanton,,4345 Rosewood Drive,,Pleasanton,CA,94588,United States,,,,,,0
East Bay MINI,,4340 Rosewood Drive,,Pleasanton,CA,94588,United States,,,,,,0
Hendrick Automotive Group,,6000 Monroe Road,,Charlotte,NC,28212,United States,,,,,,0
Hendrick MINI,,6800 E Independence Blvd,,Charlotte,NC,28227,United States,,,,,,0
MINI of Charleston,,1518 Savannah Highway,,Charleston,SC,29407,United States,,,,,,0
Mall of Georgia MINI,,3751 Buford Drive,,Buford,GA,30519,United States,,,,,,0
Hendrick Automotive Group,,6000 Monroe Road,,Charlotte,NC,28212,United States,,,,,,0
Mall of Georgia Mazda,,3546 Highway 20,,Buford,GA,30519,United States,,,,,,0
Hendrick Automotive Group,,6000 Monroe Road,,Charlotte,NC,28212,United States,,,,,,0
Hendrick Motors of Charlotte,,5201 E. Independence Blvd,,Charlotte,NC,28212,United States,,,,,,0
Mercedes-Benz  of Northlake,,10725 Old Statesville Rd,,Charlotte,NC,28269,United States,,,,,,0
Mercedes-Benz of Durham,,110 Kentington Dr.,,Durham,NC,27713,United States,,,,,,0
Hendrick Automotive Group,,6000 Monroe Road,,Charlotte,NC,28212,United States,,,,,,0
Hendrick NISSAN Kansas City,,8400 Shawnee Mission Parkway,,  Merriam,KS,66202,United States,,,,,,0
Hendrick Automotive Group,,6000 Monroe Road,,Charlotte,NC,28212,United States,,,,,,0
Hendrick Porsche,,6800 E Independence Blvd,,Charlotte,NC,28227,United States,,,,,,0
Porsche Southpoint,,122 Kentington Drive,,Durham,NC,27713,United States,,,,,,0
Hendrick Autoguard Inc.,,6030 E Independence Blvd,,Charlotte,NC,28212,United States,,,,,,0
Hendrick Automotive Group,,6000 Monroe Road,,Charlotte,NC,28212,United States,,,,,,0
Hendrick Cars Charlotte,,9029 South Blvd.,,Charlotte,NC,28273,United States,,,,,,0
Hendrick Cars Concord,,7610 Hendrick Auto Plaza NW,,Concord,NC,28027,United States,,,,,,0
Hendrick Cars Hickory,,1171 Lenoir Rhyne Blvd SE,,Hickory,NC,28602,United States,,,,,,0
Hendrick Cars North Charleston,,8355 Rivers Avenue,,North Charleston,SC,29406,United States,,,,,,0
Hendrick Pre-Owned Cary,,70 Mackenan Dr,,Cary,NC,27511,United States,,,,,,0
Hendrickcars Chapel Hill,,1810 Durham - Chapel Hill Blvd.,,Chapel Hill,NC,27514,United States,,,,,,0
Nationwide Hendrick,,6000 Monroe Rd,,Charlote,NC,28212,United States,,,,,,0
Charleston Chrysler Dodge Jeep Ram,,6000 Monroe Rd,,Charlotte,NC,28212,United States,,,,,,0
Hendrick Automotive Group,,6000 Monroe Road,,Charlotte,NC,28212,United States,,,,,,0
Hendrick Chrysler Dodge Jeep Ram,,1624 Montgomery Highway,,Birmingham,AL,35216,United States,,,,,,0
Hendrick Chrysler Dodge Jeep Ram of Concord,,7630 Hendrick Auto Plaza NW,,Concord,NC,28027,United States,,,,,,0
Hendrick Dodge,,81 MacKenan Drive,,Cary,NC,27511,United States,,,,,,0
Rick Hendrick Chrysler Dodge Jeep RAM Duluth,,2473 Pleasant Hill Rd,,Duluth,GA,30096,United States,,,,,,0
Rick Hendrick Chrysler Dodge Jeep RAM Duluth,,6000 Monroe Rd,,CHARLOTTE,NC,28212,United States,,,,,,0
Rick Hendrick Dodge Chrysler Jeep RAM,,1468 Savannah Highway,,Charleston,SC,29407,United States,,,,,,0
Rick Hendrick Jeep Chrysler Dodge RAM,,8333 Rivers Avenue,,North Charleston,SC,29406,United States,,,,,,0
Hendrick Automotive Group,,6000 Monroe Road,,Charlotte,NC,28212,United States,,,,,,0
Darrell Waltrip Subaru,,1450 Murfreesboro Rd,,Franklin,TN,37067,United States,,,,,,0
Hendrick Automotive Group,,6000 Monroe Road,,Charlotte,NC,28212,United States,,,,,,0
Performance Subaru,,1810 Durham-Chapel Hill Blvd.,,Chapel Hill,NC,27514,United States,,,,,,0
Hendrick Automotive Group,,6000 Monroe Road,,Charlotte,NC,28212,United States,,,,,,0
Hendrick Toyota Merriam,,9505 W. 67th Street,,Merriam,KS,66203,United States,,,,,,0
Hendrick Toyota North Charleston,,7151 Rivers Avenue,,North Charleston,SC,29406,United States,,,,,,0
Hendrick Toyota Scion Apex,,1210 Laura Village Drive,,Apex,NC,27523,United States,,,,,,0
Hendrick Toyota Scion Concord,,7670 BRUTON SMITH BLVD.,,CONCORD,NC,28027,United States,,,,,,0
Hendrick Toyota Scion Wilmington,,5640 Market Street,,Wilmington,NC,28405,United States,,,,,,0
Rick Hendrick Toyota Scion,,1969 Skibo Road,,Fayetteville,NC,28314,United States,,,,,,0
Rick Hendrick Toyota Scion Sandy Springs,,6475 Roswell Road,,Atlanta,GA,30328,United States,,,,,,0
Hendrick Automotive Group,,6000 Monroe Road,,Charlotte,NC,28212,United States,,,,,,0
Hendrick Volkswagen Frisco,,5010 State Highway 121,,Frisco,TX,75034,United States,,,,,,0
Hendrick Volkswagen of Concord,,7500 Hendrick Auto Plaza NW,,Concord,NC,28027,United States,,,,,,0
Volkswagen of Murrieta,,41300 Date St,,Murrieta,CA,92562,United States,,,,,,0
Darrell Waltrip Volvo,,1452 Murfreesboro Road,,Franklin,TN,37067,United States,,,,,,0
Hendrick Automotive Group,,6000 Monroe Road,,Charlotte,NC,28212,United States,,,,,,0
Volvo of Charleston,,1518 Savannah Highway,,Charleston,SC,29407,United States,,,,,,0
