store_name,store_number,address,address2,city,state,zip_code,country,phone_number,latitude,longitude,store_hours,other_fields,coming_soon
Canaletto Ristorante Veneto Las Vegas,,The Venetian Hotel & Casino 3377 Las Vegas Boulevard South Suite 2440 ,,Las Vegas ,NV,89109,United States,702.733.0070,,,Sunday - Thursday 11:00am-11:00pm; Friday - Saturday 11:00am-Midnight,,0
Las Vegas,,New York-New York Hotel & Casino 3790 Las Vegas Boulevard South Suite 13 ,,Las Vegas ,NV,89109,United States,702.650.6500,,,Sunday - Thursday 7:30-11:00pm; Friday - Saturday 7:30-Midnight; Monday - Sunday 6:00am-6:00pm,,0
WOODLAND HILLS,,6320 Topanga Canyon Blvd. ,,Woodland Hills ,CA,91367,United States,818.297.1700,,,Monday-Thursday 11:30am-10:00pm; Friday 11:30am-10:00pm; Saturday 10:00am-11:00pm; Sunday 10:00am-10:00pm,,0
Walnut Creek,,1430 Mt. Diablo Boulevard ,,Walnut Creek ,CA,94596,United States,925.296.0100,,,Monday - Thursday 11:30am-10:00pm; Friday 11:30am-11:00pm; Saturday 11:00am-11:00pm; Sunday 10:00am-10:00pm,,0
DENVER TECH CENTER,,8000 East Belleview Avenue Ste. G-10 ,,Greenwood Village ,CO,80111,United States,303.221.8400,,,Monday - Friday 11:00am-10:00pm; Saturday Noon-10:00pm; Sunday 4:00pm-9:00pm,,0
San Jose,,(at The Westin San Jose) 302 South Market Street ,,San Jose ,CA,95113,United States,408.271.3366,,,Monday - Friday 6:30-10:30am & 11:30am-11:00pm; Saturday - Sunday 8:00am-11:00pm,,0
Seattle,,Pacific Place 600 Pine Street Suite 132 ,,Seattle ,WA,98101,United States,206.264.0994,,,Sunday - Thursday 11:30am-10:00pm; Friday - Saturday 11:30am-10:00pm; Sunday - Thursday 11:30am-9:00pm; Friday - Saturday 11:30am-10:00pm; Monday - Thursday 8:00am-6:00pm; Friday - Saturday 8:00am-7:00pm; Sunday 9:00am-6:00pm,,0
San Francisco,,Levi's Plaza 1265 Battery Street ,,San Francisco ,CA,94111,United States,415.986.0100,,,Monday - Friday 6:30am-10:00pm; Saturday - Sunday 9:00am-10:00pm; Monday - Friday 9:00am-3:00pm,,0
Sacramento,,Wells Fargo Center 400 Capitol Mall ,,Sacramento ,CA,95814,United States,916.446.4100,,,Monday - Friday 11:00am-10:00pm; Saturday 5:00pm-10:00pm; Sunday 4:00pm-9:00pm; Monday - Friday 7:00am-4:00pm,,0
Canaletto Ristorante Veneto Newport Beach,,Fashion Island 545 Newport Center Drive ,,Newport Beach ,CA,92660,United States,949.640.0900,,,Sunday - Thursday 11:30am-10:00pm; Friday - Saturday 11:30am-11:00pm,,0
Pasadena,,One Colorado Shopping Center 24 West Union Street ,,Pasadena ,CA,91103,United States,626.683.9797,,,Monday - Thursday 11:30am-10:00pm; Friday - Saturday 11:30am-11:00pm; Sunday 10:00am-10:00pm; Monday - Friday 7:00am-5:00pm,,0
Palo Alto,,(at the Garden Court Hotel) 520 Cowper Street ,,Palo Alto ,CA,94301,United States,650.853.3888,,,Monday - Friday 7:00am-10:30am; Saturday - Sunday 8:00am-11:00am; Sunday - Saturday 11:30am-5:00pm; Sunday - Thursday 5:00pm-10:00pm; Friday - Saturday 5:00pm-11:00pm,,0
Manhattan Beach,,1800 Rosecrans Avenue Building F ,,Manhattan Beach ,CA,90266,United States,310.725.9555,,,Monday - Thursday 11:30am-10:00pm; Friday 11:30am-11:00pm; Saturday 11:00am-11:00pm; Sunday 11:00am-10:00pm,,0
Roseville,,The Galleria at Roseville 1179 Galleria Boulevard Suite P-118 ,,Roseville ,CA,95678,United States,916.788.1200,,,Monday - Friday 11:30am-10:00pm; Saturday 11:00am-10:00pm; Sunday 11:00am-9:00pm,,0
Corte Madera,,223 Corte Madera Town Center ,,Corte Madera ,CA,94925,United States,415.927.4400,,,Monday - Thursday 11:30am-10:00pm; Friday 11:30am-11:00pm; Saturday 9:00am-11:00pm; Sunday 9:00am-10:00pm; Monday - Friday 6:30am-4:00pm; Saturday - Sunday 8:00am-4:00pm,,0
Reston,,Reston Town Center 11990 Market Street Suite 106 ,,Reston ,VA,20190,United States,703.437.5544,,,Monday - Thursday 11:30am-10:00pm; Friday 11:30am-11:00pm; Saturday 11:00am-11:00pm; Sunday 10:00am-10:00pm; Parking in the Midtown Garage will always be 2 hours free for our guests. Please check in with us when you arrive.,,0
Del Mar,,Del Mar Plaza 1555 Camino Del Mar Suite 301 ,,Del Mar ,CA,92014,United States,858.755.8876,,,Monday - Thursday 11:30am-9:00pm ; Friday 11:30am-10:00pm ; Saturday 11:00am-10:00pm ; Sunday 11:00am-9:00pm,,0
SANTA CLARA,,2752 Augustine Drive Suite 120 ,,Santa Clara ,CA,95054,United States,408.217.8844,,,Monday - Sunday 11:30am-10:00pm,,0
Burlingame,,327 Lorton Avenue ,,Burlingame ,CA,94010,United States,650.375.8000,,,Monday - Thursday 11:30am-10:00pm; Friday 11:30am-11:00pm; Saturday 10:00am-11:00pm; Sunday 9:00am-10:00pm,,0
Coronado,,1333 First Street (next to the Coronado Ferry Plaza) ,,Coronado ,CA,92118,United States,619.437.4911,,,Monday - Friday 11:30am-10:00pm; Saturday - Sunday 10:30am-10:00pm,,0
Carmel by the Sea,,(at the Pine Inn) Ocean Avenue at Monte Verde St. P.O. Box 5655 ,,Carmel by the Sea ,CA,93921,United States,831.622.5100,,,Monday - Friday 8:00am-10:00am; Saturday - Sunday 9:00am-2:00pm; Monday - Friday 11:30am-4:00pm; Saturday - Sunday 11:00am-4:00pm; Sunday - Thursday 4:00pm-9:00pm; Friday - Saturday 4:00pm-10:00pm; Monday - Sunday 7:00am-5:00pm,,0
Irvine,,18051 Von Karman Avenue ,,Irvine ,CA,92612,United States,949.261.1444,,,Monday - Thursday 11:30am-10:00pm; Friday - Saturday 11:30am-11:00pm; Sunday 5:00pm-10:00pm; Monday - Friday 6:30am-4:00pm,,0
Beverly Hills,,301 North Beverly Drive ,,Beverly Hills ,CA,90210,United States,310.550.8330,,,Monday - Thursday 7:00am-10:00pm; Friday 7:00am-11:00pm; Saturday 7:00am-11:00pm; Sunday 7:00am-10:00pm; Monday - Friday 7:00am-4:30pm; Saturday - Sunday 7:00am-4:30pm,,0
