store_name,store_number,address,address2,city,state,zip_code,country,phone_number,latitude,longitude,store_hours,other_fields,coming_soon
Studemont,,1440 Studemont Street,,Houston,TX,77007,United States,(832) 708-2286,,,Sun - Sat:6:00 AM - 1:00 AM; Sun:10:00 AM - 5:00 PM; Mon:9:00 AM - 9:00 PM; Tue:9:00 AM - 9:00 PM; Wed:9:00 AM - 9:00 PM; Thu:9:00 AM - 9:00 PM; Fri:9:00 AM - 9:00 PM; Sat:9:00 AM - 7:00 PM; ,,0
Montrose,,3300 Montrose Blvd,,Houston,TX,77006,United States,(713) 526-7865,,,Sun - Sat:24 hours; Sun:10:00 AM - 5:00 PM; Mon:9:00 AM - 9:00 PM; Tue:9:00 AM - 9:00 PM; Wed:9:00 AM - 9:00 PM; Thu:9:00 AM - 9:00 PM; Fri:9:00 AM - 9:00 PM; Sat:9:00 AM - 7:00 PM; ,,0
River Oaks,,1938 W Gray St,,Houston,TX,77019,United States,(713) 521-1909,,,Sun - Sat:24 hours; Sun:10:00 AM - 5:00 PM; Mon:9:00 AM - 9:00 PM; Tue:9:00 AM - 9:00 PM; Wed:9:00 AM - 9:00 PM; Thu:9:00 AM - 9:00 PM; Fri:9:00 AM - 9:00 PM; Sat:9:00 AM - 7:00 PM; ,,0
Polk,,4000 Polk St,,Houston,TX,77023,United States,(713) 224-5105,,,Sun - Sat:6:00 AM - Midnight; ,,0
Shepherd,,1035 N Shepherd Dr,,Houston,TX,77008,United States,(713) 880-4496,,,Sun - Sat:24 hours; Sun:10:00 AM - 5:00 PM; Mon:9:00 AM - 9:00 PM; Tue:9:00 AM - 9:00 PM; Wed:9:00 AM - 9:00 PM; Thu:9:00 AM - 9:00 PM; Fri:9:00 AM - 9:00 PM; Sat:9:00 AM - 7:00 PM; ,,0
Heights Plaza,,239 W 20Th St,,Houston,TX,77008,United States,(713) 862-6659,,,Sun - Sat:6:00 AM - Midnight; ,,0
Buffalo Speedway,,5150 Buffalo Speedway,,Houston,TX,77005,United States,(713) 661-8305,,,Sun - Sat:24 hours; Sun:10:00 AM - 5:00 PM; Mon:9:00 AM - 9:00 PM; Tue:9:00 AM - 9:00 PM; Wed:9:00 AM - 9:00 PM; Thu:9:00 AM - 9:00 PM; Fri:9:00 AM - 9:00 PM; Sat:9:00 AM - 7:00 PM; ,,0
Kirby,,7747 Kirby Dr,,Houston,TX,77030,United States,(713) 661-7175,,,Sun - Sat:6:00 AM - 1:00 AM; Sun:10:00 AM - 5:00 PM; Mon:9:00 AM - 9:00 PM; Tue:9:00 AM - 9:00 PM; Wed:9:00 AM - 9:00 PM; Thu:9:00 AM - 9:00 PM; Fri:9:00 AM - 9:00 PM; Sat:9:00 AM - 7:00 PM; ,,0
Oak Forest,,1352 W 43Rd St,,Houston,TX,77018,United States,(713) 681-0901,,,Sun - Sat:24 hours; Sun:10:00 AM - 5:00 PM; Mon:9:00 AM - 9:00 PM; Tue:9:00 AM - 9:00 PM; Wed:9:00 AM - 9:00 PM; Thu:9:00 AM - 9:00 PM; Fri:9:00 AM - 9:00 PM; Sat:9:00 AM - 7:00 PM; ,,0
Wirt,,1505 Wirt Rd,,Houston,TX,77055,United States,(713) 722-9800,,,Sun - Sat:6:00 AM - 1:00 AM; Sun:10:00 AM - 5:00 PM; Mon:9:00 AM - 9:00 PM; Tue:9:00 AM - 9:00 PM; Wed:9:00 AM - 9:00 PM; Thu:9:00 AM - 9:00 PM; Fri:9:00 AM - 9:00 PM; Sat:9:00 AM - 7:00 PM; ,,0
Telephone Road,,6322 Telephone Rd,,Houston,TX,77087,United States,(713) 644-5434,,,Sun - Sat:6:00 AM - 1:00 AM; Sun:10:00 AM - 5:00 PM; Mon:9:00 AM - 9:00 PM; Tue:9:00 AM - 9:00 PM; Wed:9:00 AM - 9:00 PM; Thu:9:00 AM - 9:00 PM; Fri:9:00 AM - 9:00 PM; Sat:9:00 AM - 7:00 PM; ,,0
Voss,,1801 S Voss Rd,,Houston,TX,77057,United States,(713) 780-7497,,,Sun - Sat:24 hours; Sun:10:00 AM - 5:00 PM; Mon:9:00 AM - 9:00 PM; Tue:9:00 AM - 9:00 PM; Wed:9:00 AM - 9:00 PM; Thu:9:00 AM - 9:00 PM; Fri:9:00 AM - 9:00 PM; Sat:9:00 AM - 7:00 PM; ,,0
Meyerland,,10306 S Post Oak Rd,,Houston,TX,77035,United States,(713) 721-7691,,,Sun - Sat:24 hours; Sun:10:00 AM - 5:00 PM; Mon:8:00 AM - 9:00 PM; Tue:8:00 AM - 9:00 PM; Wed:8:00 AM - 9:00 PM; Thu:8:00 AM - 9:00 PM; Fri:8:00 AM - 9:00 PM; Sat:9:00 AM - 7:00 PM; ,,0
Echo Lane,,9325 Katy Fwy,,Houston,TX,77024,United States,(713) 461-7754,,,Sun - Sat:6:00 AM - 1:00 AM; ,,0
Woodforest,,12620 Woodforest Blvd,,Houston,TX,77015,United States,(713) 451-8121,,,Sun - Sat:24 hours; Sun:10:00 AM - 5:00 PM; Mon:9:00 AM - 9:00 PM; Tue:9:00 AM - 9:00 PM; Wed:9:00 AM - 9:00 PM; Thu:9:00 AM - 9:00 PM; Fri:9:00 AM - 9:00 PM; Sat:9:00 AM - 7:00 PM; ,,0
Aldine Mail Rt,,5235 Aldine Mail Rd,,Houston,TX,77039,United States,(281) 442-2508,,,Sun - Sat:6:00 AM - Midnight; Sun:10:00 AM - 5:00 PM; Mon:9:00 AM - 9:00 PM; Tue:9:00 AM - 9:00 PM; Wed:9:00 AM - 9:00 PM; Thu:9:00 AM - 9:00 PM; Fri:9:00 AM - 9:00 PM; Sat:9:00 AM - 7:00 PM; ,,0
Elmside,,9919 Westheimer Rd,,Houston,TX,77042,United States,(713) 532-5566,,,Sun - Sat:6:00 AM - 1:00 AM; Sun:10:00 AM - 5:00 PM; Mon:9:00 AM - 9:00 PM; Tue:9:00 AM - 9:00 PM; Wed:9:00 AM - 9:00 PM; Thu:9:00 AM - 9:00 PM; Fri:9:00 AM - 9:00 PM; Sat:9:00 AM - 7:00 PM; ,,0
Hammerly Plaza,,2300 Gessner Rd,,Houston,TX,77080,United States,(713) 467-9343,,,Sun - Sat:6:00 AM - 1:00 AM; Sun:10:00 AM - 5:00 PM; Mon:9:00 AM - 9:00 PM; Tue:9:00 AM - 9:00 PM; Wed:9:00 AM - 9:00 PM; Thu:9:00 AM - 9:00 PM; Fri:9:00 AM - 9:00 PM; Sat:9:00 AM - 7:00 PM; ,,0
Shadow Creek,,11003 Shadow Creek Pkwy,,Pearland,TX,77584,United States,(281) 669-1230,,,Sun:6:00 AM - 1:30 AM; Mon:6:00 AM - 1:30 AM; Tue:6:00 AM - 1:30 AM; Wed:6:00 AM - 1:30 AM; Thu:6:00 AM - 1:30 AM; Fri:6:00 AM - 1:30 AM; Sat:6:00 AM - 1:00 AM; Sun:10:00 AM - 5:00 PM; Mon:9:00 AM - 9:00 PM; Tue:9:00 AM - 9:00 PM; Wed:9:00 AM - 9:00 PM; Thu:9:00 AM - 9:00 PM; Fri:9:00 AM - 9:00 PM; Sat:9:00 AM - 7:00 PM; ,,0
Antoine Town Center,,12434 State Highway 249,,Houston,TX,77086,United States,(281) 272-0005,,,Sun - Sat:6:00 AM - 1:00 AM; Sun:10:00 AM - 5:00 PM; Mon:9:00 AM - 9:00 PM; Tue:9:00 AM - 9:00 PM; Wed:9:00 AM - 9:00 PM; Thu:9:00 AM - 9:00 PM; Fri:9:00 AM - 9:00 PM; Sat:9:00 AM - 7:00 PM; ,,0
Kroger Junction,,2619 Red Bluff Rd,,Pasadena,TX,77506,United States,(713) 475-0925,,,Sun - Sat:6:00 AM - 1:00 AM; Sun:10:00 AM - 5:00 PM; Mon:9:00 AM - 9:00 PM; Tue:9:00 AM - 9:00 PM; Wed:9:00 AM - 9:00 PM; Thu:9:00 AM - 9:00 PM; Fri:9:00 AM - 9:00 PM; Sat:9:00 AM - 7:00 PM; ,,0
Spencer Square,,3550 Spencer Hwy,,Pasadena,TX,77504,United States,(713) 944-4555,,,Sun - Sat:6:00 AM - 1:00 AM; Sun:10:00 AM - 5:00 PM; Mon:9:00 AM - 9:00 PM; Tue:9:00 AM - 9:00 PM; Wed:9:00 AM - 9:00 PM; Thu:9:00 AM - 9:00 PM; Fri:9:00 AM - 9:00 PM; Sat:9:00 AM - 7:00 PM; ,,0
Channelview,,14710 Woodforest Blvd,,Houston,TX,77015,United States,(713) 453-1175,,,Sun - Sat:6:00 AM - 1:00 AM; Sun:10:00 AM - 5:00 PM; Mon:9:00 AM - 9:00 PM; Tue:9:00 AM - 9:00 PM; Wed:9:00 AM - 9:00 PM; Thu:9:00 AM - 9:00 PM; Fri:9:00 AM - 9:00 PM; Sat:9:00 AM - 7:00 PM; ,,0
Country Place,,14344 Memorial Dr,,Houston,TX,77079,United States,(281) 493-1702,,,Sun - Sat:6:00 AM - 1:00 AM; Sun:10:00 AM - 5:00 PM; Mon:9:00 AM - 9:00 PM; Tue:9:00 AM - 9:00 PM; Wed:9:00 AM - 9:00 PM; Thu:9:00 AM - 9:00 PM; Fri:9:00 AM - 9:00 PM; Sat:9:00 AM - 7:00 PM; ,,0
Cullen,,8323 Broadway St,,Pearland,TX,77581,United States,(281) 997-6400,,,Sun - Sat:6:00 AM - 1:00 AM; Sun:10:00 AM - 5:00 PM; Mon:9:00 AM - 9:00 PM; Tue:9:00 AM - 9:00 PM; Wed:9:00 AM - 9:00 PM; Thu:9:00 AM - 9:00 PM; Fri:9:00 AM - 9:00 PM; Sat:9:00 AM - 7:00 PM; ,,0
Dairy Ashford,,12555 Briar Forest Dr,,Houston,TX,77077,United States,(281) 496-9186,,,Sun - Sat:6:00 AM - 1:00 AM; Sun:10:00 AM - 5:00 PM; Mon:9:00 AM - 9:00 PM; Tue:9:00 AM - 9:00 PM; Wed:9:00 AM - 9:00 PM; Thu:9:00 AM - 9:00 PM; Fri:9:00 AM - 9:00 PM; Sat:9:00 AM - 7:00 PM; ,,0
Sabo,,11701 S Sam Houston Pkwy E,,Houston,TX,77089,United States,(281) 484-7754,,,Sun - Sat:6:00 AM - 1:00 AM; Sun:10:00 AM - 5:00 PM; Mon:9:00 AM - 9:00 PM; Tue:9:00 AM - 9:00 PM; Wed:9:00 AM - 9:00 PM; Thu:9:00 AM - 9:00 PM; Fri:9:00 AM - 9:00 PM; Sat:9:00 AM - 7:00 PM; ,,0
Beltway 8 & West,,9125 W Sam Houston Pkwy N,,Houston,TX,77064,United States,(281) 477-0701,,,Sun - Sat:6:00 AM - 1:00 AM; Sun:10:00 AM - 5:00 PM; Mon:9:00 AM - 9:00 PM; Tue:9:00 AM - 9:00 PM; Wed:9:00 AM - 9:00 PM; Thu:9:00 AM - 9:00 PM; Fri:9:00 AM - 9:00 PM; Sat:9:00 AM - 7:00 PM; ,,0
Old Pearland,,3245 Fm 518,,Pearland,TX,77581,United States,(281) 485-6014,,,Sun - Sat:6:00 AM - 1:00 AM; Sun:10:00 AM - 5:00 PM; Mon:9:00 AM - 9:00 PM; Tue:9:00 AM - 9:00 PM; Wed:9:00 AM - 9:00 PM; Thu:8:00 AM - 9:00 PM; Fri:9:00 AM - 9:00 PM; Sat:9:00 AM - 7:00 PM; ,,0
Summerwood,,"14221 E Sam Houston Pkwy, N",,Houston,TX,77044,United States,(281) 670-2057,,,Sun - Sat:6:00 AM - 1:00 AM; Sun:10:00 AM - 5:00 PM; Mon:9:00 AM - 9:00 PM; Tue:9:00 AM - 9:00 PM; Wed:9:00 AM - 9:00 PM; Thu:9:00 AM - 9:00 PM; Fri:9:00 AM - 9:00 PM; Sat:9:00 AM - 7:00 PM; ,,0
Briar Forest,,1520 Eldridge Pkwy,,Houston,TX,77077,United States,(281) 496-6063,,,Sun - Sat:24 hours; Sun:10:00 AM - 5:00 PM; Mon:9:00 AM - 9:00 PM; Tue:9:00 AM - 9:00 PM; Wed:9:00 AM - 9:00 PM; Thu:9:00 AM - 9:00 PM; Fri:9:00 AM - 9:00 PM; Sat:9:00 AM - 7:00 PM; ,,0
Red Bluff,,6767 Spencer Hwy,,Pasadena,TX,77505,United States,(281) 998-2561,,,Sun - Sat:6:00 AM - 1:00 AM; Sun:10:00 AM - 5:00 PM; Mon:9:00 AM - 9:00 PM; Tue:9:00 AM - 9:00 PM; Wed:9:00 AM - 9:00 PM; Thu:9:00 AM - 9:00 PM; Fri:9:00 AM - 9:00 PM; Sat:9:00 AM - 7:00 PM; ,,0
Eldridge Lakes Town Center,,6350 N Eldridge Pkwy,,Houston,TX,77041,United States,(713) 896-6101,,,Sun - Sat:6:00 AM - 1:00 AM; Sun:10:00 AM - 5:00 PM; Mon:9:00 AM - 9:00 PM; Tue:9:00 AM - 9:00 PM; Wed:9:00 AM - 9:00 PM; Thu:9:00 AM - 9:00 PM; Fri:9:00 AM - 9:00 PM; Sat:9:00 AM - 7:00 PM; ,,0
Jersey Village,,9330 Jones Rd,,Houston,TX,77065,United States,(281) 894-7094,,,Sun - Sat:6:00 AM - 1:00 AM; Sun:10:00 AM - 6:00 PM; Mon:8:00 AM - 11:00 PM; Tue:8:00 AM - 11:00 PM; Wed:8:00 AM - 11:00 PM; Thu:8:00 AM - 11:00 PM; Fri:8:00 AM - 11:00 PM; Sat:9:00 AM - 7:00 PM; ,,0
Veterans,,13133 Veterans Memorial Dr,,Houston,TX,77014,United States,(281) 440-0522,,,Sun - Sat:6:00 AM - 1:00 AM; Sun:10:00 AM - 5:00 PM; Mon:9:00 AM - 9:00 PM; Tue:9:00 AM - 9:00 PM; Wed:9:00 AM - 9:00 PM; Thu:9:00 AM - 9:00 PM; Fri:9:00 AM - 9:00 PM; Sat:9:00 AM - 7:00 PM; ,,0
Bissonett,,9303 Highway 6 S,,Houston,TX,77083,United States,(713) 474-2100,,,Sun - Sat:6:00 AM - Midnight; Sun:10:00 AM - 5:00 PM; Mon:9:00 AM - 9:00 PM; Tue:9:00 AM - 9:00 PM; Wed:9:00 AM - 9:00 PM; Thu:9:00 AM - 9:00 PM; Fri:9:00 AM - 9:00 PM; Sat:9:00 AM - 7:00 PM; ,,0
Will Clayton,,3820 Atascocita Rd,,Humble,TX,77396,United States,(281) 812-2147,,,Sun - Sat:24 hours; Sun:10:00 AM - 5:00 PM; Mon:9:00 AM - 9:00 PM; Tue:9:00 AM - 9:00 PM; Wed:9:00 AM - 9:00 PM; Thu:9:00 AM - 9:00 PM; Fri:9:00 AM - 9:00 PM; Sat:9:00 AM - 7:00 PM; ,,0
Townsen,,9475 FM 1960 Bypass Rd W,,Humble,TX,77338,United States,(281) 973-5089,,,Sun - Sat:6:00 AM - 1:00 AM; Sun:10:00 AM - 5:00 PM; Mon:9:00 AM - 9:00 PM; Tue:9:00 AM - 9:00 PM; Wed:9:00 AM - 9:00 PM; Thu:9:00 AM - 9:00 PM; Fri:9:00 AM - 9:00 PM; Sat:9:00 AM - 7:00 PM; ,,0
Colony Lakes,,6200 Highway 6,,Missouri City,TX,77459,United States,(281) 208-1737,,,Sun - Sat:6:00 AM - 1:00 AM; Sun:10:00 AM - 5:00 PM; Mon:9:00 AM - 9:00 PM; Tue:9:00 AM - 9:00 PM; Wed:9:00 AM - 9:00 PM; Thu:9:00 AM - 9:00 PM; Fri:9:00 AM - 9:00 PM; Sat:9:00 AM - 7:00 PM; ,,0
1960/Eldridge,,12400 Fm 1960 Rd W,,Houston,TX,77065,United States,(832) 237-4860,,,Sun - Sat:6:00 AM - 1:00 AM; Sun:10:00 AM - 5:00 PM; Mon:9:00 AM - 9:00 PM; Tue:9:00 AM - 9:00 PM; Wed:9:00 AM - 9:00 PM; Thu:9:00 AM - 9:00 PM; Fri:9:00 AM - 9:00 PM; Sat:9:00 AM - 7:00 PM; ,,0
Ft. Bend Tollway,,10250 Highway 6,,Missouri City,TX,77459,United States,(281) 431-6112,,,Sun - Sat:6:00 AM - 1:00 AM; Sun:10:00 AM - 5:00 PM; Mon:9:00 AM - 9:00 PM; Tue:9:00 AM - 9:00 PM; Wed:9:00 AM - 9:00 PM; Thu:9:00 AM - 9:00 PM; Fri:9:00 AM - 9:00 PM; Sat:9:00 AM - 7:00 PM; ,,0
Hearthstone,,6160 Highway 6 N,,Houston,TX,77084,United States,(281) 345-1264,,,Sun - Sat:6:00 AM - 1:00 AM; Sun:10:00 AM - 5:00 PM; Mon:9:00 AM - 9:00 PM; Tue:9:00 AM - 9:00 PM; Wed:9:00 AM - 9:00 PM; Thu:9:00 AM - 9:00 PM; Fri:9:00 AM - 9:00 PM; Sat:9:00 AM - 7:00 PM; ,,0
Cypress N Houston,,12222 Jones Rd,,Houston,TX,77070,United States,(832) 912-7474,,,Sun - Sat:6:00 AM - 1:00 AM; Sun:10:00 AM - 5:00 PM; Mon:9:00 AM - 9:00 PM; Tue:9:00 AM - 9:00 PM; Wed:9:00 AM - 9:00 PM; Thu:9:00 AM - 9:00 PM; Fri:9:00 AM - 9:00 PM; Sat:9:00 AM - 7:00 PM; ,,0
Old Friendswood,,151 N Friendswood Dr,,Friendswood,TX,77546,United States,(281) 992-0830,,,Sun - Sat:6:00 AM - 1:00 AM; Sun:10:00 AM - 5:00 PM; Mon:9:00 AM - 9:00 PM; Tue:9:00 AM - 9:00 PM; Wed:9:00 AM - 9:00 PM; Thu:9:00 AM - 9:00 PM; Fri:9:00 AM - 9:00 PM; Sat:9:00 AM - 7:00 PM; ,,0
Cypress Station,,360 Cypress Creek Pkwy,,Houston,TX,77090,United States,(281) 397-6633,,,Sun - Sat:6:00 AM - Midnight; Sun:10:00 AM - 5:00 PM; Mon:9:00 AM - 9:00 PM; Tue:9:00 AM - 9:00 PM; Wed:9:00 AM - 9:00 PM; Thu:9:00 AM - 9:00 PM; Fri:9:00 AM - 9:00 PM; Sat:9:00 AM - 7:00 PM; ,,0
West Airport,,11565 S Highway 6,,Sugar Land,TX,77498,United States,(281) 340-1500,,,Sun - Sat:6:00 AM - 1:00 AM; Sun:10:00 AM - 5:00 PM; Mon:9:00 AM - 9:00 PM; Tue:9:00 AM - 9:00 PM; Wed:9:00 AM - 9:00 PM; Thu:9:00 AM - 9:00 PM; Fri:9:00 AM - 9:00 PM; Sat:9:00 AM - 7:00 PM; ,,0
Easton Commons,,8550 Highway 6 North @ West Road,,Houston,TX,77095,United States,(281) 463-4573,,,Sun - Sat:24 hours; Sun:10:00 AM - 5:00 PM; Mon:9:00 AM - 9:00 PM; Tue:9:00 AM - 9:00 PM; Wed:9:00 AM - 9:00 PM; Thu:9:00 AM - 9:00 PM; Fri:9:00 AM - 9:00 PM; Sat:9:00 AM - 7:00 PM; ,,0
Clodine,,6425 FM 1464 Rd,,Richmond,TX,77407,United States,(281) 277-5353,,,Sun - Sat:6:00 AM - 1:00 AM; Sun:10:00 AM - 5:00 PM; Mon:9:00 AM - 9:00 PM; Tue:9:00 AM - 9:00 PM; Wed:9:00 AM - 9:00 PM; Thu:9:00 AM - 9:00 PM; Fri:9:00 AM - 9:00 PM; Sat:9:00 AM - 7:00 PM; ,,0
Champion,,15802 Champion Forest Dr,,Spring,TX,77379,United States,(281) 370-9530,,,Sun - Sat:6:00 AM - 1:00 AM; Sun:10:00 AM - 5:00 PM; Mon:9:00 AM - 9:00 PM; Tue:9:00 AM - 9:00 PM; Wed:9:00 AM - 9:00 PM; Thu:9:00 AM - 9:00 PM; Fri:9:00 AM - 9:00 PM; Sat:9:00 AM - 7:00 PM; ,,0
249 & Cypresswood,,10010 Cypresswood Dr,,Houston,TX,77070,United States,(281) 807-9095,,,Sun - Sat:6:00 AM - 1:00 AM; Sun:10:00 AM - 5:00 PM; Mon:9:00 AM - 9:00 PM; Tue:9:00 AM - 9:00 PM; Wed:9:00 AM - 9:00 PM; Thu:9:00 AM - 9:00 PM; Fri:9:00 AM - 9:00 PM; Sat:9:00 AM - 7:00 PM; ,,0
