store_name,store_number,address,address2,city,state,zip_code,country,phone_number,latitude,longitude,store_hours,other_fields,coming_soon
Pinch A Penny Pool Patio Spa,173,464006 SR-200,,Yulee,FL,32097,United States,(904) 321-4133,30.621516,-81.53512,Mo 09:00-18:00; Tu 09:00-18:00; We 09:00-18:00; Th 09:00-18:00; Fr 09:00-18:00; Sa 09:00-17:00; Su 10:00-16:00,,0
Pinch A Penny Pool Patio Spa,218,731 Duval Station Rd,Unit 113,Jacksonville,FL,32218,United States,(904) 379-3621,30.485494,-81.605401,Mo 09:00-19:00; Tu 09:00-19:00; We 09:00-19:00; Th 09:00-19:00; Fr 09:00-19:00; Sa 09:00-18:00; Su 10:00-17:00,,0
Pinch A Penny Pool Patio Spa,71,700 3rd St S,,Jacksonville Beach,FL,32250,United States,(904) 247-0938,30.281379,-81.390833,Mo 09:00-18:00; Tu 09:00-18:00; We 09:00-18:00; Th 09:00-18:00; Fr 09:00-18:00; Sa 09:00-17:00; Su 11:00-16:00,,0
Pinch A Penny Pool Patio Spa,145,12220-117 Atlantic Blvd.,,Jacksonville,FL,32225,United States,(904) 220-9490,30.317557,-81.487998,Mo 09:00-18:00; Tu 09:00-18:00; We 09:00-18:00; Th 09:00-18:00; Fr 09:00-18:00; Sa 09:00-17:00; Su 11:00-16:00,,0
Pinch A Penny Pool Patio Spa,31,33 Arlington Rd S,,Jacksonville,FL,32216,United States,(904) 724-1786,30.312201,-81.578123,Mo 09:00-18:00; Tu 09:00-18:00; We 09:00-18:00; Th 09:00-18:00; Fr 09:00-18:00; Sa 09:00-17:00; Su 11:00-16:00,,0
Pinch A Penny Pool Patio Spa,176,886 A1A N,Ste. 1,Ponte Vedra Beach,FL,32082,United States,(904) 280-0025,30.18889,-81.380518,Mo 09:00-18:00; Tu 09:00-18:00; We 09:00-18:00; Th 09:00-18:00; Fr 09:00-18:00; Sa 09:00-17:00; Su 11:00-16:00,,0
Pinch A Penny Pool Patio Spa,221,2777 University Blvd W,Unit 36,Jacksonville,FL,32217,United States,(904) 443-9038,30.261955,-81.630228,Mo 09:00-18:00; Tu 09:00-18:00; We 09:00-18:00; Th 09:00-18:00; Fr 09:00-18:00; Sa 09:00-17:00; Su 11:00-16:00,,0
Pinch A Penny Pool Patio Spa,197,4530 Saint Johns Ave,,Jacksonville,FL,32210,United States,(904) 527-1601,30.287893,-81.721464,Mo 09:00-18:00; Tu 09:00-18:00; We 09:00-18:00; Th 09:00-18:00; Fr 09:00-18:00; Sa 09:00-17:00; Su 11:00-15:00,,0
Pinch A Penny Pool Patio Spa,80,8257 Normandy Blvd,,Jacksonville,FL,32221,United States,(904) 695-0660,30.291389,-81.786243,Mo 09:00-19:00; Tu 09:00-19:00; We 09:00-19:00; Th 09:00-19:00; Fr 09:00-19:00; Sa 09:00-18:00; Su 11:00-16:00,,0
Pinch A Penny Pool Patio Spa,70,11112 San Jose Blvd,,East Mandarin,FL,32223,United States,(904) 268-9561,30.17508,-81.629912,Mo 09:00-19:00; Tu 09:00-19:00; We 09:00-19:00; Th 09:00-19:00; Fr 09:00-19:00; Sa 09:00-18:00; Su 11:00-17:00,,0
Pinch A Penny Pool Patio Spa,116,7859 Pine Forest Rd,,Pensacola,FL,32526,United States,(850) 941-1699,30.515559,-87.312812,Mo 09:00-18:00; Tu 09:00-18:00; We 09:00-18:00; Th 09:00-18:00; Fr 09:00-18:00; Sa 09:00-18:00; Su 11:00-15:00,,0
Pinch A Penny Pool Patio Spa,79,8090 N 9th Ave,,Pensacola,FL,32514,United States,(850) 484-3631,30.510991,-87.184686,Mo 09:00-18:00; Tu 09:00-18:00; We 09:00-18:00; Th 09:00-18:00; Fr 09:00-18:00; Sa 09:00-18:00; Su 11:00-15:00,,0
Pinch A Penny Pool Patio Spa,196,4423 W Fairfield Dr,,Pensacola,FL,32506,United States,(850) 637-1918,30.43349,-87.277681,Mo 09:00-18:00; Tu 09:00-18:00; We 09:00-18:00; Th 09:00-18:00; Fr 09:00-18:00; Sa 09:00-17:00; Su 13:00-17:00,,0
Pinch A Penny Pool Patio Spa,120,3307 Gulf Breeze Pkwy,,Gulf Breeze,FL,32563,United States,(850) 916-9816,30.385958,-87.085838,Mo 09:00-18:00; Tu 09:00-18:00; We 09:00-18:00; Th 09:00-18:00; Fr 09:00-18:00; Sa 09:00-18:00; Su 11:00-15:00,,0
Pinch A Penny Pool Patio Spa,109,737 N Beal Pkwy,,Fort Walton Beach,FL,32547,United States,(850) 864-3640,30.439202,-86.638065,Mo 09:00-18:00; Tu 09:00-18:00; We 09:00-18:00; Th 09:00-18:00; Fr 09:00-18:00; Sa 09:00-17:00; Su 11:00-15:00,,0
Pinch A Penny Pool Patio Spa,94,1435 Westgate Pkwy,,Dothan,AL,36303,United States,(334) 671-7665,31.256366,-85.434504,Mo 09:00-18:00; Tu 09:00-18:00; We 09:00-18:00; Th 09:00-18:00; Fr 09:00-18:00; Sa 09:00-17:00; Su 13:00-17:00,,0
Pinch A Penny Pool Patio Spa,46,2410 W 23rd St,,Panama City,FL,32405,United States,(850) 769-4771,30.190285,-85.695464,,,0
Pinch A Penny Pool Patio Spa,102,3720 N Monroe St,,Tallahassee,FL,32303,United States,(850) 562-5330,30.499123,-84.328071,Mo 09:00-18:00; Tu 09:00-18:00; We 09:00-18:00; Th 09:00-18:00; Fr 09:00-18:00; Sa 09:00-17:00; Su 11:00-17:00,,0
Pinch A Penny Pool Patio Spa,186,6668 Thomasville Rd,,Tallahassee,FL,32312,United States,(850) 222-4600,30.561396,-84.22007,Mo 09:00-19:00; Tu 09:00-19:00; We 09:00-19:00; Th 09:00-19:00; Fr 09:00-19:00; Sa 09:00-18:00; Su 10:00-17:00,,0
Pinch A Penny Pool Patio Spa,49,2473 Greer Rd,,Tallahassee,FL,32308,United States,(850) 385-8197,30.485862,-84.236343,Mo 09:00-18:00; Tu 09:00-18:00; We 09:00-18:00; Th 09:00-18:00; Fr 09:00-18:00; Sa 09:00-17:00; Su 11:00-15:00,,0
Pinch A Penny Pool Patio Spa,30,502 Wells Rd,,Orange Park,FL,32073,United States,(904) 269-4401,30.184749,-81.704329,Mo 09:00-18:00; Tu 09:00-18:00; We 09:00-18:00; Th 09:00-18:00; Fr 09:00-18:00; Sa 09:00-17:00; Su 11:00-16:00,,0
Pinch A Penny Pool Patio Spa,148,625 SR-13,,Jacksonville,FL,32259,United States,(904) 230-9299,30.114383,-81.625535,Mo 09:00-18:00; Tu 09:00-18:00; We 09:00-18:00; Th 09:00-18:00; Fr 09:00-18:00; Sa 09:00-17:00; Su 11:00-16:00,,0
Pinch A Penny Pool Patio Spa,209,3055 CR-210 W,Ste. 103,St. Johns,FL,32259,United States,(904) 217-7827,30.057894,-81.535155,Mo 09:00-18:00; Tu 09:00-18:00; We 09:00-18:00; Th 09:00-18:00; Fr 09:00-18:00; Sa 09:00-17:00; Su 11:00-16:00,,0
Pinch A Penny Pool Patio Spa,90,783 Blanding Blvd,,Orange Park,FL,32065,United States,(904) 276-2954,30.144129,-81.762646,Mo 09:00-18:00; Tu 09:00-18:00; We 09:00-18:00; Th 09:00-18:00; Fr 09:00-18:00; Sa 09:00-17:00; Su 10:00-16:00,,0
Pinch A Penny Pool Patio Spa,39,1740 A1a S,,Saint Augustine,FL,32080,United States,(904) 471-6294,29.865223,-81.281828,Mo 09:00-18:00; Tu 09:00-18:00; We 09:00-18:00; Th 09:00-18:00; Fr 09:00-18:00; Sa 09:00-17:00; Su 11:00-15:00,,0
Pinch A Penny Pool Patio Spa,168,1615 CR-220,,Orange Park,FL,32003,United States,(904) 278-7665,30.100881,-81.716339,Mo 09:00-18:00; Tu 09:00-18:00; We 09:00-18:00; Th 09:00-18:00; Fr 09:00-18:00; Sa 09:00-17:00; Su 11:00-16:00,,0
Pinch A Penny Pool Patio Spa,170,4010 US-1 S,,Saint Augustine,FL,32086,United States,(904) 794-6767,29.8188,-81.322273,Mo 09:00-18:00; Tu 09:00-18:00; We 09:00-18:00; Th 09:00-18:00; Fr 09:00-18:00; Sa 09:00-17:00; Su 10:00-15:00,,0
Pinch A Penny Pool Patio Spa,214,2710 Blanding Blvd,Ste. 301,Middleburg,FL,32068,United States,(904) 214-3640,30.060741,-81.878464,Mo 09:00-18:00; Tu 09:00-18:00; We 09:00-18:00; Th 09:00-18:00; Fr 09:00-18:00; Sa 09:00-17:00; Su 11:00-15:00,,0
Pinch A Penny Pool Patio Spa,78,3469 Bemiss Rd,,Valdosta,GA,31605,United States,(229) 245-1904,30.888649,-83.270669,Mo 09:00-18:00; Tu 09:00-18:00; We 09:00-18:00; Th 09:00-18:00; Fr 09:00-18:00; Sa 09:00-17:00; Su 12:00-16:00,,0
Pinch A Penny Pool Patio Spa,84,7 Old Kings Rd N,Unit 36,Palm Coast,FL,32137,United States,(386) 446-1003,29.555674,-81.214616,Mo 09:00-18:00; Tu 09:00-18:00; We 09:00-18:00; Th 09:00-18:00; Fr 09:00-18:00; Sa 09:00-17:00; Su 10:00-14:00,,0
Pinch A Penny Pool Patio Spa,219,4855 S Sherwood Forest Blvd,,Baton Rouge,LA,70816,United States,(225) 412-4243,30.41029,-91.050841,Mo 09:00-18:00; Tu 09:00-18:00; We 09:00-18:00; Th 09:00-18:00; Fr 09:00-18:00; Sa 09:00-17:00; Su 10:00-15:00,,0
Pinch A Penny Pool Patio Spa,226,37436 Ultima Plaza Blvd.,Ste. F & G,Prairieville,LA,70769,United States,(225) 402-4270,30.335013,-90.985995,Mo 09:00-18:00; Tu 09:00-18:00; We 09:00-18:00; Th 09:00-18:00; Fr 09:00-18:00; Sa 09:00-18:00; Su 11:00-15:00,,0
Pinch A Penny Pool Patio Spa,228,30340 FM 2978 Rd,Unit 740,Magnolia,TX,77354,United States,(281) 305-4725,30.18954,-95.590973,Mo 09:00-18:00; Tu 09:00-18:00; We 09:00-18:00; Th 09:00-18:00; Fr 09:00-18:00; Sa 09:00-17:00; Su 11:00-16:00,,0
Pinch A Penny Pool Patio Spa,237,18486 Kuykendahl Road,,Spring,TX,77379,United States,,30.038459,-95.487104,,,0
Pinch A Penny Pool Patio Spa,233,13050 Louetta Road,Suite 210,Cypress,TX,77429,United States,(346) 808-7952,29.996149,-95.621843,Mo 09:00-18:00; Tu 09:00-18:00; We 09:00-18:00; Th 09:00-18:00; Fr 09:00-18:00; Sa 09:00-17:00; Su 10:00-15:00,,0
Pinch A Penny Pool Patio Spa,235,8945 HWY 6 North Suite # 260,,Houston,TX,77095,United States,713-303-9360,29.908808,-95.631117,Mo 09:00-18:00; Tu 09:00-18:00; We 09:00-18:00; Th 09:00-18:00; Fr 09:00-18:00; Sa 09:00-17:00; Su 10:00-16:00,,0
Pinch A Penny Pool Patio Spa,125,30 Schillinger Rd N,,Mobile,AL,36608,United States,(251) 634-0684,30.690636,-88.224968,Mo 09:00-18:00; Tu 09:00-18:00; We 09:00-18:00; Th 09:00-18:00; Fr 09:00-18:00; Sa 09:00-18:00; Su 11:00-15:00,,0
Pinch A Penny Pool Patio Spa,231,12225 Westheimer Road Unit D,,Houston,TX,77077,United States,(281) 616-5956,29.73577,-95.596532,Mo 09:00-18:00; Tu 09:00-18:00; We 09:00-18:00; Th 09:00-18:00; Fr 09:00-18:00; Sa 09:00-17:00; Su 11:00-15:00,,0
Pinch A Penny Pool Patio Spa,234,9722 Gaston Road,Suite #180,Katy,TX,77494,United States,281-665-8642,29.735803,-95.812493,,,0
Pinch A Penny Pool Patio Spa,229,3302 State Highway 6,,Sugar Land,TX,77479,United States,(832) 532-2500,29.590749,-95.604906,Mo 09:00-19:00; Tu 09:00-19:00; We 09:00-19:00; Th 09:00-19:00; Fr 09:00-19:00; Sa 09:00-19:00; Su 11:00-17:00,,0
Pinch A Penny Pool Patio Spa,213,1549 W 49th St,,Hialeah,FL,33012,United States,(305) 827-0950,25.867873,-80.313516,Mo 09:00-19:00; Tu 09:00-19:00; We 09:00-19:00; Th 09:00-19:00; Fr 09:00-19:00; Sa 09:00-18:00; Su 10:00-15:00,,0
Pinch A Penny Pool Patio Spa,44,6605 Taft St,,Hollywood,FL,33024,United States,(954) 987-7422,26.025769,-80.221222,Mo 09:00-19:00; Tu 09:00-19:00; We 09:00-19:00; Th 09:00-19:00; Fr 09:00-19:00; Sa 09:00-17:00; Su 10:00-15:00,,0
Pinch A Penny Pool Patio Spa,58,14615 SW 104th St,,Miami,FL,33186,United States,(305) 386-4224,25.671015,-80.430403,Mo 09:00-18:00; Tu 09:00-18:00; We 09:00-18:00; Th 09:00-18:00; Fr 09:00-18:00; Sa 09:00-18:00; Su 10:00-15:00,,0
Pinch A Penny Pool Patio Spa,29,1751 S Dixie Hwy,,Pompano Beach,FL,33060,United States,(954) 782-1105,26.208151,-80.133129,Mo 09:00-19:00; Tu 09:00-19:00; We 09:00-19:00; Th 09:00-19:00; Fr 09:00-18:00; Sa 08:30-17:00; Su 10:00-17:00,,0
Pinch A Penny Pool Patio Spa,207,12794 SW 8th St,,Miami,FL,33184,United States,(305) 228-4777,25.76031,-80.4043,Mo 09:00-19:00; Tu 09:00-19:00; We 09:00-19:00; Th 09:00-19:00; Fr 09:00-19:00; Sa 09:00-18:00; Su 10:00-15:00,,0
Pinch A Penny Pool Patio Spa,232,4758 N Federal Hwy.,,Lighthouse Point,FL,33064,United States,(954) 946-2002,26.289316,-80.094679,Mo 09:00-18:00; Tu 09:00-18:00; We 09:00-18:00; Th 09:00-18:00; Fr 09:00-18:00; Sa 09:00-17:00; Su 10:00-15:00,,0
Pinch A Penny Pool Patio Spa,112,15540 NW 77th Ct,,Miami Lakes,FL,33016,United States,(305) 558-9566,25.914706,-80.326118,Mo 09:00-18:00; Tu 09:00-18:00; We 09:00-18:00; Th 09:00-18:00; Fr 09:00-18:00; Sa 09:00-17:00; Su 10:00-16:00,,0
Pinch A Penny Pool Patio Spa,210,8660 Griffin Rd,,Cooper City,FL,33328,United States,(954) 766-4899,26.06368,-80.261875,Mo 09:00-18:00; Tu 09:00-18:00; We 09:00-18:00; Th 09:00-18:00; Fr 09:00-18:00; Sa 09:00-17:00; Su 10:00-15:00,,0
Pinch A Penny Pool Patio Spa,98,11254 Pines Blvd,,Pembroke Pines,FL,33026,United States,(954) 438-5994,26.00624,-80.297367,Mo 09:00-18:00; Tu 09:00-18:00; We 09:00-18:00; Th 09:00-18:00; Fr 09:00-18:00; Sa 09:00-17:00; Su 10:00-14:00,,0
Pinch A Penny Pool Patio Spa,155,6945 W Broward Blvd,,Plantation,FL,33317,United States,(954) 797-0348,26.122091,-80.240185,Mo 09:00-18:00; Tu 09:00-18:00; We 09:00-18:00; Th 09:00-18:00; Fr 09:00-18:00; Sa 09:00-17:00; Su 11:00-15:00,,0
Pinch A Penny Pool Patio Spa,4,212 E Brandon Blvd,,Brandon,FL,33511,United States,(813) 689-2801,27.938232,-82.283619,Mo 09:00-19:00; Tu 09:00-19:00; We 09:00-19:00; Th 09:00-19:00; Fr 09:00-19:00; Sa 08:00-17:00; Su 11:00-16:00,,0
Pinch A Penny Pool Patio Spa,5,3025 Lakeland Highlands Rd,,Lakeland,FL,33803,United States,(863) 683-3383,28.008139,-81.924775,Mo 09:00-18:00; Tu 09:00-18:00; We 09:00-18:00; Th 09:00-18:00; Fr 09:00-18:00; Sa 09:00-17:00; Su 10:00-14:00,,0
Pinch A Penny Pool Patio Spa,72,3730 Bearss Ave,,Tampa,FL,33618,United States,(813) 968-1176,28.08427,-82.503307,Mo 09:00-18:00; Tu 09:00-18:00; We 09:00-18:00; Th 09:00-18:00; Fr 09:00-18:00; Sa 09:00-17:00; Su 10:00-16:00,,0
Pinch A Penny Pool Patio Spa,182,16214 State Road 54,Unit E600,Odessa,FL,33556,United States,(813) 792-1441,28.186829,-82.546859,Mo 09:00-18:00; Tu 09:00-18:00; We 09:00-18:00; Th 09:00-18:00; Fr 09:00-18:00; Sa 09:00-17:00; Su 11:00-15:00,,0
Pinch A Penny Pool Patio Spa,136,6952 S Florida Ave,,Lakeland,FL,33813,United States,(863) 607-6544,27.938927,-81.972102,Mo 09:00-18:00; Tu 09:00-18:00; We 09:00-18:00; Th 09:00-18:00; Fr 09:00-18:00; Sa 09:00-17:00; Su 10:00-14:00,,0
Pinch A Penny Pool Patio Spa,24,3210 Lithia Pinecrest Rd,,Valrico,FL,33594,United States,(813) 681-6552,27.896005,-82.246978,Mo 09:00-18:00; Tu 09:00-18:00; We 09:00-18:00; Th 09:00-18:00; Fr 09:00-18:00; Sa 09:00-17:00; Su 10:00-14:00,,0
Pinch A Penny Pool Patio Spa,158,6347 US Highway 301 S,,Riverview,FL,33578,United States,(813) 672-7669,27.888822,-82.333613,Mo 09:00-18:00; Tu 09:00-18:00; We 09:00-18:00; Th 09:00-18:00; Fr 09:00-18:00; Sa 09:00-18:00; Su 10:00-14:00,,0
Pinch A Penny Pool Patio Spa,190,16715 Fishhawk Blvd,,Lithia,FL,33761,United States,(813) 655-3700,27.860348,-82.201439,Mo 09:00-18:00; Tu 09:00-18:00; We 09:00-18:00; Th 09:00-18:00; Fr 09:00-18:00; Sa 09:00-18:00; Su 11:00-15:00,,0
Pinch A Penny Pool Patio Spa,6,6202 N Dale Mabry Hwy,,Tampa,FL,33614,United States,(813) 888-7527,28.003916,-82.505672,Mo 08:30-18:00; Tu 08:30-18:00; We 08:30-18:00; Th 08:30-18:00; Fr 08:30-18:00; Sa 09:00-18:00; Su 09:00-16:00,,0
Pinch A Penny Pool Patio Spa,180,7348 Gall Blvd,,Zephyrhills,FL,33541,United States,(813) 782-8220,28.264788,-82.186735,Mo 09:00-18:00; Tu 09:00-18:00; We 09:00-18:00; Th 09:00-18:00; Fr 09:00-18:00; Sa 09:00-17:00; Su 11:00-15:00,,0
Pinch A Penny Pool Patio Spa,153,10944 Cross Creek Blvd,,Tampa,FL,33647,United States,(813) 982-0030,28.144924,-82.282952,Mo 09:00-18:00; Tu 09:00-18:00; We 09:00-18:00; Th 09:00-18:00; Fr 09:00-18:00; Sa 09:00-18:00; Su 10:00-16:00,,0
Pinch A Penny Pool Patio Spa,128,27245 Wesley Chapel Blvd,,Wesley Chapel,FL,33544,United States,(813) 973-1939,28.239916,-82.365276,Mo 09:00-18:00; Tu 09:00-18:00; We 09:00-18:00; Th 09:00-18:00; Fr 09:00-18:00; Sa 09:00-17:00; Su 10:00-15:00,,0
Pinch A Penny Pool Patio Spa,139,19064 Bruce B Downs Blvd,,Tampa,FL,33647,United States,(813) 866-1438,28.146296,-82.354545,Mo 09:00-18:00; Tu 09:00-18:00; We 09:00-18:00; Th 09:00-18:00; Fr 09:00-18:00; Sa 09:00-18:00; Su 10:00-15:00,,0
Pinch A Penny Pool Patio Spa,95,6140 US-98 N,,Lakeland,FL,33809,United States,(863) 858-3404,28.121499,-81.975303,Mo 09:00-18:00; Tu 09:00-18:00; We 09:00-18:00; Th 09:00-18:00; Fr 09:00-18:00; Sa 09:00-17:00; Su 10:00-16:00,,0
Pinch A Penny Pool Patio Spa,74,1411 S Collins St,,Plant City,FL,33563,United States,(813) 754-9500,28.002533,-82.12243,Mo 09:00-18:00; Tu 09:00-18:00; We 09:00-18:00; Th 09:00-18:00; Fr 09:00-18:00; Sa 08:00-17:00; Su 10:00-15:00,,0
Pinch A Penny Pool Patio Spa,9,6722 E Fowler Ave,,Temple Terrace,FL,33617,United States,(813) 988-0306,28.054882,-82.378181,Mo 09:00-18:00; Tu 09:00-18:00; We 09:00-18:00; Th 09:00-18:00; Fr 09:00-18:00; Sa 09:00-18:00; Su 11:00-16:00,,0
Pinch A Penny Pool Patio Spa,75,14923 Bruce B Downs Blvd,,Tampa,FL,33613,United States,(813) 972-1619,28.08298,-82.412071,Mo 09:00-18:00; Tu 09:00-18:00; We 09:00-18:00; Th 09:00-18:00; Fr 09:00-18:00; Sa 09:00-18:00; Su 10:00-16:00,,0
Pinch A Penny Pool Patio Spa,127,14393 Spring Hill Dr,,Spring Hill,FL,34609,United States,(352) 686-3550,28.479744,-82.486322,Mo 09:00-18:00; Tu 09:00-18:00; We 09:00-18:00; Th 09:00-18:00; Fr 09:00-18:00; Sa 09:00-17:00; Su 11:00-15:00,,0
Pinch A Penny Pool Patio Spa,100,21202 Mariner Pl,,Lutz,FL,33549,United States,(813) 948-7665,28.19064,-82.465572,Mo 09:00-18:00; Tu 09:00-18:00; We 09:00-18:00; Th 09:00-18:00; Fr 09:00-18:00; Sa 09:00-17:00; Su 10:00-15:00,,0
Pinch A Penny Pool Patio Spa,178,18460 N US Highway 41,,Lutz,FL,33549,United States,(813) 949-3888,28.141651,-82.463963,Mo 09:00-18:00; Tu 09:00-18:00; We 09:00-18:00; Th 09:00-19:00; Fr 09:00-18:00; Sa 09:00-17:00; Su 11:00-16:00,,0
Pinch A Penny Pool Patio Spa,56,516 NW 75th St,,Gainesville,FL,32607,United States,(352) 332-2933,29.657512,-82.422705,Mo 09:00-19:00; Tu 09:00-19:00; We 09:00-19:00; Th 09:00-19:00; Fr 09:00-19:00; Sa 09:00-19:00; Su 10:00-16:00,,0
Pinch A Penny Pool Patio Spa,33,5010 NW 34th St,,Gainesville,FL,32605,United States,(352) 372-4489,29.701033,-82.369585,Mo 09:00-19:00; Tu 09:00-19:00; We 09:00-19:00; Th 09:00-19:00; Fr 09:00-19:00; Sa 09:00-18:00; Su 11:00-16:00,,0
Pinch A Penny Pool Patio Spa,37,2351 NW US Highway 19,,Crystal River,FL,34428,United States,(352) 563-0677,28.917338,-82.608311,Mo 09:00-18:00; Tu 09:00-18:00; We 09:00-18:00; Th 09:00-18:00; Fr 09:00-18:00; Sa 09:00-17:00; Su 11:00-15:00,,0
Pinch A Penny Pool Patio Spa,166,11150 N Williams St,,Dunnellon,FL,34432,United States,(352) 522-0491,29.061802,-82.454986,Mo 09:00-18:00; Tu 09:00-18:00; We 09:00-18:00; Th 09:00-18:00; Fr 09:00-18:00; Sa 09:00-17:00; Su 10:00-14:00,,0
Pinch A Penny Pool Patio Spa,143,9429 S Suncoast Blvd,,Homosassa,FL,34446,United States,(352) 382-5102,28.724442,-82.551153,,,0
Pinch A Penny Pool Patio Spa,200,4003 N Lecanto Hwy,,Beverly Hills,FL,34465,United States,(352) 270-8817,28.92185,-82.464987,Mo 09:00-18:00; Tu 09:00-18:00; We 09:00-18:00; Th 09:00-18:00; Fr 09:00-18:00; Sa 09:00-17:00; Su 11:00-15:00,,0
Pinch A Penny Pool Patio Spa,195,5200 E SR-100,Ste. 103A,Palm Coast,FL,32164,United States,(386) 437-8748,29.477369,-81.217377,Mo 09:00-18:00; Tu 09:00-18:00; We 09:00-18:00; Th 09:00-18:00; Fr 09:00-18:00; Sa 09:00-17:00; Su 11:00-15:00,,0
Pinch A Penny Pool Patio Spa,193,1336 Homestead Rd N,,Lehigh Acres,FL,33936,United States,(239) 369-1219,26.609869,-81.651299,Mo 09:00-18:00; Tu 09:00-18:00; We 09:00-18:00; Th 09:00-18:00; Fr 09:00-18:00; Sa 09:00-17:00; Su 10:00-14:00,,0
Pinch A Penny Pool Patio Spa,192,11861 Palm Beach Blvd,,Fort Myers,FL,33905,United States,(239) 690-3223,26.699207,-81.761026,Mo 09:00-18:00; Tu 09:00-18:00; We 09:00-18:00; Th 09:00-18:00; Fr 09:00-18:00; Sa 09:00-17:00; Su 10:00-15:00,,0
Pinch A Penny Pool Patio Spa,222,10676 Colonial Blvd,Unit 10,Fort Myers,FL,33913,United States,(239) 561-2233,26.610795,-81.781397,Mo 09:00-18:00; Tu 09:00-18:00; We 09:00-18:00; Th 09:00-18:00; Fr 09:00-18:00; Sa 09:00-17:00; Su 11:00-15:00,,0
Pinch A Penny Pool Patio Spa,28,11605 S Cleveland Ave,Ste. 21,Fort Myers,FL,33907,United States,(239) 936-7166,26.571274,-81.870269,Mo 09:00-18:00; Tu 09:00-18:00; We 09:00-18:00; Th 09:00-18:00; Fr 09:00-18:00; Sa 09:00-17:00; Su 11:00-15:00,,0
Pinch A Penny Pool Patio Spa,73,32421 Broadway St.,,Sebring,FL,33870,United States,(863) 382-8700,27.496149,-81.488189,Mo 09:00-18:00; Tu 09:00-18:00; We 09:00-18:00; Th 09:00-18:00; Fr 09:00-18:00; Sa 09:00-17:00; Su 11:00-15:00,,0
Pinch A Penny Pool Patio Spa,134,18990 S Tamiami Trl,,Fort Myers,FL,33908,United States,(239) 433-1171,26.46384,-81.832067,Mo 09:00-18:00; Tu 09:00-18:00; We 09:00-18:00; Th 09:00-18:00; Fr 09:00-18:00; Sa 09:00-17:00; Su 11:00-15:00,,0
Pinch A Penny Pool Patio Spa,225,10020 Coconut Rd,Ste. 132,Estero,FL,34135,United States,(239) 301-2287,26.397059,-81.786162,Mo 09:00-18:00; Tu 09:00-18:00; We 09:00-18:00; Th 09:00-18:00; Fr 09:00-18:00; Sa 09:00-17:00; Su 10:00-14:00,,0
Pinch A Penny Pool Patio Spa,69,4395 Hancock Bridge Pkwy,,Cape Coral,FL,33990,United States,(239) 656-0666,26.653125,-81.920135,Mo 09:00-18:00; Tu 09:00-18:00; We 09:00-18:00; Th 09:00-18:00; Fr 09:00-18:00; Sa 09:00-17:00; Su 10:00-15:00,,0
Pinch A Penny Pool Patio Spa,146,2850 SW Port St Lucie Blvd,,Port Saint Lucie,FL,34953,United States,(772) 340-3424,27.259513,-80.376046,Mo 09:00-18:00; Tu 09:00-18:00; We 09:00-18:00; Th 09:00-18:00; Fr 09:00-18:00; Sa 09:00-17:00; Su 10:00-15:00,,0
Pinch A Penny Pool Patio Spa,63,400 Civic Center Way,,Royal Palm Beach,FL,33411,United States,(561) 795-1346,26.705636,-80.231872,Mo 08:00-18:00; Tu 08:00-18:00; We 08:00-18:00; Th 08:00-18:00; Fr 08:00-18:00; Sa 08:00-17:00; Su 08:00-15:00,,0
Pinch A Penny Pool Patio Spa,211,9071 Biscayne Blvd,,Miami Shores,FL,33138,United States,(786) 518-3193,25.85883,-80.18232,Mo 09:00-18:00; Tu 09:00-18:00; We 09:00-18:00; Th 09:00-18:00; Fr 09:00-18:00; Sa 09:00-17:00; Su 10:00-14:00,,0
Pinch A Penny Pool Patio Spa,160,833 SW 29th Ave,,Miami,FL,33135,United States,(305) 541-5165,25.764559,-80.24052,Mo 09:00-18:00; Tu 09:00-18:00; We 09:00-18:00; Th 09:00-18:00; Fr 09:00-18:00; Sa 09:00-18:00; Su 10:00-15:00,,0
Pinch A Penny Pool Patio Spa,51,1503 NE 163rd St,,North Miami Beach,FL,33162,United States,(305) 944-6555,25.926162,-80.169264,Mo 09:00-19:00; Tu 09:00-19:00; We 09:00-19:00; Th 09:00-19:00; Fr 09:00-19:00; Sa 09:00-18:00; Su 10:00-16:00,,0
Pinch A Penny Pool Patio Spa,205,18850 S Dixie Hwy,,Cutler Bay,FL,33157,United States,(305) 278-7665,25.591437,-80.358434,Mo 09:00-19:00; Tu 09:00-19:00; We 09:00-19:00; Th 09:00-19:00; Fr 09:00-19:00; Sa 09:00-18:00; Su 10:00-15:00,,0
Pinch A Penny Pool Patio Spa,77,6834 SW 81st St,,Miami,FL,33143,United States,(305) 666-5499,25.695103,-80.303948,Mo 09:00-18:00; Tu 09:00-18:00; We 09:00-18:00; Th 09:00-18:00; Fr 09:00-18:00; Sa 09:00-17:00; Su 10:00-14:00,,0
Pinch A Penny Pool Patio Spa,41,14405 S Dixie Hwy,,Palmetto Bay,FL,33176,United States,(305) 252-1946,25.635882,-80.336135,Mo 09:00-19:00; Tu 09:00-19:00; We 09:00-19:00; Th 09:00-19:00; Fr 09:00-19:00; Sa 09:00-18:00; Su 10:00-16:00,,0
Pinch A Penny Pool Patio Spa,223,30344 Old Dixie Hwy,,Homestead,FL,33033,United States,(305) 247-7665,25.486925,-80.463026,Mo 09:00-18:00; Tu 09:00-18:00; We 09:00-18:00; Th 09:00-18:00; Fr 09:00-18:00; Sa 09:00-18:00; Su 10:00-15:00,,0
Pinch A Penny Pool Patio Spa,220,1133 N Federal Hwy,,Fort Lauderdale,FL,33304,United States,(954) 495-8785,26.140115,-80.120951,Mo 09:00-18:00; Tu 09:00-18:00; We 09:00-18:00; Th 09:00-18:00; Fr 09:00-18:00; Sa 09:00-17:00; Su 11:00-15:00,,0
Pinch A Penny Pool Patio Spa,114,15473 SW 137th Ave,,Miami,FL,33177,United States,(305) 234-7457,25.624433,-80.413979,Mo 09:00-19:00; Tu 09:00-19:00; We 09:00-19:00; Th 09:00-19:00; Fr 09:00-19:00; Sa 09:00-18:00; Su 10:00-16:00,,0
Pinch A Penny Pool Patio Spa,43,11035 Bird Rd,,Miami,FL,33165,United States,(305) 221-0673,25.732558,-80.374574,Mo 09:00-19:00; Tu 09:00-19:00; We 09:00-19:00; Th 09:00-19:00; Fr 09:00-19:00; Sa 09:00-19:00; Su 10:00-17:00,,0
Pinch A Penny Pool Patio Spa,126,1778 E Highway 50,,Clermont,FL,34711,United States,(352) 243-6077,28.54898,-81.724259,Mo 09:00-18:00; Tu 09:00-18:00; We 09:00-18:00; Th 09:00-18:00; Fr 09:00-18:00; Sa 09:00-17:00; Su 10:00-14:00,,0
Pinch A Penny Pool Patio Spa,164,13770 W Colonial Dr,Ste. 150,Winter Garden,FL,34787,United States,(407) 654-6876,28.550292,-81.590141,Mo 09:00-18:00; Tu 09:00-18:00; We 09:00-18:00; Th 09:00-18:00; Fr 09:00-18:00; Sa 09:00-17:00; Su 11:00-15:00,,0
Pinch A Penny Pool Patio Spa,15,8983 W Colonial Dr,,Ocoee,FL,34761,United States,(407) 293-3220,28.552608,-81.508454,Mo 09:00-18:00; Tu 09:00-18:00; We 09:00-18:00; Th 09:00-18:00; Fr 09:00-18:00; Sa 09:00-17:00; Su 11:00-15:00,,0
Pinch A Penny Pool Patio Spa,184,"7315 Sr-535, Ste 104",,Windermere,FL,34786,United States,(407) 654-0253,28.459557,-81.560975,Mo 09:00-18:00; Tu 09:00-18:00; We 09:00-18:00; Th 09:00-18:00; Fr 09:00-18:00; Sa 09:00-17:00; Su 11:00-15:00,,0
Pinch A Penny Pool Patio Spa,121,8929 Conroy Windermere Rd,,Orlando,FL,32835,United States,(407) 909-1806,28.49437,-81.507053,Mo 09:00-18:00; Tu 09:00-18:00; We 09:00-18:00; Th 09:00-18:00; Fr 09:00-18:00; Sa 09:00-18:00; Su 11:00-17:00,,0
Pinch A Penny Pool Patio Spa,157,1685 Rock Springs Rd N,,Apopka,FL,32712,United States,(407) 886-6313,28.708891,-81.507898,Mo 09:00-18:00; Tu 09:00-18:00; We 09:00-18:00; Th 09:00-18:00; Fr 09:00-18:00; Sa 09:00-17:00; Su 10:00-16:00,,0
Pinch A Penny Pool Patio Spa,57,1813 E Semoran Blvd,,Apopka,FL,32703,United States,(407) 889-2242,28.673584,-81.475735,Mo 09:00-18:00; Tu 09:00-18:00; We 09:00-18:00; Th 09:00-18:00; Fr 09:00-18:00; Sa 09:00-18:00; Su 10:00-16:00,,0
Pinch A Penny Pool Patio Spa,92,4902 S Kirkman Rd,,Orlando,FL,32811,United States,(407) 578-8437,28.491281,-81.459782,Mo 09:00-18:00; Tu 09:00-18:00; We 09:00-18:00; Th 09:00-18:00; Fr 09:00-18:00; Sa 09:00-17:00; Su 10:00-15:00,,0
Pinch A Penny Pool Patio Spa,129,7577 W Sand Lake Rd,,Orlando,FL,32819,United States,(407) 996-7665,28.450949,-81.486432,Mo 09:00-18:00; Tu 09:00-18:00; We 09:00-18:00; Th 09:00-18:00; Fr 09:00-18:00; Sa 09:00-17:00; Su 11:00-17:00,,0
Pinch A Penny Pool Patio Spa,111,5705 Edgewater Dr,,Orlando,FL,32810,United States,(407) 291-3222,28.609957,-81.413395,Mo 09:00-18:00; Tu 09:00-18:00; We 09:00-18:00; Th 09:00-18:00; Fr 09:00-18:00; Sa 09:00-17:00; Su 11:00-15:00,,0
Pinch A Penny Pool Patio Spa,62,17973 US Highway 441,,Mount Dora,FL,32757,United States,(352) 383-3900,28.824346,-81.658223,Mo 09:00-18:00; Tu 09:00-18:00; We 09:00-18:00; Th 09:00-18:00; Fr 09:00-18:00; Sa 09:00-17:00; Su 10:00-14:00,,0
Pinch A Penny Pool Patio Spa,138,17445 US Hwy 192 Ste 5,,Clermont,FL,34714,United States,(352) 243-7501,28.348371,-81.666474,Mo 09:00-18:00; Tu 09:00-18:00; We 09:00-18:00; Th 09:00-18:00; Fr 09:00-18:00; Sa 09:00-17:00; Su 10:00-15:00,,0
Pinch A Penny Pool Patio Spa,22,623 Montgomery Rd,,Altamonte Springs,FL,32714,United States,(407) 869-6060,28.671976,-81.402195,Mo 09:00-18:00; Tu 09:00-18:00; We 09:00-18:00; Th 09:00-18:00; Fr 09:00-18:00; Sa 09:00-18:00; Su 11:00-16:00,,0
Pinch A Penny Pool Patio Spa,23,5647 Orange Ave S,,Orlando,FL,32809,United States,(407) 851-4954,28.476165,-81.369844,Mo 09:00-18:00; Tu 09:00-18:00; We 09:00-18:00; Th 09:00-18:00; Fr 09:00-18:00; Sa 09:00-18:00; Su 11:00-16:00,,0
Pinch A Penny Pool Patio Spa,206,264/266 SR 434 W,,Longwood,FL,32750,United States,(321) 972-4918,28.697359,-81.349835,Mo 09:00-18:00; Tu 09:00-18:00; We 09:00-18:00; Th 09:00-18:00; Fr 09:00-18:00; Sa 09:00-18:00; Su 10:00-16:00,,0
Pinch A Penny Pool Patio Spa,21,5411 Lake Howell Rd,,Winter Park,FL,32792,United States,(407) 677-6577,28.622152,-81.324802,Mo 09:00-18:00; Tu 09:00-18:00; We 09:00-18:00; Th 09:00-18:00; Fr 09:00-18:00; Sa 09:00-18:00; Su 10:00-16:00,,0
Pinch A Penny Pool Patio Spa,97,12365 S Orange Blossom Trl,,Orlando,FL,32837,United States,(407) 826-4148,28.38577,-81.402373,Mo 08:00-19:00; Tu 08:00-19:00; We 08:00-19:00; Th 08:00-19:00; Fr 08:00-18:00; Sa 09:00-17:00; Su 10:00-14:00,,0
Pinch A Penny Pool Patio Spa,20,425 Semoran Blvd S,,Orlando,FL,32807,United States,(407) 273-2260,28.538314,-81.310112,Mo 09:00-18:00; Tu 09:00-18:00; We 09:00-18:00; Th 09:00-18:00; Fr 09:00-18:00; Sa 09:00-17:00; Su 10:00-15:00,,0
Pinch A Penny Pool Patio Spa,113,2251 Citrus Blvd,,Leesburg,FL,34748,United States,(352) 315-1111,28.840989,-81.897529,Mo 09:00-18:00; Tu 09:00-18:00; We 09:00-18:00; Th 09:00-18:00; Fr 09:00-18:00; Sa 09:00-17:00; Su 10:00-15:00,,0
Pinch A Penny Pool Patio Spa,81,101 N Country Club Rd,,Lake Mary,FL,32746,United States,(407) 321-2394,28.757866,-81.32142,Mo 09:00-18:00; Tu 09:00-18:00; We 09:00-18:00; Th 09:00-18:00; Fr 09:00-18:00; Sa 09:00-17:00; Su 11:00-15:00,,0
Pinch A Penny Pool Patio Spa,162,1865 Lakewood Ranch Blvd,,Bradenton,FL,34211,United States,(941) 744-2771,27.481822,-82.432538,Mo 09:00-18:00; Tu 09:00-18:00; We 09:00-18:00; Th 09:00-18:00; Fr 09:00-18:00; Sa 09:00-17:00; Su 10:00-15:00,,0
Pinch A Penny Pool Patio Spa,19,1100 62nd Ave N,,Saint Petersburg,FL,33702,United States,(727) 521-1179,27.828059,-82.649652,Mo 09:00-19:00; Tu 09:00-19:00; We 09:00-19:00; Th 09:00-19:00; Fr 09:00-19:00; Sa 09:00-18:00; Su 10:00-17:00,,0
Pinch A Penny Pool Patio Spa,216,"11161 East SR-70,",Ste. 105,Bradenton,FL,34202,United States,(941) 727-7665,27.434046,-82.430905,Mo 09:00-18:00; Tu 09:00-18:00; We 09:00-18:00; Th 09:00-18:00; Fr 09:00-18:00; Sa 09:00-17:00; Su 10:00-15:00,,0
Pinch A Penny Pool Patio Spa,7,4102 34th St S,,Saint Petersburg,FL,33711,United States,(727) 866-0464,27.73047,-82.678707,Mo 09:00-18:00; Tu 09:00-18:00; We 09:00-18:00; Th 09:00-18:00; Fr 09:00-18:00; Sa 09:00-17:00; Su 10:00-15:00,,0
Pinch A Penny Pool Patio Spa,68,6507 W Waters Ave,,Tampa,FL,33634,United States,(813) 887-3873,28.026292,-82.55283,Mo 09:00-18:00; Tu 09:00-18:00; We 09:00-18:00; Th 09:00-18:00; Fr 09:00-18:00; Sa 09:00-18:00; Su 10:00-16:00,,0
Pinch A Penny Pool Patio Spa,108,6144 SR-70,,Bradenton,FL,34203,United States,(941) 758-8178,27.445348,-82.482599,Mo 09:00-18:00; Tu 09:00-18:00; We 09:00-18:00; Th 09:00-18:00; Fr 09:00-18:00; Sa 09:00-17:00; Su 10:00-15:00,,0
Pinch A Penny Pool Patio Spa,194,1505 Sun City Center Plz,,Sun City Center,FL,33573,United States,(813) 633-0000,27.714301,-82.352989,Mo 09:00-18:00; Tu 09:00-18:00; We 09:00-18:00; Th 09:00-18:00; Fr 09:00-18:00; Sa 09:00-17:00; Su 10:00-14:00,,0
Pinch A Penny Pool Patio Spa,174,13448 Boyette Rd,,Riverview,FL,33569,United States,(813) 657-1054,27.851482,-82.267917,Mo 09:00-18:00; Tu 09:00-18:00; We 09:00-18:00; Th 09:00-18:00; Fr 09:00-18:00; Sa 09:00-18:00; Su 10:00-14:00,,0
Pinch A Penny Pool Patio Spa,131,6508 N US Highway 41,,Apollo Beach,FL,33572,United States,(813) 645-7946,27.772165,-82.39152,Mo 09:00-18:00; Tu 09:00-18:00; We 09:00-18:00; Th 09:00-18:00; Fr 09:00-18:00; Sa 09:00-17:00; Su 10:00-14:00,,0
Pinch A Penny Pool Patio Spa,66,3440 S Dale Mabry Hwy,,Tampa,FL,33611,United States,(813) 837-1989,27.911819,-82.505711,Mo 09:00-18:00; Tu 09:00-18:00; We 09:00-18:00; Th 09:00-18:00; Fr 09:00-18:00; Sa 09:00-17:00; Su 10:30-16:00,,0
Pinch A Penny Pool Patio Spa,133,8275 US Highway 301 N,,Parrish,FL,34219,United States,(941) 776-5548,27.54063,-82.48003,Mo 09:00-18:00; Tu 09:00-18:00; We 09:00-18:00; Th 09:00-18:00; Fr 09:00-18:00; Sa 09:00-18:00; Su 10:00-15:00,,0
Pinch A Penny Pool Patio Spa,224,17149 Miramar Pkwy,,Miramar,FL,33027,United States,1-954-433-0486,25.980769,-80.375192,Mo 09:00-18:00; Tu 09:00-18:00; We 09:00-18:00; Th 09:00-18:00; Fr 09:00-18:00; Sa 09:00-17:00; Su 10:00-15:00,,0
Pinch A Penny Pool Patio Spa,152,6820 SW 195th Ave,,Pembroke Pines,FL,33332,United States,(954) 434-1732,26.030949,-80.408377,Mo 09:00-18:00; Tu 09:00-18:00; We 09:00-18:00; Th 09:00-18:00; Fr 09:00-18:00; Sa 09:00-17:00; Su 11:00-15:00,,0
Pinch A Penny Pool Patio Spa,119,4456 Weston Rd,,Weston,FL,33331,United States,(954) 385-7777,26.065285,-80.360791,Mo 09:00-18:00; Tu 09:00-18:00; We 09:00-18:00; Th 09:00-18:00; Fr 09:00-18:00; Sa 09:00-17:00; Su 10:00-15:00,,0
Pinch A Penny Pool Patio Spa,55,11526 W State Road 84,,Davie,FL,33325,United States,(954) 472-5090,26.109816,-80.302938,Mo 09:00-19:00; Tu 09:00-19:00; We 09:00-19:00; Th 09:00-19:00; Fr 09:00-19:00; Sa 09:00-17:00; Su 10:00-15:00,,0
Pinch A Penny Pool Patio Spa,16,32350 US Highway 19 N,,Palm Harbor,FL,34684,United States,(727) 785-8841,28.065916,-82.739675,Mo 09:00-18:00; Tu 09:00-18:00; We 09:00-18:00; Th 09:00-18:00; Fr 09:00-18:00; Sa 09:00-18:00; Su 10:00-16:00,,0
Pinch A Penny Pool Patio Spa,156,879 S Pinellas Ave,,Tarpon Springs,FL,34689,United States,(727) 945-1944,28.139174,-82.755494,Mo 09:00-18:00; Tu 09:00-18:00; We 09:00-18:00; Th 09:00-18:00; Fr 09:00-18:00; Sa 09:00-18:00; Su 11:00-15:00,,0
Pinch A Penny Pool Patio Spa,52,1120 Overcash Dr,,Dunedin,FL,34698,United States,(727) 736-5299,28.020495,-82.756555,Mo 09:00-18:00; Tu 09:00-18:00; We 09:00-18:00; Th 09:00-18:00; Fr 09:00-18:00; Sa 09:00-18:00; Su 10:00-15:00,,0
Pinch A Penny Pool Patio Spa,101,36235 East Lake Rd,,Palm Harbor,FL,34685,United States,(727) 786-1676,28.101845,-82.692621,Mo 09:00-18:00; Tu 09:00-18:00; We 09:00-18:00; Th 09:00-18:00; Fr 09:00-18:00; Sa 09:00-17:00; Su 11:00-15:00,,0
Pinch A Penny Pool Patio Spa,67,3030 Enterprise Rd E,,Clearwater,FL,33759,United States,(727) 725-1419,28.012626,-82.712121,Mo 09:00-18:00; Tu 09:00-18:00; We 09:00-18:00; Th 09:00-18:00; Fr 09:00-18:00; Sa 09:00-18:00; Su 10:00-15:00,,0
Pinch A Penny Pool Patio Spa,161,3800 Tampa Rd,,Oldsmar,FL,34677,United States,(813) 818-8530,28.041988,-82.674439,Mo 09:00-18:00; Tu 09:00-18:00; We 09:00-18:00; Th 09:00-18:00; Fr 09:00-18:00; Sa 09:00-17:00; Su 11:00-15:00,,0
Pinch A Penny Pool Patio Spa,17,1330 Seven Springs Blvd,,New Port Richey,FL,34655,United States,(727) 372-1179,28.178545,-82.697194,Mo 08:30-19:00; Tu 08:30-19:00; We 08:30-19:00; Th 08:30-19:00; Fr 08:30-19:00; Sa 08:30-18:00; Su 09:00-16:00,,0
Pinch A Penny Pool Patio Spa,124,3426 US Highway 19,,Holiday,FL,34691,United States,(727) 847-9551,28.209129,-82.738006,Mo 09:00-19:00; Tu 09:00-19:00; We 09:00-19:00; Th 09:00-19:00; Fr 09:00-19:00; Sa 09:00-17:00; Su 10:00-16:00,,0
Pinch A Penny Pool Patio Spa,142,12239 W Linebaugh Ave,,Tampa,FL,33626,United States,(813) 855-5966,28.056835,-82.626703,Mo 09:00-19:00; Tu 09:00-19:00; We 09:00-19:00; Th 09:00-19:00; Fr 09:00-19:00; Sa 09:00-18:00; Su 10:00-17:00,,0
Pinch A Penny Pool Patio Spa,1,1480 S Belcher Rd,,Clearwater,FL,33764,United States,(727) 535-1986,27.943367,-82.746802,Mo 09:00-18:00; Tu 09:00-18:00; We 09:00-18:00; Th 09:00-18:00; Fr 09:00-18:00; Sa 09:00-18:00; Su 10:00-15:00,,0
Pinch A Penny Pool Patio Spa,65,311 Clearwater Largo Rd N,,Largo,FL,33770,United States,(727) 585-0262,27.919914,-82.79682,Mo 09:00-18:00; Tu 09:00-18:00; We 09:00-18:00; Th 09:00-18:00; Fr 09:00-18:00; Sa 09:00-18:00; Su 10:00-15:00,,0
Pinch A Penny Pool Patio Spa,118,10057 W Hillsborough Ave,,Tampa,FL,33615,United States,(813) 887-4511,28.005088,-82.597704,Mo 09:00-18:00; Tu 09:00-18:00; We 09:00-18:00; Th 09:00-18:00; Fr 09:00-18:00; Sa 09:00-18:00; Su 10:00-15:00,,0
Pinch A Penny Pool Patio Spa,163,7871 Gunn Hwy,,Tampa,FL,33626,United States,(813) 792-9015,28.080452,-82.577446,Mo 09:00-18:00; Tu 09:00-18:00; We 09:00-18:00; Th 09:00-18:00; Fr 09:00-18:00; Sa 09:00-18:00; Su 11:00-15:00,,0
Pinch A Penny Pool Patio Spa,115,5304 Little Rd,,New Port Richey,FL,34655,United States,(727) 375-9314,28.236986,-82.667864,Mo 09:00-18:00; Tu 09:00-18:00; We 09:00-18:00; Th 09:00-18:00; Fr 09:00-18:00; Sa 09:00-17:00; Su 11:00-15:00,,0
Pinch A Penny Pool Patio Spa,13,6726 Ridge Rd,,Port Richey,FL,34668,United States,(727) 848-7474,28.280129,-82.702983,Mo 09:00-18:00; Tu 09:00-18:00; We 09:00-18:00; Th 09:00-18:00; Fr 09:00-18:00; Sa 09:00-17:00; Su 09:00-15:00,,0
Pinch A Penny Pool Patio Spa,147,10381 66th St N,,Pinellas Park,FL,33782,United States,(727) 546-7226,27.866144,-82.728311,Mo 09:00-19:00; Tu 09:00-19:00; We 09:00-19:00; Th 09:00-19:00; Fr 09:00-19:00; Sa 09:00-18:00; Su 10:00-17:00,,0
Pinch A Penny Pool Patio Spa,2,9686 Seminole Blvd,,Seminole,FL,33772,United States,(727) 397-6817,27.859978,-82.787639,Mo 09:00-18:00; Tu 09:00-18:00; We 09:00-18:00; Th 09:00-18:00; Fr 09:00-18:00; Sa 09:00-17:00; Su 10:00-15:00,,0
Pinch A Penny Pool Patio Spa,150,11450 Ridge Rd,,New Port Richey,FL,34654,United States,(727) 845-0044,28.272806,-82.627251,Mo 09:00-18:00; Tu 09:00-18:00; We 09:00-18:00; Th 09:00-18:00; Fr 09:00-18:00; Sa 09:00-17:00; Su 11:00-15:00,,0
Pinch A Penny Pool Patio Spa,45,2505 Garden St,,Titusville,FL,32796,United States,(321) 269-7117,28.614954,-80.832872,Mo 09:00-18:00; Tu 09:00-18:00; We 09:00-18:00; Th 09:00-18:00; Fr 09:00-18:00; Sa 09:00-17:00; Su 10:00-14:00,,0
Pinch A Penny Pool Patio Spa,82,982 14th Lane,,Vero Beach,FL,32960,United States,772-778-7884,27.629294,-80.39017,Mo 09:00-18:00; Tu 09:00-18:00; We 09:00-18:00; Th 09:00-18:00; Fr 09:00-18:00; Sa 09:00-17:00; Su 11:00-15:00,,0
Pinch A Penny Pool Patio Spa,117,4507 Old Canoe Creek Rd,,Saint Cloud,FL,34769,United States,(407) 957-1136,28.249,-81.316963,Mo 09:00-18:00; Tu 09:00-18:00; We 09:00-18:00; Th 09:00-18:00; Fr 09:00-18:00; Sa 09:00-17:00; Su 10:00-14:00,,0
Pinch A Penny Pool Patio Spa,167,10228 Curry Ford Rd,,Orlando,FL,32825,United States,(407) 737-4568,28.508599,-81.238757,Mo 09:00-18:00; Tu 09:00-18:00; We 09:00-18:00; Th 09:00-18:00; Fr 09:00-18:00; Sa 09:00-18:00; Su 10:00-16:00,,0
Pinch A Penny Pool Patio Spa,132,857 Alafaya Trl N,,Orlando,FL,32828,United States,(407) 249-4974,28.556898,-81.205276,Mo 09:00-18:00; Tu 09:00-18:00; We 09:00-18:00; Th 09:00-18:00; Fr 09:00-18:00; Sa 09:00-17:00; Su 10:00-16:00,,0
Pinch A Penny Pool Patio Spa,130,5833 S Goldenrod Rd,Ste. A,Orlando,FL,32822,United States,(407) 281-7774,28.478046,-81.288002,Mo 09:00-18:00; Tu 09:00-18:00; We 09:00-18:00; Th 09:00-18:00; Fr 09:00-18:00; Sa 09:00-17:00; Su 11:00-15:00,,0
Pinch A Penny Pool Patio Spa,96,10008 University Blvd,,Orlando,FL,32817,United States,(407) 678-9950,28.596211,-81.243968,Mo 08:30-19:00; Tu 08:30-19:00; We 08:30-19:00; Th 08:30-19:00; Fr 08:30-19:00; Sa 08:30-17:30; Su 10:00-16:00,,0
Pinch A Penny Pool Patio Spa,88,1500 Alafaya Trl,Ste. 1036,Oviedo,FL,32765,United States,(407) 365-3252,28.647518,-81.208902,Mo 09:00-18:00; Tu 09:00-18:00; We 09:00-18:00; Th 09:00-18:00; Fr 09:00-18:00; Sa 09:00-18:00; Su 10:00-16:00,,0
Pinch A Penny Pool Patio Spa,59,618 W Vine St,,Kissimmee,FL,34741,United States,(407) 932-2300,28.304225,-81.410722,Mo 09:00-18:00; Tu 09:00-18:00; We 09:00-18:00; Th 09:00-18:00; Fr 09:00-18:00; Sa 09:00-17:00; Su 10:00-14:00,,0
Pinch A Penny Pool Patio Spa,26,284 E. Eau Gallie Blvd.,,Indian Harbour Beach,FL,32937,United States,(321) 777-7237,28.140823,-80.598003,Mo 09:00-18:00; Tu 09:00-18:00; We 09:00-18:00; Th 09:00-18:00; Fr 09:00-18:00; Sa 09:00-17:00; Su 10:00-15:00,,0
Pinch A Penny Pool Patio Spa,123,2255 N Wickham Rd,Ste. 103,Melbourne,FL,32935,United States,(321) 751-1205,28.144176,-80.67104,Mo 09:00-18:00; Tu 09:00-18:00; We 09:00-18:00; Th 09:00-18:00; Fr 09:00-18:00; Sa 09:00-18:00; Su 11:00-17:00,,0
Pinch A Penny Pool Patio Spa,110,5805 N Wickham Rd,,Melbourne,FL,32940,United States,(321) 259-6618,28.205022,-80.671695,Mo 09:00-18:00; Tu 09:00-18:00; We 09:00-18:00; Th 09:00-18:00; Fr 09:00-18:00; Sa 09:00-17:00; Su 11:00-17:00,,0
Pinch A Penny Pool Patio Spa,165,4195-6 W. New Haven Ave.,,West Melbourne,FL,32904,United States,(321) 723-4999,28.077793,-80.694499,Mo 09:00-18:00; Tu 09:00-18:00; We 09:00-18:00; Th 09:00-18:00; Fr 09:00-18:00; Sa 09:00-17:00; Su 11:00-15:00,,0
Pinch A Penny Pool Patio Spa,93,4610 Babcock St NE,,Palm Bay,FL,32905,United States,(321) 728-8116,28.038508,-80.622324,Mo 09:00-18:00; Tu 09:00-18:00; We 09:00-18:00; Th 09:00-18:00; Fr 09:00-18:00; Sa 09:00-17:00; Su 11:00-15:00,,0
Pinch A Penny Pool Patio Spa,137,3813 Murrell Rd,,Rockledge,FL,32955,United States,(321) 504-6400,28.294239,-80.721359,Mo 09:00-18:00; Tu 09:00-18:00; We 09:00-18:00; Th 09:00-18:00; Fr 09:00-18:00; Sa 09:00-17:00; Su 11:00-16:00,,0
Pinch A Penny Pool Patio Spa,25,950 N Courtenay Pkwy,,Merritt Island,FL,32953,United States,(321) 453-1986,28.37394,-80.699366,Mo 09:00-18:00; Tu 09:00-18:00; We 09:00-18:00; Th 09:00-18:00; Fr 09:00-18:00; Sa 09:00-17:00; Su 11:00-15:00,,0
Pinch A Penny Pool Patio Spa,177,3440 Bayside Lakes Blvd SE,,Palm Bay,FL,32909,United States,(321) 952-7665,27.951941,-80.657121,Mo 09:00-18:00; Tu 09:00-18:00; We 09:00-18:00; Th 09:00-18:00; Fr 09:00-18:00; Sa 09:00-17:00; Su 11:00-15:00,,0
Pinch A Penny Pool Patio Spa,198,2311 SR-524,,Cocoa,FL,32926,United States,(321) 633-9999,28.395295,-80.766398,Mo 09:00-18:00; Tu 09:00-18:00; We 09:00-18:00; Th 09:00-18:00; Fr 09:00-18:00; Sa 09:00-17:00; Su 11:00-15:00,,0
Pinch A Penny Pool Patio Spa,189,1451 Sebastian Blvd,,Sebastian,FL,32958,United States,(772) 589-7875,27.765808,-80.510502,Mo 09:00-18:00; Tu 09:00-18:00; We 09:00-18:00; Th 09:00-18:00; Fr 09:00-18:00; Sa 09:00-17:00; Su 11:00-15:00,,0
Pinch A Penny Pool Patio Spa,151,11924 W Forest Hill Blvd,,Wellington,FL,33414,United States,(561) 383-7744,26.652028,-80.235897,Mo 09:00-18:00; Tu 09:00-18:00; We 09:00-18:00; Th 09:00-18:00; Fr 09:00-18:00; Sa 09:00-17:00; Su 10:00-15:00,,0
Pinch A Penny Pool Patio Spa,36,3826 Jog Rd,,Lake Worth,FL,33467,United States,1(561) 964-0103,26.620564,-80.146094,Mo 09:00-18:00; Tu 09:00-18:00; We 09:00-18:00; Th 09:00-18:00; Fr 09:00-18:00; Sa 09:00-17:00; Su 10:00-15:00,,0
Pinch A Penny Pool Patio Spa,203,7100 Fairway Dr,Ste. 48,Palm Beach Gardens,FL,33418,United States,(561) 775-3530,26.835736,-80.132244,Mo 09:00-18:00; Tu 09:00-18:00; We 09:00-18:00; Th 09:00-18:00; Fr 09:00-18:00; Sa 09:00-17:00; Su 10:00-14:00,,0
Pinch A Penny Pool Patio Spa,86,9819 S Military Trl,Ste. 1,Boynton Beach,FL,33436,United States,(561) 369-8696,26.531564,-80.12422,Mo 09:00-18:00; Tu 09:00-18:00; We 09:00-18:00; Th 09:00-18:00; Fr 09:00-18:00; Sa 09:00-17:00; Su 10:00-15:00,,0
Pinch A Penny Pool Patio Spa,83,19635-47 SR 7,,Boca Raton,FL,33498,United States,(561) 488-2243,26.384201,-80.205022,Mo 09:00-18:00; Tu 09:00-18:00; We 09:00-18:00; Th 09:00-18:00; Fr 09:00-18:00; Sa 09:00-17:00; Su 10:00-14:00,,0
Pinch A Penny Pool Patio Spa,34,11700 Wiles Rd,,Coral Springs,FL,33076,United States,(954) 752-6112,26.286862,-80.283217,Mo 09:00-18:00; Tu 09:00-18:00; We 09:00-18:00; Th 09:00-18:00; Fr 09:00-18:00; Sa 09:00-18:00; Su 10:00-16:00,,0
Pinch A Penny Pool Patio Spa,215,5195 West Atlantic Ave.,Ste. E & F,Delray Beach,FL,33484,United States,(561) 808-7455,26.459254,-80.126012,Mo 08:30-18:00; Tu 08:30-18:00; We 08:30-18:00; Th 08:30-18:00; Fr 08:30-18:00; Sa 08:30-17:30; Su 09:00-14:00,,0
Pinch A Penny Pool Patio Spa,89,2532 Indiantown Rd W,,Jupiter,FL,33458,United States,(561) 746-5137,26.933591,-80.134942,Mo 09:00-18:00; Tu 09:00-18:00; We 09:00-18:00; Th 09:00-18:00; Fr 09:00-18:00; Sa 09:00-17:00; Su 10:00-16:00,,0
Pinch A Penny Pool Patio Spa,202,1422 W Lantana Rd,,Lantana,FL,33462,United States,(561) 533-7713,26.587923,-80.066047,Mo 09:00-18:00; Tu 09:00-18:00; We 09:00-18:00; Th 09:00-18:00; Fr 09:00-18:00; Sa 09:00-17:00; Su 09:00-14:00,,0
Pinch A Penny Pool Patio Spa,35,814 Northlake Blvd,,North Palm Beach,FL,33408,United States,(561) 508-4919,26.807546,-80.070048,Mo 09:00-18:00; Tu 09:00-18:00; We 09:00-18:00; Th 09:00-18:00; Fr 09:00-18:00; Sa 09:00-17:00; Su 10:00-14:00,,0
Pinch A Penny Pool Patio Spa,149,4420 W Hillsboro Blvd,Ste. 107,Coconut Creek,FL,33073,United States,(954) 421-1112,26.317065,-80.184423,Mo 09:00-18:00; Tu 09:00-18:00; We 09:00-18:00; Th 09:00-18:00; Fr 09:00-18:00; Sa 09:00-18:00; Su 10:00-14:00,,0
Pinch A Penny Pool Patio Spa,188,3135 S Federal Hwy,,Delray Beach,FL,33483,United States,(561) 921-0204,26.426164,-80.071733,Mo 08:00-18:30; Tu 08:00-18:30; We 08:00-18:30; Th 08:00-18:30; Fr 08:00-18:30; Sa 08:00-17:30; Su 09:00-14:00,,0
Pinch A Penny Pool Patio Spa,64,183 N US Highway 1,,Tequesta,FL,33469,United States,(561) 744-0443,26.962132,-80.084037,Mo 09:00-18:00; Tu 09:00-18:00; We 09:00-18:00; Th 09:00-18:00; Fr 09:00-18:00; Sa 09:00-17:00; Su 11:00-15:00,,0
Pinch A Penny Pool Patio Spa,172,3079 SW Martin Downs Blvd,,Palm City,FL,34990,United States,(772) 781-4820,27.173232,-80.295273,Mo 09:00-18:00; Tu 09:00-18:00; We 09:00-18:00; Th 09:00-18:00; Fr 09:00-18:00; Sa 09:00-17:00; Su 10:00-14:00,,0
Pinch A Penny Pool Patio Spa,27,1301 W Palmetto Park Rd,,Boca Raton,FL,33486,United States,(561) 395-2378,26.352681,-80.111009,Mo 09:00-18:00; Tu 09:00-18:00; We 09:00-18:00; Th 09:00-18:00; Fr 09:00-18:00; Sa 09:00-18:00; Su 11:00-15:00,,0
Pinch A Penny Pool Patio Spa,185,5479 W Atlantic Blvd,,Margate,FL,33063,United States,(954) 975-8558,26.236774,-80.201483,Mo 09:00-18:00; Tu 09:00-18:00; We 09:00-18:00; Th 09:00-18:00; Fr 09:00-18:00; Sa 09:00-18:00; Su 10:00-16:00,,0
Pinch A Penny Pool Patio Spa,106,5162 SE Federal Hwy,,Stuart,FL,34997,United States,(772) 286-5757,27.141773,-80.21262,Mo 09:00-18:00; Tu 09:00-18:00; We 09:00-18:00; Th 09:00-18:00; Fr 09:00-18:00; Sa 09:00-17:00; Su 10:00-14:00,,0
Pinch A Penny Pool Patio Spa,42,8880 NW 44th St,,Sunrise,FL,33351,United States,(954) 748-0494,26.178625,-80.268801,Mo 09:00-18:00; Tu 09:00-18:00; We 09:00-18:00; Th 09:00-18:00; Fr 09:00-18:00; Sa 09:00-17:00; Su 10:00-15:00,,0
Pinch A Penny Pool Patio Spa,99,2661 E Gulf To Lake Hwy,,Inverness,FL,34453,United States,(352) 726-2766,28.855905,-82.388926,Mo 09:00-18:00; Tu 09:00-18:00; We 09:00-18:00; Th 09:00-18:00; Fr 09:00-18:00; Sa 09:00-17:00; Su 10:00-14:00,,0
Pinch A Penny Pool Patio Spa,169,9590 SW Highway 200,Unit 14,Ocala,FL,34481,United States,(352) 622-0026,29.056764,-82.279226,Mo 09:00-18:00; Tu 09:00-18:00; We 09:00-18:00; Th 09:00-18:00; Fr 09:00-18:00; Sa 09:00-17:00; Su 10:00-15:00,,0
Pinch A Penny Pool Patio Spa,199,4932 W Sr-46,Ste. 1012,Sanford,FL,32771,United States,(407) 878-3707,28.812436,-81.342738,Mo 09:00-18:00; Tu 09:00-18:00; We 09:00-18:00; Th 09:00-18:00; Fr 09:00-18:00; Sa 09:00-17:00; Su 12:00-16:00,,0
Pinch A Penny Pool Patio Spa,212,532 N Hwy 27 / 441,,Lady Lake,FL,32159,United States,(352) 561-4331,28.931264,-81.934052,Mo 09:00-18:00; Tu 09:00-18:00; We 09:00-18:00; Th 09:00-18:00; Fr 09:00-18:00; Sa 09:00-17:00; Su 11:00-15:00,,0
Pinch A Penny Pool Patio Spa,201,7740 Preserve Ln,Ste. 10,Naples,FL,34119,United States,(239) 304-8661,26.273673,-81.711499,Mo 09:00-18:00; Tu 09:00-18:00; We 09:00-18:00; Th 09:00-18:00; Fr 09:00-18:00; Sa 09:00-17:00; Su 10:00-15:00,,0
Pinch A Penny Pool Patio Spa,53,9130 Bonita Beach Rd SE,,Bonita Springs,FL,34135,United States,(239) 947-2216,26.332444,-81.799543,Mo 09:00-18:00; Tu 09:00-18:00; We 09:00-18:00; Th 09:00-18:00; Fr 09:00-18:00; Sa 09:00-17:00; Su 10:00-14:00,,0
Pinch A Penny Pool Patio Spa,159,698 Bald Eagle Dr,,Marco Island,FL,34145,United States,(239) 642-7846,25.95546,-81.725555,Mo 09:00-18:00; Tu 09:00-18:00; We 09:00-18:00; Th 09:00-18:00; Fr 09:00-18:00; Sa 09:00-17:00; Su 11:00-15:00,,0
Pinch A Penny Pool Patio Spa,227,12608 E. TAMIAMI TRAIL,,Naples,FL,34113,United States,(239) 529-6080,26.064363,-81.7031,Mo 09:00-18:00; Tu 09:00-18:00; We 09:00-18:00; Th 09:00-18:00; Fr 09:00-18:00; Sa 09:00-17:00; Su 11:00-15:00,,0
Pinch A Penny Pool Patio Spa,18,2301 Davis Blvd,,Naples,FL,34104,United States,(239) 732-8233,26.138886,-81.77668,Mo 09:00-18:00; Tu 09:00-18:00; We 09:00-18:00; Th 09:00-18:00; Fr 09:00-18:00; Sa 09:00-17:00; Su 11:00-15:00,,0
Pinch A Penny Pool Patio Spa,105,11677 Collier Blvd. (CR951),,Naples,FL,34116,United States,(239) 455-4025,26.185697,-81.688359,Mo 09:00-18:00; Tu 09:00-18:00; We 09:00-18:00; Th 09:00-18:00; Fr 09:00-18:00; Sa 09:00-17:00; Su 10:00-14:00,,0
Pinch A Penny Pool Patio Spa,122,7935 Airport Pulling Rd N,,Naples,FL,34109,United States,(239) 514-4454,26.240986,-81.770625,Mo 09:00-18:00; Tu 08:00-18:00; We 09:00-18:00; Th 09:00-18:00; Fr 09:00-18:00; Sa 09:00-17:00; Su 10:00-14:00,,0
Pinch A Penny Pool Patio Spa,171,1250 S Broad St,,Brooksville,FL,34601,United States,(352) 799-9479,28.541991,-82.404504,Mo 09:00-19:00; Tu 09:00-19:00; We 09:00-19:00; Th 09:00-19:00; Fr 09:00-19:00; Sa 09:00-18:00; Su 09:00-17:00,,0
Pinch A Penny Pool Patio Spa,54,1410 Kass Cir,,Spring Hill,FL,34606,United States,(352) 683-8305,28.452792,-82.593226,Mo 09:00-18:00; Tu 09:00-18:00; We 09:00-18:00; Th 09:00-18:00; Fr 09:00-18:00; Sa 09:00-17:00; Su 10:00-14:00,,0
Pinch A Penny Pool Patio Spa,3,5900 9th Ave N,,Saint Petersburg,FL,33710,United States,(727) 343-7696,27.780533,-82.714607,Mo 08:30-19:00; Tu 08:30-19:00; We 08:30-19:00; Th 08:30-19:00; Fr 08:30-19:00; Sa 08:30-18:00; Su 10:00-16:00,,0
Pinch A Penny Pool Patio Spa,144,1146 E SR-434,,Winter Springs,FL,32708,United States,(407) 327-6006,28.699625,-81.264585,Mo 09:00-18:00; Tu 09:00-18:00; We 09:00-18:00; Th 09:00-18:00; Fr 09:00-18:00; Sa 09:00-17:00; Su 11:00-16:00,,0
Pinch A Penny Pool Patio Spa,85,5285 Red Bug Lake Rd,,Winter Springs,FL,32708,United States,(407) 695-9600,28.646983,-81.27534,Mo 09:00-18:00; Tu 09:00-18:00; We 09:00-18:00; Th 09:00-18:00; Fr 09:00-18:00; Sa 09:00-17:00; Su 10:00-16:00,,0
Pinch A Penny Pool Patio Spa,12,2801 Dundee Rd,,Winter Haven,FL,33884,United States,(863) 324-6580,28.023021,-81.67924,Mo 09:00-18:00; Tu 09:00-18:00; We 09:00-18:00; Th 09:00-18:00; Fr 09:00-18:00; Sa 09:00-18:00; Su 12:00-16:00,,0
Pinch A Penny Pool Patio Spa,107,3300 Havendale Blvd NW,,Winter Haven,FL,33881,United States,(863) 965-0122,28.048897,-81.766353,Mo 09:00-18:00; Tu 09:00-18:00; We 09:00-18:00; Th 09:00-18:00; Fr 09:00-18:00; Sa 09:00-17:00; Su 11:00-14:00,,0
Pinch A Penny Pool Patio Spa,87,7839 State Road 52,,Hudson,FL,34667,United States,(727) 862-4232,28.331818,-82.684434,Mo 09:00-19:00; Tu 09:00-19:00; We 09:00-19:00; Th 09:00-19:00; Fr 09:00-19:00; Sa 09:00-18:00; Su 10:00-15:00,,0
Pinch A Penny Pool Patio Spa,191,2783 Elkcam Blvd,,Deltona,FL,32738,United States,(386) 532-6140,28.927246,-81.188106,Mo 09:00-18:00; Tu 09:00-18:00; We 09:00-18:00; Th 09:00-18:00; Fr 09:00-18:00; Sa 09:00-17:00; Su 11:00-15:00,,0
Pinch A Penny Pool Patio Spa,103,1744 S Woodland Blvd,,DeLand,FL,32720,United States,(386) 734-9177,28.997845,-81.304568,Mo 09:00-18:00; Tu 09:00-18:00; We 09:00-18:00; Th 09:00-18:00; Fr 09:00-18:00; Sa 09:00-18:00; Su 10:00-15:00,,0
Pinch A Penny Pool Patio Spa,76,915 Doyle Rd,,Deltona,FL,32725,United States,(386) 860-5470,28.868452,-81.251125,Mo 09:00-18:00; Tu 09:00-18:00; We 09:00-18:00; Th 09:00-18:00; Fr 09:00-18:00; Sa 09:00-17:00; Su 11:00-15:00,,0
Pinch A Penny Pool Patio Spa,32,1020 SW 6th Ave,,Ocala,FL,34471,United States,(352) 622-4656,29.178045,-82.14287,Mo 09:00-18:00; Tu 09:00-18:00; We 09:00-18:00; Th 09:00-18:00; Fr 09:00-18:00; Sa 09:00-17:00; Su 10:00-15:00,,0
Pinch A Penny Pool Patio Spa,217,3855 E Silver Springs Blvd,Ste. 103,Ocala,FL,34470,United States,(352) 390-6377,29.200372,-82.083265,Mo 09:00-18:00; Tu 09:00-18:00; We 09:00-18:00; Th 09:00-18:00; Fr 09:00-18:00; Sa 09:00-17:00; Su 10:00-15:00,,0
Pinch A Penny Pool Patio Spa,175,5852 14th St W,,Bradenton,FL,34207,United States,(941) 758-5400,27.436544,-82.576378,Mo 09:00-18:00; Tu 09:00-18:00; We 09:00-18:00; Th 09:00-18:00; Fr 09:00-18:00; Sa 09:00-17:00; Su 10:00-15:00,,0
Pinch A Penny Pool Patio Spa,91,8339 Lockwood Ridge Rd,,Sarasota,FL,34243,United States,(941) 355-4838,27.391208,-82.503243,Mo 09:00-18:00; Tu 09:00-18:00; We 09:00-18:00; Th 09:00-18:00; Fr 09:00-18:00; Sa 09:00-17:00; Su 11:00-15:00,,0
Pinch A Penny Pool Patio Spa,11,3500 Manatee Ave W,,Bradenton,FL,34205,United States,(941) 747-1143,27.49598,-82.596411,Mo 09:00-18:00; Tu 09:00-18:00; We 09:00-18:00; Th 09:00-18:00; Fr 09:00-18:00; Sa 09:00-17:00; Su 10:00-15:00,,0
Pinch A Penny Pool Patio Spa,8,4207 Bee Ridge Rd,,Sarasota,FL,34233,United States,(941) 377-7020,27.298974,-82.483766,Mo 09:00-18:00; Tu 09:00-18:00; We 09:00-18:00; Th 09:00-18:00; Fr 09:00-18:00; Sa 09:00-17:00; Su 10:00-16:00,,0
Pinch A Penny Pool Patio Spa,104,7505 S Tamiami Trl,,Sarasota,FL,34231,United States,(941) 923-0477,27.245973,-82.510639,Mo 09:00-18:00; Tu 09:00-18:00; We 09:00-18:00; Th 09:00-18:00; Fr 09:00-18:00; Sa 09:00-17:00; Su 10:00-15:00,,0
Pinch A Penny Pool Patio Spa,208,3987 Bee Ridge Road Extension,,Sarasota,FL,34241,United States,(941) 379-7946,27.296824,-82.401262,Mo 09:00-18:00; Tu 09:00-18:00; We 09:00-18:00; Th 09:00-18:00; Fr 09:00-18:00; Sa 09:00-17:00; Su 11:00-15:00,,0
Pinch A Penny Pool Patio Spa,183,1268 S Tamiami Trl,,Osprey,FL,34229,United States,(941) 918-8026,27.177783,-82.482629,Mo 09:00-18:00; Tu 09:00-18:00; We 09:00-18:00; Th 09:00-18:00; Fr 09:00-18:00; Sa 09:00-17:00; Su 10:00-14:00,,0
Pinch A Penny Pool Patio Spa,10,1245 US Highway 41 Byp S,,Venice,FL,34285,United States,(941) 484-0220,27.084868,-82.426842,Mo 09:00-18:00; Tu 09:00-18:00; We 09:00-18:00; Th 09:00-18:00; Fr 09:00-18:00; Sa 09:00-17:00; Su 10:00-14:00,,0
Pinch A Penny Pool Patio Spa,230,14942 Tamiami Trail,Ste. K,North Port,FL,34287,United States,(941) 564-6065,27.038192,-82.222395,Mo 09:00-18:00; Tu 09:00-18:00; We 09:00-18:00; Th 09:00-18:00; Fr 09:00-18:00; Sa 09:00-17:00; Su 11:00-15:00,,0
Pinch A Penny Pool Patio Spa,38,1116 NW Federal Hwy,,Stuart,FL,34994,United States,(772) 692-0025,27.218653,-80.262551,Mo 09:00-18:00; Tu 09:00-18:00; We 09:00-18:00; Th 09:00-18:00; Fr 09:00-18:00; Sa 09:00-17:00; Su 10:00-14:00,,0
Pinch A Penny Pool Patio Spa,181,1457 NW Saint Lucie West Blvd,,Port Saint Lucie,FL,34986,United States,(772) 878-7180,27.315711,-80.392284,Mo 09:00-18:00; Tu 09:00-18:00; We 09:00-18:00; Th 09:00-18:00; Fr 09:00-18:00; Sa 09:00-18:00; Su 10:00-14:00,,0
Pinch A Penny Pool Patio Spa,135,869 Cypress Pkwy,,Kissimmee,FL,34759,United States,(407) 847-3929,28.148293,-81.450601,Mo 09:00-18:00; Tu 09:00-18:00; We 09:00-18:00; Th 09:00-18:00; Fr 09:00-18:00; Sa 09:00-17:00; Su 10:00-14:00,,0
Pinch A Penny Pool Patio Spa,187,15660 San Carlos Blvd,,Fort Myers,FL,33908,United States,(239) 433-3198,26.513927,-81.945307,Mo 09:00-18:00; Tu 09:00-18:00; We 09:00-18:00; Th 09:00-18:00; Fr 09:00-18:00; Sa 09:00-17:00; Su 10:00-15:00,,0
Pinch A Penny Pool Patio Spa,61,1221 Cape Coral Pkwy E,,Cape Coral,FL,33904,United States,(239) 945-1117,26.563057,-81.948935,Mo 09:00-18:00; Tu 09:00-18:00; We 09:00-18:00; Th 09:00-18:00; Fr 09:00-18:00; Sa 09:00-17:00; Su 10:00-15:00,,0
Pinch A Penny Pool Patio Spa,48,8417 Northcliffe Blvd,,Spring Hill,FL,34606,United States,(352) 686-5496,28.50963,-82.578083,Mo 09:00-18:00; Tu 09:00-18:00; We 09:00-18:00; Th 09:00-18:00; Fr 09:00-18:00; Sa 09:00-17:00; Su 10:00-14:00,,0
Pinch A Penny Pool Patio Spa,179,1242 SW Pine Island Rd,,Cape Coral,FL,33991,United States,(239) 772-2300,26.640384,-81.999532,Mo 09:00-18:00; Tu 09:00-18:00; We 09:00-18:00; Th 09:00-18:00; Fr 09:00-18:00; Sa 09:00-17:00; Su 10:00-15:00,,0
Pinch A Penny Pool Patio Spa,140,4245 S Access Rd,,Englewood,FL,34224,United States,(941) 475-1959,26.932103,-82.268543,Mo 09:00-18:00; Tu 09:00-18:00; We 09:00-18:00; Th 09:00-18:00; Fr 09:00-18:00; Sa 09:00-17:00; Su 10:00-14:00,,0
Pinch A Penny Pool Patio Spa,47,1300 Enterprise Dr,,Port Charlotte,FL,33953,United States,(941) 743-7665,27.011142,-82.152709,Mo 09:00-18:00; Tu 09:00-18:00; We 09:00-18:00; Th 09:00-18:00; Fr 09:00-18:00; Sa 09:00-17:00; Su 11:00-15:00,,0
Pinch A Penny Pool Patio Spa,14,3866 Tamiami Trl,,Port Charlotte,FL,33952,United States,(941) 625-0950,26.973347,-82.085311,,,0
Pinch A Penny Pool Patio Spa,40,3655 Tamiami Trl,,Punta Gorda,FL,33950,United States,(941) 639-2324,26.904896,-82.037447,Mo 09:00-18:00; Tu 09:00-18:00; We 09:00-18:00; Th 09:00-18:00; Fr 09:00-18:00; Sa 09:00-17:30; Su 11:00-15:00,,0
Pinch A Penny Pool Patio Spa,204,1616 Cape Coral Pkwy W,Unit 104,Cape Coral,FL,33914,United States,(239) 540-0017,26.560612,-82.00795,Mo 09:00-18:00; Tu 09:00-18:00; We 09:00-18:00; Th 09:00-18:00; Fr 09:00-18:00; Sa 09:00-17:00; Su 10:00-15:00,,0
Pinch A Penny Pool Patio Spa,154,214 N Dixie Fwy,,New Smyrna Beach,FL,32168,United States,(386) 428-3979,29.025136,-80.927347,Mo 09:00-18:00; Tu 09:00-18:00; We 09:00-18:00; Th 09:00-18:00; Fr 09:00-18:00; Sa 09:00-17:00; Su 10:00-14:00,,0
Pinch A Penny Pool Patio Spa,60,3755 S Nova Rd,,Port Orange,FL,32129,United States,(386) 761-6583,29.131908,-81.006796,Mo 09:00-18:00; Tu 09:00-18:00; We 09:00-18:00; Th 09:00-18:00; Fr 09:00-18:00; Sa 09:00-17:00; Su 10:00-14:00,,0
Pinch A Penny Pool Patio Spa,50,185 S Yonge St,,Ormond Beach,FL,32174,United States,(386) 673-0438,29.278532,-81.059176,Mo 09:00-18:00; Tu 09:00-18:00; We 09:00-18:00; Th 09:00-18:00; Fr 09:00-18:00; Sa 09:00-17:00; Su 11:00-15:00,,0
