store_name,store_number,address,address2,city,state,zip_code,country,phone_number,latitude,longitude,store_hours,other_fields,coming_soon
RediClinic Wilmington,248,1718 Marsh Road ,,Wilmington ,DE,19810,United States,302.478.7200,,,Tomorrow 8:00AM - 8:00PM; Saturday 8:00AM - 5:00PM; Sunday 8:00AM - 5:00PM; Monday 8:00AM - 8:00PM; Tuesday 8:00AM - 8:00PM; Wednesday 8:00AM - 8:00PM; ,,0
RediClinic Sulphur Spring,223,1400 Sulphur Spring Road ,,Baltimore ,MD,21227,United States,410.737.9221,,,Tomorrow 8:00AM - 8:00PM; Saturday 8:00AM - 5:00PM; Sunday 8:00AM - 5:00PM; Monday 8:00AM - 8:00PM; Tuesday 8:00AM - 8:00PM; Wednesday 8:00AM - 8:00PM; Tomorrow 8:00AM - 8:00PM; Saturday 8:00AM - 5:00PM; Sunday 8:00AM - 5:00PM; Monday 8:00AM - 8:00PM; Tuesday 8:00AM - 8:00PM; Wednesday 8:00AM - 8:00PM; ,,0
RediClinic York Road,223,6300 York Road ,,Baltimore ,MD,21212,United States,410.323.0838,,,Tomorrow 8:00AM - 8:00PM; Saturday 8:00AM - 5:00PM; Sunday 8:00AM - 5:00PM; Monday 8:00AM - 8:00PM; Tuesday 8:00AM - 8:00PM; Wednesday 8:00AM - 8:00PM; Tomorrow 8:00AM - 8:00PM; Saturday 8:00AM - 5:00PM; Sunday 8:00AM - 5:00PM; Monday 8:00AM - 8:00PM; Tuesday 8:00AM - 8:00PM; Wednesday 8:00AM - 8:00PM; ,,0
RediClinic Riverdale Park,204,6130 Baltimore Avenue ,,Riverdale ,MD,20737,United States,301.699.5004,,,Tomorrow 8:00AM - 8:00PM; Saturday 8:00AM - 5:00PM; Sunday 8:00AM - 5:00PM; Monday 8:00AM - 8:00PM; Tuesday 8:00AM - 8:00PM; Wednesday 8:00AM - 8:00PM; ,,0
RediClinic Reisterstown,202,11917-19 Reisterstown Rd ,,Reisterstown ,MD,21136,United States,410.833.0183,,,Tomorrow 8:00AM - 8:00PM; Saturday 8:00AM - 5:00PM; Sunday 8:00AM - 5:00PM; Monday 8:00AM - 8:00PM; Tuesday 8:00AM - 8:00PM; Wednesday 8:00AM - 8:00PM; ,,0
RediClinic Severna Park,208,25 Jones Station Road ,,West Severna Park ,MD,21146,United States,410.647.0451,,,Tomorrow 8:00AM - 8:00PM; Saturday 8:00AM - 5:00PM; Sunday 8:00AM - 5:00PM; Monday 8:00AM - 8:00PM; Tuesday 8:00AM - 8:00PM; Wednesday 8:00AM - 8:00PM; ,,0
RediClinic Pikesville,197,101 Reisterstown Road ,,Pikesville ,MD,21208,United States,410.486.8600,,,Tomorrow 8:00AM - 8:00PM; Saturday 8:00AM - 5:00PM; Sunday 8:00AM - 5:00PM; Monday 8:00AM - 8:00PM; Tuesday 8:00AM - 8:00PM; Wednesday 8:00AM - 8:00PM; ,,0
RediClinic Ellicott City,162,8601 Baltimore National Pike ,,Ellicott City ,MD,21043,United States,410.480.1377,,,Tomorrow 8:00AM - 8:00PM; Saturday 8:00AM - 5:00PM; Sunday 8:00AM - 5:00PM; Monday 8:00AM - 8:00PM; Tuesday 8:00AM - 8:00PM; Wednesday 8:00AM - 8:00PM; ,,0
RediClinic Largo,179,9810 Apollo Drive ,,Largo ,MD,20774,United States,301.322.9027,,,Tomorrow 8:00AM - 8:00PM; Saturday 8:00AM - 5:00PM; Sunday 8:00AM - 5:00PM; Monday 8:00AM - 8:00PM; Tuesday 8:00AM - 8:00PM; Wednesday 8:00AM - 8:00PM; ,,0
RediClinic Englar,163,250 Englar Road Ste 22 ,,Westminster ,MD,21157,United States,410.876.1513,,,Tomorrow 8:00AM - 8:00PM; Saturday 8:00AM - 5:00PM; Sunday 8:00AM - 5:00PM; Monday 8:00AM - 8:00PM; Tuesday 8:00AM - 8:00PM; Wednesday 8:00AM - 8:00PM; ,,0
RediClinic Silver Spring 2,213,8701 Georgia Ave ,,Ste Silver Spring ,MD,20910,United States,301.562.7390,,,Tomorrow 8:00AM - 8:00PM; Saturday 8:00AM - 5:00PM; Sunday 8:00AM - 5:00PM; Monday 8:00AM - 8:00PM; Tuesday 8:00AM - 8:00PM; Wednesday 8:00AM - 8:00PM; Tomorrow 8:00AM - 8:00PM; Saturday 8:00AM - 5:00PM; Sunday 8:00AM - 5:00PM; Monday 8:00AM - 8:00PM; Tuesday 8:00AM - 8:00PM; Wednesday 8:00AM - 8:00PM; ,,0
RediClinic Silver Spring,213,13870 Georgia Avenue ,,Silver Spring ,MD,20906,United States,301.871.6400,,,Tomorrow 8:00AM - 8:00PM; Saturday 8:00AM - 5:00PM; Sunday 8:00AM - 5:00PM; Monday 8:00AM - 8:00PM; Tuesday 8:00AM - 8:00PM; Wednesday 8:00AM - 8:00PM; Tomorrow 8:00AM - 8:00PM; Saturday 8:00AM - 5:00PM; Sunday 8:00AM - 5:00PM; Monday 8:00AM - 8:00PM; Tuesday 8:00AM - 8:00PM; Wednesday 8:00AM - 8:00PM; ,,0
RediClinic Spring Lake,246,,,,,,United States,,,,Tomorrow 8:00AM - 8:00PM; Saturday 8:00AM - 5:00PM; Sunday 8:00AM - 5:00PM; Monday 8:00AM - 8:00PM; Tuesday 8:00AM - 8:00PM; Wednesday 8:00AM - 8:00PM; ,,0
RediClinic Sterling,219,20800 Great Falls Plaza ,,Sterling ,VA,20165,United States,703.421.4020,,,Tomorrow 8:00AM - 8:00PM; Saturday 8:00AM - 5:00PM; Sunday 8:00AM - 5:00PM; Monday 8:00AM - 8:00PM; Tuesday 8:00AM - 8:00PM; Wednesday 8:00AM - 8:00PM; ,,0
RediClinic Bulverde,152,20725 Hwy 46 ,,West Spring Branch ,TX,78070,United States,830.980.4000,,,Tomorrow 8:00AM - 8:00PM; Saturday 8:00AM - 5:00PM; Sunday 8:00AM - 5:00PM; Monday 8:00AM - 8:00PM; Tuesday 8:00AM - 8:00PM; Wednesday 8:00AM - 8:00PM; ,,0
RediClinic Arlington,135,17226 Smokey Point ,,Arlington ,WA,98223,United States,360.657.4410,,,Tomorrow 8:00AM - 8:00PM; Saturday 9:00AM - 6:00PM; Sunday 9:00AM - 6:00PM; Monday 8:00AM - 8:00PM; Tuesday 8:00AM - 8:00PM; Wednesday 8:00AM - 8:00PM; ,,0
RediClinic Woodinville,250,14035 NE ,,Woodinville-Duvall Woodinville ,WA,98072,United States,425.485.6468,,,Tomorrow 8:00AM-4:00PM; Saturday Closed; Sunday Closed; Monday 8:00AM-4:00PM; Tuesday 8:00AM-4:00PM; Wednesday 8:00AM-4:00PM; ,,0
RediClinic Trevose,252,1860 Brownsville Road ,,Trevose ,PA,19053,United States,215.322.4107,,,Tomorrow 8:00AM - 8:00PM; Saturday 8:00AM - 5:00PM; Sunday 8:00AM - 5:00PM; Monday 8:00AM - 8:00PM; Tuesday 8:00AM - 8:00PM; Wednesday 8:00AM - 8:00PM; ,,0
RediClinic West Chester 2,243,1307 Phoenixville Pike ,,West Chester ,PA,19380,United States,484.356.9330,,,Tomorrow 8:00AM - 8:00PM; Saturday 8:00AM - 5:00PM; Sunday 8:00AM - 5:00PM; Monday 8:00AM - 8:00PM; Tuesday 8:00AM - 8:00PM; Wednesday 8:00AM - 8:00PM; Tomorrow 8:00AM - 8:00PM; Saturday 8:00AM - 5:00PM; Sunday 8:00AM - 5:00PM; Monday 8:00AM - 8:00PM; Tuesday 8:00AM - 8:00PM; Wednesday 8:00AM - 8:00PM; ,,0
RediClinic West Chester 1,243,1535 West Chester Pike ,,West Chester ,PA,19382,United States,610.692.2730,,,Tomorrow 8:00AM - 8:00PM; Saturday 8:00AM - 5:00PM; Sunday 8:00AM - 5:00PM; Monday 8:00AM - 8:00PM; Tuesday 8:00AM - 8:00PM; Wednesday 8:00AM - 8:00PM; Tomorrow 8:00AM - 8:00PM; Saturday 8:00AM - 5:00PM; Sunday 8:00AM - 5:00PM; Monday 8:00AM - 8:00PM; Tuesday 8:00AM - 8:00PM; Wednesday 8:00AM - 8:00PM; ,,0
RediClinic Owings Mills,195,9300 Lakeside Boulevard ,,Owings Mills ,MD,21117,United States,410.363.8066,,,Tomorrow 8:00AM - 8:00PM; Saturday 8:00AM - 5:00PM; Sunday 8:00AM - 5:00PM; Monday 8:00AM - 8:00PM; Tuesday 8:00AM - 8:00PM; Wednesday 8:00AM - 8:00PM; ,,0
RediClinic Wayne,240,237 East Lancaster Ave ,,Wayne ,PA,19087,United States,610.293.1496,,,Tomorrow 8:00AM - 8:00PM; Saturday 8:00AM - 5:00PM; Sunday 8:00AM - 5:00PM; Monday 8:00AM - 8:00PM; Tuesday 8:00AM - 8:00PM; Wednesday 8:00AM - 8:00PM; ,,0
RediClinic Warminster,237,599 York Road ,,Warminster ,PA,18974,United States,215.674.0122,,,Tomorrow 8:00AM - 8:00PM; Saturday 8:00AM - 5:00PM; Sunday 8:00AM - 5:00PM; Monday 8:00AM - 8:00PM; Tuesday 8:00AM - 8:00PM; Wednesday 8:00AM - 8:00PM; ,,0
RediClinic Newtown Square,190,3599 West Chester Pike ,,Newtown Square ,PA,19073,United States,610.353.0294,,,Tomorrow 8:00AM - 8:00PM; Saturday 8:00AM - 5:00PM; Sunday 8:00AM - 5:00PM; Monday 8:00AM - 8:00PM; Tuesday 8:00AM - 8:00PM; Wednesday 8:00AM - 8:00PM; ,,0
RediClinic Media,182,510 East Baltimore Pike ,,Media ,PA,19063,United States,610.566.3218,,,Tomorrow 8:00AM - 8:00PM; Saturday 8:00AM - 5:00PM; Sunday 8:00AM - 5:00PM; Monday 8:00AM - 8:00PM; Tuesday 8:00AM - 8:00PM; Wednesday 8:00AM - 8:00PM; ,,0
RediClinic Norristown,191,762 East Johnson Highway ,,Norristown ,PA,19401,United States,610.272.5401,,,Tomorrow 8:00AM - 8:00PM; Saturday 8:00AM - 5:00PM; Sunday 8:00AM - 5:00PM; Monday 8:00AM - 8:00PM; Tuesday 8:00AM - 8:00PM; Wednesday 8:00AM - 8:00PM; ,,0
RediClinic Potomac,199,10134 River Road ,,Potomac ,MD,20854,United States,301.299.8600,,,Tomorrow 8:00AM - 8:00PM; Saturday 8:00AM - 5:00PM; Sunday 8:00AM - 5:00PM; Monday 8:00AM - 8:00PM; Tuesday 8:00AM - 8:00PM; Wednesday 8:00AM - 8:00PM; ,,0
RediClinic Narberth,189,640 Montgomery Avenue ,,Narberth ,PA,19072,United States,610.664.4010,,,Tomorrow 8:00AM - 8:00PM; Saturday 8:00AM - 5:00PM; Sunday 8:00AM - 5:00PM; Monday 8:00AM - 8:00PM; Tuesday 8:00AM - 8:00PM; Wednesday 8:00AM - 8:00PM; ,,0
RediClinic Yeadon,253,950 East Baltimore Pike ,,Yeadon ,PA,19050,United States,610.622.3795,,,Tomorrow 8:00AM - 8:00PM; Saturday 8:00AM - 5:00PM; Sunday 8:00AM - 5:00PM; Monday 8:00AM - 8:00PM; Tuesday 8:00AM - 8:00PM; Wednesday 8:00AM - 8:00PM; ,,0
RediClinic North Flowers Mill,192,96 North Flowers Mill Road ,,Langhorne ,PA,19047,United States,215.741.1330,,,Tomorrow 8:00AM - 8:00PM; Saturday 8:00AM - 5:00PM; Sunday 8:00AM - 5:00PM; Monday 8:00AM - 8:00PM; Tuesday 8:00AM - 8:00PM; Wednesday 8:00AM - 8:00PM; Tomorrow 8:00AM - 8:00PM; Saturday 8:00AM - 5:00PM; Sunday 8:00AM - 5:00PM; Monday 8:00AM - 8:00PM; Tuesday 8:00AM - 8:00PM; Wednesday 8:00AM - 8:00PM; ,,0
RediClinic Summit Square,192,1 Summit Square Suite A ,,Langhorne ,PA,19047,United States,215.968.4656,,,Tomorrow 8:00AM - 8:00PM; Saturday 8:00AM - 5:00PM; Sunday 8:00AM - 5:00PM; Monday 8:00AM - 8:00PM; Tuesday 8:00AM - 8:00PM; Wednesday 8:00AM - 8:00PM; Tomorrow 8:00AM - 8:00PM; Saturday 8:00AM - 5:00PM; Sunday 8:00AM - 5:00PM; Monday 8:00AM - 8:00PM; Tuesday 8:00AM - 8:00PM; Wednesday 8:00AM - 8:00PM; ,,0
RediClinic Hamilton Street,170,2000 Hamilton Street ,,Philadelphia ,PA,19130,United States,215.567.2017,,,Tomorrow 8:00AM - 8:00PM; Saturday 8:00AM - 5:00PM; Sunday 8:00AM - 5:00PM; Monday 8:00AM - 8:00PM; Tuesday 8:00AM - 8:00PM; Wednesday 8:00AM - 8:00PM; Tomorrow 8:00AM - 8:00PM; Saturday 8:00AM - 5:00PM; Sunday 8:00AM - 5:00PM; Monday 8:00AM - 8:00PM; Tuesday 8:00AM - 8:00PM; Wednesday 8:00AM - 8:00PM; Tomorrow 8:00AM - 8:00PM; Saturday 8:00AM - 5:00PM; Sunday 8:00AM - 5:00PM; Monday 8:00AM - 8:00PM; Tuesday 8:00AM - 8:00PM; Wednesday 8:00AM - 8:00PM; Tomorrow 8:00AM - 8:00PM; Saturday 8:00AM - 5:00PM; Sunday 8:00AM - 5:00PM; Monday 8:00AM - 8:00PM; Tuesday 8:00AM - 8:00PM; Wednesday 8:00AM - 8:00PM; ,,0
RediClinic Ogontz,170,7401 Ogontz Ave ,,Philadelphia ,PA,19138,United States,215.224.9997,,,Tomorrow 8:00AM - 8:00PM; Saturday 8:00AM - 5:00PM; Sunday 8:00AM - 5:00PM; Monday 8:00AM - 8:00PM; Tuesday 8:00AM - 8:00PM; Wednesday 8:00AM - 8:00PM; Tomorrow 8:00AM - 8:00PM; Saturday 8:00AM - 5:00PM; Sunday 8:00AM - 5:00PM; Monday 8:00AM - 8:00PM; Tuesday 8:00AM - 8:00PM; Wednesday 8:00AM - 8:00PM; Tomorrow 8:00AM - 8:00PM; Saturday 8:00AM - 5:00PM; Sunday 8:00AM - 5:00PM; Monday 8:00AM - 8:00PM; Tuesday 8:00AM - 8:00PM; Wednesday 8:00AM - 8:00PM; Tomorrow 8:00AM - 8:00PM; Saturday 8:00AM - 5:00PM; Sunday 8:00AM - 5:00PM; Monday 8:00AM - 8:00PM; Tuesday 8:00AM - 8:00PM; Wednesday 8:00AM - 8:00PM; ,,0
RediClinic City Line,170,5040 City Line Avenue ,,Philadelphia ,PA,19131,United States,215.877.2116,,,Tomorrow 8:00AM - 8:00PM; Saturday 8:00AM - 5:00PM; Sunday 8:00AM - 5:00PM; Monday 8:00AM - 8:00PM; Tuesday 8:00AM - 8:00PM; Wednesday 8:00AM - 8:00PM; Tomorrow 8:00AM - 8:00PM; Saturday 8:00AM - 5:00PM; Sunday 8:00AM - 5:00PM; Monday 8:00AM - 8:00PM; Tuesday 8:00AM - 8:00PM; Wednesday 8:00AM - 8:00PM; Tomorrow 8:00AM - 8:00PM; Saturday 8:00AM - 5:00PM; Sunday 8:00AM - 5:00PM; Monday 8:00AM - 8:00PM; Tuesday 8:00AM - 8:00PM; Wednesday 8:00AM - 8:00PM; Tomorrow 8:00AM - 8:00PM; Saturday 8:00AM - 5:00PM; Sunday 8:00AM - 5:00PM; Monday 8:00AM - 8:00PM; Tuesday 8:00AM - 8:00PM; Wednesday 8:00AM - 8:00PM; ,,0
RediClinic Oxford Ave,170,7418-32 Oxford Avenue ,,Philadelphia ,PA,19111,United States,215.725.6660,,,Tomorrow 8:00AM - 8:00PM; Saturday 8:00AM - 5:00PM; Sunday 8:00AM - 5:00PM; Monday 8:00AM - 8:00PM; Tuesday 8:00AM - 8:00PM; Wednesday 8:00AM - 8:00PM; Tomorrow 8:00AM - 8:00PM; Saturday 8:00AM - 5:00PM; Sunday 8:00AM - 5:00PM; Monday 8:00AM - 8:00PM; Tuesday 8:00AM - 8:00PM; Wednesday 8:00AM - 8:00PM; Tomorrow 8:00AM - 8:00PM; Saturday 8:00AM - 5:00PM; Sunday 8:00AM - 5:00PM; Monday 8:00AM - 8:00PM; Tuesday 8:00AM - 8:00PM; Wednesday 8:00AM - 8:00PM; Tomorrow 8:00AM - 8:00PM; Saturday 8:00AM - 5:00PM; Sunday 8:00AM - 5:00PM; Monday 8:00AM - 8:00PM; Tuesday 8:00AM - 8:00PM; Wednesday 8:00AM - 8:00PM; ,,0
RediClinic Southampton,215,1035 County Line Road ,,Huntingdon Valley ,PA,19006,United States,215.364.2980,,,Tomorrow 8:00AM - 8:00PM; Saturday 8:00AM - 5:00PM; Sunday 8:00AM - 5:00PM; Monday 8:00AM - 8:00PM; Tuesday 8:00AM - 8:00PM; Wednesday 8:00AM - 8:00PM; Tomorrow 8:00AM - 8:00PM; Saturday 8:00AM - 5:00PM; Sunday 8:00AM - 5:00PM; Monday 8:00AM - 8:00PM; Tuesday 8:00AM - 8:00PM; Wednesday 8:00AM - 8:00PM; ,,0
RediClinic Huntingdon Valley,215,2182 County Line Road ,,Huntingdon Valley ,PA,19006,United States,215.953.1655,,,Tomorrow 8:00AM - 8:00PM; Saturday 8:00AM - 5:00PM; Sunday 8:00AM - 5:00PM; Monday 8:00AM - 8:00PM; Tuesday 8:00AM - 8:00PM; Wednesday 8:00AM - 8:00PM; Tomorrow 8:00AM - 8:00PM; Saturday 8:00AM - 5:00PM; Sunday 8:00AM - 5:00PM; Monday 8:00AM - 8:00PM; Tuesday 8:00AM - 8:00PM; Wednesday 8:00AM - 8:00PM; ,,0
RediClinic Drexel Hill,156,832 North Lansdowne Ave. ,,Drexel Hill ,PA,19026,United States,610.449.7188,,,Tomorrow 8:00AM - 8:00PM; Saturday 8:00AM - 5:00PM; Sunday 8:00AM - 5:00PM; Monday 8:00AM - 8:00PM; Tuesday 8:00AM - 8:00PM; Wednesday 8:00AM - 8:00PM; ,,0
RediClinic Allentown,131,27 N 7th Street Ste 100 ,,Allentown ,PA,18101,United States,610.437.7261,,,Tomorrow 8:00AM - 8:00PM; Saturday 8:00AM - 5:00PM; Sunday 8:00AM - 5:00PM; Monday 8:00AM - 8:00PM; Tuesday 8:00AM - 8:00PM; Wednesday 8:00AM - 8:00PM; ,,0
RediClinic Woodlands-Creekside,251,26500 Kuykendahl Road Spring ,,,TX,77389,United States,281.516.7234,,,Tomorrow 8:00AM - 8:00PM; Saturday 8:00AM - 5:00PM; Sunday 8:00AM - 5:00PM; Monday 8:00AM - 8:00PM; Tuesday 8:00AM - 8:00PM; Wednesday 8:00AM - 8:00PM; Tomorrow 8:00AM - 8:00PM; Saturday 8:00AM - 5:00PM; Sunday 8:00AM - 5:00PM; Monday 8:00AM - 8:00PM; Tuesday 8:00AM - 8:00PM; Wednesday 8:00AM - 8:00PM; ,,0
RediClinic Spring,251,130 Sawdust Road Spring ,,,TX,77380,United States,281.419.3162,,,Tomorrow 8:00AM - 8:00PM; Saturday 8:00AM - 5:00PM; Sunday 8:00AM - 5:00PM; Monday 8:00AM - 8:00PM; Tuesday 8:00AM - 8:00PM; Wednesday 8:00AM - 8:00PM; Tomorrow 8:00AM - 8:00PM; Saturday 8:00AM - 5:00PM; Sunday 8:00AM - 5:00PM; Monday 8:00AM - 8:00PM; Tuesday 8:00AM - 8:00PM; Wednesday 8:00AM - 8:00PM; ,,0
RediClinic Atascocita,236,7405 FM 1960 East ,,Humble ,TX,77346,United States,281.913.7255,,,Tomorrow 8:00AM - 8:00PM; Saturday 8:00AM - 5:00PM; Sunday 8:00AM - 5:00PM; Monday 8:00AM - 8:00PM; Tuesday 8:00AM - 8:00PM; Wednesday 8:00AM - 8:00PM; ,,0
RediClinic Sugar Land 2,222,530 Hwy 6 ,,Sugar Land ,TX,77478,United States,281.325.0311,,,Tomorrow 8:00AM - 8:00PM; Saturday 8:00AM - 5:00PM; Sunday 8:00AM - 5:00PM; Monday 8:00AM - 8:00PM; Tuesday 8:00AM - 8:00PM; Wednesday 8:00AM - 8:00PM; Tomorrow 8:00AM - 8:00PM; Saturday 8:00AM - 5:00PM; Sunday 8:00AM - 5:00PM; Monday 8:00AM - 8:00PM; Tuesday 8:00AM - 8:00PM; Wednesday 8:00AM - 8:00PM; ,,0
RediClinic Sugar Land,222,19900 Southwest Freeway ,,Sugar Land ,TX,77479,United States,281.341.8330,,,Tomorrow 8:00AM - 8:00PM; Saturday 8:00AM - 5:00PM; Sunday 8:00AM - 5:00PM; Monday 8:00AM - 8:00PM; Tuesday 8:00AM - 8:00PM; Wednesday 8:00AM - 8:00PM; Tomorrow 8:00AM - 8:00PM; Saturday 8:00AM - 5:00PM; Sunday 8:00AM - 5:00PM; Monday 8:00AM - 8:00PM; Tuesday 8:00AM - 8:00PM; Wednesday 8:00AM - 8:00PM; ,,0
RediClinic Chesterbrook,154,500 Chesterbrook Blvd. Ste. 2 ,,Chesterbrook ,PA,19087,United States,610.647.4490,,,Tomorrow 8:00AM - 8:00PM; Saturday 8:00AM - 5:00PM; Sunday 8:00AM - 5:00PM; Monday 8:00AM - 8:00PM; Tuesday 8:00AM - 8:00PM; Wednesday 8:00AM - 8:00PM; ,,0
RediClinic Sienna Plantation,210,8900 Hwy 6 ,,Missouri City ,TX,77459,United States,281.778.0602,,,Tomorrow 8:00AM - 8:00PM; Saturday 8:00AM - 5:00PM; Sunday 8:00AM - 5:00PM; Monday 8:00AM - 8:00PM; Tuesday 8:00AM - 8:00PM; Wednesday 8:00AM - 8:00PM; ,,0
RediClinic Round Rock,205,1700 East Palm Valley Blvd ,,Round Rock ,TX,78664,United States,512.255.9102,,,Tomorrow 8:00AM - 8:00PM; Saturday 8:00AM - 5:00PM; Sunday 8:00AM - 5:00PM; Monday 8:00AM - 8:00PM; Tuesday 8:00AM - 8:00PM; Wednesday 8:00AM - 8:00PM; Tomorrow 8:00AM - 8:00PM; Saturday 8:00AM - 5:00PM; Sunday 8:00AM - 5:00PM; Monday 8:00AM - 8:00PM; Tuesday 8:00AM - 8:00PM; Wednesday 8:00AM - 8:00PM; ,,0
RediClinic Round Rock 5,205,250 University Blvd ,,Round Rock ,TX,78665,United States,512.869.8500,,,Tomorrow 8:00AM - 8:00PM; Saturday 8:00AM - 5:00PM; Sunday 8:00AM - 5:00PM; Monday 8:00AM - 8:00PM; Tuesday 8:00AM - 8:00PM; Wednesday 8:00AM - 8:00PM; Tomorrow 8:00AM - 8:00PM; Saturday 8:00AM - 5:00PM; Sunday 8:00AM - 5:00PM; Monday 8:00AM - 8:00PM; Tuesday 8:00AM - 8:00PM; Wednesday 8:00AM - 8:00PM; ,,0
RediClinic Tomball,247,28520 Tomball Parkway ,,Tomball ,TX,77375,United States,281.255.3085,,,Tomorrow 8:00AM - 8:00PM; Saturday 8:00AM - 5:00PM; Sunday 8:00AM - 5:00PM; Monday 8:00AM - 8:00PM; Tuesday 8:00AM - 8:00PM; Wednesday 8:00AM - 8:00PM; ,,0
RediClinic Pin Oak,198,25675 Nelson Way ,,Katy ,TX,77494,United States,281.347.7700,,,Tomorrow 8:00AM - 8:00PM; Saturday 8:00AM - 5:00PM; Sunday 8:00AM - 5:00PM; Monday 8:00AM - 8:00PM; Tuesday 8:00AM - 8:00PM; Wednesday 8:00AM - 8:00PM; Tomorrow 8:00AM - 8:00PM; Saturday 8:00AM - 5:00PM; Sunday 8:00AM - 5:00PM; Monday 8:00AM - 8:00PM; Tuesday 8:00AM - 8:00PM; Wednesday 8:00AM - 8:00PM; ,,0
RediClinic Grand Parkway,198,6711 South Fry Road ,,Katy ,TX,77494,United States,281.395.5080,,,Tomorrow 8:00AM - 8:00PM; Saturday 8:00AM - 5:00PM; Sunday 8:00AM - 5:00PM; Monday 8:00AM - 8:00PM; Tuesday 8:00AM - 8:00PM; Wednesday 8:00AM - 8:00PM; Tomorrow 8:00AM - 8:00PM; Saturday 8:00AM - 5:00PM; Sunday 8:00AM - 5:00PM; Monday 8:00AM - 8:00PM; Tuesday 8:00AM - 8:00PM; Wednesday 8:00AM - 8:00PM; ,,0
RediClinic Leander,181,651 N. US Hwy 183 ,,Leander ,TX,78641,United States,512.260.0871,,,Tomorrow 8:00AM - 8:00PM; Saturday 8:00AM - 5:00PM; Sunday 8:00AM - 5:00PM; Monday 8:00AM - 8:00PM; Tuesday 8:00AM - 8:00PM; Wednesday 8:00AM - 8:00PM; ,,0
RediClinic Indian Springs,173,10777 Kuykendahl Road ,,The Woodlands ,TX,77382,United States,281.907.4104,,,Tomorrow 8:00AM - 8:00PM; Saturday 8:00AM - 5:00PM; Sunday 8:00AM - 5:00PM; Monday 8:00AM - 8:00PM; Tuesday 8:00AM - 8:00PM; Wednesday 8:00AM - 8:00PM; Tomorrow 8:00AM - 8:00PM; Saturday 8:00AM - 5:00PM; Sunday 8:00AM - 5:00PM; Monday 8:00AM - 8:00PM; Tuesday 8:00AM - 8:00PM; Wednesday 8:00AM - 8:00PM; ,,0
RediClinic North Woodlands,173,3601 FM 1488 ,,The Woodlands ,TX,77384,United States,936.321.9030,,,Tomorrow 8:00AM - 8:00PM; Saturday 8:00AM - 5:00PM; Sunday 8:00AM - 5:00PM; Monday 8:00AM - 8:00PM; Tuesday 8:00AM - 8:00PM; Wednesday 8:00AM - 8:00PM; Tomorrow 8:00AM - 8:00PM; Saturday 8:00AM - 5:00PM; Sunday 8:00AM - 5:00PM; Monday 8:00AM - 8:00PM; Tuesday 8:00AM - 8:00PM; Wednesday 8:00AM - 8:00PM; ,,0
RediClinic Dripping Springs,159,598 E Hwy US 290 ,,Dripping Springs ,TX,78620,United States,512.858.0011,,,Tomorrow 8:00AM - 8:00PM; Saturday 8:00AM - 5:00PM; Sunday 8:00AM - 5:00PM; Monday 8:00AM - 8:00PM; Tuesday 8:00AM - 8:00PM; Wednesday 8:00AM - 8:00PM; ,,0
RediClinic Ardmore,133,169 West Lancaster Ave. ,,Ardmore ,PA,19003,United States,610.649.7150,,,Tomorrow 8:00AM - 8:00PM; Saturday 8:00AM - 5:00PM; Sunday 8:00AM - 5:00PM; Monday 8:00AM - 8:00PM; Tuesday 8:00AM - 8:00PM; Wednesday 8:00AM - 8:00PM; ,,0
RediClinic League City,180,2955 South Gulf Freeway ,,League City ,TX,77573,United States,281.337.7351,,,Tomorrow 8:00AM - 8:00PM; Saturday 8:00AM - 5:00PM; Sunday 8:00AM - 5:00PM; Monday 8:00AM - 8:00PM; Tuesday 8:00AM - 8:00PM; Wednesday 8:00AM - 8:00PM; Tomorrow 8:00AM - 8:00PM; Saturday 8:00AM - 5:00PM; Sunday 8:00AM - 5:00PM; Monday 8:00AM - 8:00PM; Tuesday 8:00AM - 8:00PM; Wednesday 8:00AM - 8:00PM; ,,0
RediClinic Tuscan Lakes,180,2755 E. League City Parkway ,,League City ,TX,77573,United States,281.334.5233,,,Tomorrow 8:00AM - 8:00PM; Saturday 8:00AM - 5:00PM; Sunday 8:00AM - 5:00PM; Monday 8:00AM - 8:00PM; Tuesday 8:00AM - 8:00PM; Wednesday 8:00AM - 8:00PM; Tomorrow 8:00AM - 8:00PM; Saturday 8:00AM - 5:00PM; Sunday 8:00AM - 5:00PM; Monday 8:00AM - 8:00PM; Tuesday 8:00AM - 8:00PM; Wednesday 8:00AM - 8:00PM; ,,0
RediClinic Friendswood,167,701 West Parkwood ,,Friendswood ,TX,77546,United States,281.947.0018,,,Tomorrow 8:00AM - 8:00PM; Saturday 8:00AM - 5:00PM; Sunday 8:00AM - 5:00PM; Monday 8:00AM - 8:00PM; Tuesday 8:00AM - 8:00PM; Wednesday 8:00AM - 8:00PM; ,,0
RediClinic Cedar Park,153,170 E ,,Whitestone Cedar Park ,TX,78613,United States,512.456.7209,,,Tomorrow 8:00AM - 8:00PM; Saturday 8:00AM - 5:00PM; Sunday 8:00AM - 5:00PM; Monday 8:00AM - 8:00PM; Tuesday 8:00AM - 8:00PM; Wednesday 8:00AM - 8:00PM; ,,0
RediClinic Barker Cypress,141,24224 Northwest Freeway ,,Cypress ,TX,77429,United States,281.758.2282,,,Tomorrow 8:00AM - 8:00PM; Saturday 8:00AM - 5:00PM; Sunday 8:00AM - 5:00PM; Monday 8:00AM - 8:00PM; Tuesday 8:00AM - 8:00PM; Wednesday 8:00AM - 8:00PM; Tomorrow 8:00AM - 8:00PM; Saturday 8:00AM - 5:00PM; Sunday 8:00AM - 5:00PM; Monday 8:00AM - 8:00PM; Tuesday 8:00AM - 8:00PM; Wednesday 8:00AM - 8:00PM; ,,0
RediClinic Spring Cypress,141,14100 Spring Cypress Road ,,Cypress ,TX,77429,United States,281.251.0883,,,Tomorrow 8:00AM - 8:00PM; Saturday 8:00AM - 5:00PM; Sunday 8:00AM - 5:00PM; Monday 8:00AM - 8:00PM; Tuesday 8:00AM - 8:00PM; Wednesday 8:00AM - 8:00PM; Tomorrow 8:00AM - 8:00PM; Saturday 8:00AM - 5:00PM; Sunday 8:00AM - 5:00PM; Monday 8:00AM - 8:00PM; Tuesday 8:00AM - 8:00PM; Wednesday 8:00AM - 8:00PM; ,,0
RediClinic Pasadena,125,6210 Fairmont Parkway ,,Pasadena ,TX,77505,United States,832.775.0165,,,Tomorrow 8:00AM - 8:00PM; Saturday 8:00AM - 5:00PM; Sunday 8:00AM - 5:00PM; Monday 8:00AM - 8:00PM; Tuesday 8:00AM - 8:00PM; Wednesday 8:00AM - 8:00PM; ,,0
RediClinic Brodie Lane,146,6900 Brodie Lane ,,Austin ,TX,78745,United States,512.892.2300,,,Tomorrow 8:00AM - 8:00PM; Saturday 8:00AM - 5:00PM; Sunday 8:00AM - 5:00PM; Monday 8:00AM - 8:00PM; Tuesday 8:00AM - 8:00PM; Wednesday 8:00AM - 8:00PM; Tomorrow 8:00AM - 8:00PM; Saturday 8:00AM - 5:00PM; Sunday 8:00AM - 5:00PM; Monday 8:00AM - 8:00PM; Tuesday 8:00AM - 8:00PM; Wednesday 8:00AM - 8:00PM; Tomorrow 8:00AM - 8:00PM; Saturday 8:00AM - 5:00PM; Sunday 8:00AM - 5:00PM; Monday 8:00AM - 8:00PM; Tuesday 8:00AM - 8:00PM; Wednesday 8:00AM - 8:00PM; Tomorrow 8:00AM - 8:00PM; Saturday 8:00AM - 5:00PM; Sunday 8:00AM - 5:00PM; Monday 8:00AM - 8:00PM; Tuesday 8:00AM - 8:00PM; Wednesday 8:00AM - 8:00PM; ,,0
RediClinic Tech Ridge,146,500 Canyon Ridge Drive ,,Austin ,TX,78753,United States,512.836.9000,,,Tomorrow 8:00AM - 8:00PM; Saturday 8:00AM - 5:00PM; Sunday 8:00AM - 5:00PM; Monday 8:00AM - 8:00PM; Tuesday 8:00AM - 8:00PM; Wednesday 8:00AM - 8:00PM; Tomorrow 8:00AM - 8:00PM; Saturday 8:00AM - 5:00PM; Sunday 8:00AM - 5:00PM; Monday 8:00AM - 8:00PM; Tuesday 8:00AM - 8:00PM; Wednesday 8:00AM - 8:00PM; Tomorrow 8:00AM - 8:00PM; Saturday 8:00AM - 5:00PM; Sunday 8:00AM - 5:00PM; Monday 8:00AM - 8:00PM; Tuesday 8:00AM - 8:00PM; Wednesday 8:00AM - 8:00PM; Tomorrow 8:00AM - 8:00PM; Saturday 8:00AM - 5:00PM; Sunday 8:00AM - 5:00PM; Monday 8:00AM - 8:00PM; Tuesday 8:00AM - 8:00PM; Wednesday 8:00AM - 8:00PM; ,,0
RediClinic Anderson Mill,146,11521 North FM 620 ,,Austin ,TX,78726,United States,512.687.0556,,,Tomorrow 8:00AM - 8:00PM; Saturday 8:00AM - 5:00PM; Sunday 8:00AM - 5:00PM; Monday 8:00AM - 8:00PM; Tuesday 8:00AM - 8:00PM; Wednesday 8:00AM - 8:00PM; Tomorrow 8:00AM - 8:00PM; Saturday 8:00AM - 5:00PM; Sunday 8:00AM - 5:00PM; Monday 8:00AM - 8:00PM; Tuesday 8:00AM - 8:00PM; Wednesday 8:00AM - 8:00PM; Tomorrow 8:00AM - 8:00PM; Saturday 8:00AM - 5:00PM; Sunday 8:00AM - 5:00PM; Monday 8:00AM - 8:00PM; Tuesday 8:00AM - 8:00PM; Wednesday 8:00AM - 8:00PM; Tomorrow 8:00AM - 8:00PM; Saturday 8:00AM - 5:00PM; Sunday 8:00AM - 5:00PM; Monday 8:00AM - 8:00PM; Tuesday 8:00AM - 8:00PM; Wednesday 8:00AM - 8:00PM; ,,0
RediClinic Lakeline,146,14028 North US 183 Bldg A ,,Austin ,TX,78717,United States,512.258.5538,,,Tomorrow 8:00AM - 8:00PM; Saturday 8:00AM - 5:00PM; Sunday 8:00AM - 5:00PM; Monday 8:00AM - 8:00PM; Tuesday 8:00AM - 8:00PM; Wednesday 8:00AM - 8:00PM; Tomorrow 8:00AM - 8:00PM; Saturday 8:00AM - 5:00PM; Sunday 8:00AM - 5:00PM; Monday 8:00AM - 8:00PM; Tuesday 8:00AM - 8:00PM; Wednesday 8:00AM - 8:00PM; Tomorrow 8:00AM - 8:00PM; Saturday 8:00AM - 5:00PM; Sunday 8:00AM - 5:00PM; Monday 8:00AM - 8:00PM; Tuesday 8:00AM - 8:00PM; Wednesday 8:00AM - 8:00PM; Tomorrow 8:00AM - 8:00PM; Saturday 8:00AM - 5:00PM; Sunday 8:00AM - 5:00PM; Monday 8:00AM - 8:00PM; Tuesday 8:00AM - 8:00PM; Wednesday 8:00AM - 8:00PM; ,,0
RediClinic Montrose,122,1701 W. Alabama Street ,,Houston ,TX,77098,United States,713.522.3200,,,Tomorrow 8:00AM - 8:00PM; Saturday 8:00AM - 5:00PM; Sunday 8:00AM - 5:00PM; Monday 8:00AM - 8:00PM; Tuesday 8:00AM - 8:00PM; Wednesday 8:00AM - 8:00PM; Tomorrow 8:00AM - 8:00PM; Saturday 8:00AM - 5:00PM; Sunday 8:00AM - 5:00PM; Monday 8:00AM - 8:00PM; Tuesday 8:00AM - 8:00PM; Wednesday 8:00AM - 8:00PM; Tomorrow 8:00AM - 8:00PM; Saturday 8:00AM - 5:00PM; Sunday 8:00AM - 5:00PM; Monday 8:00AM - 8:00PM; Tuesday 8:00AM - 8:00PM; Wednesday 8:00AM - 8:00PM; Tomorrow 8:00AM - 8:00PM; Saturday 8:00AM - 5:00PM; Sunday 8:00AM - 5:00PM; Monday 8:00AM - 8:00PM; Tuesday 8:00AM - 8:00PM; Wednesday 8:00AM - 8:00PM; ,,0
RediClinic Bunker Hill,122,9710 Katy Freeway ,,Houston ,TX,77055,United States,713.932.8800,,,Tomorrow 8:00AM - 8:00PM; Saturday 8:00AM - 5:00PM; Sunday 8:00AM - 5:00PM; Monday 8:00AM - 8:00PM; Tuesday 8:00AM - 8:00PM; Wednesday 8:00AM - 8:00PM; Tomorrow 8:00AM - 8:00PM; Saturday 8:00AM - 5:00PM; Sunday 8:00AM - 5:00PM; Monday 8:00AM - 8:00PM; Tuesday 8:00AM - 8:00PM; Wednesday 8:00AM - 8:00PM; Tomorrow 8:00AM - 8:00PM; Saturday 8:00AM - 5:00PM; Sunday 8:00AM - 5:00PM; Monday 8:00AM - 8:00PM; Tuesday 8:00AM - 8:00PM; Wednesday 8:00AM - 8:00PM; Tomorrow 8:00AM - 8:00PM; Saturday 8:00AM - 5:00PM; Sunday 8:00AM - 5:00PM; Monday 8:00AM - 8:00PM; Tuesday 8:00AM - 8:00PM; Wednesday 8:00AM - 8:00PM; ,,0
RediClinic Vintage Park,122,10919 Louetta Road ,,Houston ,TX,77070,United States,281.251.1800,,,Tomorrow 8:00AM - 8:00PM; Saturday 8:00AM - 5:00PM; Sunday 8:00AM - 5:00PM; Monday 8:00AM - 8:00PM; Tuesday 8:00AM - 8:00PM; Wednesday 8:00AM - 8:00PM; Tomorrow 8:00AM - 8:00PM; Saturday 8:00AM - 5:00PM; Sunday 8:00AM - 5:00PM; Monday 8:00AM - 8:00PM; Tuesday 8:00AM - 8:00PM; Wednesday 8:00AM - 8:00PM; Tomorrow 8:00AM - 8:00PM; Saturday 8:00AM - 5:00PM; Sunday 8:00AM - 5:00PM; Monday 8:00AM - 8:00PM; Tuesday 8:00AM - 8:00PM; Wednesday 8:00AM - 8:00PM; Tomorrow 8:00AM - 8:00PM; Saturday 8:00AM - 5:00PM; Sunday 8:00AM - 5:00PM; Monday 8:00AM - 8:00PM; Tuesday 8:00AM - 8:00PM; Wednesday 8:00AM - 8:00PM; ,,0
RediClinic Kingwood,122,4517 Kingwood Drive ,,Houston ,TX,77345,United States,281.358.0013,,,Tomorrow 8:00AM - 8:00PM; Saturday 8:00AM - 5:00PM; Sunday 8:00AM - 5:00PM; Monday 8:00AM - 8:00PM; Tuesday 8:00AM - 8:00PM; Wednesday 8:00AM - 8:00PM; Tomorrow 8:00AM - 8:00PM; Saturday 8:00AM - 5:00PM; Sunday 8:00AM - 5:00PM; Monday 8:00AM - 8:00PM; Tuesday 8:00AM - 8:00PM; Wednesday 8:00AM - 8:00PM; Tomorrow 8:00AM - 8:00PM; Saturday 8:00AM - 5:00PM; Sunday 8:00AM - 5:00PM; Monday 8:00AM - 8:00PM; Tuesday 8:00AM - 8:00PM; Wednesday 8:00AM - 8:00PM; Tomorrow 8:00AM - 8:00PM; Saturday 8:00AM - 5:00PM; Sunday 8:00AM - 5:00PM; Monday 8:00AM - 8:00PM; Tuesday 8:00AM - 8:00PM; Wednesday 8:00AM - 8:00PM; ,,0
RediClinic Pearland,124,2805 Business Center Drive ,,Pearland ,TX,77584,United States,713.436.5208,,,Tomorrow 8:00AM - 8:00PM; Saturday 8:00AM - 5:00PM; Sunday 8:00AM - 5:00PM; Monday 8:00AM - 8:00PM; Tuesday 8:00AM - 8:00PM; Wednesday 8:00AM - 8:00PM; ,,0
RediClinic Purcellville,200,801 East Main Street ,,Purcellville ,VA,20132,United States,540.338.4195,,,Tomorrow 8:00AM - 8:00PM; Saturday 8:00AM - 5:00PM; Sunday 8:00AM - 5:00PM; Monday 8:00AM - 8:00PM; Tuesday 8:00AM - 8:00PM; Wednesday 8:00AM - 8:00PM; ,,0
RediClinic Reston,203,2260A Hunters ,,Woods Reston ,VA,20191,United States,703.860.0300,,,Tomorrow 8:00AM - 8:00PM; Saturday 8:00AM - 5:00PM; Sunday 8:00AM - 5:00PM; Monday 8:00AM - 8:00PM; Tuesday 8:00AM - 8:00PM; Wednesday 8:00AM - 8:00PM; ,,0
RediClinic Silver Lake,211,7100 Silver Lake Blvd ,,Alexandria ,VA,22315,United States,703.922.4604,,,Tomorrow 8:00AM - 8:00PM; Saturday 8:00AM - 5:00PM; Sunday 8:00AM - 5:00PM; Monday 8:00AM - 8:00PM; Tuesday 8:00AM - 8:00PM; Wednesday 8:00AM - 8:00PM; ,,0
RediClinic Shoreline,209,655 NW Richmond Beach Road ,,Shoreline ,WA,98177,United States,206.542.9688,,,Tomorrow 8:00AM - 1:00PM / 5:00PM - 8:00PM; Saturday Closed; Sunday Closed; Monday 8:00AM - 1:00PM / 5:00PM - 8:00PM; Tuesday 8:00AM - 1:00PM / 5:00PM - 8:00PM; Wednesday 8:00AM - 1:00PM / 5:00PM - 8:00PM; ,,0
RediClinic Mukilteo,188,11700 Mukilteo Speedway # 500 ,,Mukilteo ,WA,98275,United States,425.514.0620,,,Tomorrow 8:00AM - 1:00PM / 5:00PM - 8:00PM; Saturday Closed; Sunday Closed; Monday 8:00AM - 1:00PM / 5:00PM - 8:00PM; Tuesday 8:00AM - 1:00PM / 5:00PM - 8:00PM; Wednesday 8:00AM - 1:00PM / 5:00PM - 8:00PM; ,,0
RediClinic South Hill,214,9502 176TH Street ,,East Puyallup ,WA,98375,United States,253.846.5386,,,Tomorrow 8:00AM - 8:00PM; Saturday 9:00AM - 6:00PM; Sunday 9:00AM - 6:00PM; Monday 8:00AM - 8:00PM; Tuesday 8:00AM - 8:00PM; Wednesday 8:00AM - 8:00PM; ,,0
RediClinic Sammamish,207,3066 Issaquah-Pine Lake Road SE ,,Sammamish ,WA,98075,United States,425.391.1582,,,Tomorrow 8:00AM - 1:00PM / 5:00PM - 8:00PM; Saturday Closed; Sunday Closed; Monday 8:00AM - 1:00PM / 5:00PM - 8:00PM; Tuesday 8:00AM - 1:00PM / 5:00PM - 8:00PM; Wednesday 8:00AM - 1:00PM / 5:00PM - 8:00PM; ,,0
RediClinic Alon Market,234,8503 NW Military Highway ,,San Antonio ,TX,78230,United States,210.492.8200,,,Tomorrow 8:00AM - 8:00PM; Saturday 8:00AM - 5:00PM; Sunday 8:00AM - 5:00PM; Monday 8:00AM - 8:00PM; Tuesday 8:00AM - 8:00PM; Wednesday 8:00AM - 8:00PM; Tomorrow 8:00AM - 8:00PM; Saturday 8:00AM - 5:00PM; Sunday 8:00AM - 5:00PM; Monday 8:00AM - 8:00PM; Tuesday 8:00AM - 8:00PM; Wednesday 8:00AM - 8:00PM; Tomorrow 8:00AM - 8:00PM; Saturday 8:00AM - 5:00PM; Sunday 8:00AM - 5:00PM; Monday 8:00AM - 8:00PM; Tuesday 8:00AM - 8:00PM; Wednesday 8:00AM - 8:00PM; ,,0
RediClinic Blanco,234,1150 N. Loop 1604 ,,W. San Antonio ,TX,78248,United States,210.492.1435,,,Tomorrow 8:00AM - 8:00PM; Saturday 8:00AM - 5:00PM; Sunday 8:00AM - 5:00PM; Monday 8:00AM - 8:00PM; Tuesday 8:00AM - 8:00PM; Wednesday 8:00AM - 8:00PM; Tomorrow 8:00AM - 8:00PM; Saturday 8:00AM - 5:00PM; Sunday 8:00AM - 5:00PM; Monday 8:00AM - 8:00PM; Tuesday 8:00AM - 8:00PM; Wednesday 8:00AM - 8:00PM; Tomorrow 8:00AM - 8:00PM; Saturday 8:00AM - 5:00PM; Sunday 8:00AM - 5:00PM; Monday 8:00AM - 8:00PM; Tuesday 8:00AM - 8:00PM; Wednesday 8:00AM - 8:00PM; ,,0
RediClinic Stone Ridge,234,20935 Us Hwy 281 ,,North San Antonio ,TX,78258,United States,210.424.0089,,,Tomorrow 8:00AM - 8:00PM; Saturday 8:00AM - 5:00PM; Sunday 8:00AM - 5:00PM; Monday 8:00AM - 8:00PM; Tuesday 8:00AM - 8:00PM; Wednesday 8:00AM - 8:00PM; Tomorrow 8:00AM - 8:00PM; Saturday 8:00AM - 5:00PM; Sunday 8:00AM - 5:00PM; Monday 8:00AM - 8:00PM; Tuesday 8:00AM - 8:00PM; Wednesday 8:00AM - 8:00PM; Tomorrow 8:00AM - 8:00PM; Saturday 8:00AM - 5:00PM; Sunday 8:00AM - 5:00PM; Monday 8:00AM - 8:00PM; Tuesday 8:00AM - 8:00PM; Wednesday 8:00AM - 8:00PM; ,,0
RediClinic Kenmore,174,18022 68th Avenue NE ,,Kenmore ,WA,98028,United States,425.424.2320,,,Tomorrow 8:00AM - 8:00PM; Saturday 9:00AM - 6:00PM; Sunday 9:00AM - 6:00PM; Monday 8:00AM - 8:00PM; Tuesday 8:00AM - 8:00PM; Wednesday 8:00AM - 8:00PM; ,,0
RediClinic Federal Way,166,2131 SW 336TH Street ,,Federal Way ,WA,98023,United States,253.952.2803,,,Tomorrow 8:00AM - 8:00PM; Saturday 9:00AM - 6:00PM; Sunday 9:00AM - 6:00PM; Monday 8:00AM - 8:00PM; Tuesday 8:00AM - 8:00PM; Wednesday 8:00AM - 8:00PM; ,,0
RediClinic Factoria Square Mall,164,3905 Factoria Mall SE ,,Bellevue ,WA,98006,United States,425.644.2925,,,Tomorrow 8:00AM - 8:00PM; Saturday 9:00AM - 6:00PM; Sunday 9:00AM - 6:00PM; Monday 8:00AM - 8:00PM; Tuesday 8:00AM - 8:00PM; Wednesday 8:00AM - 8:00PM; Tomorrow 8:00AM - 1:00PM / 5:00PM - 8:00PM; Saturday Closed; Sunday Closed; Monday 8:00AM - 1:00PM / 5:00PM - 8:00PM; Tuesday 8:00AM - 1:00PM / 5:00PM - 8:00PM; Wednesday 8:00AM - 1:00PM / 5:00PM - 8:00PM; ,,0
RediClinic Eastgate Plaza,164,15100 S.E. 38TH Street ,,Bellevue ,WA,98006,United States,425.746.4028,,,Tomorrow 8:00AM - 8:00PM; Saturday 9:00AM - 6:00PM; Sunday 9:00AM - 6:00PM; Monday 8:00AM - 8:00PM; Tuesday 8:00AM - 8:00PM; Wednesday 8:00AM - 8:00PM; Tomorrow 8:00AM - 1:00PM / 5:00PM - 8:00PM; Saturday Closed; Sunday Closed; Monday 8:00AM - 1:00PM / 5:00PM - 8:00PM; Tuesday 8:00AM - 1:00PM / 5:00PM - 8:00PM; Wednesday 8:00AM - 1:00PM / 5:00PM - 8:00PM; ,,0
RediClinic Falls Church,165,6053 Leesburg Pike Falls ,,Church ,VA,22041,United States,703.845.3771,,,Tomorrow 8:00AM - 8:00PM; Saturday 8:00AM - 5:00PM; Sunday 8:00AM - 5:00PM; Monday 8:00AM - 8:00PM; Tuesday 8:00AM - 8:00PM; Wednesday 8:00AM - 8:00PM; ,,0
RediClinic Mill Creek,183,16222 Bothell-Everett Highway ,,Mill Creek ,WA,98012,United States,425.741.8649,,,Tomorrow 8:00AM - 8:00PM; Saturday 9:00AM - 6:00PM; Sunday 9:00AM - 6:00PM; Monday 8:00AM - 8:00PM; Tuesday 8:00AM - 8:00PM; Wednesday 8:00AM - 8:00PM; ,,0
RediClinic Belford,238,78 Leonardville E. Road ,,Belford ,NJ,07718,United States,732.471.9044,,,Tomorrow 8:00AM - 8:00PM; Saturday 8:00AM - 5:00PM; Sunday 8:00AM - 5:00PM; Monday 8:00AM - 8:00PM; Tuesday 8:00AM - 8:00PM; Wednesday 8:00AM - 8:00PM; ,,0
RediClinic Red Bank,201,140 Water Street ,,Red Bank ,NJ,07701,United States,732.747.3727,,,Tomorrow 8:00AM - 8:00PM; Saturday 8:00AM - 5:00PM; Sunday 8:00AM - 5:00PM; Monday 8:00AM - 8:00PM; Tuesday 8:00AM - 8:00PM; Wednesday 8:00AM - 8:00PM; ,,0
RediClinic Old Bridge,244,3891 Route 516 Old Bridge ,,,NJ,08857,United States,732.607.7510,,,Tomorrow 8:00AM - 8:00PM; Saturday 8:00AM - 5:00PM; Sunday 8:00AM - 5:00PM; Monday 8:00AM - 8:00PM; Tuesday 8:00AM - 8:00PM; Wednesday 8:00AM - 8:00PM; ,,0
RediClinic Toms River,249,811 Fischer Boulevard ,,Toms River ,NJ,08753,United States,732.929.3440,,,Tomorrow 8:00AM - 8:00PM; Saturday 8:00AM - 5:00PM; Sunday 8:00AM - 5:00PM; Monday 8:00AM - 8:00PM; Tuesday 8:00AM - 8:00PM; Wednesday 8:00AM - 8:00PM; Tomorrow 8:00AM - 8:00PM; Saturday 8:00AM - 5:00PM; Sunday 8:00AM - 5:00PM; Monday 8:00AM - 8:00PM; Tuesday 8:00AM - 8:00PM; Wednesday 8:00AM - 8:00PM; ,,0
RediClinic Whitesville,249,220 NJ-70 ,,Toms River ,NJ,08755,United States,732.942.9469,,,Tomorrow 8:00AM - 8:00PM; Saturday 8:00AM - 5:00PM; Sunday 8:00AM - 5:00PM; Monday 8:00AM - 8:00PM; Tuesday 8:00AM - 8:00PM; Wednesday 8:00AM - 8:00PM; Tomorrow 8:00AM - 8:00PM; Saturday 8:00AM - 5:00PM; Sunday 8:00AM - 5:00PM; Monday 8:00AM - 8:00PM; Tuesday 8:00AM - 8:00PM; Wednesday 8:00AM - 8:00PM; ,,0
RediClinic Highland Park,171,332 Raritan Avenue ,,Highland Park ,NJ,08904,United States,732.572.3773,,,Tomorrow 8:00AM - 8:00PM; Saturday 8:00AM - 5:00PM; Sunday 8:00AM - 5:00PM; Monday 8:00AM - 8:00PM; Tuesday 8:00AM - 8:00PM; Wednesday 8:00AM - 8:00PM; ,,0
RediClinic Marlboro,218,107 North Main Street ,,Marlboro ,NJ,07746,United States,732.972.2309,,,Tomorrow 8:00AM - 8:00PM; Saturday 8:00AM - 5:00PM; Sunday 8:00AM - 5:00PM; Monday 8:00AM - 8:00PM; Tuesday 8:00AM - 8:00PM; Wednesday 8:00AM - 8:00PM; ,,0
RediClinic Elkridge,161,7270 Montgomery Road ,,Elkridge ,MD,21075,United States,410.796.3344,,,Tomorrow 8:00AM - 8:00PM; Saturday 8:00AM - 5:00PM; Sunday 8:00AM - 5:00PM; Monday 8:00AM - 8:00PM; Tuesday 8:00AM - 8:00PM; Wednesday 8:00AM - 8:00PM; ,,0
RediClinic Neptune,241,75 South Main Street ,,Neptune ,NJ,07753,United States,732.775.9083,,,Tomorrow 8:00AM - 8:00PM; Saturday 8:00AM - 5:00PM; Sunday 8:00AM - 5:00PM; Monday 8:00AM - 8:00PM; Tuesday 8:00AM - 8:00PM; Wednesday 8:00AM - 8:00PM; ,,0
RediClinic Little Egg Harbor,239,480 Route 9 ,,South Little Egg Harbor ,NJ,08087,United States,609.296.7000,,,Tomorrow 8:00AM - 8:00PM; Saturday 8:00AM - 5:00PM; Sunday 8:00AM - 5:00PM; Monday 8:00AM - 8:00PM; Tuesday 8:00AM - 8:00PM; Wednesday 8:00AM - 8:00PM; ,,0
RediClinic Arnold,136,1230 Bay Dale Dr ,,Arnold ,MD,21012,United States,410.757.0027,,,Tomorrow 8:00AM - 8:00PM; Saturday 8:00AM - 5:00PM; Sunday 8:00AM - 5:00PM; Monday 8:00AM - 8:00PM; Tuesday 8:00AM - 8:00PM; Wednesday 8:00AM - 8:00PM; ,,0
