store_name,store_number,address,address2,city,state,zip_code,country,phone_number,latitude,longitude,store_hours,other_fields,coming_soon
GARDEN CITY,1212359306,1540 LAREU STREET,SCHULMAN CROSSING,GARDEN CITY,KS,67846,United States,620-805-3442,37.978809372345,-100.83428059965,MON 09:00 - 21:30; TUE 09:00 - 21:30; WED 09:00 - 21:30; THU 09:00 - 21:30; FRI 09:00 - 21:30; SAT 09:00 - 21:30; SUN 10:00 - 19:00,,0
GRAND ISLAND,279993670,"2250 N WEBB ROAD, SUITE 200",NORTHWEST COMMONS,GRAND ISLAND,NE,68803,United States,308-392-3226,40.943745,-98.381574,MON 09:00 - 21:30; TUE 09:00 - 21:30; WED 09:00 - 21:30; THU 09:00 - 21:30; FRI 09:00 - 21:30; SAT 09:00 - 21:30; SUN 10:00 - 19:00,,0
BRIGHTON,1571527465,2269 PRAIRIE CENTER PARKWAY,PRAIRIE CENTER,BRIGHTON,CO,80601,United States,720-685-1701,39.9552,-104.782,MON 09:00 - 21:30; TUE 09:00 - 21:30; WED 09:00 - 21:30; THU 09:00 - 21:30; FRI 09:00 - 21:30; SAT 09:00 - 21:30; SUN 10:00 - 19:00,,0
SOUTH AURORA,1571527377,"15400 EAST BRIARWOOD CIRCLE, UNIT A",CORNERSTAR,AURORA,CO,80016,United States,303-617-7930,39.5929,-104.809,MON 09:00 - 21:30; TUE 09:00 - 21:30; WED 09:00 - 21:30; THU 09:00 - 21:30; FRI 09:00 - 21:30; SAT 09:00 - 21:30; SUN 10:00 - 19:00,,0
AURORA,1571527464,1200 S. IRONTON STREET,Gardens on Havana,AURORA,CO,80012,United States,303-755-0410,39.6944,-104.863,MON 09:00 - 21:30; TUE 09:00 - 21:30; WED 09:00 - 21:30; THU 09:00 - 21:30; FRI 09:00 - 21:30; SAT 09:00 - 21:30; SUN 10:00 - 19:00,,0
LOVELAND,1571527301,5875 SKY POND DRIVE,PROMENADE SHOPS AT CENTERRA,LOVELAND,CO,80537,United States,970-461-9762,40.4157,-104.991,MON 09:00 - 21:30; TUE 09:00 - 21:30; WED 09:00 - 21:30; THU 09:00 - 21:30; FRI 09:00 - 21:30; SAT 09:00 - 21:30; SUN 10:00 - 19:00,,0
LITTLETON,1571527427,8435 PARK MEADOWS CENTER DRIVE,PARK MEADOWS MALL,LITTLETON,CO,80124,United States,720-479-0600,39.5634,-104.876,MON 09:00 - 21:30; TUE 09:00 - 21:30; WED 09:00 - 21:30; THU 09:00 - 21:30; FRI 09:00 - 21:30; SAT 09:00 - 21:30; SUN 10:00 - 19:00,,0
LARKRIDGE,1571527298,16521 WASHINGTON STREET,LARKRIDGE SHOPPING CENTER,THORNTON,CO,80023,United States,303-280-6153,39.9959,-104.982,MON 09:00 - 21:30; TUE 09:00 - 21:30; WED 09:00 - 21:30; THU 09:00 - 21:30; FRI 09:00 - 21:30; SAT 09:00 - 21:30; SUN 10:00 - 19:00,,0
LONGMONT,1571527344,210 KEN PRATT BLVD,HARVEST JUNCTION,LONGMONT,CO,80501,United States,303-682-5740,40.1538,-105.097,MON 09:00 - 21:30; TUE 09:00 - 21:30; WED 09:00 - 21:30; THU 09:00 - 21:30; FRI 09:00 - 21:30; SAT 09:00 - 21:30; SUN 10:00 - 19:00,,0
LAKEWOOD,1571527442,7313 WEST ALASKA DRIVE,BELMAR CENTER,LAKEWOOD,CO,80226,United States,303-600-2600,39.7097,-105.078,MON 09:00 - 21:30; TUE 09:00 - 21:30; WED 09:00 - 21:30; THU 09:00 - 21:30; FRI 09:00 - 21:30; SAT 09:00 - 21:30; SUN 10:00 - 19:00,,0
BROOMFIELD,1571527417,31 WEST FLATIRON CROSSING DRIVE,FLATIRON CROSSING,BROOMFIELD,CO,80021,United States,720-887-0900,39.9339,-105.133,MON 09:00 - 21:30; TUE 09:00 - 21:30; WED 09:00 - 21:30; THU 09:00 - 21:30; FRI 09:00 - 21:30; SAT 09:00 - 21:30; SUN 10:00 - 19:00,,0
COLORADO SPRINGS,1571527423,3133 CINEMA POINT,FIRST AND MAIN TOWER CENTER,COLORADO SPRINGS,CO,80922,United States,719-638-3400,38.8793,-104.717,MON 09:00 - 21:30; TUE 09:00 - 21:30; WED 09:00 - 21:30; THU 09:00 - 21:30; FRI 09:00 - 21:30; SAT 09:00 - 21:30; SUN 10:00 - 19:00,,0
LITTLETON,1571527333,8501 WEST BOWLES AVENUE,SOUTHWEST PLAZA,LITTLETON,CO,80123,United States,720-981-0618,39.6131,-105.095,MON 09:00 - 21:30; TUE 09:00 - 21:30; WED 09:00 - 21:30; THU 09:00 - 21:30; FRI 09:00 - 21:30; SAT 09:00 - 21:30; SUN 10:00 - 19:00,,0
COLORADO SPRINGS,1571527350,1710 BRIAR GATE BLVD,CHAPEL HILLS MALL,COLORADO SPRINGS,CO,80920,United States,719-264-1810,38.9468,-104.796,MON 09:00 - 21:30; TUE 09:00 - 21:30; WED 09:00 - 21:30; THU 09:00 - 21:30; FRI 09:00 - 21:30; SAT 09:00 - 21:30; SUN 10:00 - 19:00,,0
DENVER WEST (LAKEWOOD),956726202,14500 W COLFAX AVENUE,COLORADO MILLS MALL,LAKEWOOD,CO,80401,United States,,39.730224,-105.161213,MON 09:00 - 21:30; TUE 09:00 - 21:30; WED 09:00 - 21:30; THU 09:00 - 21:30; FRI 09:00 - 21:30; SAT 09:00 - 21:30; SUN 10:00 - 19:00,,0
PUEBLO,956726171,5945 N ELIZABETH STREET,PUEBLO CROSSING,PUEBLO,CO,81008,United States,719 696 3096,38.33413,-104.62359,MON 09:00 - 21:30; TUE 09:00 - 21:30; WED 09:00 - 21:30; THU 09:00 - 21:30; FRI 09:00 - 21:30; SAT 09:00 - 21:30; SUN 10:00 - 19:00,,0
SALINA,1929529435,2450 9TH STREET,MIDSTATE PLAZA,SALINA,KS,67401,United States,785-827-3540,38.797507,-97.615742,MON 09:00 - 21:30; TUE 09:00 - 21:30; WED 09:00 - 21:30; THU 09:00 - 21:30; FRI 09:00 - 21:30; SAT 09:00 - 21:30; SUN 10:00 - 19:00,,0
MANHATTAN,1571527558,401 3RD PLACE,MANHATTAN MARKETPLACE,MANHATTAN,KS,66502,United States,785-539-7800,39.1851,-96.5605,MON 09:00 - 21:30; TUE 09:00 - 21:30; WED 09:00 - 21:30; THU 09:00 - 21:30; FRI 09:00 - 21:30; SAT 09:00 - 21:30; SUN 10:00 - 19:00,,0
WICHITA,1571527196,4600 W. KELLOGG DRIVE,TOWNE WEST CENTER,WICHITA,KS,67209,United States,316-942-0910,37.678,-97.4014,MON 09:00 - 21:30; TUE 09:00 - 21:30; WED 09:00 - 21:30; THU 09:00 - 21:30; FRI 09:00 - 21:30; SAT 09:00 - 21:30; SUN 10:00 - 19:00,,0
WICHITA,1571527198,2057 N. ROCK ROAD,TALL GRASS CENTER,WICHITA,KS,67206,United States,316-682-6811,37.7211,-97.2468,MON 09:00 - 21:30; TUE 09:00 - 21:30; WED 09:00 - 21:30; THU 09:00 - 21:30; FRI 09:00 - 21:30; SAT 09:00 - 21:30; SUN 10:00 - 19:00,,0
OMAHA,1571527200,3125 OAKVIEW DRIVE,OAKVIEW PLAZA SOUTH,OMAHA,NE,68144,United States,402-330-1184,41.2279,-96.1297,MON 09:00 - 21:30; TUE 09:00 - 21:30; WED 09:00 - 21:30; THU 09:00 - 21:30; FRI 09:00 - 21:30; SAT 09:00 - 21:30; SUN 10:00 - 19:00,,0
OMAHA,1571527435,9901 NICHOLAS STREET,WESTROADS MALL,OMAHA,NE,68114,United States,402-951-4400,41.2675,-96.0678,MON 09:00 - 21:30; TUE 09:00 - 21:30; WED 09:00 - 21:30; THU 09:00 - 21:30; FRI 09:00 - 21:30; SAT 09:00 - 21:30; SUN 10:00 - 19:00,,0
PAPILLION,1571527399,7403 TOWN CENTER PARKWAY,SHADOW LAKE TOWNE CENTER,PAPILLION,NE,68046,United States,402-592-1642,41.1331,-96.0267,MON 09:00 - 21:30; TUE 09:00 - 21:30; WED 09:00 - 21:30; THU 09:00 - 21:30; FRI 09:00 - 21:30; SAT 09:00 - 21:30; SUN 10:00 - 19:00,,0
COUNCIL BLUFFS,219430322,3816 METRO DRIVE,METRO CROSSING,COUNCIL BLUFFS,IA,51501,United States,712-435-3142,41.2193,-95.8384,MON 09:00 - 21:30; TUE 09:00 - 21:30; WED 09:00 - 21:30; THU 09:00 - 21:30; FRI 09:00 - 21:30; SAT 09:00 - 21:30; SUN 10:00 - 19:00,,0
CASPER,1929529433,601 SE WYOMING BLVD,EASTRIDGE MALL,CASPER,WY,82609,United States,307-265-4266,42.845408,-106.264273,MON 09:00 - 21:30; TUE 09:00 - 21:30; WED 09:00 - 21:30; THU 09:00 - 21:30; FRI 09:00 - 21:30; SAT 09:00 - 21:30; SUN 10:00 - 19:00,,0
TOPEKA,1571527195,5900 SW HUNTOON STREET,HOME DEPOT EXTENSION,TOPEKA,KS,66604,United States,785-271-5398,39.0459,-95.759,MON 09:00 - 21:30; TUE 09:00 - 21:30; WED 09:00 - 21:30; THU 09:00 - 21:30; FRI 09:00 - 21:30; SAT 09:00 - 21:30; SUN 10:00 - 19:00,,0
SIOUX FALLS,1929529434,1080 W EMPIRE MALL,EMPIRE MALL,SIOUX FALLS,SD,57106,United States,605-362-6550,43.51076,-96.774622,MON 09:00 - 21:30; TUE 09:00 - 21:30; WED 09:00 - 21:30; THU 09:00 - 21:30; FRI 09:00 - 21:30; SAT 09:00 - 21:30; SUN 10:00 - 19:00,,0
LAWRENCE,1386981403,"2727 IOWA ST, SUITE C",LAWRENCE,LAWRENCE,KS,66046,United States,785-312-3317,38.9336493964262,-95.2624255897522,MON 09:00 - 21:30; TUE 09:00 - 21:30; WED 09:00 - 21:30; THU 09:00 - 21:30; FRI 09:00 - 21:30; SAT 09:00 - 21:30; SUN 10:00 - 19:00,,0
ST. JOSEPH,1571527555,4204 NORTH BELT HIGHWAY,COOK CROSSING,ST. JOSEPH,MO,64506,United States,816-390-8088,39.8079,-94.8169,MON 09:00 - 21:30; TUE 09:00 - 21:30; WED 09:00 - 21:30; THU 09:00 - 21:30; FRI 09:00 - 21:30; SAT 09:00 - 21:30; SUN 10:00 - 19:00,,0
KANSAS CITY,1571527183,8665 NW PRAIRIE VIEW ROAD,ZONA ROSA,KANSAS CITY,MO,64153,United States,816-436-3524,39.2514,-94.661,MON 09:00 - 21:30; TUE 09:00 - 21:30; WED 09:00 - 21:30; THU 09:00 - 21:30; FRI 09:00 - 21:30; SAT 09:00 - 21:30; SUN 10:00 - 19:00,,0
OLATHE,1571527182,15280 W. 119TH STREET,NORTHRIDGE PLAZA,OLATHE,KS,66062,United States,913-254-9196,38.915,-94.7621,MON 09:00 - 21:30; TUE 09:00 - 21:30; WED 09:00 - 21:30; THU 09:00 - 21:30; FRI 09:00 - 21:30; SAT 09:00 - 21:30; SUN 10:00 - 19:00,,0
MERRIAM,1571527184,5600 ANTIOCH ROAD,MERRIAM TOWNE CENTER,MERRIAM,KS,66202,United States,913-432-3945,39.0277,-94.6891,MON 09:00 - 21:30; TUE 09:00 - 21:30; WED 09:00 - 21:30; THU 09:00 - 21:30; FRI 09:00 - 21:30; SAT 09:00 - 21:30; SUN 10:00 - 19:00,,0
LEAWOOD,1571527403,11801 NALL AVENUE,TOWN CENTER PLAZA,LEAWOOD,KS,66211,United States,913-661-0200,38.9145,-94.6484,MON 09:00 - 21:30; TUE 09:00 - 21:30; WED 09:00 - 21:30; THU 09:00 - 21:30; FRI 09:00 - 21:30; SAT 09:00 - 21:30; SUN 10:00 - 19:00,,0
LIBERTY,1571527566,1890 COLLEGE STREET,LIBERTY TRIANGLE,LIBERTY,MO,64068,United States,816-407-1111,39.2478,-94.4485,MON 09:00 - 21:30; TUE 09:00 - 21:30; WED 09:00 - 21:30; THU 09:00 - 21:30; FRI 09:00 - 21:30; SAT 09:00 - 21:30; SUN 10:00 - 19:00,,0
QUAIL SPRING,1929529460,14200 N. PENNSYLVANIA AVENUE,SHOPS AT QUAIL SPRING,OKLAHOMA CITY,OK,73134,United States,405-749-4610,35.6148,-97.548,MON 09:00 - 21:30; TUE 09:00 - 21:30; WED 09:00 - 21:30; THU 09:00 - 21:30; FRI 09:00 - 21:30; SAT 09:00 - 21:30; SUN 10:00 - 19:00,,0
LEES SUMMIT,956726164,840 NW BLUE PARKWAY,SUMMIT FAIR,LEES SUMMIT,MO,64086,United States,417-295-3033,38.928187,-94.402192,MON 09:00 - 21:30; TUE 09:00 - 21:30; WED 09:00 - 21:30; THU 09:00 - 21:30; FRI 09:00 - 21:30; SAT 09:00 - 21:30; SUN 10:00 - 19:00,,0
INDEPENDENCE,61474685,18801 E. 39TH STREET,INDEPENDENCE CENTER,INDEPENDENCE,MO,64057,United States,(816) 321-7003,39.045415,-94.359249,MON 09:00 - 21:30; TUE 09:00 - 21:30; WED 09:00 - 21:30; THU 09:00 - 21:30; FRI 09:00 - 21:30; SAT 09:00 - 21:30; SUN 10:00 - 19:00,,0
WESTGATE,1929529470,6601 SW 3RD STREET,WESTGATE MARKETPLACE,OKLAHOMA CITY,OK,73128,United States,405-491-2570,35.4633,-97.6298,MON 09:00 - 21:30; TUE 09:00 - 21:30; WED 09:00 - 21:30; THU 09:00 - 21:30; FRI 09:00 - 21:30; SAT 09:00 - 21:30; SUN 10:00 - 19:00,,0
MIDWEST CITY,1929529471,7095 SE 29TH STREET,TOWN CENTER PLAZA,MIDWEST CITY,OK,73110,United States,405-732-0820,35.4378,-97.4048,MON 09:00 - 21:30; TUE 09:00 - 21:30; WED 09:00 - 21:30; THU 09:00 - 21:30; FRI 09:00 - 21:30; SAT 09:00 - 21:30; SUN 10:00 - 19:00,,0
MOORE,1929529469,760 SW 19TH STREET,FRITTS FARM,MOORE,OK,73160,United States,405-237-1585,35.3177,-97.5013,MON 09:00 - 21:30; TUE 09:00 - 21:30; WED 09:00 - 21:30; THU 09:00 - 21:30; FRI 09:00 - 21:30; SAT 09:00 - 21:30; SUN 10:00 - 19:00,,0
WEST DES MOINES,1929529428,"320 SOUTH JORDAN CREEK PARKWAY, SUITE 100",JORDAN CREEK,WEST DES MOINES,IA,50266,United States,515-225-6230,41.564515,-93.807325,MON 09:00 - 21:30; TUE 09:00 - 21:30; WED 09:00 - 21:30; THU 09:00 - 21:30; FRI 09:00 - 21:30; SAT 09:00 - 21:30; SUN 10:00 - 19:00,,0
TULSA HILLS,1571527575,7523 S. OLYMPIA AVENUE,TULSA HILLS SHOPPING CENTER,TULSA,OK,74132,United States,918-447-1100,36.0538,-96.002,MON 09:00 - 21:30; TUE 09:00 - 21:30; WED 09:00 - 21:30; THU 09:00 - 21:30; FRI 09:00 - 21:30; SAT 09:00 - 21:30; SUN 10:00 - 19:00,,0
WOODLAND HILLS,1571527576,10021 E 71ST STREET,SOLLCO UNION PLAZA,TULSA,OK,74133,United States,918-249-4444,36.0614,-95.8652,MON 09:00 - 21:30; TUE 09:00 - 21:30; WED 09:00 - 21:30; THU 09:00 - 21:30; FRI 09:00 - 21:30; SAT 09:00 - 21:30; SUN 10:00 - 19:00,,0
BROKEN ARROW,1571527584,1620 E. HILLSIDE DRIVE,SHOPS AT BROKEN ARROW,BROKEN ARROW,OK,74012,United States,918-355-3310,36.0675,-95.7729,MON 09:00 - 21:30; TUE 09:00 - 21:30; WED 09:00 - 21:30; THU 09:00 - 21:30; FRI 09:00 - 21:30; SAT 09:00 - 21:30; SUN 10:00 - 19:00,,0
LAWTON,1480193848,261 NW 2ND STREET,LAWTON TOWN CENTER,LAWTON,OK,73501,United States,580-350-3079,34.6121695424386,-98.3879636766904,MON 09:00 - 21:30; TUE 09:00 - 21:30; WED 09:00 - 21:30; THU 09:00 - 21:30; FRI 09:00 - 21:30; SAT 09:00 - 21:30; SUN 10:00 - 19:00,,0
FARMINGTON,219430300,5050 MAIN STREET,FARMINGTON PAVILION,FARMINGTON,NM,87402,United States,505-793-8034,36.7667,-108.149,MON 09:00 - 21:30; TUE 09:00 - 21:30; WED 09:00 - 21:30; THU 09:00 - 21:30; FRI 09:00 - 21:30; SAT 09:00 - 21:30; SUN 10:00 - 19:00,,0
COTTONWOOD,1571527553,3550 STATE HIGHWAY 528 NW,COTTONWOOD PLACE,ALBUQUERQUE,NM,87114,United States,505-899-0355,35.2054,-106.653,MON 09:00 - 21:30; TUE 09:00 - 21:30; WED 09:00 - 21:30; THU 09:00 - 21:30; FRI 09:00 - 21:30; SAT 09:00 - 21:30; SUN 10:00 - 19:00,,0
ALBUQUERQUE (UPTOWN),1929529442,"6600 MENAUL BLVD. NE, SUITE 2000-1",CORONADO CENTER,ALBUQUERQUE,NM,87110,United States,505-884-4415,35.106585,-106.575485,MON 09:00 - 21:30; TUE 09:00 - 21:30; WED 09:00 - 21:30; THU 09:00 - 21:30; FRI 09:00 - 21:30; SAT 09:00 - 21:30; SUN 10:00 - 19:00,,0
MUSKOGEE,399585257,701 WEST SHAWNEE AVENUE (HWY 62),THREE RIVERS PLAZA,MUSKOGEE,OK,74401,United States,918-913-3855,35.76826,-95.37212,MON 09:00 - 21:30; TUE 09:00 - 21:30; WED 09:00 - 21:30; THU 09:00 - 21:30; FRI 09:00 - 21:30; SAT 09:00 - 21:30; SUN 10:00 - 19:00,,0
BISMARCK,537757775,1451 EAST LASALLE DRIVE,HAY CREEK SHOPS,BISMARCK,ND,58503,United States,701-989-7908,46.860148,-100.767523,MON 09:00 - 21:30; TUE 09:00 - 21:30; WED 09:00 - 21:30; THU 09:00 - 21:30; FRI 09:00 - 21:30; SAT 09:00 - 21:30; SUN 12:00 - 19:00,,0
COLUMBIA,1571527486,227 N. STADIUM,STADIUM SHOPPES,COLUMBIA,MO,65203,United States,573-447-1001,38.9607,-92.3746,MON 09:00 - 21:30; TUE 09:00 - 21:30; WED 09:00 - 21:30; THU 09:00 - 21:30; FRI 09:00 - 21:30; SAT 09:00 - 21:30; SUN 10:00 - 19:00,,0
OSAGE BEACH,1929529422,4635 OSAGE BEACH PARKWAY,LAKEVIEW POINTE,OSAGE BEACH,MO,65065,United States,573-302-7470,38.1450581462531,-92.6312498248565,MON 09:00 - 21:30; TUE 09:00 - 21:30; WED 09:00 - 21:30; THU 09:00 - 21:30; FRI 09:00 - 21:30; SAT 09:00 - 21:30; SUN 10:00 - 19:00,,0
WATERLOO,1571527523,1411 FLAMMANG DRIVE,CROSSROADS COMMONS,WATERLOO,IA,50702,United States,319-287-5722,42.461,-92.3289,MON 09:00 - 21:30; TUE 09:00 - 21:30; WED 09:00 - 21:30; THU 09:00 - 21:30; FRI 09:00 - 21:30; SAT 09:00 - 21:30; SUN 10:00 - 19:00,,0
JEFFERSON CITY,1929529459,739 STONERIDGE PARKWAY,STONERIDGE VILLAGE,JEFFERSON CITY,MO,65109,United States,573-556-5602,38.5793,-92.2219,MON 09:00 - 21:30; TUE 09:00 - 21:30; WED 09:00 - 21:30; THU 09:00 - 21:30; FRI 09:00 - 21:30; SAT 09:00 - 21:30; SUN 10:00 - 19:00,,0
FORT SMITH,1571527564,3825 PHOENIX AVENUE,FORT SMITH PAVILION,FORT SMITH,AR,72903,United States,479-646-8900,35.3401,-94.3906,MON 09:00 - 21:30; TUE 09:00 - 21:30; WED 09:00 - 21:30; THU 09:00 - 21:30; FRI 09:00 - 21:30; SAT 09:00 - 21:30; SUN 10:00 - 19:00,,0
WAITE PARK,347275651,40 2ND STREET S,MARKETPLACE SHOPPING CENTER,WAITE PARK,MN,56387,United States,320-227-6366,45.548382,-94.214595,MON 09:00 - 21:30; TUE 09:00 - 21:30; WED 09:00 - 21:30; THU 09:00 - 21:30; FRI 09:00 - 21:30; SAT 09:00 - 21:30; SUN 10:00 - 19:00,,0
BURNSVILLE,1571527307,"901 COUNTY ROAD 42 WEST, B-200",BURNSVILLE CENTER,BURNSVILLE,MN,55306,United States,952-898-0743,44.7449,-93.289,MON 09:00 - 21:30; TUE 09:00 - 21:30; WED 09:00 - 21:30; THU 09:00 - 21:30; FRI 09:00 - 21:30; SAT 09:00 - 21:30; SUN 10:00 - 19:00,,0
MINNETONKA,1571527404,11260 WAYZATA BLVD,WEST RIDGE MARKET,MINNETONKA,MN,55305,United States,952-525-0200,44.9736,-93.4239,MON 09:00 - 21:30; TUE 09:00 - 21:30; WED 09:00 - 21:30; THU 09:00 - 21:30; FRI 09:00 - 21:30; SAT 09:00 - 21:30; SUN 10:00 - 19:00,,0
RICHFIELD,1571527406,1700 W 78TH STREET,RICHFIELD,RICHFIELD,MN,55423,United States,612-869-0200,44.8633,-93.3013,MON 09:00 - 21:30; TUE 09:00 - 21:30; WED 09:00 - 21:30; THU 09:00 - 21:30; FRI 09:00 - 21:30; SAT 09:00 - 21:30; SUN 10:00 - 19:00,,0
CEDAR RAPIDS,1571527312,4601 1ST AVENUE SE,MARKET PLACE,CEDAR RAPIDS,IA,52402,United States,319-743-3066,42.0235,-91.6218,MON 09:00 - 21:30; TUE 09:00 - 21:30; WED 09:00 - 21:30; THU 09:00 - 21:30; FRI 09:00 - 21:30; SAT 09:00 - 21:30; SUN 10:00 - 19:00,,0
MAPLE GROVE,1571527334,11361 FOUNTAINS DRIVE,FOUNTAINS OF ARBOR LAKES,MAPLE GROVE,MN,55369,United States,763-315-5377,45.0901,-93.4249,MON 09:00 - 21:30; TUE 09:00 - 21:30; WED 09:00 - 21:30; THU 09:00 - 21:30; FRI 09:00 - 21:30; SAT 09:00 - 21:30; SUN 10:00 - 19:00,,0
ROSEVILLE,1571527396,1645 COUNTY ROAD B2 W,CROSSROADS MALL,ROSEVILLE,MN,55113,United States,651-633-7242,45.0163,-93.169,MON 09:00 - 21:30; TUE 09:00 - 21:30; WED 09:00 - 21:30; THU 09:00 - 21:30; FRI 09:00 - 21:30; SAT 09:00 - 21:30; SUN 10:00 - 19:00,,0
COON RAPIDS,1571527561,12661 RIVERDALE BLVD.,RIVERDALE VILLAGE,COON RAPIDS,MN,55448,United States,763-323-8611,45.2016,-93.3488,MON 09:00 - 21:30; TUE 09:00 - 21:30; WED 09:00 - 21:30; THU 09:00 - 21:30; FRI 09:00 - 21:30; SAT 09:00 - 21:30; SUN 10:00 - 19:00,,0
QUINCY,288683230,6006 BROADWAY STREET,PRAIRIE TRAILS,QUINCY,IL,62301,United States,217-228-7780,39.932405,-91.322458,MON 09:00 - 21:30; TUE 09:00 - 21:30; WED 09:00 - 21:30; THU 09:00 - 21:30; FRI 09:00 - 21:30; SAT 09:00 - 21:30; SUN 10:00 - 19:00,,0
OREM,1929529464,130 E UNIVERSITY PARKWAY,FAMILY CENTER AT OREM,OREM,UT,84058,United States,801-225-7073,40.2716,-111.692,MON 09:00 - 21:30; TUE 09:00 - 21:30; WED 09:00 - 21:30; THU 09:00 - 21:30; FRI 09:00 - 21:30; SAT 09:00 - 21:30; SUN 10:00 - 19:00,,0
WOODBURY,1571527402,8292 TAMARACK VILLAGE,TAMARACK VILLAGE,WOODBURY,MN,55125,United States,651-731-0200,44.942,-92.9407,MON 09:00 - 21:30; TUE 09:00 - 21:30; WED 09:00 - 21:30; THU 09:00 - 21:30; FRI 09:00 - 21:30; SAT 09:00 - 21:30; SUN 10:00 - 19:00,,0
BURLINGTON,588933690,"3200 AGENCY ST, #150",BURLINGTON COMMONS,BURLINGTON,IA,52601,United States,319-237-3447,40.813126,-91.159621,MON 09:00 - 21:30; TUE 09:00 - 21:30; WED 09:00 - 21:30; THU 09:00 - 21:30; FRI 09:00 - 21:30; SAT 09:00 - 21:30; SUN 10:00 - 19:00,,0
AMERICAN FORK,167353936,841 W PACIFIC DRIVE,THE MEADOWS SHOPPING DISTRICT,AMERICAN FORK,UT,84003,United States,801-692-6137,40.379594,-111.821674,MON 09:00 - 21:30; TUE 09:00 - 21:30; WED 09:00 - 21:30; THU 09:00 - 21:30; FRI 09:00 - 21:30; SAT 09:00 - 21:30; SUN 10:00 - 19:00,,0
MIDVALE,1929529474,7170 S 1000 E,FAMILY CENTER AT FORT UNION,MIDVALE,UT,84047,United States,801-566-2920,40.621,-111.862,MON 09:00 - 21:30; TUE 09:00 - 21:30; WED 09:00 - 21:30; THU 09:00 - 21:30; FRI 09:00 - 21:30; SAT 09:00 - 21:30; SUN 10:00 - 19:00,,0
FLOWER MOUND,1571527363,5801 LONG PRAIRIE ROAD,THE HIGHLANDS,FLOWER MOUND,TX,75028,United States,972-355-1111,33.0658,-97.084,MON 09:00 - 21:30; TUE 09:00 - 21:30; WED 09:00 - 21:30; THU 09:00 - 21:30; FRI 09:00 - 21:30; SAT 09:00 - 21:30; SUN 10:00 - 19:00,,0
LAYTON,1571527565,1201 N HILL FIELD ROAD #1024,LAYTON HILLS MALL,LAYTON,UT,84041,United States,801-444-6656,41.0776,-111.978,MON 09:00 - 21:30; TUE 09:00 - 21:30; WED 09:00 - 21:30; THU 09:00 - 21:30; FRI 09:00 - 21:30; SAT 09:00 - 21:30; SUN 10:00 - 19:00,,0
ALLIANCE,1929529492,9356 SAGE MEADOW TRAIL,ALLIANCE TOWN CENTER,FORT WORTH,TX,76177,United States,817-750-1170,32.908852,-97.313426,MON 09:00 - 21:30; TUE 09:00 - 21:30; WED 09:00 - 21:30; THU 09:00 - 21:30; FRI 09:00 - 21:30; SAT 09:00 - 21:30; SUN 10:00 - 19:00,,0
FRISCO,1571527415,2611 PRESTON ROAD,STONEBRIAR CENTER,FRISCO,TX,75034,United States,214-618-0200,33.1003,-96.8105,MON 09:00 - 21:30; TUE 09:00 - 21:30; WED 09:00 - 21:30; THU 09:00 - 21:30; FRI 09:00 - 21:30; SAT 09:00 - 21:30; SUN 10:00 - 19:00,,0
ALLEN,1571527474,170 E. STACY ROAD,THE VILLAGE AT ALLEN,ALLEN,TX,75002,United States,972-678-0650,33.1246,-96.6592,MON 09:00 - 21:30; TUE 09:00 - 21:30; WED 09:00 - 21:30; THU 09:00 - 21:30; FRI 09:00 - 21:30; SAT 09:00 - 21:30; SUN 10:00 - 19:00,,0
EULESS,537757768,"2701 RIO GRANDE BOULEVARD, SUITE 200",GLADE PARKS,EULESS,TX,76039,United States,682-292-9315,32.87782,-97.103322,MON 09:00 - 21:30; TUE 09:00 - 21:30; WED 09:00 - 21:30; THU 09:00 - 21:30; FRI 09:00 - 21:30; SAT 09:00 - 21:30; SUN 10:00 - 19:00,,0
IRVING,1571527480,2000 MARKET PLACE BLVD,LAS COLINAS,IRVING,TX,75063,United States,972-402-0600,32.9214,-96.9727,MON 09:00 - 21:30; TUE 09:00 - 21:30; WED 09:00 - 21:30; THU 09:00 - 21:30; FRI 09:00 - 21:30; SAT 09:00 - 21:30; SUN 10:00 - 19:00,,0
HURST,1571527370,1101 MELBOURNE ROAD,NORTHEAST MALL,HURST,TX,76053,United States,817-590-0740,32.831,-97.1985,MON 09:00 - 21:30; TUE 09:00 - 21:30; WED 09:00 - 21:30; THU 09:00 - 21:30; FRI 09:00 - 21:30; SAT 09:00 - 21:30; SUN 10:00 - 19:00,,0
DALLAS,1571527393,13838 DALLAS PARKWAY,GALLERIA,DALLAS,TX,75240,United States,972-239-5455,32.9353,-96.8208,MON 09:00 - 21:30; TUE 09:00 - 21:30; WED 09:00 - 21:30; THU 09:00 - 21:30; FRI 09:00 - 21:30; SAT 09:00 - 21:30; SUN 10:00 - 19:00,,0
GARLAND,1571527387,205 CONEFLOWER DRIVE,FIREWHEEL TOWN CENTER,GARLAND,TX,75040,United States,972-495-3208,32.9513,-96.6139,MON 09:00 - 21:30; TUE 09:00 - 21:30; WED 09:00 - 21:30; THU 09:00 - 21:30; FRI 09:00 - 21:30; SAT 09:00 - 21:30; SUN 10:00 - 19:00,,0
PARK LANE,1571527453,8030 PARK LANE,PARK LANE,DALLAS,TX,75231,United States,214-696-5800,32.8706,-96.7685,MON 09:00 - 21:30; TUE 09:00 - 21:30; WED 09:00 - 21:30; THU 09:00 - 21:30; FRI 09:00 - 21:30; SAT 09:00 - 21:30; SUN 10:00 - 19:00,,0
WASHINGTON,722313987,3162 PHOENIX CENTER DRIVE,PHOENIX CENTER II,WASHINGTON,MO,63090,United States,636-266-3006,38.534383,-90.980166,MON 09:00 - 21:30; TUE 09:00 - 21:30; WED 09:00 - 21:30; THU 09:00 - 21:30; FRI 09:00 - 21:30; SAT 09:00 - 21:30; SUN 10:00 - 19:00,,0
WENTZVILLE,1044478648,1866 WENTZVILLE PARKWAY,WENTZVILLE CROSSING,WENTZVILLE,MO,63385,United States,636-445-3081,38.8177,-90.8747,MON 09:00 - 21:30; TUE 09:00 - 21:30; WED 09:00 - 21:30; THU 09:00 - 21:30; FRI 09:00 - 21:30; SAT 09:00 - 21:30; SUN 10:00 - 19:00,,0
ARLINGTON,1571527418,3891 SOUTH COOPER STREET,PARKS AT ARLINGTON,ARLINGTON,TX,76015,United States,817-987-4800,32.6784,-97.1288,MON 09:00 - 21:30; TUE 09:00 - 21:30; WED 09:00 - 21:30; THU 09:00 - 21:30; FRI 09:00 - 21:30; SAT 09:00 - 21:30; SUN 10:00 - 19:00,,0
ROCKWALL,1571527383,1005 E. IH30,THE PLAZA AT ROCKWALL,ROCKWALL,TX,75087,United States,972-722-4434,32.9038,-96.4527,MON 09:00 - 21:30; TUE 09:00 - 21:30; WED 09:00 - 21:30; THU 09:00 - 21:30; FRI 09:00 - 21:30; SAT 09:00 - 21:30; SUN 10:00 - 19:00,,0
DUBUQUE,1571527537,555 JOHN F. KENNEDY ROAD,KENNEDY MALL,DUBUQUE,IA,52002,United States,563-557-6130,42.4939,-90.7225,MON 09:00 - 21:30; TUE 09:00 - 21:30; WED 09:00 - 21:30; THU 09:00 - 21:30; FRI 09:00 - 21:30; SAT 09:00 - 21:30; SUN 10:00 - 19:00,,0
DAVENPORT,851706598,"5511 ELMORE AVENUE, SUITE A",DAVENPORT COMMONS,DAVENPORT,IA,52807,United States,563-355-7042,41.578958,-90.52434,MON 09:00 - 21:30; TUE 09:00 - 21:30; WED 09:00 - 21:30; THU 09:00 - 21:30; FRI 09:00 - 21:30; SAT 09:00 - 21:30; SUN 10:00 - 20:00,,0
MOLINE,582148237,"4500 16TH ST, SUITE XD1",SOUTHPARK MALL,MOLINE,IL,61265,United States,309-517-2572,41.468003,-90.502252,MON 09:00 - 21:30; TUE 09:00 - 21:30; WED 09:00 - 21:30; THU 09:00 - 21:30; FRI 09:00 - 21:30; SAT 09:00 - 21:30; SUN 10:00 - 19:00,,0
CEDAR HILL,1571527455,305 WEST FM 1382,UPTOWN VILLAGE,CEDAR HILL,TX,75104,United States,972-291-5530,32.6018,-96.9432,MON 09:00 - 21:30; TUE 09:00 - 21:30; WED 09:00 - 21:30; THU 09:00 - 21:30; FRI 09:00 - 21:30; SAT 09:00 - 21:30; SUN 10:00 - 19:00,,0
LA CROSSE,1044478651,4400 WI-16,VALLEY VIEW MALL,LA CROSSE,WI,54650,United States,608-406-3684,43.872,-91.1925,MON 09:00 - 21:30; TUE 09:00 - 21:30; WED 09:00 - 21:30; THU 09:00 - 21:30; FRI 09:00 - 21:30; SAT 09:00 - 21:30; SUN 10:00 - 19:00,,0
ST. PETERS,1571527369,1600 MID RIVERS MALL,MID RIVERS MALL,ST. PETERS,MO,63376,United States,636-278-5050,38.7964,-90.6147,MON 09:00 - 21:30; TUE 09:00 - 21:30; WED 09:00 - 21:30; THU 09:00 - 21:30; FRI 09:00 - 21:30; SAT 09:00 - 21:30; SUN 10:00 - 19:00,,0
CHESTERFIELD,1571527360,64 THF BLVD.,CHESTERFIELD COMMONS,CHESTERFIELD,MO,63005,United States,636-536-3718,38.6663,-90.5879,MON 09:00 - 21:30; TUE 09:00 - 21:30; WED 09:00 - 21:30; THU 09:00 - 21:30; FRI 09:00 - 21:30; SAT 09:00 - 21:30; SUN 10:00 - 19:00,,0
POCATELLO,1571527547,1844 HURLEY DRIVE,POCATELLO SQUARE,POCATELLO,ID,83202,United States,208-238-6002,42.9083,-112.459,MON 09:00 - 21:30; TUE 09:00 - 21:30; WED 09:00 - 21:30; THU 09:00 - 21:30; FRI 09:00 - 21:30; SAT 09:00 - 21:30; SUN 10:00 - 19:00,,0
DES PERES,1571527438,200 WEST COUNTY CENTER,WEST COUNTY CENTER,DES PERES,MO,63131,United States,314-649-1400,38.5999,-90.4469,MON 09:00 - 21:30; TUE 09:00 - 21:30; WED 09:00 - 21:30; THU 09:00 - 21:30; FRI 09:00 - 21:30; SAT 09:00 - 21:30; SUN 10:00 - 19:00,,0
SOUTH COUNTY,1929529430,590 SOUTH COUNTY CENTER WAY,SOUTH COUNTY MALL,SOUTH COUNTY,MO,63129,United States,314-416-1905,38.504522,-90.334807,MON 09:00 - 21:30; TUE 09:00 - 21:30; WED 09:00 - 21:30; THU 09:00 - 21:30; FRI 09:00 - 21:30; SAT 09:00 - 21:30; SUN 10:00 - 19:00,,0
HOT SPRINGS,1571527447,1420 HIGDON FERRY ROAD,FAIRGROUND CROSSING,HOT SPRINGS,AR,71913,United States,501-624-0200,34.4696,-93.0723,MON 09:00 - 21:30; TUE 09:00 - 21:30; WED 09:00 - 21:30; THU 09:00 - 21:30; FRI 09:00 - 21:30; SAT 09:00 - 21:30; SUN 10:00 - 19:00,,0
CONWAY,1571527557,620 ELSINGER BOULEVARD,CONWAY COMMONS,CONWAY,AR,72032,United States,501-336-0700,35.068,-92.4143,MON 09:00 - 21:30; TUE 09:00 - 21:30; WED 09:00 - 21:30; THU 09:00 - 21:30; FRI 09:00 - 21:30; SAT 09:00 - 21:30; SUN 10:00 - 19:00,,0
LAS CRUCES,1929529468,200 NORTH TELSHOR BLVD.,LAS CRUCES,LAS CRUCES,NM,88011,United States,575-522-9756,32.3198,-106.747,MON 09:00 - 21:30; TUE 09:00 - 21:30; WED 09:00 - 21:30; THU 09:00 - 21:30; FRI 09:00 - 21:30; SAT 09:00 - 21:30; SUN 10:00 - 19:00,,0
PEORIA,1571527432,5205 WEST WAR MEMORIAL DRIVE,THE SHOPPES AT GRAND PRARIE,PEORIA,IL,61615,United States,309-683-2400,40.7808,-89.673,MON 09:00 - 21:30; TUE 09:00 - 21:30; WED 09:00 - 21:30; THU 09:00 - 21:30; FRI 09:00 - 21:30; SAT 09:00 - 21:30; SUN 10:00 - 19:00,,0
SPRINGFIELD,1571527235,2501 W. WABASH AVENUE,WHITE OAKS MALL,SPRINGFIELD,IL,62704,United States,217-726-6451,39.766,-89.7031,MON 09:00 - 21:30; TUE 09:00 - 21:30; WED 09:00 - 21:30; THU 09:00 - 21:30; FRI 09:00 - 21:30; SAT 09:00 - 21:30; SUN 10:00 - 19:00,,0
EL PASO,1929529449,"8889 GATEWAY WEST BLVD, SUITE 110",THE FOUNTAINS AT FARAH,EL PASO,TX,79925,United States,915-633-1120,31.771103,-106.373414,MON 09:00 - 21:30; TUE 09:00 - 21:30; WED 09:00 - 21:30; THU 09:00 - 21:30; FRI 09:00 - 21:30; SAT 09:00 - 21:30; SUN 10:00 - 19:00,,0
WEST EL PASO,618788270,801 SUNLAND PARK DRIVE,SUNLAND PLAZA,EL PASO,TX,79912,United States,915-218-5119,31.819,-106.547,MON 09:00 - 21:30; TUE 09:00 - 21:30; WED 09:00 - 21:30; THU 09:00 - 21:30; FRI 09:00 - 21:30; SAT 09:00 - 21:30; SUN 10:00 - 19:00,,0
WEST MADISON,1571527234,237 WEST TOWNE MALL,WEST TOWNE MALL,MADISON,WI,53719,United States,608-829-1313,43.0563,-89.5076,MON 09:00 - 21:30; TUE 09:00 - 21:30; WED 09:00 - 21:30; THU 09:00 - 21:30; FRI 09:00 - 21:30; SAT 09:00 - 21:30; SUN 10:00 - 19:00,,0
LONGVIEW,437467207,"3500 MCCANN ROAD, SUITE K101",LONGVIEW MALL,LONGVIEW,TX,75605,United States,903-653-1437,32.539,-94.752,MON 09:00 - 21:30; TUE 09:00 - 21:30; WED 09:00 - 21:30; THU 09:00 - 21:30; FRI 09:00 - 21:30; SAT 09:00 - 21:30; SUN 10:00 - 19:00,,0
DULUTH,1929529443,1600 MILLER TRUNK HIGHWAY,MILLER HILL MALL,DULUTH,MN,55811,United States,218-727-2078,46.803644,-92.158382,MON 09:00 - 21:30; TUE 09:00 - 21:30; WED 09:00 - 21:30; THU 09:00 - 21:30; FRI 09:00 - 21:30; SAT 09:00 - 21:30; SUN 10:00 - 19:00,,0
EAST MADISON,1571527233,350 EAST TOWNE MALL,EAST TOWNE MALL,MADISON,WI,53704,United States,608-241-2764,43.1258,-89.3034,MON 09:00 - 21:30; TUE 09:00 - 21:30; WED 09:00 - 21:30; THU 09:00 - 21:30; FRI 09:00 - 21:30; SAT 09:00 - 21:30; SUN 10:00 - 19:00,,0
BLOOMINGTON,347275653,1608 EAST EMPIRE STREET,COLONIAL PLAZA,BLOOMINGTON,IL,61701,United States,309-807-1908,40.48773,-88.95333,MON 09:00 - 21:30; TUE 09:00 - 21:30; WED 09:00 - 21:30; THU 09:00 - 21:30; FRI 09:00 - 21:30; SAT 09:00 - 21:30; SUN 10:00 - 19:00,,0
ROCKFORD,1571527133,6380 E. STATE STREET,ROCKFORD SHOPPING CENTER,ROCKFORD,IL,61108,United States,815-397-7115,42.2704,-88.9924,MON 09:00 - 21:30; TUE 09:00 - 21:30; WED 09:00 - 21:30; THU 09:00 - 21:30; FRI 09:00 - 21:30; SAT 09:00 - 21:30; SUN 10:00 - 19:00,,0
HARKER HEIGHTS,1571527469,201 EAST CENTRAL TEXAS EXPRESSWAY,MARKET HEIGHTS,HARKER HEIGHTS,TX,76548,United States,254-690-4220,31.0735,-97.6686,MON 09:00 - 21:30; TUE 09:00 - 21:30; WED 09:00 - 21:30; THU 09:00 - 21:30; FRI 09:00 - 21:30; SAT 09:00 - 21:30; SUN 10:00 - 19:00,,0
JANESVILLE,279993689,"2500 MILTON AVENUE, BUILDING A",JANESVILLE MALL,JANESVILLE,WI,53545,United States,608-302-4093,42.713023,-88.998321,MON 09:00 - 21:30; TUE 09:00 - 21:30; WED 09:00 - 21:30; THU 09:00 - 21:30; FRI 09:00 - 21:30; SAT 09:00 - 21:30; SUN 10:00 - 19:00,,0
CARBONDALE,1571527379,1250 EAST MAIN STREET,UNIVERSITY PLACE,CARBONDALE,IL,62901,United States,618-549-7581,37.734,-89.1925,MON 09:00 - 21:30; TUE 09:00 - 21:30; WED 09:00 - 21:30; THU 09:00 - 21:30; FRI 09:00 - 21:30; SAT 09:00 - 21:30; SUN 10:00 - 19:00,,0
WAUSAU,347275650,4600 RIB MOUNTAIN DRIVE,,WAUSAU,WI,54401,United States,715-241-7403,44.91512,-89.651529,MON 09:00 - 21:30; TUE 09:00 - 21:30; WED 09:00 - 21:30; THU 09:00 - 21:30; FRI 09:00 - 21:30; SAT 09:00 - 21:30; SUN 10:00 - 19:00,,0
ST. GEORGE,1571527551,"15 SOUTH RIVER RD, SUITE 240",RED ROCKS COMMONS,ST. GEORGE,UT,84790,United States,435-673-4261,37.1074,-113.553,MON 09:00 - 21:30; TUE 09:00 - 21:30; WED 09:00 - 21:30; THU 09:00 - 21:30; FRI 09:00 - 21:30; SAT 09:00 - 21:30; SUN 10:00 - 19:00,,0
YORKVILLE,1571527472,825 ERICA LANE,KENDALE MARKETPLACE,YORKVILLE,IL,60560,United States,630-553-5365,41.6646,-88.461,MON 09:00 - 21:30; TUE 09:00 - 21:30; WED 09:00 - 21:30; THU 09:00 - 21:30; FRI 09:00 - 21:30; SAT 09:00 - 21:30; SUN 10:00 - 19:00,,0
SHREVEPORT,1571527392,7543 YOUREE DRIVE,KINGS CROSSING,SHREVEPORT,LA,71105,United States,318-797-9110,32.4366,-93.7121,MON 09:00 - 21:30; TUE 09:00 - 21:30; WED 09:00 - 21:30; THU 09:00 - 21:30; FRI 09:00 - 21:30; SAT 09:00 - 21:30; SUN 10:00 - 19:00,,0
TWIN FALLS,722313986,1939 FILLMORE STREET,CANYON PARK WEST,TWIN FALLS,ID,83301,United States,208-944-3105,42.597078,-114.458756,MON 09:00 - 21:30; TUE 09:00 - 21:30; WED 09:00 - 21:30; THU 09:00 - 21:30; FRI 09:00 - 21:30; SAT 09:00 - 21:30; SUN 10:00 - 19:00,,0
GENEVA,1571527431,618 COMMONS DRIVE,GENEVA COMMONS,GENEVA,IL,60134,United States,630-943-4100,41.8953,-88.3437,MON 09:00 - 21:30; TUE 09:00 - 21:30; WED 09:00 - 21:30; THU 09:00 - 21:30; FRI 09:00 - 21:30; SAT 09:00 - 21:30; SUN 10:00 - 19:00,,0
OSWEGO,1571527342,2470 US HWY 34,PRAIRIE MARKET,OSWEGO,IL,60543,United States,630-554-9061,41.7016,-88.3063,MON 09:00 - 21:30; TUE 09:00 - 21:30; WED 09:00 - 21:30; THU 09:00 - 21:30; FRI 09:00 - 21:30; SAT 09:00 - 21:30; SUN 10:00 - 19:00,,0
ALGONQUIN,1571527446,1816 RANDALL ROAD,ALGONQUIN,ALGONQUIN,IL,60102,United States,847-960-7700,42.1515,-88.3399,MON 09:00 - 21:30; TUE 09:00 - 21:30; WED 09:00 - 21:30; THU 09:00 - 21:30; FRI 09:00 - 21:30; SAT 09:00 - 21:30; SUN 10:00 - 19:00,,0
CHAMPAIGN,399585256,"2000 N NEIL STREET, SUITE 2000A",MARKET PLACE SHOPPING CENTER,CHAMPAIGN,IL,61820,United States,217-402-8366,40.13992,-88.24499,MON 09:00 - 21:30; TUE 09:00 - 21:30; WED 09:00 - 21:30; THU 09:00 - 21:30; FRI 09:00 - 21:30; SAT 09:00 - 21:30; SUN 10:00 - 20:00,,0
NAPERVILLE,1571527570,2763 W 75TH STREET,SPRINGBROOK PRAIRIE PAVILLION,NAPERVILLE,IL,60540,United States,630-548-1476,41.749,-88.202,MON 09:00 - 21:30; TUE 09:00 - 21:30; WED 09:00 - 21:30; THU 09:00 - 21:30; FRI 09:00 - 21:30; SAT 09:00 - 21:30; SUN 10:00 - 19:00,,0
CEDAR PARK,851706611,"5001 183A TOLL ROAD, SUITE A",THE PARKE,CEDAR PARK,TX,78613,United States,512-528-0091,30.530978,-97.8199,MON 09:00 - 21:30; TUE 09:00 - 21:30; WED 09:00 - 21:30; THU 09:00 - 21:30; FRI 09:00 - 21:30; SAT 09:00 - 21:30; SUN 10:00 - 20:00,,0
MCHENRY,1571527329,3436 SHOPPERS DRIVE,MCHENRY SQUARE,MCHENRY,IL,60051,United States,815-578-8880,42.3675,-88.2652,MON 09:00 - 21:30; TUE 09:00 - 21:30; WED 09:00 - 21:30; THU 09:00 - 21:30; FRI 09:00 - 21:30; SAT 09:00 - 21:30; SUN 10:00 - 19:00,,0
JOLIET,219430305,2601A PLAINFIELD ROAD,JOLIET COMMONS,JOLIET,IL,60435,United States,815-230-1075,41.5781,-88.1553,MON 09:00 - 21:30; TUE 09:00 - 21:30; WED 09:00 - 21:30; THU 09:00 - 21:30; FRI 09:00 - 21:30; SAT 09:00 - 21:30; SUN 10:00 - 19:00,,0
BLOOMINGDALE,1571527309,328 WEST ARMY TRAIL ROAD,BLOOMINGDALE COURT,BLOOMINGDALE,IL,60108,United States,630-351-0823,41.9367,-88.1053,MON 09:00 - 21:30; TUE 09:00 - 21:30; WED 09:00 - 21:30; THU 09:00 - 21:30; FRI 09:00 - 21:30; SAT 09:00 - 21:30; SUN 10:00 - 19:00,,0
PFLUGERVILLE,1571527479,19000 LIMESTONE COMMERCIAL DRIVE,STONE HILL TOWN CENTER,PFLUGERVILLE,TX,78660,United States,512-252-2800,30.4711,-97.5971,MON 09:00 - 21:30; TUE 09:00 - 21:30; WED 09:00 - 21:30; THU 09:00 - 21:30; FRI 09:00 - 21:30; SAT 09:00 - 21:30; SUN 10:00 - 19:00,,0
DEER PARK,1571527341,21830 WEST LONG GROVE ROAD,TOWN CENTER PROMENADE,DEER PARK,IL,60010,United States,847-550-1527,42.1637,-88.0593,MON 09:00 - 21:30; TUE 09:00 - 21:30; WED 09:00 - 21:30; THU 09:00 - 21:30; FRI 09:00 - 21:30; SAT 09:00 - 21:30; SUN 10:00 - 19:00,,0
SCHAUMBURG,1571527407,"601 N MARTINGALE, SUITE 195",STREETS OF WOODFIELD,SCHAUMBURG,IL,60173,United States,847-995-0200,42.0416,-88.0344,MON 09:00 - 21:30; TUE 09:00 - 21:30; WED 09:00 - 21:30; THU 09:00 - 21:30; FRI 09:00 - 21:30; SAT 09:00 - 21:30; SUN 10:00 - 19:00,,0
OSHKOSH,219430310,1015 NORTH WASHBURN STREET,OSHKOSH,OSHKOSH,WI,54904,United States,920-252-8271,44.0326,-88.5826,MON 09:00 - 21:30; TUE 09:00 - 21:30; WED 09:00 - 21:30; THU 09:00 - 21:30; FRI 09:00 - 21:30; SAT 09:00 - 21:30; SUN 10:00 - 19:00,,0
AUSTIN,1571527504,3210 KRAMER LANE,DOMAIN CROSSING,AUSTIN,TX,78758,United States,512-339-3299,30.3978,-97.7266,MON 09:00 - 21:30; TUE 09:00 - 21:30; WED 09:00 - 21:30; THU 09:00 - 21:30; FRI 09:00 - 21:30; SAT 09:00 - 21:30; SUN 10:00 - 19:00,,0
LOMBARD,1571527374,810 E BUTTERFIELD ROAD,FOUNTAIN SQUARE,LOMBARD,IL,60148,United States,630-317-0200,41.8421,-87.9966,MON 09:00 - 21:30; TUE 09:00 - 21:30; WED 09:00 - 21:30; THU 09:00 - 21:30; FRI 09:00 - 21:30; SAT 09:00 - 21:30; SUN 10:00 - 19:00,,0
PRESCOTT,1929529426,5715 E. STATE ROUTE 69,PRESCOTT VALLEY CROSSROADS,PRESCOTT VALLEY,AZ,86314,United States,928-776-0499,34.5751499918336,-112.362517410759,MON 09:00 - 21:30; TUE 09:00 - 21:30; WED 09:00 - 21:30; THU 09:00 - 21:30; FRI 09:00 - 21:30; SAT 09:00 - 21:30; SUN 10:00 - 19:00,,0
BEE CAVE,1571527475,3921 MARKET STREET,HILL COUNTRY GALLERIA,BEE CAVE,TX,78738,United States,512-263-2953,30.3076,-97.9366,MON 09:00 - 21:30; TUE 09:00 - 21:30; WED 09:00 - 21:30; THU 09:00 - 21:30; FRI 09:00 - 21:30; SAT 09:00 - 21:30; SUN 10:00 - 19:00,,0
ARLINGTON HEIGHTS,1571527308,401 E. PALATINE ROAD,TOWN & COUNTRY SHOPPING CENTER,ARLINGTON HEIGHTS,IL,60004,United States,847-577-1283,42.1078,-87.9769,MON 09:00 - 21:30; TUE 09:00 - 21:30; WED 09:00 - 21:30; THU 09:00 - 21:30; FRI 09:00 - 21:30; SAT 09:00 - 21:30; SUN 10:00 - 19:00,,0
BROOKFIELD,347275640,"345 DISCOVERY DRIVE, BUILDING E",THE CORRIDOR,BROOKFIELD,WI,53045,United States,414-455-5370,43.034851,-88.132766,MON 09:00 - 21:30; TUE 09:00 - 21:30; WED 09:00 - 21:30; THU 09:00 - 21:30; FRI 09:00 - 21:30; SAT 09:00 - 21:30; SUN 10:00 - 19:00,,0
VERNON HILLS,1571527520,700 N. MILWAUKEE AVENUE  UNIT #121,FASHION SQUARE,VERNON HILLS,IL,60061,United States,847-573-8240,42.2377,-87.9472,MON 09:00 - 21:30; TUE 09:00 - 21:30; WED 09:00 - 21:30; THU 09:00 - 21:30; FRI 09:00 - 21:30; SAT 09:00 - 21:30; SUN 10:00 - 19:00,,0
BRADLEY,1571527471,2054 N. STATE ROUTE 50,BRADLEY COMMONS,BOURBONNAIS,IL,60914,United States,815-802-0565,41.1876,-87.8478,MON 09:00 - 21:30; TUE 09:00 - 21:30; WED 09:00 - 21:30; THU 09:00 - 21:30; FRI 09:00 - 21:30; SAT 09:00 - 21:30; SUN 10:00 - 19:00,,0
ORLAND PARK,1571527439,"ONE ORLAND PARK PLACE, SUITE 1",ORLAND PARK PLACE,ORLAND PARK,IL,60462,United States,708-675-3100,41.6137,-87.8514,MON 09:00 - 21:30; TUE 09:00 - 21:30; WED 09:00 - 21:30; THU 09:00 - 21:30; FRI 09:00 - 21:30; SAT 09:00 - 21:30; SUN 10:00 - 19:00,,0
WAUWATOSA,1588359351,"11500 WEST BURLEIGH STREET, SUITE 140",MAYFAIR COLLECTION,WAUWATOSA,WI,53222,United States,414-203-1380,43.07701,-88.056721,MON 09:00 - 21:30; TUE 09:00 - 21:30; WED 09:00 - 21:30; THU 09:00 - 21:30; FRI 09:00 - 21:30; SAT 09:00 - 21:30; SUN 10:00 - 19:00,,0
TINLEY PARK,1571527343,7370 WEST 191ST,TINLEY PARK TOWN CENTER,TINLEY PARK,IL,60487,United States,815-806-4952,41.5478,-87.7983,MON 09:00 - 21:30; TUE 09:00 - 21:30; WED 09:00 - 21:30; THU 09:00 - 21:30; FRI 09:00 - 21:30; SAT 09:00 - 21:30; SUN 10:00 - 19:00,,0
KENOSHA,1571527473,9899 76TH STREET,SHOPS OF PRARIE RIDGE,KENOSHA,WI,53158,United States,262-697-5764,42.564,-87.9293,MON 09:00 - 21:30; TUE 09:00 - 21:30; WED 09:00 - 21:30; THU 09:00 - 21:30; FRI 09:00 - 21:30; SAT 09:00 - 21:30; SUN 10:00 - 19:00,,0
APPLETON,1571527174,4350 GREENVILLE DRIVE,APPLETON,APPLETON,WI,54913,United States,920-954-9266,44.2751,-88.4718,MON 09:00 - 21:30; TUE 09:00 - 21:30; WED 09:00 - 21:30; THU 09:00 - 21:30; FRI 09:00 - 21:30; SAT 09:00 - 21:30; SUN 10:00 - 19:00,,0
GLENVIEW,1571527440,1900 TOWER DRIVE,THE GLEN,GLENVIEW,IL,60026,United States,847-730-7400,42.0892,-87.8251,MON 09:00 - 21:30; TUE 09:00 - 21:30; WED 09:00 - 21:30; THU 09:00 - 21:30; FRI 09:00 - 21:30; SAT 09:00 - 21:30; SUN 10:00 - 19:00,,0
PADUCAH,1571527538,"5101 HINKLEVILLE ROAD, UNIT #600",KENTUCKY OAKS MALL,PADUCAH,KY,42001,United States,270-442-0100,37.08,-88.6891,MON 09:00 - 21:30; TUE 09:00 - 21:30; WED 09:00 - 21:30; THU 09:00 - 21:30; FRI 09:00 - 21:30; SAT 09:00 - 21:30; SUN 10:00 - 19:00,,0
NILES,1571527428,5601 TOUHY AVENUE,VILLAGE CROSSING,NILES,IL,60714,United States,847-779-8800,42.009,-87.7681,MON 09:00 - 21:30; TUE 09:00 - 21:30; WED 09:00 - 21:30; THU 09:00 - 21:30; FRI 09:00 - 21:30; SAT 09:00 - 21:30; SUN 10:00 - 19:00,,0
RACINE,1571527194,2710-B SOUTH GREEN BAY ROAD,SOUTHLAND CENTER,MOUNT PLEASANT,WI,53406,United States,262-554-8117,42.7002,-87.8556,MON 09:00 - 21:30; TUE 09:00 - 21:30; WED 09:00 - 21:30; THU 09:00 - 21:30; FRI 09:00 - 21:30; SAT 09:00 - 21:30; SUN 10:00 - 19:00,,0
WOLFCHASE,1571527381,2393 N. GERMANTOWN PARKWAY,COUNTRYWOOD CROSSINGS,CORDOVA,TN,38016,United States,901-386-5302,35.1907,-89.7962,MON 09:00 - 21:30; TUE 09:00 - 21:30; WED 09:00 - 21:30; THU 09:00 - 21:30; FRI 09:00 - 21:30; SAT 09:00 - 21:30; SUN 10:00 - 19:00,,0
CHICAGO (LINCOLN PARK),537757767,1538 N. CLYBOURN AVENUE,LINCOLN PARK,CHICAGO,IL,60610,United States,312-489-2136,41.909246,-87.647825,MON 09:00 - 21:30; TUE 09:00 - 21:30; WED 09:00 - 21:30; THU 09:00 - 21:30; FRI 09:00 - 21:30; SAT 09:00 - 21:30; SUN 10:00 - 19:00,,0
GRAFTON,1571527454,1020 PORT WASHINGTON ROAD,GRAFTON COMMONS,GRAFTON,WI,53024,United States,262-377-6349,43.3225,-87.9245,MON 09:00 - 21:30; TUE 09:00 - 21:30; WED 09:00 - 21:30; THU 09:00 - 21:30; FRI 09:00 - 21:30; SAT 09:00 - 21:30; SUN 10:00 - 19:00,,0
SOUTH LOOP,1377327037,1100 S. CANAL STREET,THE MAXWELL,CHICAGO,IL,60607,United States,312-448-2184,41.867925,-87.631115,MON 09:00 - 21:30; TUE 09:00 - 21:30; WED 09:00 - 21:30; THU 09:00 - 21:30; FRI 09:00 - 21:30; SAT 09:00 - 21:30; SUN 10:00 - 19:00,,0
MEMPHIS,1929529498,766 POLO GROUNDS BLVD,CENTENNIAL COMMONS,MEMPHIS,TN,38125,United States,901-737-2216,35.052,-89.8045,MON 09:00 - 21:30; TUE 09:00 - 21:30; WED 09:00 - 21:30; THU 09:00 - 21:30; FRI 09:00 - 21:30; SAT 09:00 - 21:30; SUN 10:00 - 19:00,,0
NORTH SCOTTSDALE,896039685,7000 E MAYO BLVD,E MAYO BLVD,PHOENIX,AZ,85054,United States,480-212-0260,33.658025,-111.931099,MON 09:00 - 21:30; TUE 09:00 - 21:30; WED 09:00 - 21:30; THU 09:00 - 21:30; FRI 09:00 - 21:30; SAT 09:00 - 21:30; SUN 10:00 - 19:00,,0
HIGHLAND,1571527484,10251 INDIANAPOLIS BLVD,HIGHLAND GROVE,HIGHLAND,IN,46322,United States,219-924-2237,41.5276,-87.4684,MON 09:00 - 21:30; TUE 09:00 - 21:30; WED 09:00 - 21:30; THU 09:00 - 21:30; FRI 09:00 - 21:30; SAT 09:00 - 21:30; SUN 10:00 - 19:00,,0
DEER VALLEY,1571527376,2350 WEST HAPPY VALLEY ROAD,THE SHOPS AT NORTERRA,PHOENIX,AZ,85085,United States,623-434-3388,33.7147,-112.11,MON 09:00 - 21:30; TUE 09:00 - 21:30; WED 09:00 - 21:30; THU 09:00 - 21:30; FRI 09:00 - 21:30; SAT 09:00 - 21:30; SUN 10:00 - 19:00,,0
SCOTTSDALE (FASHION SQUARE),543131484,"7014 E CAMELBACK ROAD, SUITE ANC 03",SCOTTSDALE FASHION CENTER,SCOTTSDALE,AZ,85251,United States,480-240-4409,33.504507,-111.927584,MON 09:00 - 21:30; TUE 09:00 - 21:30; WED 09:00 - 21:30; THU 09:00 - 21:30; FRI 09:00 - 21:30; SAT 09:00 - 21:30; SUN 10:00 - 19:00,,0
GILBERT,1571527373,2269 SAN TAN VILLAGE PARKWAY,SAN TAN VILLAGE,GILBERT,AZ,85295,United States,480-899-3993,33.309,-111.745,MON 09:00 - 21:30; TUE 09:00 - 21:30; WED 09:00 - 21:30; THU 09:00 - 21:30; FRI 09:00 - 21:30; SAT 09:00 - 21:30; SUN 10:00 - 19:00,,0
GREEN BAY,1571527386,811 PILGRIM WAY,MAVERICK PHASE II,GREEN BAY,WI,54304,United States,920-490-8488,44.4809,-88.0682,MON 09:00 - 21:30; TUE 09:00 - 21:30; WED 09:00 - 21:30; THU 09:00 - 21:30; FRI 09:00 - 21:30; SAT 09:00 - 21:30; SUN 10:00 - 19:00,,0
MERRILLVILLE,1571527300,2225 SOUTHLAKE MALL,WESTFIELD SHOPPINGTOWN SOUTHLAKE,MERRILLVILLE,IN,46410,United States,219-791-0610,41.4676,-87.3092,MON 09:00 - 21:30; TUE 09:00 - 21:30; WED 09:00 - 21:30; THU 09:00 - 21:30; FRI 09:00 - 21:30; SAT 09:00 - 21:30; SUN 10:00 - 19:00,,0
GLENDALE,1571527375,7680 WEST ARROWHEAD TOWNE CENTER,ARROWHEAD TOWNE CENTER,GLENDALE,AZ,85308,United States,623-334-8366,33.6426,-112.224,MON 09:00 - 21:30; TUE 09:00 - 21:30; WED 09:00 - 21:30; THU 09:00 - 21:30; FRI 09:00 - 21:30; SAT 09:00 - 21:30; SUN 10:00 - 19:00,,0
MONROE,1929529484,"4700 MILLHAVEN ROAD, SUITE 1566",PECANLAND MALL,MONROE,LA,71203,United States,318-410-1156,32.498,-92.0606,MON 09:00 - 21:30; TUE 09:00 - 21:30; WED 09:00 - 21:30; THU 09:00 - 21:30; FRI 09:00 - 21:30; SAT 09:00 - 21:30; SUN 10:00 - 19:00,,0
TEMPE,1571527372,8550 SOUTH EMERALD DRIVE,EMERALD CENTER,TEMPE,AZ,85284,United States,480-592-0938,33.3368,-111.971,MON 09:00 - 21:30; TUE 09:00 - 21:30; WED 09:00 - 21:30; THU 09:00 - 21:30; FRI 09:00 - 21:30; SAT 09:00 - 21:30; SUN 10:00 - 19:00,,0
NEW BRAUNFELS,1571527519,303 CREEKSIDE WAY,TOWNE CENTER AT CREEKSIDE,NEW BRAUNFELS,TX,78130,United States,830-629-3100,29.7268,-98.0752,MON 09:00 - 21:30; TUE 09:00 - 21:30; WED 09:00 - 21:30; THU 09:00 - 21:30; FRI 09:00 - 21:30; SAT 09:00 - 21:30; SUN 10:00 - 19:00,,0
LA CANTERA,1571527456,18103 RIM DRIVE,THE RIM CENTER,SAN ANTONIO,TX,78257,United States,210-558-3444,29.6139,-98.6015,MON 09:00 - 21:30; TUE 09:00 - 21:30; WED 09:00 - 21:30; THU 09:00 - 21:30; FRI 09:00 - 21:30; SAT 09:00 - 21:30; SUN 10:00 - 19:00,,0
ORO VALLEY,1571527462,11935 NORTH ORACLE ROAD,ORO VALLEY MARKETPLACE,ORO VALLEY,AZ,85737,United States,520-742-0792,32.4227,-110.938,MON 09:00 - 21:30; TUE 09:00 - 21:30; WED 09:00 - 21:30; THU 09:00 - 21:30; FRI 09:00 - 21:30; SAT 09:00 - 21:30; SUN 10:00 - 19:00,,0
JACKSON,1571527450,1165 VANN DRIVE,THE COLUMNS,JACKSON,TN,38305,United States,731-660-4344,35.665,-88.8616,MON 09:00 - 21:30; TUE 09:00 - 21:30; WED 09:00 - 21:30; THU 09:00 - 21:30; FRI 09:00 - 21:30; SAT 09:00 - 21:30; SUN 10:00 - 19:00,,0
SAN ANTONIO,1571527457,"5503 WEST LOOP, 1604 NORTH",ALAMO RANCH MARKET,SAN ANTONIO,TX,78253,United States,210-680-2288,29.4897,-98.7094,MON 09:00 - 21:30; TUE 09:00 - 21:30; WED 09:00 - 21:30; THU 09:00 - 21:30; FRI 09:00 - 21:30; SAT 09:00 - 21:30; SUN 10:00 - 19:00,,0
TUCSON,507515797,6327 E. BROADWAY BLVD,WILMOT PLAZA,TUCSON,AZ,85710,United States,520-203-0016,32.222244,-110.856347,MON 09:00 - 21:30; TUE 09:00 - 21:30; WED 09:00 - 21:30; THU 09:00 - 21:30; FRI 09:00 - 21:30; SAT 09:00 - 21:30; SUN 10:00 - 19:00,,0
VALPARAISO,537757769,100 PORTER'S VALE BOULEVARD,PORTER'S VALE,VALPARAISO,IN,46383,United States,219-707-8237,41.469868,-87.014989,MON 09:00 - 21:30; TUE 09:00 - 21:30; WED 09:00 - 21:30; THU 09:00 - 21:30; FRI 09:00 - 21:30; SAT 09:00 - 21:30; SUN 10:00 - 19:00,,0
EVANSVILLE,1571527193,"6601 E LLOYD EXPRESSWAY, SUITE 2",EVANSVILLE PAVILION,EVANSVILLE,IN,47715,United States,812-402-9100,37.9744,-87.4701,MON 09:00 - 21:30; TUE 09:00 - 21:30; WED 09:00 - 21:30; THU 09:00 - 21:30; FRI 09:00 - 21:30; SAT 09:00 - 21:30; SUN 10:00 - 19:00,,0
OXFORD,437467148,300 MERCHANTS DRIVE,OXFORD GALLERIA II,OXFORD,MS,38655,United States,662-281-5814,34.363,-89.569,MON 09:00 - 21:30; TUE 09:00 - 21:30; WED 09:00 - 21:30; THU 09:00 - 21:30; FRI 09:00 - 21:30; SAT 09:00 - 21:30; SUN 10:00 - 19:00,,0
SOUTH SAN ANTONIO,1339566395,"2310 S.W. MILITARY DRIVE, SUITE #2002",SOUTH PARK MALL,SOUTH SAN ANTONIO,TX,78224,United States,210-202-2206,29.3552114969809,-98.5286625304963,MON 09:00 - 21:30; TUE 09:00 - 21:30; WED 09:00 - 21:30; THU 09:00 - 21:30; FRI 09:00 - 21:30; SAT 09:00 - 21:30; SUN 10:00 - 19:00,,0
LAFAYETTE,1571527276,2415 SAGAMORE PARKWAY SOUTH,TIPPECANOE MALL,LAFAYETTE,IN,47905,United States,765-449-0914,40.3928,-86.85,MON 09:00 - 21:30; TUE 09:00 - 21:30; WED 09:00 - 21:30; THU 09:00 - 21:30; FRI 09:00 - 21:30; SAT 09:00 - 21:30; SUN 10:00 - 19:00,,0
THE WOODLANDS,547967077,1201 LAKE WOODLANDS DRIVE,WOODLANDS MALL,THE WOODLANDS,TX,77380,United States,281-475-2836,30.164,-95.454,MON 09:00 - 21:30; TUE 09:00 - 21:30; WED 09:00 - 21:30; THU 09:00 - 21:30; FRI 09:00 - 22:00; SAT 09:00 - 22:00; SUN 10:00 - 20:00,,0
WILLOWBROOK,547967076,"7925 FM 1960 ROAD W, #9000",WILLOWBROOK MALL,HOUSTON,TX,77070,United States,281-571-7051,29.96,-95.538,MON 09:00 - 21:30; TUE 09:00 - 21:30; WED 09:00 - 21:30; THU 09:00 - 21:30; FRI 09:00 - 22:00; SAT 09:00 - 22:00; SUN 10:00 - 20:00,,0
DEERBROOK,547967061,"20131 US-59 N, SUITE 700",DEERBROOK MALL,HUMBLE,TX,77338,United States,281-713-9589,30.01,-95.271,MON 09:00 - 21:30; TUE 09:00 - 21:30; WED 09:00 - 21:30; THU 09:00 - 21:30; FRI 09:00 - 22:00; SAT 09:00 - 22:00; SUN 10:00 - 20:00,,0
KATY,564809236,"24600 KATY FREEWAY, SUITE 1100A",THE SHOPS AT PARK WEST,KATY,TX,77494,United States,281-712-8152,29.787,-95.792,MON 09:00 - 21:30; TUE 09:00 - 21:30; WED 09:00 - 21:30; THU 09:00 - 21:30; FRI 09:00 - 22:00; SAT 09:00 - 22:00; SUN 10:00 - 20:00,,0
HENDERSON,1571527430,1308 WEST SUNSET ROAD,GALLERIA AT SUNSET,HENDERSON,NV,89014,United States,702-855-5000,36.0679,-115.041,MON 09:00 - 21:30; TUE 09:00 - 21:30; WED 09:00 - 21:30; THU 09:00 - 21:30; FRI 09:00 - 21:30; SAT 09:00 - 21:30; SUN 10:00 - 19:00,,0
LAS VEGAS,219430301,"3200 LAS VEGAS BLVD, SUITE D700",FASHION SHOW MALL,LAS VEGAS,NV,89109,United States,702-479-1266,36.127,-115.17,MON 09:00 - 21:30; TUE 09:00 - 21:30; WED 09:00 - 21:30; THU 09:00 - 21:30; FRI 09:00 - 21:30; SAT 09:00 - 21:30; SUN 10:00 - 19:00,,0
BOISE,767174559,131 N MILWAUKEE STREET,WESTPARK TOWNE PLAZA,BOISE,ID,83704,United States,208-999-3475,43.606207,-116.283346,MON 09:00 - 21:30; TUE 09:00 - 21:30; WED 09:00 - 21:30; THU 09:00 - 21:30; FRI 09:00 - 21:30; SAT 09:00 - 21:30; SUN 10:00 - 19:00,,0
MERIDIAN,1571527517,3415 N EAGLE ROAD,CENTRE POINT MARKETPLACE,MERIDIAN,ID,83646,United States,208-884-2026,43.6361,-116.358,MON 09:00 - 21:30; TUE 09:00 - 21:30; WED 09:00 - 21:30; THU 09:00 - 21:30; FRI 09:00 - 21:30; SAT 09:00 - 21:30; SUN 10:00 - 19:00,,0
BLOOMINGTON,1571527277,2850 E. 3RD STREET,COLLEGE MALL,BLOOMINGTON,IN,47401,United States,812-335-1377,39.1604,-86.4959,MON 09:00 - 21:30; TUE 09:00 - 21:30; WED 09:00 - 21:30; THU 09:00 - 21:30; FRI 09:00 - 21:30; SAT 09:00 - 21:30; SUN 10:00 - 19:00,,0
PLAINFIELD,1571527318,338 CITY CENTER CIRCLE,THE SHOPS AT PERRY CROSSING,PLAINFIELD,IN,46168,United States,317-839-4803,39.7125,-86.3575,MON 09:00 - 21:30; TUE 09:00 - 21:30; WED 09:00 - 21:30; THU 09:00 - 21:30; FRI 09:00 - 21:30; SAT 09:00 - 21:30; SUN 10:00 - 19:00,,0
AVON,1571527236,10375 EAST US HIGHWAY 36,AVON COMMONS,AVON,IN,46123,United States,317-271-7850,39.7605,-86.339,MON 09:00 - 21:30; TUE 09:00 - 21:30; WED 09:00 - 21:30; THU 09:00 - 21:30; FRI 09:00 - 21:30; SAT 09:00 - 21:30; SUN 10:00 - 19:00,,0
MISHAWAKA,1571527123,4520 GRAPE ROAD,PRINCESS CITY PLAZA,MISHAWAKA,IN,46545,United States,574-243-4789,41.7009,-86.184,MON 09:00 - 21:30; TUE 09:00 - 21:30; WED 09:00 - 21:30; THU 09:00 - 21:30; FRI 09:00 - 21:30; SAT 09:00 - 21:30; SUN 10:00 - 19:00,,0
INDIANAPOLIS,1571527445,6030 WEST 86TH STREET,TRADER'S POINT,INDIANAPOLIS,IN,46278,United States,317-956-1400,39.9126,-86.2674,MON 09:00 - 21:30; TUE 09:00 - 21:30; WED 09:00 - 21:30; THU 09:00 - 21:30; FRI 09:00 - 21:30; SAT 09:00 - 21:30; SUN 10:00 - 19:00,,0
SUGAR LAND,547967070,"16535 SOUTHWEST FREEWAY, SUITE 900",FIRST COLONY MALL,SUGAR LAND,TX,77479,United States,281-201-0156,29.59,-95.625,MON 09:00 - 21:30; TUE 09:00 - 21:30; WED 09:00 - 21:30; THU 09:00 - 21:30; FRI 09:00 - 22:00; SAT 09:00 - 22:00; SUN 10:00 - 20:00,,0
CLARKSVILLE,1571527522,"2801 WILMA RUDOLPH BLVD, UNIT 195",GOVERNOR'S SQUARE,CLARKSVILLE,TN,37040,United States,931-645-2255,36.589,-87.2877,MON 09:00 - 21:30; TUE 09:00 - 21:30; WED 09:00 - 21:30; THU 09:00 - 21:30; FRI 09:00 - 21:30; SAT 09:00 - 21:30; SUN 10:00 - 19:00,,0
CARMEL,1571527238,14350 CLAY TERRACE BLVD.,CLAY TERRACE,CARMEL,IN,46032,United States,317-818-3467,39.9963,-86.1312,MON 09:00 - 21:30; TUE 09:00 - 21:30; WED 09:00 - 21:30; THU 09:00 - 21:30; FRI 09:00 - 21:30; SAT 09:00 - 21:30; SUN 10:00 - 19:00,,0
NAMPA,1044478663,16905 N MARKETPLACE BLVD,TREASURE VALLEY CROSSING,NAMPA,ID,83687,United States,208-546-3433,43.6146,-116.598,MON 09:00 - 21:30; TUE 09:00 - 21:30; WED 09:00 - 21:30; THU 09:00 - 21:30; FRI 09:00 - 21:30; SAT 09:00 - 21:30; SUN 10:00 - 19:00,,0
TUPELO,1571527449,1001 BARNES CROSSING ROAD,THE MALL AT BARNES CROSSING,TUPELO,MS,38804,United States,662-844-5799,34.3095,-88.7011,MON 09:00 - 21:30; TUE 09:00 - 21:30; WED 09:00 - 21:30; THU 09:00 - 21:30; FRI 09:00 - 21:30; SAT 09:00 - 21:30; SUN 10:00 - 19:00,,0
MUSKEGON,1571527288,5660 S HARVEY PARKWAY,THE LAKES MALL,MUSKEGON,MI,49444,United States,231-798-8003,43.1493,-86.2017,MON 09:00 - 21:30; TUE 09:00 - 21:30; WED 09:00 - 21:30; THU 09:00 - 21:30; FRI 09:00 - 21:30; SAT 09:00 - 21:30; SUN 10:00 - 19:00,,0
PEARLAND,956726194,11200 BROADWAY STREET,PEARLAND TOWN CENTER,PEARLAND,TX,77584,United States,,29.553553,-95.39244,MON 09:00 - 21:30; TUE 09:00 - 21:30; WED 09:00 - 21:30; THU 09:00 - 21:30; FRI 09:00 - 22:00; SAT 09:00 - 22:00; SUN 10:00 - 20:00,,0
GREENWOOD,1571527237,1251 US 31 NORTH,GREENWOOD MALL,GREENWOOD,IN,46142,United States,317-882-1079,39.6316,-86.119,MON 09:00 - 21:30; TUE 09:00 - 21:30; WED 09:00 - 21:30; THU 09:00 - 21:30; FRI 09:00 - 21:30; SAT 09:00 - 21:30; SUN 10:00 - 19:00,,0
CASTLETON,1571527410,6020 E 82ND STREET,CASTLETON SQUARE MALL,INDIANAPOLIS,IN,46250,United States,317-576-0300,39.9096,-86.0632,MON 09:00 - 21:30; TUE 09:00 - 21:30; WED 09:00 - 21:30; THU 09:00 - 21:30; FRI 09:00 - 21:30; SAT 09:00 - 21:30; SUN 10:00 - 19:00,,0
HOLLAND,1044478653,3530 W. SHORE DRIVE,RILEY CENTER,HOLLAND,MI,49424,United States,616-820-0118,42.8323,-86.0915,MON 09:00 - 21:30; TUE 09:00 - 21:30; WED 09:00 - 21:30; THU 09:00 - 21:30; FRI 09:00 - 21:30; SAT 09:00 - 21:30; SUN 10:00 - 19:00,,0
BAYBROOK,547967078,18650 GULF FREEWAY,"BAYBROOK, MALL POWER CENTER EXTENSION - SUITE A",FRIENDSWOOD,TX,77546,United States,832-415-1934,29.55,-95.153,MON 09:00 - 21:30; TUE 09:00 - 21:30; WED 09:00 - 21:30; THU 09:00 - 21:30; FRI 09:00 - 22:00; SAT 09:00 - 22:00; SUN 10:00 - 20:00,,0
WASHINGTON,1571527239,10202 E WASHINGTON STREET,WASHINGTON SQUARE,WASHINGTON,IN,46229,United States,317-890-8802,39.7784,-85.9847,MON 09:00 - 21:30; TUE 09:00 - 21:30; WED 09:00 - 21:30; THU 09:00 - 21:30; FRI 09:00 - 21:30; SAT 09:00 - 21:30; SUN 10:00 - 19:00,,0
NOBLESVILLE,1571527466,13157 NORELL LANE,HAMILTON TOWN CENTER,NOBLESVILLE,IN,46060,United States,317-776-1687,39.9901,-85.9316,MON 09:00 - 21:30; TUE 09:00 - 21:30; WED 09:00 - 21:30; THU 09:00 - 21:30; FRI 09:00 - 21:30; SAT 09:00 - 21:30; SUN 10:00 - 19:00,,0
MADISON,1571527541,175 GRANDVIEW BLVD.,MADISON GRANDVIEW,MADISON,MS,39110,United States,601-853-4373,32.4642,-90.1374,MON 09:00 - 21:30; TUE 09:00 - 21:30; WED 09:00 - 21:30; THU 09:00 - 21:30; FRI 09:00 - 21:30; SAT 09:00 - 21:30; SUN 10:00 - 19:00,,0
GRANDVILLE,1571527414,3660 RIVERTOWN PARKWAY,RIVERTOWN CROSSINGS,GRANDVILLE,MI,49418,United States,616-249-0660,42.8803,-85.7548,MON 09:00 - 21:30; TUE 09:00 - 21:30; WED 09:00 - 21:30; THU 09:00 - 21:30; FRI 09:00 - 21:30; SAT 09:00 - 21:30; SUN 10:00 - 19:00,,0
LAKE CHARLES,1929529452,542 WEST PRIEN LAKE ROAD,PRIEN LAKE MALL,LAKE CHARLES,LA,70601,United States,337-478-1488,30.199544,-93.2274,MON 09:00 - 21:30; TUE 09:00 - 21:30; WED 09:00 - 21:30; THU 09:00 - 21:30; FRI 09:00 - 21:30; SAT 09:00 - 21:30; SUN 10:00 - 19:00,,0
FLOWOOD,1571527397,720 MACKENZIE LANE,MARKET STREET AT FLOWOOD,FLOWOOD,MS,39232,United States,601-992-2341,32.3371,-90.0683,MON 09:00 - 21:30; TUE 09:00 - 21:30; WED 09:00 - 21:30; THU 09:00 - 21:30; FRI 09:00 - 21:30; SAT 09:00 - 21:30; SUN 10:00 - 19:00,,0
PORTAGE,1929529505,6355 WESTNEDGE AVENUE,PORTAGE,PORTAGE,MI,49002,United States,269-329-1956,42.2247,-85.5868,MON 09:00 - 21:30; TUE 09:00 - 21:30; WED 09:00 - 21:30; THU 09:00 - 21:30; FRI 09:00 - 21:30; SAT 09:00 - 21:30; SUN 10:00 - 19:00,,0
NASHVILLE,1571527326,6812 CHARLOTTE PIKE,NASHVILLE WEST,NASHVILLE,TN,37209,United States,615-354-0102,36.1355,-86.8912,MON 09:00 - 21:30; TUE 09:00 - 21:30; WED 09:00 - 21:30; THU 09:00 - 21:30; FRI 09:00 - 21:30; SAT 09:00 - 21:30; SUN 10:00 - 19:00,,0
BOWLING GREEN,1929529437,2300 GARY FARMS BLVD,GARY FARMS,BOWLING GREEN,KY,42104,United States,270-796-9115,36.956328,-86.430416,MON 09:00 - 21:30; TUE 09:00 - 21:30; WED 09:00 - 21:30; THU 09:00 - 21:30; FRI 09:00 - 21:30; SAT 09:00 - 21:30; SUN 10:00 - 19:00,,0
GRAND RAPIDS,1571527338,5118 28TH SE,KENTWOOD TOWNE CENTRE,GRAND RAPIDS,MI,49512,United States,616-977-2301,42.908,-85.5427,MON 09:00 - 21:30; TUE 09:00 - 21:30; WED 09:00 - 21:30; THU 09:00 - 21:30; FRI 09:00 - 21:30; SAT 09:00 - 21:30; SUN 10:00 - 19:00,,0
FLORENCE,1571527263,376 COX CREEK PARKWAY,COX CREEK CENTRE,FLORENCE,AL,35630,United States,256-760-4211,34.8424,-87.6354,MON 09:00 - 21:30; TUE 09:00 - 21:30; WED 09:00 - 21:30; THU 09:00 - 21:30; FRI 09:00 - 21:30; SAT 09:00 - 21:30; SUN 10:00 - 19:00,,0
RIVERGATE,1571527355,2305 GALLATIN PIKE,NORTHSIDE MARKETPLACE,MADISON,TN,37115,United States,615-855-1443,36.3066,-86.6822,MON 09:00 - 21:30; TUE 09:00 - 21:30; WED 09:00 - 21:30; THU 09:00 - 21:30; FRI 09:00 - 21:30; SAT 09:00 - 21:30; SUN 10:00 - 19:00,,0
MUNCIE,1032966195,620 E MCGALLIARD ROAD,CENTER SHOPPES,MUNCIE,IN,47303,United States,765-212-3677,40.22063,-85.38076139,MON 09:00 - 21:30; TUE 09:00 - 21:30; WED 09:00 - 21:30; THU 09:00 - 21:30; FRI 09:00 - 21:30; SAT 09:00 - 21:30; SUN 10:00 - 19:00,,0
COOL SPRINGS,1571527323,"2000 MALORY LANE, SUITE 270",COOL SPRINGS MARKET,FRANKLIN,TN,37067,United States,615-778-0595,35.9493,-86.8155,MON 09:00 - 21:30; TUE 09:00 - 21:30; WED 09:00 - 21:30; THU 09:00 - 21:30; FRI 09:00 - 21:30; SAT 09:00 - 21:30; SUN 10:00 - 19:00,,0
CLARKSVILLE,1571527319,951 E LEWIS & CLARK PARKWAY,RIVER FALLS MALL,CLARKSVILLE,IN,47129,United States,812-288-2194,38.3187,-85.7602,MON 09:00 - 21:30; TUE 09:00 - 21:30; WED 09:00 - 21:30; THU 09:00 - 21:30; FRI 09:00 - 21:30; SAT 09:00 - 21:30; SUN 10:00 - 19:00,,0
FORT WAYNE,1571527176,1520 APPLE GLEN BLVD.,APPLE GLEN CROSSING,FORT WAYNE,IN,46804,United States,260-434-0181,41.0713,-85.2034,MON 09:00 - 21:30; TUE 09:00 - 21:30; WED 09:00 - 21:30; THU 09:00 - 21:30; FRI 09:00 - 21:30; SAT 09:00 - 21:30; SUN 10:00 - 19:00,,0
COLUMBUS,1212359309,2041 US 45,UNIVERSITY MALL,COLUMBUS,MS,39705,United States,662-570-1025,33.524686566234,-88.437977144003,MON 09:00 - 21:30; TUE 09:00 - 21:30; WED 09:00 - 21:30; THU 09:00 - 21:30; FRI 09:00 - 21:30; SAT 09:00 - 21:30; SUN 10:00 - 19:00,,0
FORT WAYNE,1571527278,256-309 COLISEUM BLVD.,FORT WAYNE,FORT WAYNE,IN,46805,United States,260-470-4224,41.1198,-85.138,MON 09:00 - 21:30; TUE 09:00 - 21:30; WED 09:00 - 21:30; THU 09:00 - 21:30; FRI 09:00 - 21:30; SAT 09:00 - 21:30; SUN 10:00 - 19:00,,0
MT. JULIET,1571527322,"401 SOUTH MT. JULIET ROAD, SUITE 605",PROVIDENCE MARKET PLACE,MT. JULIET,TN,37122,United States,615-773-6160,36.1679,-86.5076,MON 09:00 - 21:30; TUE 09:00 - 21:30; WED 09:00 - 21:30; THU 09:00 - 21:30; FRI 09:00 - 21:30; SAT 09:00 - 21:30; SUN 10:00 - 19:00,,0
LOUISVILLE,1571527419,7900 SHELBYVILLE ROAD,OXMOOR CENTER,LOUISVILLE,KY,40222,United States,502-420-6400,38.2481,-85.61,MON 09:00 - 21:30; TUE 09:00 - 21:30; WED 09:00 - 21:30; THU 09:00 - 21:30; FRI 09:00 - 21:30; SAT 09:00 - 21:30; SUN 10:00 - 19:00,,0
HURSTBOURNE,1571527108,3500 S HURSTBOURNE PKWY,STONEYBROOK SHOPPING CENTER,LOUISVILLE,KY,40299,United States,502-499-9029,38.1981,-85.6048,MON 09:00 - 21:30; TUE 09:00 - 21:30; WED 09:00 - 21:30; THU 09:00 - 21:30; FRI 09:00 - 21:30; SAT 09:00 - 21:30; SUN 10:00 - 19:00,,0
SPRINGHURST,1571527107,3555 SPRINGHURST BLVD,SPRINGHURST TOWN CENTER,LOUISVILLE,KY,40241,United States,502-429-0776,38.298,-85.5588,MON 09:00 - 21:30; TUE 09:00 - 21:30; WED 09:00 - 21:30; THU 09:00 - 21:30; FRI 09:00 - 21:30; SAT 09:00 - 21:30; SUN 10:00 - 19:00,,0
MURFREESBORO,1571527349,2615 MEDICAL CENTER PARKWAY,THE AVENUE MURFREESBORO,MURFREESBORO,TN,37129,United States,615-896-8882,35.8603,-86.448,MON 09:00 - 21:30; TUE 09:00 - 21:30; WED 09:00 - 21:30; THU 09:00 - 21:30; FRI 09:00 - 21:30; SAT 09:00 - 21:30; SUN 10:00 - 19:00,,0
LAFAYETTE,167353958,"110 OLD CAMP ROAD, SUITE A",AMBASSADOR TOWN CENTER,LAFAYETTE,LA,70508,United States,337-417-8371,30.154693,-92.043482,MON 09:00 - 21:30; TUE 09:00 - 21:30; WED 09:00 - 21:30; THU 09:00 - 21:30; FRI 09:00 - 21:30; SAT 09:00 - 21:30; SUN 10:00 - 20:00,,0
RICHMOND,1044478666,3718 NATIONAL ROAD EAST,RICHMOND VILLAGE,RICHMOND,IN,47374,United States,765-373-9607,39.8331,-84.8497,MON 09:00 - 21:30; TUE 09:00 - 21:30; WED 09:00 - 21:30; THU 09:00 - 21:30; FRI 09:00 - 21:30; SAT 09:00 - 21:30; SUN 10:00 - 19:00,,0
MT. PLEASANT,1571527582,4208 E. BLUEGRASS ROAD,INDIAN HILLS PLAZA,MT. PLEASANT,MI,48858,United States,989-772-1990,43.5729,-84.7635,MON 09:00 - 21:30; TUE 09:00 - 21:30; WED 09:00 - 21:30; THU 09:00 - 21:30; FRI 09:00 - 21:30; SAT 09:00 - 21:30; SUN 10:00 - 19:00,,0
LANSING,1571527159,2801 PREYDE BLVD,EASTWOOD TOWNE CENTER,LANSING,MI,48912,United States,517-702-1300,42.7624,-84.5141,MON 09:00 - 21:30; TUE 09:00 - 21:30; WED 09:00 - 21:30; THU 09:00 - 21:30; FRI 09:00 - 21:30; SAT 09:00 - 21:30; SUN 10:00 - 19:00,,0
HUNTSVILLE,61474680,6890-A GOVERNOR'S DRIVE WEST,BRIDGE STREET TOWN CENTRE,HUNTSVILLE,AL,35806,United States,(256) 801-3766,34.714167,-86.676833,MON 09:00 - 21:30; TUE 09:00 - 21:30; WED 09:00 - 21:30; THU 09:00 - 21:30; FRI 09:00 - 21:30; SAT 09:00 - 21:30; SUN 10:00 - 19:00,,0
CORPUS CHRISTI,1929529441,"4938 SOUTH STAPLES STREET, SUITE A-1",THE SHOPS AT LA PALMERA,CORPUS CHRISTI,TX,78411,United States,361-980-1535,27.70894,-97.3677,MON 09:00 - 21:30; TUE 09:00 - 21:30; WED 09:00 - 21:30; THU 09:00 - 21:30; FRI 09:00 - 21:30; SAT 09:00 - 21:30; SUN 10:00 - 19:00,,0
BATON ROUGE,1571527400,9330 MALL OF LOUISIANA BLVD. SUITE 200,MALL OF LOUISIANA,BATON ROUGE,LA,70809,United States,225-766-9100,30.3867,-91.0817,MON 09:00 - 21:30; TUE 09:00 - 21:30; WED 09:00 - 21:30; THU 09:00 - 21:30; FRI 09:00 - 21:30; SAT 09:00 - 21:30; SUN 10:00 - 19:00,,0
COLERAIN,290211087,10180 COLERAIN AVENUE,COLERAIN TOWNE CENTER,CINCINNATI,OH,45251,United States,513-370-5022,39.261156,-84.601315,MON 09:00 - 21:30; TUE 09:00 - 21:30; WED 09:00 - 21:30; THU 09:00 - 21:30; FRI 09:00 - 21:30; SAT 09:00 - 21:30; SUN 10:00 - 19:00,,0
OKEMOS,1571527429,"1982 W. GRANDRIVER AVENUE, SUITE 310",MERIDIAN MALL,OKEMOS,MI,48864,United States,517-853-0400,42.7258,-84.4179,MON 09:00 - 21:30; TUE 09:00 - 21:30; WED 09:00 - 21:30; THU 09:00 - 21:30; FRI 09:00 - 21:30; SAT 09:00 - 21:30; SUN 10:00 - 19:00,,0
WESTERN HILLS,1571527145,5555 GLENWAY AVENUE,WESTERN HILLS MARKET PLACE,CINCINNATI,OH,45238,United States,513-347-7570,39.1321,-84.6118,MON 09:00 - 21:30; TUE 09:00 - 21:30; WED 09:00 - 21:30; THU 09:00 - 21:30; FRI 09:00 - 21:30; SAT 09:00 - 21:30; SUN 10:00 - 19:00,,0
FLORENCE,1571527141,"1336 HANSEL AVENUE, SUITE 200",TURFWAY CROSSING,FLORENCE,KY,41042,United States,859-283-2702,39.018565,-84.637604,MON 09:00 - 21:30; TUE 09:00 - 21:30; WED 09:00 - 21:30; THU 09:00 - 21:30; FRI 09:00 - 21:30; SAT 09:00 - 21:30; SUN 10:00 - 19:00,,0
HAMILTON,1571527289,3363 PRINCETON ROAD,BRIDGEWATER FALLS,HAMILTON,OH,45011,United States,513-892-4302,39.3888,-84.5047,MON 09:00 - 21:30; TUE 09:00 - 21:30; WED 09:00 - 21:30; THU 09:00 - 21:30; FRI 09:00 - 21:30; SAT 09:00 - 21:30; SUN 10:00 - 19:00,,0
FRANKFORT,1212359318,"7800 JOHN DAVIS DRIVE , SUITE #100",PARKSIDE,FRANKFORT,KY,40601,United States,502-871-3624,38.175840976598,-84.820956526865,MON 09:00 - 21:30; TUE 09:00 - 21:30; WED 09:00 - 21:30; THU 09:00 - 21:30; FRI 09:00 - 21:30; SAT 09:00 - 21:30; SUN 10:00 - 19:00,,0
EAST HUNTSVILLE,1571527482,2718 CARL T. JONES DRIVE,WESTSIDE PAVILLION,HUNTSVILLE,AL,35802,United States,256-881-3212,34.6764,-86.5482,MON 09:00 - 21:30; TUE 09:00 - 21:30; WED 09:00 - 21:30; THU 09:00 - 21:30; FRI 09:00 - 21:30; SAT 09:00 - 21:30; SUN 10:00 - 19:00,,0
CULLLMAN,507515815,1106 CULLMAN SHOPPING CENTER NW,CULLMAN SHOPPING CENTER,CULLMAN,AL,35055,United States,256-841-3534,34.181521,-86.848964,MON 09:00 - 21:30; TUE 09:00 - 21:30; WED 09:00 - 21:30; THU 09:00 - 21:30; FRI 09:00 - 21:30; SAT 09:00 - 21:30; SUN 10:00 - 19:00,,0
NEWPORT,1929529425,175 PAVILLION PARKWAY,NEWPORT PAVILLION,NEWPORT,KY,41071,United States,859-261-1348,39.0863516391089,-84.4750098506097,MON 09:00 - 21:30; TUE 09:00 - 21:30; WED 09:00 - 21:30; THU 09:00 - 21:30; FRI 09:00 - 21:30; SAT 09:00 - 21:30; SUN 10:00 - 19:00,,0
LIBERTY TOWNSHIP,399585260,7675 WAREHOUSE ROW,LIBERTY CENTER,LIBERTY TOWNSHIP,OH,45069,United States,513-712-9048,39.372452,-84.369052,MON 09:00 - 21:30; TUE 09:00 - 21:30; WED 09:00 - 21:30; THU 09:00 - 21:30; FRI 09:00 - 22:00; SAT 09:00 - 22:00; SUN 10:00 - 19:00,,0
KENWOOD,472662102,"7800 MONTGOMERY ROAD, UNIT 275",SYCAMORE PLAZA,CINCINNATI,OH,45236,United States,513-370-5024,39.201,-84.377,MON 09:00 - 21:30; TUE 09:00 - 21:30; WED 09:00 - 21:30; THU 09:00 - 21:30; FRI 09:00 - 21:30; SAT 09:00 - 21:30; SUN 10:00 - 19:00,,0
TUSCALOOSA,507515802,"1320 MCFARLAND BLVD E, BLDG 400, SUITE 410",SHOPPES AT LEGACY PARK,TUSCALOOSA,AL,35404,United States,205-535-3006,33.198974,-87.527396,MON 09:00 - 21:30; TUE 09:00 - 21:30; WED 09:00 - 21:30; THU 09:00 - 21:30; FRI 09:00 - 21:30; SAT 09:00 - 21:30; SUN 10:00 - 19:00,,0
MASON,1571527229,5700 DEERFIELD BOULEVARD,DEERFIELD TOWN CENTER,MASON,OH,45040,United States,513-770-4070,39.3088,-84.3165,MON 09:00 - 21:30; TUE 09:00 - 21:30; WED 09:00 - 21:30; THU 09:00 - 21:30; FRI 09:00 - 21:30; SAT 09:00 - 21:30; SUN 10:00 - 19:00,,0
HATTIESBURG,1571527581,1000 TURTLE CREEK ROAD,TURTLE CREEK MALL,HATTIESBURG,MS,39402,United States,601-264-6648,31.3229,-89.3757,MON 09:00 - 21:30; TUE 09:00 - 21:30; WED 09:00 - 21:30; THU 09:00 - 21:30; FRI 09:00 - 21:30; SAT 09:00 - 21:30; SUN 10:00 - 19:00,,0
MIAMISBURG,1929529463,"2700 MIAMISBURG CENTERVILLE ROAD, SUITE 388",DAYTON MALL,DAYTON,OH,45459,United States,937-436-5754,39.6332,-84.2189,MON 09:00 - 21:30; TUE 09:00 - 21:30; WED 09:00 - 21:30; THU 09:00 - 21:30; FRI 09:00 - 21:30; SAT 09:00 - 21:30; SUN 10:00 - 19:00,,0
HUBER HEIGHTS,1571527390,8220 OLD TROY PIKE,NORTH HEIGHTS PLAZA,HUBER HEIGHTS,OH,45424,United States,937-237-1900,39.8744,-84.1336,MON 09:00 - 21:30; TUE 09:00 - 21:30; WED 09:00 - 21:30; THU 09:00 - 21:30; FRI 09:00 - 21:30; SAT 09:00 - 21:30; SUN 10:00 - 19:00,,0
EASTGATE,1571527142,650 EASTGATE SOUTH DRIVE,EASTGATE PAVILION,CINCINNATI,OH,45245,United States,513-752-5525,39.0952,-84.2755,MON 09:00 - 21:30; TUE 09:00 - 21:30; WED 09:00 - 21:30; THU 09:00 - 21:30; FRI 09:00 - 21:30; SAT 09:00 - 21:30; SUN 10:00 - 19:00,,0
LEXINGTON,1571527242,3645 NICHOLASVILLE ROAD,FAYETTE MALL,LEXINGTON,KY,40503,United States,859-273-1642,37.987,-84.5302,MON 09:00 - 21:30; TUE 09:00 - 21:30; WED 09:00 - 21:30; THU 09:00 - 21:30; FRI 09:00 - 21:30; SAT 09:00 - 21:30; SUN 10:00 - 19:00,,0
BEAVERCREEK,1571527317,"2727 FAIRFIELD COMMONS, UNIT 6",MALL AT FAIRFIELD COMMONS,BEAVERCREEK,OH,45431,United States,937-426-2955,39.7663,-84.0567,MON 09:00 - 21:30; TUE 09:00 - 21:30; WED 09:00 - 21:30; THU 09:00 - 21:30; FRI 09:00 - 21:30; SAT 09:00 - 21:30; SUN 10:00 - 19:00,,0
LEXINGTON,1571527113,1968 PAVILLION WAY,HAMBURG PAVILION,LEXINGTON,KY,40509,United States,859-264-8800,38.0241,-84.4157,MON 09:00 - 21:30; TUE 09:00 - 21:30; WED 09:00 - 21:30; THU 09:00 - 21:30; FRI 09:00 - 21:30; SAT 09:00 - 21:30; SUN 10:00 - 19:00,,0
SAGINAW,1571527163,3343 TITTABAWASSEE ROAD,WEST VALLEY SHOPPING CENTER,SAGINAW,MI,48604,United States,989-793-3346,43.4774,-83.9821,MON 09:00 - 21:30; TUE 09:00 - 21:30; WED 09:00 - 21:30; THU 09:00 - 21:30; FRI 09:00 - 21:30; SAT 09:00 - 21:30; SUN 10:00 - 19:00,,0
ANN ARBOR,1571527580,3120 LOHR ROAD,WATERS PLACE,ANN ARBOR,MI,48108,United States,734-332-6095,42.2399,-83.7623,MON 09:00 - 21:30; TUE 09:00 - 21:30; WED 09:00 - 21:30; THU 09:00 - 21:30; FRI 09:00 - 21:30; SAT 09:00 - 21:30; SUN 10:00 - 19:00,,0
BRIGHTON,1571527330,9550 VILLAGE PLACE BLVD,GREEN OAK VILLAGE PLACE,BRIGHTON,MI,48116,United States,810-225-4849,42.5068,-83.7523,MON 09:00 - 21:30; TUE 09:00 - 21:30; WED 09:00 - 21:30; THU 09:00 - 21:30; FRI 09:00 - 21:30; SAT 09:00 - 21:30; SUN 10:00 - 19:00,,0
SPRINGFIELD,571937023,1690 N BECHTLE AVENUE,BECHTLE CROSSING,SPRINGFIELD,OH,45504,United States,937-523-0027,39.947,-83.832,MON 09:00 - 21:30; TUE 09:00 - 21:30; WED 09:00 - 21:30; THU 09:00 - 21:30; FRI 09:00 - 21:30; SAT 09:00 - 21:30; SUN 10:00 - 19:00,,0
HOLLAND,1571527131,1407 SPRING MEADOW DRIVE,SPRING MEADOW,HOLLAND,OH,43528,United States,419-867-0810,41.6156,-83.696,MON 09:00 - 21:30; TUE 09:00 - 21:30; WED 09:00 - 21:30; THU 09:00 - 21:30; FRI 09:00 - 21:30; SAT 09:00 - 21:30; SUN 10:00 - 19:00,,0
SPOKANE VALLEY,1929529467,14014 EAST INDIANA AVENUE,SPOKANE VALLEY MALL,SPOKANE VALLEY,WA,99216,United States,509-891-0977,47.674,-117.212,MON 09:00 - 21:30; TUE 09:00 - 21:30; WED 09:00 - 21:30; THU 09:00 - 21:30; FRI 09:00 - 21:30; SAT 09:00 - 21:30; SUN 10:00 - 19:00,,0
TOLEDO,1571527281,5001 MONROE STREET,WESTFIELD SHOPPINGTOWN FRANKLIN PARK,TOLEDO,OH,43623,United States,419-474-0170,41.693,-83.6417,MON 09:00 - 21:30; TUE 09:00 - 21:30; WED 09:00 - 21:30; THU 09:00 - 21:30; FRI 09:00 - 21:30; SAT 09:00 - 21:30; SUN 10:00 - 19:00,,0
RICHMOND,1044478668,2145 LANTERN RIDGE DRIVE,RICHMOND CENTRE,RICHMOND,KY,40475,United States,859-353-3009,37.7385,-84.3262,MON 09:00 - 21:30; TUE 09:00 - 21:30; WED 09:00 - 21:30; THU 09:00 - 21:30; FRI 09:00 - 21:30; SAT 09:00 - 21:30; SUN 10:00 - 19:00,,0
PALM DESERT,1929529429,"72-840 HIGHWAY 111, A130",WESTFIELD PALM DESERT,PALM DESERT,CA,92260,United States,760-340-3526,33.724108,-116.395622,MON 09:00 - 21:30; TUE 09:00 - 21:30; WED 09:00 - 21:30; THU 09:00 - 21:30; FRI 09:00 - 21:30; SAT 09:00 - 21:30; SUN 10:00 - 19:00,,0
FINDLAY,1929529421,1960 TIFFIN AVENUE,HOBBY LOBBY PLAZA,FINDLAY,OH,45840,United States,419-423-5830,41.0552098068853,-83.6082534442332,MON 09:00 - 21:30; TUE 09:00 - 21:30; WED 09:00 - 21:30; THU 09:00 - 21:30; FRI 09:00 - 21:30; SAT 09:00 - 21:30; SUN 10:00 - 19:00,,0
HOOVER,1571527437,4401 CREEKSIDE AVENUE,PATTON CREEK,HOOVER,AL,35244,United States,205-909-1400,33.3745,-86.8179,MON 09:00 - 21:30; TUE 09:00 - 21:30; WED 09:00 - 21:30; THU 09:00 - 21:30; FRI 09:00 - 21:30; SAT 09:00 - 21:30; SUN 10:00 - 19:00,,0
BIRMINGHAM,1571527358,5201 HIGHWAY 280 SOUTH,BROOK HIGHLAND PLAZA,BIRMINGHAM,AL,35242,United States,205-981-1320,33.4191,-86.6857,MON 09:00 - 21:30; TUE 09:00 - 21:30; WED 09:00 - 21:30; THU 09:00 - 21:30; FRI 09:00 - 21:30; SAT 09:00 - 21:30; SUN 10:00 - 19:00,,0
CANTON,1571527585,45700 MICHIGAN AVENUE,PREMIER CENTER,CANTON,MI,48188,United States,734-495-0387,42.2738,-83.4896,MON 09:00 - 21:30; TUE 09:00 - 21:30; WED 09:00 - 21:30; THU 09:00 - 21:30; FRI 09:00 - 21:30; SAT 09:00 - 21:30; SUN 10:00 - 19:00,,0
ALABASTER,1588359353,200 S. COLONIAL DRIVE,COLONIAL PROMENADE ALABASTER,ALABASTER,AL,35007,United States,205-564-2648,33.225937,-86.804886,MON 09:00 - 21:30; TUE 09:00 - 21:30; WED 09:00 - 21:30; THU 09:00 - 21:30; FRI 09:00 - 21:30; SAT 09:00 - 21:30; SUN 10:00 - 19:00,,0
NOVI,1571527424,44225 12 MILE ROAD,FOUNTAIN WALK,NOVI,MI,48377,United States,248-596-3400,42.4939,-83.4847,MON 09:00 - 21:30; TUE 09:00 - 21:30; WED 09:00 - 21:30; THU 09:00 - 21:30; FRI 09:00 - 21:30; SAT 09:00 - 21:30; SUN 10:00 - 19:00,,0
NOVI,1571527164,21061 HAGGERTY ROAD,HIGHPOINT SHOPPING CENTER,NOVI,MI,48375,United States,248-735-8180,42.4406,-83.4374,MON 09:00 - 21:30; TUE 09:00 - 21:30; WED 09:00 - 21:30; THU 09:00 - 21:30; FRI 09:00 - 21:30; SAT 09:00 - 21:30; SUN 10:00 - 19:00,,0
METAIRIE,1571527526,3301 VETERANS MEMORIAL,LAKESIDE SHOPPING CENTER,METAIRIE,LA,70002,United States,504-835-0091,30.0084,-90.1588,MON 09:00 - 21:30; TUE 09:00 - 21:30; WED 09:00 - 21:30; THU 09:00 - 21:30; FRI 09:00 - 21:30; SAT 09:00 - 21:30; SUN 10:00 - 19:00,,0
LIVONIA,1212359319,13501 MIDDLEBELT ROAD,LIVONIA COMMONS,LIVONIA,MI,48150,United States,734-293-0069,42.378074,-83.335686,MON 09:00 - 21:30; TUE 09:00 - 21:30; WED 09:00 - 21:30; THU 09:00 - 21:30; FRI 09:00 - 21:30; SAT 09:00 - 21:30; SUN 10:00 - 19:00,,0
SLIDELL,1595713371,250 TOWN CENTER PARKWAY,FREMAUX TOWN CENTER,SLIDELL,LA,70458,United States,985-718-3252,30.267207,-89.75795,MON 09:00 - 21:30; TUE 09:00 - 21:30; WED 09:00 - 21:30; THU 09:00 - 21:30; FRI 09:00 - 21:30; SAT 09:00 - 21:30; SUN 10:00 - 19:00,,0
BLOOMFIELD,1571527574,2105 TELEGRAPH ROAD,BLOOMFIELD TOWN SQUARE,BLOOMFIELD,MI,48302,United States,248-456-1806,42.6093,-83.2969,MON 09:00 - 21:30; TUE 09:00 - 21:30; WED 09:00 - 21:30; THU 09:00 - 21:30; FRI 09:00 - 21:30; SAT 09:00 - 21:30; SUN 10:00 - 19:00,,0
TAYLOR,1571527158,23349 EUREKA ROAD,TAYLOR RETAIL CENTER,TAYLOR,MI,48180,United States,734-374-0429,42.1951,-83.2594,MON 09:00 - 21:30; TUE 09:00 - 21:30; WED 09:00 - 21:30; THU 09:00 - 21:30; FRI 09:00 - 21:30; SAT 09:00 - 21:30; SUN 10:00 - 19:00,,0
VICTORVILLE,1929529440,14500 BEAR VALLEY ROAD,THE MALL OF VICTOR VALLEY,VICTORVILLE,CA,92392,United States,760-245-4151,34.473219,-117.346875,MON 09:00 - 21:30; TUE 09:00 - 21:30; WED 09:00 - 21:30; THU 09:00 - 21:30; FRI 09:00 - 21:30; SAT 09:00 - 21:30; SUN 10:00 - 19:00,,0
GRETNA,1929529444,197 WESTBANK EXPRESSWAY,OAKWOOD CENTER,GRETNA,LA,70053,United States,504-361-3869,29.922302,-90.040326,MON 09:00 - 21:30; TUE 09:00 - 21:30; WED 09:00 - 21:30; THU 09:00 - 21:30; FRI 09:00 - 21:30; SAT 09:00 - 21:30; SUN 10:00 - 19:00,,0
CHATTANOOGA,1571527189,"2020 GUNBARREL ROAD, SUTIE 182",HAMILTON VILLAGE,CHATTANOOGA,TN,37421,United States,423-892-3122,35.0317,-85.1505,MON 09:00 - 21:30; TUE 09:00 - 21:30; WED 09:00 - 21:30; THU 09:00 - 21:30; FRI 09:00 - 21:30; SAT 09:00 - 21:30; SUN 10:00 - 19:00,,0
ROCHESTER HILLS,1571527162,I290 S. ROCHESTER ROAD,WINCHESTER CENTER,ROCHESTER HILLS,MI,48307,United States,248-608-9696,42.6624,-83.1363,MON 09:00 - 21:30; TUE 09:00 - 21:30; WED 09:00 - 21:30; THU 09:00 - 21:30; FRI 09:00 - 21:30; SAT 09:00 - 21:30; SUN 10:00 - 19:00,,0
TROY,507515794,562 W 14 MILE ROAD,OAKLAND MALL,TROY,MI,48083,United States,248-581-8122,42.537516,-83.110415,MON 09:00 - 21:30; TUE 09:00 - 21:30; WED 09:00 - 21:30; THU 09:00 - 21:30; FRI 09:00 - 21:30; SAT 09:00 - 21:30; SUN 10:00 - 19:00,,0
HILLIARD,1571527357,1825 HILLIARD-ROME ROAD,TANGLEWOOD PLAZA,HILLIARD,OH,43026,United States,614-777-1396,39.9888,-83.1543,MON 09:00 - 21:30; TUE 09:00 - 21:30; WED 09:00 - 21:30; THU 09:00 - 21:30; FRI 09:00 - 21:30; SAT 09:00 - 21:30; SUN 10:00 - 19:00,,0
DUBLIN,1571527401,6111 SAWMILL ROAD,DUBLIN,DUBLIN,OH,43017,United States,614-798-1111,40.0907,-83.0943,MON 09:00 - 21:30; TUE 09:00 - 21:30; WED 09:00 - 21:30; THU 09:00 - 21:30; FRI 09:00 - 21:30; SAT 09:00 - 21:30; SUN 10:00 - 19:00,,0
STERLING HEIGHTS,290211088,13000 HALL ROAD,,STERLING HEIGHTS,MI,48313,United States,586-884-0200,42.624453,-82.9994,MON 09:00 - 21:30; TUE 09:00 - 21:30; WED 09:00 - 21:30; THU 09:00 - 21:30; FRI 09:00 - 21:30; SAT 09:00 - 21:30; SUN 10:00 - 19:00,,0
DICK'S SPORTING GOODS CLEARANCE OUTLET,371094913,45230 NORTHPOINTE BLVD,NORTH POINT CENTER,UTICA,MI,48315,United States,586-254-2653,42.62956,-82.998624,MON 10:00 - 19:00; TUE 10:00 - 19:00; WED 10:00 - 19:00; THU 10:00 - 19:00; FRI 10:00 - 19:00; SAT 10:00 - 19:00; SUN 10:00 - 19:00,,0
RENO,472662078,5354 MEADOWOOD MALL CIRCLE,MEADOWOOD MALL,RENO,NV,89502,United States,775-636-7838,39.473,-119.783,MON 09:00 - 21:30; TUE 09:00 - 21:30; WED 09:00 - 21:30; THU 09:00 - 21:30; FRI 09:00 - 21:30; SAT 09:00 - 21:30; SUN 10:00 - 19:00,,0
ROSEVILLE,1044478665,32385 GRATIOT AVENUE,MACOMB MALL,ROSEVILLE,MI,48066,United States,586-279-1221,42.5353,-82.9154,MON 09:00 - 21:30; TUE 09:00 - 21:30; WED 09:00 - 21:30; THU 09:00 - 21:30; FRI 09:00 - 21:30; SAT 09:00 - 21:30; SUN 10:00 - 19:00,,0
GROVE CITY,1571527328,1656 STRINGTOWN ROAD,PARKWAY CENTRE,GROVE CITY,OH,43123,United States,614-801-1033,39.8807,-83.0396,MON 09:00 - 21:30; TUE 09:00 - 21:30; WED 09:00 - 21:30; THU 09:00 - 21:30; FRI 09:00 - 21:30; SAT 09:00 - 21:30; SUN 10:00 - 19:00,,0
POLARIS,507515790,"1510 POLARIS PARKWAY, SUITE A",POLARIS FASHION PLACE,COLUMBUS,OH,43240,United States,614-410-0018,40.147007,-82.980228,MON 09:00 - 21:30; TUE 09:00 - 21:30; WED 09:00 - 21:30; THU 09:00 - 21:30; FRI 09:00 - 21:30; SAT 09:00 - 21:30; SUN 10:00 - 20:00,,0
D'IBERVILLE,1571527518,3893 PROMENADE PARKWAY,THE PROMENADE,D'IBERVILLE,MS,39540,United States,228-392-1607,30.4535,-88.9015,MON 09:00 - 21:30; TUE 09:00 - 21:30; WED 09:00 - 21:30; THU 09:00 - 21:30; FRI 09:00 - 21:30; SAT 09:00 - 21:30; SUN 10:00 - 19:00,,0
OXFORD,1571527391,1500 OXFORD EXCHANGE,OXFORD EXCHANGE,OXFORD,AL,36203,United States,256-831-7739,33.6093,-85.7801,MON 09:00 - 21:30; TUE 09:00 - 21:30; WED 09:00 - 21:30; THU 09:00 - 21:30; FRI 09:00 - 21:30; SAT 09:00 - 21:30; SUN 10:00 - 19:00,,0
CHESTERFIELD,1571527371,50580 WATERSIDE DRIVE,WATERSIDE MARKET PLACE,CHESTERFIELD TWP,MI,48051,United States,586-949-0760,42.6701,-82.8271,MON 09:00 - 21:30; TUE 09:00 - 21:30; WED 09:00 - 21:30; THU 09:00 - 21:30; FRI 09:00 - 21:30; SAT 09:00 - 21:30; SUN 10:00 - 19:00,,0
OAK RIDGE,1121602747,369 SOUTH ILLINOIS AVENUE,MAIN STREET,OAK RIDGE,TN,37830,United States,,36.008779,-84.254938,MON 09:00 - 21:30; TUE 09:00 - 21:30; WED 09:00 - 21:30; THU 09:00 - 21:30; FRI 09:00 - 21:30; SAT 09:00 - 21:30; SUN 10:00 - 19:00,,1
COLUMBUS (EASTON),156842056,4304 EASTON GATEWAY DRIVE,EASTON TOWN CENTER,COLUMBUS,OH,43219,United States,614-472-4759,40.054859,-82.904605,MON 09:00 - 21:30; TUE 09:00 - 21:30; WED 09:00 - 21:30; THU 09:00 - 21:30; FRI 09:00 - 21:30; SAT 09:00 - 21:30; SUN 10:00 - 20:00,,0
MURRIETA,1571527493,40404 MURRIETA HOT SPRINGS ROAD,MURRIETA,MURRIETA,CA,92563,United States,951-691-5401,33.5553,-117.176,MON 09:00 - 21:30; TUE 09:00 - 21:30; WED 09:00 - 21:30; THU 09:00 - 21:30; FRI 09:00 - 21:30; SAT 09:00 - 21:30; SUN 10:00 - 19:00,,0
UPLAND COLONIES,1571527489,1939 NORTH CAMPUS AVENUE,COLONIES CROSSROADS,UPLAND,CA,91784,United States,909-946-7192,34.1337,-117.639,MON 09:00 - 21:30; TUE 09:00 - 21:30; WED 09:00 - 21:30; THU 09:00 - 21:30; FRI 09:00 - 21:30; SAT 09:00 - 21:30; SUN 10:00 - 19:00,,0
CHILLICOTHE,507515811,1251 N BRIDGE STREET,GUERNSEY CROSSING,CHILLICOTHE,OH,45601,United States,740-772-2424,39.361513,-82.974679,MON 09:00 - 21:30; TUE 09:00 - 21:30; WED 09:00 - 21:30; THU 09:00 - 21:30; FRI 09:00 - 21:30; SAT 09:00 - 21:30; SUN 10:00 - 19:00,,0
SANDUSKY,1571527463,4020 MILAN ROAD (RTE. 250),SANDUSKY PAVILLION,SANDUSKY,OH,44870,United States,419-621-1660,41.4207,-82.6738,MON 09:00 - 21:30; TUE 09:00 - 21:30; WED 09:00 - 21:30; THU 09:00 - 21:30; FRI 09:00 - 21:30; SAT 09:00 - 21:30; SUN 10:00 - 19:00,,0
KNOXVILLE,1571527188,221 NORTH PETERS ROAD,THE COMMONS,KNOXVILLE,TN,37923,United States,865-531-2221,35.9152,-84.084,MON 09:00 - 21:30; TUE 09:00 - 21:30; WED 09:00 - 21:30; THU 09:00 - 21:30; FRI 09:00 - 21:30; SAT 09:00 - 21:30; SUN 10:00 - 19:00,,0
CHINO,1571527492,4044 GRAND AVENUE,SPECTRUM MARKETPLACE,CHINO,CA,91710,United States,909-590-7626,34.0019,-117.716,MON 09:00 - 21:30; TUE 09:00 - 21:30; WED 09:00 - 21:30; THU 09:00 - 21:30; FRI 09:00 - 21:30; SAT 09:00 - 21:30; SUN 10:00 - 19:00,,0
MANSFIELD,1571527138,2235 WALKER LAKE ROAD,ONTARIO TOWNE CENTER,ONTARIO,OH,44903,United States,419-747-2727,40.7878,-82.5952,MON 09:00 - 21:30; TUE 09:00 - 21:30; WED 09:00 - 21:30; THU 09:00 - 21:30; FRI 09:00 - 21:30; SAT 09:00 - 21:30; SUN 10:00 - 19:00,,0
PALMDALE,1032966209,1301 W. RANCHO VISTA BLVD.,ANTELOPE VALLEY MALL,PALMDALE,CA,93550,United States,661-225-8019,34.60366,-118.15358,MON 09:00 - 21:30; TUE 09:00 - 21:30; WED 09:00 - 21:30; THU 09:00 - 21:30; FRI 09:00 - 21:30; SAT 09:00 - 21:30; SUN 10:00 - 19:00,,0
ESCONDIDO,1571527542,1200 AUTO PARK WAY,ESCONDIDO PROMENADE,ESCONDIDO,CA,92029,United States,760-233-2700,33.1095,-117.097,MON 09:00 - 21:30; TUE 09:00 - 21:30; WED 09:00 - 21:30; THU 09:00 - 21:30; FRI 09:00 - 21:30; SAT 09:00 - 21:30; SUN 10:00 - 19:00,,0
YORBA LINDA,1571527496,23081 SAVI RANCH PARKWAY,SAVI RANCH,YORBA LINDA,CA,92887,United States,714-685-7802,33.8717,-117.734,MON 09:00 - 21:30; TUE 09:00 - 21:30; WED 09:00 - 21:30; THU 09:00 - 21:30; FRI 09:00 - 21:30; SAT 09:00 - 21:30; SUN 10:00 - 19:00,,0
WEST COVINA,1571527488,2753 EASTLAND CENTER DRIVE,WESTFIELD EASTLAND SHOPPING CENTER,WEST COVINA,CA,91791,United States,626-331-8227,34.0735,-117.885,MON 09:00 - 21:30; TUE 09:00 - 21:30; WED 09:00 - 21:30; THU 09:00 - 21:30; FRI 09:00 - 21:30; SAT 09:00 - 21:30; SUN 10:00 - 19:00,,0
LANCASTER,1571527524,1500 RIVER VALLEY CIRCLE,RIVER VALLEY MALL,LANCASTER,OH,43130,United States,740-654-6215,39.7319,-82.6262,MON 09:00 - 21:30; TUE 09:00 - 21:30; WED 09:00 - 21:30; THU 09:00 - 21:30; FRI 09:00 - 21:30; SAT 09:00 - 21:30; SUN 10:00 - 19:00,,0
CARMEL MOUNTAIN,989658821,11690 CARMEL MOUNTAIN ROAD,CARMEL MOUNTAIN PLAZA,SAN DIEGO,CA,92128,United States,,32.980893,-117.080735,MON 09:00 - 21:30; TUE 09:00 - 21:30; WED 09:00 - 21:30; THU 09:00 - 21:30; FRI 09:00 - 21:30; SAT 09:00 - 21:30; SUN 10:00 - 19:00,,0
EL CAJON,1571527559,565 FLETCHER PARKWAY,PARKWAY PLAZA,EL CAJON,CA,92020,United States,619-447-0191,32.8067,-116.968,MON 09:00 - 21:30; TUE 09:00 - 21:30; WED 09:00 - 21:30; THU 09:00 - 21:30; FRI 09:00 - 21:30; SAT 09:00 - 21:30; SUN 10:00 - 19:00,,0
ALCOA,1571527478,221 HAMITLON CROSSING DRIVE,HAMILTON CROSSING,ALCOA,TN,37701,United States,865-379-1480,35.7694,-83.9854,MON 09:00 - 21:30; TUE 09:00 - 21:30; WED 09:00 - 21:30; THU 09:00 - 21:30; FRI 09:00 - 21:30; SAT 09:00 - 21:30; SUN 10:00 - 19:00,,0
PORT HURON,1571527525,4715 24TH AVENUE,FORT GRATIOT SHOPPING CENTER,PORT HURON,MI,48059,United States,810-385-5273,43.0443,-82.4593,MON 09:00 - 21:30; TUE 09:00 - 21:30; WED 09:00 - 21:30; THU 09:00 - 21:30; FRI 09:00 - 21:30; SAT 09:00 - 21:30; SUN 10:00 - 19:00,,0
MOBILE,498700642,1390 TINGLE CIRCLE W B-3 SUITE A,MCGOWIN PARK,MOBILE,AL,36606,United States,251-450-1334,30.650119,-88.119356,MON 09:00 - 21:30; TUE 09:00 - 21:30; WED 09:00 - 21:30; THU 09:00 - 21:30; FRI 09:00 - 21:30; SAT 09:00 - 21:30; SUN 10:00 - 20:00,,0
OCEANSIDE,1571527497,3514 COLLEGE BLVD.,COLLEGE BOULEVARD,OCEANSIDE,CA,92056,United States,760-945-5444,33.181,-117.294,MON 09:00 - 21:30; TUE 09:00 - 21:30; WED 09:00 - 21:30; THU 09:00 - 21:30; FRI 09:00 - 21:30; SAT 09:00 - 21:30; SUN 10:00 - 19:00,,0
LADERA RANCH,1571527499,"27502 ANTONIO PARKWAY, #B",LADERA RANCH,LADERA RANCH,CA,92694,United States,949-365-1278,33.5634,-117.627,MON 09:00 - 21:30; TUE 09:00 - 21:30; WED 09:00 - 21:30; THU 09:00 - 21:30; FRI 09:00 - 21:30; SAT 09:00 - 21:30; SUN 10:00 - 19:00,,0
ENCINITAS,923493964,1050 N. EL CAMINO REAL,ENCINITAS RANCH,ENCINITAS,CA,92024,United States,760-452-4046,33.067643,-117.266592,MON 09:00 - 21:30; TUE 09:00 - 21:30; WED 09:00 - 21:30; THU 09:00 - 21:30; FRI 09:00 - 21:30; SAT 09:00 - 21:30; SUN 10:00 - 19:00,,0
VISALIA,1929529478,3637 S. MOONEY BLVD.,GATEWAY PLAZA,VISALIA,CA,93277,United States,559-636-0633,36.2975,-119.316,MON 09:00 - 21:30; TUE 09:00 - 21:30; WED 09:00 - 21:30; THU 09:00 - 21:30; FRI 09:00 - 21:30; SAT 09:00 - 21:30; SUN 10:00 - 19:00,,0
PASADENA,1571527498,3359 E. FOOTHILL BOULEVARD,HASTINGS VILLAGE,PASADENA,CA,91107,United States,626-351-1843,34.1528,-118.082,MON 09:00 - 21:30; TUE 09:00 - 21:30; WED 09:00 - 21:30; THU 09:00 - 21:30; FRI 09:00 - 21:30; SAT 09:00 - 21:30; SUN 10:00 - 19:00,,0
LAGUNA HILLS,1571527490,24821 ALICIA PARKWAY,LAGUNA HILLS PLAZA SHOPPING CENTER,LAGUNA HILLS,CA,92653,United States,949-472-8180,33.6019,-117.693,MON 09:00 - 21:30; TUE 09:00 - 21:30; WED 09:00 - 21:30; THU 09:00 - 21:30; FRI 09:00 - 21:30; SAT 09:00 - 21:30; SUN 10:00 - 19:00,,0
HEATH,1571527583,771 SOUTH 30TH STREET,INDIAN MOUND MALL,HEATH,OH,43056,United States,740-522-5555,40.0298,-82.448,MON 09:00 - 21:30; TUE 09:00 - 21:30; WED 09:00 - 21:30; THU 09:00 - 21:30; FRI 09:00 - 21:30; SAT 09:00 - 21:30; SUN 10:00 - 19:00,,0
TUSTIN,1571527494,2771 EL CAMINO REAL,THE MARKET PLACE,TUSTIN,CA,92782,United States,714-731-1300,33.7271,-117.794,MON 09:00 - 21:30; TUE 09:00 - 21:30; WED 09:00 - 21:30; THU 09:00 - 21:30; FRI 09:00 - 21:30; SAT 09:00 - 21:30; SUN 10:00 - 19:00,,0
DAPHNE,1571527543,6850 US HIGHWAY 90,JUBILEE SQUARE,DAPHNE,AL,36526,United States,251-621-0031,30.6537,-87.9069,MON 09:00 - 21:30; TUE 09:00 - 21:30; WED 09:00 - 21:30; THU 09:00 - 21:30; FRI 09:00 - 21:30; SAT 09:00 - 21:30; SUN 10:00 - 19:00,,0
CHULA VISTA,1022333902,390 EAST H STREET,TERRA NOVA PLAZA,CHULA VISTA,CA,91910,United States,,32.639456,-117.048107,MON 09:00 - 21:30; TUE 09:00 - 21:30; WED 09:00 - 21:30; THU 09:00 - 21:30; FRI 09:00 - 21:30; SAT 09:00 - 21:30; SUN 10:00 - 19:00,,0
MONTGOMERY,1571527366,7861 EASTCHASE PARKWAY,EAST CHASE,MONTGOMERY,AL,36117,United States,334-277-8180,32.3631,-86.1542,MON 09:00 - 21:30; TUE 09:00 - 21:30; WED 09:00 - 21:30; THU 09:00 - 21:30; FRI 09:00 - 21:30; SAT 09:00 - 21:30; SUN 10:00 - 19:00,,0
CLOVIS,1929529495,1225 HERNDON AVENUE,CLOVIS SHOPPING CENTRE,CLOVIS,CA,93612,United States,559-322-4628,36.8396,-119.694,MON 09:00 - 21:30; TUE 09:00 - 21:30; WED 09:00 - 21:30; THU 09:00 - 21:30; FRI 09:00 - 21:30; SAT 09:00 - 21:30; SUN 10:00 - 19:00,,0
ASHLAND,1929529436,469 RIVER HILL DRIVE,MELODY MOUNTAIN,ASHLAND,KY,41101,United States,606-327-5561,38.484006,-82.657603,MON 09:00 - 21:30; TUE 09:00 - 21:30; WED 09:00 - 21:30; THU 09:00 - 21:30; FRI 09:00 - 21:30; SAT 09:00 - 21:30; SUN 10:00 - 19:00,,0
NEWPORT BEACH,1571527501,435 NEWPORT CENTER DRIVE,FASHION ISLAND SHOPPING CENTER,NEWPORT BEACH,CA,92660,United States,949-640-1107,33.6166,-117.874,MON 09:00 - 21:30; TUE 09:00 - 21:30; WED 09:00 - 21:30; THU 09:00 - 21:30; FRI 09:00 - 21:30; SAT 09:00 - 21:30; SUN 10:00 - 19:00,,0
BROWNSVILLE,279993668,"2370 N EXPRESSWAY, BLDG. F",SUNRISE MALL,BROWNSVILLE,TX,78521,United States,956-465-2013,25.952203,-97.503827,MON 09:00 - 21:30; TUE 09:00 - 21:30; WED 09:00 - 21:30; THU 09:00 - 21:30; FRI 09:00 - 21:30; SAT 09:00 - 21:30; SUN 10:00 - 19:00,,0
GLENDALE,219430317,200 WEST BROADWAY,GLENDALE GALLERIA,GLENDALE,CA,91210,United States,818-476-5960,34.1457,-118.258,MON 09:00 - 21:30; TUE 09:00 - 21:30; WED 09:00 - 21:30; THU 09:00 - 21:30; FRI 09:00 - 21:30; SAT 09:00 - 21:30; SUN 10:00 - 19:00,,0
SAN DIEGO,1929529482,3265 SPORTS ARENA BLVD.,SPORTS ARENA SQUARE,SAN DIEGO,CA,92110,United States,619-523-0975,32.7515,-117.211,MON 09:00 - 21:30; TUE 09:00 - 21:30; WED 09:00 - 21:30; THU 09:00 - 21:30; FRI 09:00 - 21:30; SAT 09:00 - 21:30; SUN 10:00 - 19:00,,0
HUNTINGTON BEACH,1929529481,7542 EDINGER AVENUE,EDINGER PLAZA,HUNTINGTON BEACH,CA,92647,United States,714-847-3179,33.7287,-117.997,MON 09:00 - 21:30; TUE 09:00 - 21:30; WED 09:00 - 21:30; THU 09:00 - 21:30; FRI 09:00 - 21:30; SAT 09:00 - 21:30; SUN 10:00 - 19:00,,0
CERRITOS,219430316,"435 LOS CERRITOS CENTER, SPACE F17",LOS CERRITOS CENTER,CERRITOS,CA,90703,United States,562-376-9087,33.8608,-118.094,MON 09:00 - 21:30; TUE 09:00 - 21:30; WED 09:00 - 21:30; THU 09:00 - 21:30; FRI 09:00 - 21:30; SAT 09:00 - 21:30; SUN 10:00 - 19:00,,0
ELYRIA,1571527171,360 MARKET DR,MIDWAY MARKET SQUARE,ELYRIA,OH,44035,United States,440-324-4100,41.3907,-82.1101,MON 09:00 - 21:30; TUE 09:00 - 21:30; WED 09:00 - 21:30; THU 09:00 - 21:30; FRI 09:00 - 21:30; SAT 09:00 - 21:30; SUN 10:00 - 19:00,,0
FRESNO,896039684,7572 NORTH BLACKSTONE AVENUE,BLACKSTONE,FRESNO,CA,93720,United States,559-367-0252,36.846684,-119.786508,MON 09:00 - 21:30; TUE 09:00 - 21:30; WED 09:00 - 21:30; THU 09:00 - 21:30; FRI 09:00 - 21:30; SAT 09:00 - 21:30; SUN 10:00 - 19:00,,0
SANTA CLARITA,1571527500,26591 CARL BOYER DRIVE,SOLEDAD CROSSING,SANTA CLARITA,CA,91350,United States,661-253-9231,34.4172,-118.507,MON 09:00 - 21:30; TUE 09:00 - 21:30; WED 09:00 - 21:30; THU 09:00 - 21:30; FRI 09:00 - 21:30; SAT 09:00 - 21:30; SUN 10:00 - 19:00,,0
BAKERSFIELD,1571527539,9300 ROSEDALE HWY,NORTHWEST PROMENADE,BAKERSFIELD,CA,93312,United States,661-588-8100,35.386,-119.106,MON 09:00 - 21:30; TUE 09:00 - 21:30; WED 09:00 - 21:30; THU 09:00 - 21:30; FRI 09:00 - 21:30; SAT 09:00 - 21:30; SUN 10:00 - 19:00,,0
SEVIERVILLE,219430313,"713 WINFIELD DUNN PARKWAY, #5",RIVER LANDING,SEVIERVILLE,TN,37876,United States,865-868-3410,35.8805,-83.57,MON 09:00 - 21:30; TUE 09:00 - 21:30; WED 09:00 - 21:30; THU 09:00 - 21:30; FRI 09:00 - 21:30; SAT 09:00 - 21:30; SUN 10:00 - 19:00,,0
FRESNO,1571527545,3380 WEST SHAW AVENUE,ARBOR FAIRE,FRESNO,CA,93711,United States,559-271-2701,36.81,-119.853,MON 09:00 - 21:30; TUE 09:00 - 21:30; WED 09:00 - 21:30; THU 09:00 - 21:30; FRI 09:00 - 21:30; SAT 09:00 - 21:30; SUN 10:00 - 19:00,,0
CANTON,1571527335,1810 CUMMING HIGHWAY,CANTON MARKETPLACE,CANTON,GA,30115,United States,770-345-1218,34.2351,-84.4604,MON 09:00 - 21:30; TUE 09:00 - 21:30; WED 09:00 - 21:30; THU 09:00 - 21:30; FRI 09:00 - 21:30; SAT 09:00 - 21:30; SUN 10:00 - 19:00,,0
WESTLAKE,1571527227,300 CROCKER PARK BLVD,CROCKER PARK,WESTLAKE,OH,44145,United States,440-835-3723,41.4592,-81.9543,MON 09:00 - 21:30; TUE 09:00 - 21:30; WED 09:00 - 21:30; THU 09:00 - 21:30; FRI 09:00 - 21:30; SAT 09:00 - 21:30; SUN 10:00 - 19:00,,0
KENNESAW,1571527411,691 ERNEST W BARRETT PARKWAY NW,TOWN CENTER COMMONS,KENNESAW,GA,30144,United States,770-281-0200,34.0044,-84.5724,MON 09:00 - 21:30; TUE 09:00 - 21:30; WED 09:00 - 21:30; THU 09:00 - 21:30; FRI 09:00 - 21:30; SAT 09:00 - 21:30; SUN 10:00 - 19:00,,0
NORTH OLMSTED,1571527443,200 GREAT NORTHERN MALL,GREAT NORTHERN MALL,NORTH OLMSTED,OH,44070,United States,440-686-2400,41.4179,-81.9065,MON 09:00 - 21:30; TUE 09:00 - 21:30; WED 09:00 - 21:30; THU 09:00 - 21:30; FRI 09:00 - 21:30; SAT 09:00 - 21:30; SUN 10:00 - 19:00,,0
WOOSTER,279993675,4027 BURBANK ROAD,WAYNE TOWN CENTER,WOOSTER,OH,44691,United States,330-234-5183,40.850016,-81.944452,MON 09:00 - 21:30; TUE 09:00 - 21:30; WED 09:00 - 21:30; THU 09:00 - 21:30; FRI 09:00 - 21:30; SAT 09:00 - 21:30; SUN 10:00 - 19:00,,0
MORRISTOWN,571937032,"2550 E MORRIS BLVD, SUITE 9",COLLEGE SQUARE MALL,MORRISTOWN,TN,37813,United States,423-438-0444,36.221,-83.262,MON 09:00 - 21:30; TUE 09:00 - 21:30; WED 09:00 - 21:30; THU 09:00 - 21:30; FRI 09:00 - 21:30; SAT 09:00 - 21:30; SUN 10:00 - 19:00,,0
EL SEGUNDO,1571527491,770 SOUTH SEPULVEDA BLVD.,PLAZA EL SEGUNDO,EL SEGUNDO,CA,90245,United States,310-726-9123,33.9064,-118.392,MON 09:00 - 21:30; TUE 09:00 - 21:30; WED 09:00 - 21:30; THU 09:00 - 21:30; FRI 09:00 - 21:30; SAT 09:00 - 21:30; SUN 10:00 - 19:00,,0
TORRANCE,1051935224,"21800 HAWTHORNE BOULEVARD, #301",DEL AMO FASHION CENTER,TORRANCE,CA,90503,United States,424 206 4240,33.829809,-118.35009,MON 09:00 - 21:30; TUE 09:00 - 21:30; WED 09:00 - 21:30; THU 09:00 - 21:30; FRI 09:00 - 21:30; SAT 09:00 - 21:30; SUN 10:00 - 19:00,,0
STRONGSVILLE,1571527247,17071 SOUTHPARK CENTER,WESTFIELD SHOPPINGTOWN SOUTH PARK,STRONGSVILLE,OH,44136,United States,440-268-9153,41.3079,-81.8184,MON 09:00 - 21:30; TUE 09:00 - 21:30; WED 09:00 - 21:30; THU 09:00 - 21:30; FRI 09:00 - 21:30; SAT 09:00 - 21:30; SUN 10:00 - 19:00,,0
EAST COBB,722313980,4269 ROSWELL ROAD,EAST COBB CROSSING,MARIETTA,GA,30062,United States,678-433-0010,33.986286,-84.426446,MON 09:00 - 21:30; TUE 09:00 - 21:30; WED 09:00 - 21:30; THU 09:00 - 21:30; FRI 09:00 - 21:30; SAT 09:00 - 21:30; SUN 10:00 - 19:00,,0
HUNTINGTON,1571527207,"RT 60 MALL ROAD, UNIT 500",HUNTINGTON MALL,HUNTINGTON,WV,25504,United States,304-733-9720,38.4228,-82.2679,MON 09:00 - 21:30; TUE 09:00 - 21:30; WED 09:00 - 21:30; THU 09:00 - 21:30; FRI 09:00 - 21:30; SAT 09:00 - 21:30; SUN 10:00 - 19:00,,0
PARMA,588932507,8113 W RIDGEWOOD DRIVE,THE SHOPPES AT PARMA,PARMA,OH,44129,United States,440-345-3035,41.382178,-81.743378,MON 09:00 - 21:30; TUE 09:00 - 21:30; WED 09:00 - 21:30; THU 09:00 - 21:30; FRI 09:00 - 21:30; SAT 09:00 - 21:30; SUN 10:00 - 19:00,,0
OPELIKA,1571527448,2718 ENTERPRISE DRIVE,TIGER TOWN,OPELIKA,AL,36801,United States,334-749-8123,32.6162,-85.4103,MON 09:00 - 21:30; TUE 09:00 - 21:30; WED 09:00 - 21:30; THU 09:00 - 21:30; FRI 09:00 - 21:30; SAT 09:00 - 21:30; SUN 10:00 - 19:00,,0
NEWNAN,1571527310,382 NEWNAN CROSSING BYPASS,THE VILLAGE AT NEWNAN CROSSING,NEWNAN,GA,30265,United States,770-253-1501,33.3871,-84.7638,MON 09:00 - 21:30; TUE 09:00 - 21:30; WED 09:00 - 21:30; THU 09:00 - 21:30; FRI 09:00 - 21:30; SAT 09:00 - 21:30; SUN 10:00 - 19:00,,0
ALPHARETTA,1571527361,6440 NORTH POINT PARKWAY,NORTH POINT MALL,ALPHARETTA,GA,30022,United States,770-521-1195,34.0442,-84.2925,MON 09:00 - 21:30; TUE 09:00 - 21:30; WED 09:00 - 21:30; THU 09:00 - 21:30; FRI 09:00 - 21:30; SAT 09:00 - 21:30; SUN 10:00 - 19:00,,0
PERIMETER POINTE,916246839,1155 MT VERNON HIGHWAY,PERIMETER POINTE,ATLANTA,GA,30338,United States,770-217-6392,33.933309,-84.349984,MON 09:00 - 21:30; TUE 09:00 - 21:30; WED 09:00 - 21:30; THU 09:00 - 21:30; FRI 09:00 - 21:30; SAT 09:00 - 21:30; SUN 10:00 - 19:00,,0
MOORPARK,1571527495,706 LOS ANGELES AVENUE,MOORPARK,MOORPARK,CA,93021,United States,805-978-4091,34.2778,-118.871,MON 09:00 - 21:30; TUE 09:00 - 21:30; WED 09:00 - 21:30; THU 09:00 - 21:30; FRI 09:00 - 21:30; SAT 09:00 - 21:30; SUN 10:00 - 19:00,,0
FAIRLAWN,1571527135,4036 MEDINA ROAD,MARKET SQUARE AT MONTROSE,AKRON,OH,44333,United States,330-668-1231,41.1357,-81.6418,MON 09:00 - 21:30; TUE 09:00 - 21:30; WED 09:00 - 21:30; THU 09:00 - 21:30; FRI 09:00 - 21:30; SAT 09:00 - 21:30; SUN 10:00 - 19:00,,0
CUMMING,1571527336,2145 MARKETPLACE BLVD.,CUMMING TOWN CENTER,CUMMING,GA,30041,United States,770-292-9834,34.1935,-84.1299,MON 09:00 - 21:30; TUE 09:00 - 21:30; WED 09:00 - 21:30; THU 09:00 - 21:30; FRI 09:00 - 21:30; SAT 09:00 - 21:30; SUN 10:00 - 19:00,,0
LENOX,1571527412,3535 PEACHTREE ROAD,LENOX MARKETPLACE,ATLANTA,GA,30326,United States,404-267-0200,33.8529,-84.3599,MON 09:00 - 21:30; TUE 09:00 - 21:30; WED 09:00 - 21:30; THU 09:00 - 21:30; FRI 09:00 - 21:30; SAT 09:00 - 21:30; SUN 10:00 - 19:00,,0
NORCROSS,1571527577,"6050 PEACHTREE PARKWAY, SUITE 450",PEACHTREE SQUARE,NORCROSS,GA,30092,United States,770-613-0077,33.9531,-84.2319,MON 09:00 - 21:30; TUE 09:00 - 21:30; WED 09:00 - 21:30; THU 09:00 - 21:30; FRI 09:00 - 21:30; SAT 09:00 - 21:30; SUN 10:00 - 19:00,,0
THOUSAND OAKS,472662103,176 WEST HILLCREST DRIVE,THE OAKS MALL,THOUSAND OAKS,CA,91360,United States,805-367-5032,34.184,-118.888,MON 09:00 - 21:30; TUE 09:00 - 21:30; WED 09:00 - 21:30; THU 09:00 - 21:30; FRI 09:00 - 21:30; SAT 09:00 - 21:30; SUN 10:00 - 19:00,,0
NORTHLAKE,1022333898,"4310 LAVISTA ROAD, SUITE A100",TUCKER MERIDIAN,TUCKER,GA,30084,United States,,33.850026,-84.243852,MON 09:00 - 21:30; TUE 09:00 - 21:30; WED 09:00 - 21:30; THU 09:00 - 21:30; FRI 09:00 - 21:30; SAT 09:00 - 21:30; SUN 10:00 - 19:00,,0
LYNDHURST,1571527425,24545 CEDAR ROAD,LEGACY VILLAGE,LYNDHURST,OH,44124,United States,216-706-9400,41.504,-81.5043,MON 09:00 - 21:30; TUE 09:00 - 21:30; WED 09:00 - 21:30; THU 09:00 - 21:30; FRI 09:00 - 21:30; SAT 09:00 - 21:30; SUN 10:00 - 19:00,,0
UNION GAP,288683229,2500 RUDKIN ROAD,RAINIER PLAZA,UNION GAP,WA,98903,United States,509-654-9111,46.5658,-120.474,MON 09:00 - 21:30; TUE 09:00 - 21:30; WED 09:00 - 21:30; THU 09:00 - 21:30; FRI 09:00 - 21:30; SAT 09:00 - 21:30; SUN 10:00 - 19:00,,0
PENSACOLA,1929529453,5100 N 9TH AVENUE,CORDOVA MALL,PENSACOLA,FL,32504,United States,850-478-9605,30.475556,-87.205909,MON 09:00 - 21:30; TUE 09:00 - 21:30; WED 09:00 - 21:30; THU 09:00 - 21:30; FRI 09:00 - 21:30; SAT 09:00 - 21:30; SUN 10:00 - 19:00,,0
BEND,1571527513,"63455 N HIGHWAY 97, SUITE 8",CASCADE VILLAGE SHOPPING CENTER,BEND,OR,97701,United States,541-317-4820,44.1002,-121.303,MON 09:00 - 21:30; TUE 09:00 - 21:30; WED 09:00 - 21:30; THU 09:00 - 21:30; FRI 09:00 - 21:30; SAT 09:00 - 21:30; SUN 10:00 - 19:00,,0
CUYAHOGA FALLS,1929529432,498 HOWE AVE,THE PLAZA AT CHAPEL HILL,AKRON,OH,44221,United States,330-923-8224,41.1166093830349,-81.4770132385824,MON 09:00 - 21:30; TUE 09:00 - 21:30; WED 09:00 - 21:30; THU 09:00 - 21:30; FRI 09:00 - 21:30; SAT 09:00 - 21:30; SUN 10:00 - 19:00,,0
FAYETTEVILLE,1571527354,305 A PAVILLION PARKWAY,FAYETTE PAVILION,FAYETTEVILLE,GA,30214,United States,678-817-0676,33.482,-84.4473,MON 09:00 - 21:30; TUE 09:00 - 21:30; WED 09:00 - 21:30; THU 09:00 - 21:30; FRI 09:00 - 21:30; SAT 09:00 - 21:30; SUN 10:00 - 19:00,,0
GAINESVILLE,1929529445,"150 PEARL NIX PARKWAY, SUITE G",LAKESHORE MALL,GAINESVILLE,GA,30501,United States,770-534-4730,34.294727,-83.845102,MON 09:00 - 21:30; TUE 09:00 - 21:30; WED 09:00 - 21:30; THU 09:00 - 21:30; FRI 09:00 - 21:30; SAT 09:00 - 21:30; SUN 10:00 - 19:00,,0
BUFORD,1571527413,3333 BUFORD DRIVE,MALL OF GEORGIA AT MILLCREEK,BUFORD,GA,30519,United States,678-482-1200,34.0652,-83.9828,MON 09:00 - 21:30; TUE 09:00 - 21:30; WED 09:00 - 21:30; THU 09:00 - 21:30; FRI 09:00 - 21:30; SAT 09:00 - 21:30; SUN 10:00 - 19:00,,0
CANTON,1571527136,5544 N.W. DRESSLER ROAD,BELDEN PARKE CROSSINGS,CANTON,OH,44720,United States,330-966-0990,40.8613,-81.4322,MON 09:00 - 21:30; TUE 09:00 - 21:30; WED 09:00 - 21:30; THU 09:00 - 21:30; FRI 09:00 - 21:30; SAT 09:00 - 21:30; SUN 10:00 - 19:00,,0
BAINBRIDGE,1571527185,7305 MARKETPLACE DRIVE,BAINBRIDGE SHOPPING CENTER,AURORA,OH,44202,United States,330-562-4200,41.3495,-81.3881,MON 09:00 - 21:30; TUE 09:00 - 21:30; WED 09:00 - 21:30; THU 09:00 - 21:30; FRI 09:00 - 21:30; SAT 09:00 - 21:30; SUN 10:00 - 19:00,,0
MENTOR,1386981405,"7850 MENTOR AVE, SUITE 1044",GREAT LAKES MALL,MENTOR,OH,44060,United States,440-299-6005,41.658732,-81.360728,MON 09:00 - 21:30; TUE 09:00 - 21:30; WED 09:00 - 21:30; THU 09:00 - 21:30; FRI 09:00 - 21:30; SAT 09:00 - 21:30; SUN 10:00 - 19:00,,0
FOLSOM,217418045,1003 E. BIDWELL STREET,WILLOW CREEK SHOPPING CENTER,FOLSOM,CA,95630,United States,916-358-7111,38.669062,-121.156031,MON 09:00 - 21:30; TUE 09:00 - 21:30; WED 09:00 - 21:30; THU 09:00 - 21:30; FRI 09:00 - 21:30; SAT 09:00 - 21:30; SUN 10:00 - 19:00,,0
NEW PHILADELPHIA,571937043,"400 MILL AVE SE, SUITE C1",NEW TOWNE MALL,NEW PHILADELPHIA,OH,44663,United States,330-556-5296,40.48,-81.44,MON 09:00 - 21:30; TUE 09:00 - 21:30; WED 09:00 - 21:30; THU 09:00 - 21:30; FRI 09:00 - 21:30; SAT 09:00 - 21:30; SUN 10:00 - 19:00,,0
OXNARD,1929529486,231 W. ESPLANDE DRIVE,ESPLANDE CENTER,OXNARD,CA,93036,United States,805-973-1260,34.2333,-119.176,MON 09:00 - 21:30; TUE 09:00 - 21:30; WED 09:00 - 21:30; THU 09:00 - 21:30; FRI 09:00 - 21:30; SAT 09:00 - 21:30; SUN 10:00 - 19:00,,0
KINGSPORT,1571527459,2626 EAST STONE DRIVE,KINGSPORT PAVILION,KINGSPORT,TN,37660,United States,423-245-3412,36.5529,-82.4916,MON 09:00 - 21:30; TUE 09:00 - 21:30; WED 09:00 - 21:30; THU 09:00 - 21:30; FRI 09:00 - 21:30; SAT 09:00 - 21:30; SUN 10:00 - 19:00,,0
TURLOCK,1044478670,2711 COUNTRYSIDE DRIVE,MONTE VISTA CROSSINGS,TURLOCK,CA,95380,United States,209-216-4385,37.5151,-120.881,MON 09:00 - 21:30; TUE 09:00 - 21:30; WED 09:00 - 21:30; THU 09:00 - 21:30; FRI 09:00 - 21:30; SAT 09:00 - 21:30; SUN 10:00 - 19:00,,0
COLUMBUS PARK,1571527353,5550 WHITTLESEY BLVD.,COLUMBUS PARK CROSSING,COLUMBUS PARK,GA,31909,United States,706-320-0179,32.5436,-84.9443,MON 09:00 - 21:30; TUE 09:00 - 21:30; WED 09:00 - 21:30; THU 09:00 - 21:30; FRI 09:00 - 21:30; SAT 09:00 - 21:30; SUN 10:00 - 19:00,,0
MCDONOUGH,1571527315,1855 JONESBORO ROAD,SOUTHPOINT,MCDONOUGH,GA,30253,United States,770-957-4336,33.4632,-84.218,MON 09:00 - 21:30; TUE 09:00 - 21:30; WED 09:00 - 21:30; THU 09:00 - 21:30; FRI 09:00 - 21:30; SAT 09:00 - 21:30; SUN 10:00 - 19:00,,0
LOGANVILLE,1571527481,4040 ATLANTA HIGHWAY,NORTH LOGAN COMMONS,LOGANVILLE,GA,30052,United States,770-466-1333,33.848,-83.9089,MON 09:00 - 21:30; TUE 09:00 - 21:30; WED 09:00 - 21:30; THU 09:00 - 21:30; FRI 09:00 - 21:30; SAT 09:00 - 21:30; SUN 10:00 - 19:00,,0
SOUTH CHARLESTON,1571527173,51 R H L BLVD,THE SHOPPES OF TRACE FORK PLAZA,SOUTH CHARLESTON,WV,25309,United States,304-746-6256,38.3357,-81.7116,MON 09:00 - 21:30; TUE 09:00 - 21:30; WED 09:00 - 21:30; THU 09:00 - 21:30; FRI 09:00 - 21:30; SAT 09:00 - 21:30; SUN 10:00 - 19:00,,0
MODESTO,1571527546,3401 DALE ROAD,VINTAGE FAIRE MALL,MODESTO,CA,95356,United States,209-578-1215,37.6879,-121.053,MON 09:00 - 21:30; TUE 09:00 - 21:30; WED 09:00 - 21:30; THU 09:00 - 21:30; FRI 09:00 - 21:30; SAT 09:00 - 21:30; SUN 10:00 - 19:00,,0
LODI,437467183,2760 REYNOLDS RANCH PARKWAY,REYNOLDS RANCH,LODI,CA,95240,United States,209-368-2328,38.099,-121.261,MON 09:00 - 21:30; TUE 09:00 - 21:30; WED 09:00 - 21:30; THU 09:00 - 21:30; FRI 09:00 - 21:30; SAT 09:00 - 21:30; SUN 10:00 - 19:00,,0
JOHNSON CITY,1571527359,2011 NORTH ROAD STREET,MALL AT JOHNSON CITY,JOHNSON CITY,TN,37601,United States,423-282-4430,36.3392,-82.3779,MON 09:00 - 21:30; TUE 09:00 - 21:30; WED 09:00 - 21:30; THU 09:00 - 21:30; FRI 09:00 - 21:30; SAT 09:00 - 21:30; SUN 10:00 - 19:00,,0
BRISTOL,543131476,434 PINNACLE PARKWAY,THE PINNACLE,BRISTOL,TN,37620,United States,423-217-6696,36.591865,-82.255493,MON 09:00 - 21:30; TUE 09:00 - 21:30; WED 09:00 - 21:30; THU 09:00 - 21:30; FRI 09:00 - 21:30; SAT 09:00 - 21:30; SUN 10:00 - 19:00,,0
ELK GROVE,618788265,8217 LAGUNA BLVD,LAGUNA GATEWAY,ELK GROVE,CA,95758,United States,916-226-1711,38.424,-121.405,MON 09:00 - 21:30; TUE 09:00 - 21:30; WED 09:00 - 21:30; THU 09:00 - 21:30; FRI 09:00 - 21:30; SAT 09:00 - 21:30; SUN 10:00 - 19:00,,0
STOCKTON,1212359313,5354 PACIFIC AVE,SHERWOOD MALL,STOCKTON,CA,95207,United States,209-992-5745,37.999154073813,-121.31191689011,MON 09:00 - 21:30; TUE 09:00 - 21:30; WED 09:00 - 21:30; THU 09:00 - 21:30; FRI 09:00 - 21:30; SAT 09:00 - 21:30; SUN 10:00 - 19:00,,0
CHICO,1929529450,1922 E 20TH STREET,CHICO MALL,CHICO,CA,95928,United States,530-343-3351,39.7288,-121.8078,MON 09:00 - 21:30; TUE 09:00 - 21:30; WED 09:00 - 21:30; THU 09:00 - 21:30; FRI 09:00 - 21:30; SAT 09:00 - 21:30; SUN 10:00 - 19:00,,0
ASHEVILLE,1571527257,107 A RIVER HILLS ROAD,RIVER HILLS SHOPPING CENTER,ASHEVILLE,NC,28805,United States,828-299-0077,35.5749,-82.5212,MON 09:00 - 21:30; TUE 09:00 - 21:30; WED 09:00 - 21:30; THU 09:00 - 21:30; FRI 09:00 - 21:30; SAT 09:00 - 21:30; SUN 10:00 - 19:00,,0
ATHENS,1929529448,"1791 OCONEE CONNECTOR, SUITE 120",EPPS BRIDGE CENTER,ATHENS,GA,30606,United States,706-227-4077,33.914978,-83.452745,MON 09:00 - 21:30; TUE 09:00 - 21:30; WED 09:00 - 21:30; THU 09:00 - 21:30; FRI 09:00 - 21:30; SAT 09:00 - 21:30; SUN 10:00 - 19:00,,0
SOUTH ASHEVILLE,1377327040,329 AIRPORT ROAD,THE LANDING,ARDEN,NC,28704,United States,828-974-3371,35.449085,-82.527423,MON 09:00 - 21:30; TUE 09:00 - 21:30; WED 09:00 - 21:30; THU 09:00 - 21:30; FRI 09:00 - 21:30; SAT 09:00 - 21:30; SUN 10:00 - 19:00,,0
NILES,1571527230,5809 YOUNGSTOWN-WARREN ROAD,ROMAR PLAZA,NILES,OH,44446,United States,330-505-9233,41.2099,-80.7465,MON 09:00 - 21:30; TUE 09:00 - 21:30; WED 09:00 - 21:30; THU 09:00 - 21:30; FRI 09:00 - 21:30; SAT 09:00 - 21:30; SUN 10:00 - 19:00,,0
DOTHAN,1571527365,4401 MONTGOMERY HWY,DOTHAN PAVILION,DOTHAN,AL,36303,United States,334-671-1370,31.2649,-85.4439,MON 09:00 - 21:30; TUE 09:00 - 21:30; WED 09:00 - 21:30; THU 09:00 - 21:30; FRI 09:00 - 21:30; SAT 09:00 - 21:30; SUN 10:00 - 19:00,,0
BOARDMAN,1571527549,550 BOARDMAN-POLAND ROAD,APPLEWOOD COMMONS,BOARDMAN,OH,44514,United States,330-629-6871,41.025288,-80.645227,MON 09:00 - 21:30; TUE 09:00 - 21:30; WED 09:00 - 21:30; THU 09:00 - 21:30; FRI 09:00 - 21:30; SAT 09:00 - 21:30; SUN 10:00 - 19:00,,0
STEUBENVILLE,1571527282,100 MALL DRIVE,FORT STEUBEN MALL,STEUBENVILLE,OH,43952,United States,740-266-6323,40.3668,-80.671,MON 09:00 - 21:30; TUE 09:00 - 21:30; WED 09:00 - 21:30; THU 09:00 - 21:30; FRI 09:00 - 21:30; SAT 09:00 - 21:30; SUN 10:00 - 19:00,,0
REDDING,1929529438,875 BROWNING STREET,REDDING HILLTOP CENTER,REDDING,CA,96003,United States,530-221-1399,40.591678,-122.356671,MON 09:00 - 21:30; TUE 09:00 - 21:30; WED 09:00 - 21:30; THU 09:00 - 21:30; FRI 09:00 - 21:30; SAT 09:00 - 21:30; SUN 10:00 - 19:00,,0
BECKLEY,1571527579,"5475 ROBERT C. BYRD DRIVE, UNIT 6",CROSSROADS MALL,MT. HOPE,WV,25880,United States,304-252-3425,37.8456,-81.1969,MON 09:00 - 21:30; TUE 09:00 - 21:30; WED 09:00 - 21:30; THU 09:00 - 21:30; FRI 09:00 - 21:30; SAT 09:00 - 21:30; SUN 10:00 - 19:00,,0
SAN LUIS OBISPO,1571527552,11970 LOS OSOS VALLEY ROAD,PREFUMO CREEK COMMONS,SAN LUIS OBISPO,CA,93405,United States,805-545-0740,35.2534,-120.685,MON 09:00 - 21:30; TUE 09:00 - 21:30; WED 09:00 - 21:30; THU 09:00 - 21:30; FRI 09:00 - 21:30; SAT 09:00 - 21:30; SUN 10:00 - 19:00,,0
ANDERSON,1571527483,140 FRITZ DRIVE,MIDTOWN PARK,ANDERSON,SC,29621,United States,864-225-7252,34.5516,-82.6745,MON 09:00 - 21:30; TUE 09:00 - 21:30; WED 09:00 - 21:30; THU 09:00 - 21:30; FRI 09:00 - 21:30; SAT 09:00 - 21:30; SUN 10:00 - 19:00,,0
NORTH MACON,1571527468,5080 RIVERSIDE DRIVE,THE SHOPPES AT RIVER CROSSING,MACON,GA,31210,United States,478-477-6777,32.9243,-83.7128,MON 09:00 - 21:30; TUE 09:00 - 21:30; WED 09:00 - 21:30; THU 09:00 - 21:30; FRI 09:00 - 21:30; SAT 09:00 - 21:30; SUN 10:00 - 19:00,,0
DUBLIN,1929529465,2820 DUBLIN BLVD.,FALLON GATEWAY,DUBLIN,CA,94568,United States,925-479-0680,37.703951,-121.853734,MON 09:00 - 21:30; TUE 09:00 - 21:30; WED 09:00 - 21:30; THU 09:00 - 21:30; FRI 09:00 - 21:30; SAT 09:00 - 21:30; SUN 10:00 - 19:00,,0
MORGAN HILL,437467198,1007 COCHRANE ROAD,COCHRANE COMMONS,MORGAN HILL,CA,95037,United States,408-763-4779,37.155,-121.653,MON 09:00 - 21:30; TUE 09:00 - 21:30; WED 09:00 - 21:30; THU 09:00 - 21:30; FRI 09:00 - 21:30; SAT 09:00 - 21:30; SUN 10:00 - 19:00,,0
BEAVER VALLEY,1571527356,675 ROUTE 18,BEAVER VALLEY MALL,MONACA,PA,15061,United States,724-770-9081,40.6755,-80.313,MON 09:00 - 21:30; TUE 09:00 - 21:30; WED 09:00 - 21:30; THU 09:00 - 21:30; FRI 09:00 - 21:30; SAT 09:00 - 21:30; SUN 10:00 - 19:00,,0
PLEASANT HILL,1588359350,2314 MONUMENT BLVD,THE CROSSROADS,PLEASANT HILL,CA,94523,United States,925-222-3508,37.942237,-122.058127,MON 09:00 - 21:30; TUE 09:00 - 21:30; WED 09:00 - 21:30; THU 09:00 - 21:30; FRI 09:00 - 21:30; SAT 09:00 - 21:30; SUN 10:00 - 19:00,,0
GREENVILLE,1571527271,1125 WOODRUFF ROAD,THE SHOPS AT GREENRIDGE,GREENVILLE,SC,29607,United States,864-284-6199,34.83,-82.2998,MON 09:00 - 21:30; TUE 09:00 - 21:30; WED 09:00 - 21:30; THU 09:00 - 21:30; FRI 09:00 - 21:30; SAT 09:00 - 21:30; SUN 10:00 - 19:00,,0
MILPITAS,956726195,1200 GREAT MALL DRIVE,THE GREAT MALL OF THE BAY AREA,MILPITAS,CA,95035,United States,,37.414998,-121.898892,MON 09:00 - 21:30; TUE 09:00 - 21:30; WED 09:00 - 21:30; THU 09:00 - 21:30; FRI 09:00 - 22:00; SAT 09:00 - 22:00; SUN 10:00 - 20:00,,1
BLOSSOM HILL,1035911734,680 BLOSSOM HILL ROAD,SUNRISE PLAZA,SAN JOSE,CA,95123,United States,,37.249665,-121.845936,MON 09:00 - 21:30; TUE 09:00 - 21:30; WED 09:00 - 21:30; THU 09:00 - 21:30; FRI 09:00 - 21:30; SAT 09:00 - 21:30; SUN 10:00 - 19:00,,0
FREMONT,1044478673,43923 PACIFIC COMMONS BLVD,PACIFIC COMMONS,FREMONT,CA,94538,United States,510-897-6475,37.5004,-121.97,MON 09:00 - 21:30; TUE 09:00 - 21:30; WED 09:00 - 21:30; THU 09:00 - 21:30; FRI 09:00 - 21:30; SAT 09:00 - 21:30; SUN 10:00 - 19:00,,0
SALINAS,1929529461,1223 N. DAVIS ROAD,WESTRIDGE CENTER,SALINAS,CA,93907,United States,831-751-9019,36.7006,-121.669,MON 09:00 - 21:30; TUE 09:00 - 21:30; WED 09:00 - 21:30; THU 09:00 - 21:30; FRI 09:00 - 21:30; SAT 09:00 - 21:30; SUN 10:00 - 19:00,,0
ERIE,1571527116,2088 INTERCHANGE RD,MILLCREEK PAVILION,ERIE,PA,16565,United States,814-864-3500,42.07,-80.1044,MON 09:00 - 21:30; TUE 09:00 - 21:30; WED 09:00 - 21:30; THU 09:00 - 21:30; FRI 09:00 - 21:30; SAT 09:00 - 21:30; SUN 10:00 - 19:00,,0
PANAMA CITY BEACH,1619448535,"15700 PANAMA CITY BEACH PARK, UNIT 400",PIER PARK NORTH,PANAMA CITY BEACH,FL,32413,United States,850-238-3322,30.224548,-85.868737,MON 09:00 - 21:30; TUE 09:00 - 21:30; WED 09:00 - 21:30; THU 09:00 - 21:30; FRI 09:00 - 21:30; SAT 09:00 - 21:30; SUN 10:00 - 19:00,,0
MEDFORD,472662089,293 ROSSANLEY DRIVE - SUITE A,NORTHGATE MARKETPLACE,MEDFORD,OR,97501,United States,541-930-3254,42.342,-122.886,MON 09:00 - 21:30; TUE 09:00 - 21:30; WED 09:00 - 21:30; THU 09:00 - 21:30; FRI 09:00 - 21:30; SAT 09:00 - 21:30; SUN 10:00 - 20:00,,0
GRESHAM,1571527514,700 NW EASTMAN PARKWAY,GRESHAM TOWN FAIR,GRESHAM,OR,97030,United States,503-667-1950,45.5025,-122.434,MON 09:00 - 21:30; TUE 09:00 - 21:30; WED 09:00 - 21:30; THU 09:00 - 21:30; FRI 09:00 - 21:30; SAT 09:00 - 21:30; SUN 10:00 - 19:00,,0
MORGANTON,1929529423,C138 MORGANTON HEIGHTS BLVD,MORGANTON HEIGHTS,MORGANTON,NC,28655,United States,828-433-8332,35.725979888262,-81.6996865497951,MON 09:00 - 21:30; TUE 09:00 - 21:30; WED 09:00 - 21:30; THU 09:00 - 21:30; FRI 09:00 - 21:30; SAT 09:00 - 21:30; SUN 10:00 - 19:00,,0
WASHINGTON,1571527112,347 WASHINGTON ROAD,STRABANE SQUARE,WASHINGTON,PA,15301,United States,724-229-7556,40.1893,-80.2265,MON 09:00 - 21:30; TUE 09:00 - 21:30; WED 09:00 - 21:30; THU 09:00 - 21:30; FRI 09:00 - 21:30; SAT 09:00 - 21:30; SUN 10:00 - 19:00,,0
HAYWARD,290211090,549 SOUTHLAND MALL,SOUTHLAND MALL,HAYWARD,CA,94545,United States,510-695-2117,37.6513,-122.10358,MON 09:00 - 21:30; TUE 09:00 - 21:30; WED 09:00 - 21:30; THU 09:00 - 21:30; FRI 09:00 - 21:30; SAT 09:00 - 21:30; SUN 10:00 - 19:00,,0
ROBINSON,1571527127,5000 ROBINSON CENTRE DRIVE,ROBINSON TOWN CENTRE,PITTSBURGH,PA,15205,United States,412-787-1330,40.4532,-80.1564,MON 09:00 - 21:30; TUE 09:00 - 21:30; WED 09:00 - 21:30; THU 09:00 - 21:30; FRI 09:00 - 21:30; SAT 09:00 - 21:30; SUN 10:00 - 19:00,,0
SUNNYVALE,880185557,125 EAST EL CAMINO REAL,EL CAMINO REAL,SUNNYVALE,CA,94087,United States,408-498-4293,37.366701,-122.029005,MON 09:00 - 21:30; TUE 09:00 - 21:30; WED 09:00 - 21:30; THU 09:00 - 21:30; FRI 09:00 - 21:30; SAT 09:00 - 21:30; SUN 10:00 - 19:00,,0
CRANBERRY,1929529462,2021 MACKENZIE WAY,CRANBERRY CROSSROADS,CRANBERRY TWP.,PA,16066,United States,724-778-3010,40.6876,-80.0876,MON 09:00 - 21:30; TUE 09:00 - 21:30; WED 09:00 - 21:30; THU 09:00 - 21:30; FRI 09:00 - 21:30; SAT 09:00 - 21:30; SUN 10:00 - 19:00,,0
CLACKAMAS,1571527530,9600 SE 82ND STREET,JOHNSON CREEK CROSSING,CLACKAMAS,OR,97086,United States,503-788-7616,45.454,-122.577,MON 09:00 - 21:30; TUE 09:00 - 21:30; WED 09:00 - 21:30; THU 09:00 - 21:30; FRI 09:00 - 21:30; SAT 09:00 - 21:30; SUN 10:00 - 19:00,,0
SPARTANBURG,1571527244,"205 WEST BLACKSTOCK ROAD, SUITE 960",WESTGATE PLAZA,SPARTANBURG,SC,29301,United States,864-595-9455,34.9395,-81.9944,MON 09:00 - 21:30; TUE 09:00 - 21:30; WED 09:00 - 21:30; THU 09:00 - 21:30; FRI 09:00 - 21:30; SAT 09:00 - 21:30; SUN 10:00 - 19:00,,0
CLARKSBURG,1571527205,"2399 MEADOWBROOK MALL, UNIT #10",MEADOWBROOK MALL,BRIDGEPORT,WV,26330,United States,304-848-0482,39.3154,-80.274,MON 09:00 - 21:30; TUE 09:00 - 21:30; WED 09:00 - 21:30; THU 09:00 - 21:30; FRI 09:00 - 21:30; SAT 09:00 - 21:30; SUN 10:00 - 19:00,,0
SOUTH HILLS,1929529479,"301 SOUTH HILLS VILLAGE DRIVE, SUITE #201",SOUTH HILLS VILLAGE,PITTSBURGH,PA,15241,United States,412-831-5570,40.3438,-80.0574,MON 09:00 - 21:30; TUE 09:00 - 21:30; WED 09:00 - 21:30; THU 09:00 - 21:30; FRI 09:00 - 21:30; SAT 09:00 - 21:30; SUN 10:00 - 19:00,,0
MCCANDLESS,1529071831,830 PROVIDENCE BOULEVARD,MCCANDLESS CROSSING,MCCANDLESS,PA,15237,United States,412-548-0012,40.5691333410805,-80.0196676673149,MON 09:00 - 21:30; TUE 09:00 - 21:30; WED 09:00 - 21:30; THU 09:00 - 21:30; FRI 09:00 - 21:30; SAT 09:00 - 21:30; SUN 10:00 - 19:00,,0
BUTLER,136024198,400 GREENWOOD PLAZA,GREENWOOD PLAZA,BUTLER,PA,16001,United States,(724) 234-3505,40.879485,-79.950971,MON 09:00 - 21:30; TUE 09:00 - 21:30; WED 09:00 - 21:30; THU 09:00 - 21:30; FRI 09:00 - 21:30; SAT 09:00 - 21:30; SUN 10:00 - 19:00,,0
PORTLAND,1571527515,1140 N. HAYDEN MEADOWS DRIVE,HAYDEN MEADOWS SQUARE,PORTLAND,OR,97217,United States,503-285-5040,45.5941,-122.677,MON 09:00 - 21:30; TUE 09:00 - 21:30; WED 09:00 - 21:30; THU 09:00 - 21:30; FRI 09:00 - 21:30; SAT 09:00 - 21:30; SUN 10:00 - 19:00,,0
LAKE OSWEGO,1571527511,17799 LOWER BOONES FERRY ROAD,MERIDIAN SQUARE,LAKE OSWEGO,OR,97035,United States,503-635-3800,45.3984,-122.743,MON 09:00 - 21:30; TUE 09:00 - 21:30; WED 09:00 - 21:30; THU 09:00 - 21:30; FRI 09:00 - 21:30; SAT 09:00 - 21:30; SUN 10:00 - 19:00,,0
WEST MIFFLIN,1571527290,"3075 CLAIRTON ROAD, SPACE 800",CENTURY I I I MALL,WEST MIFFLIN,PA,15123,United States,412-650-0132,40.3369,-79.943,MON 09:00 - 21:30; TUE 09:00 - 21:30; WED 09:00 - 21:30; THU 09:00 - 21:30; FRI 09:00 - 21:30; SAT 09:00 - 21:30; SUN 10:00 - 19:00,,0
HOMESTEAD,1571527192,350 EAST WATERFRONT DRIVE,THE WATERFRONT,HOMESTEAD,PA,15120,United States,412-476-9940,40.4101,-79.9111,MON 09:00 - 21:30; TUE 09:00 - 21:30; WED 09:00 - 21:30; THU 09:00 - 21:30; FRI 09:00 - 21:30; SAT 09:00 - 21:30; SUN 10:00 - 19:00,,0
TIGARD,1571527368,9402 SW WASHINGTON SQUARE ROAD,WASHINGTON SQUARE,TIGARD,OR,97223,United States,503-598-3081,45.4519,-122.78,MON 09:00 - 21:30; TUE 09:00 - 21:30; WED 09:00 - 21:30; THU 09:00 - 21:30; FRI 09:00 - 21:30; SAT 09:00 - 21:30; SUN 10:00 - 19:00,,0
EUGENE,1571527509,1030 GREENACRES ROAD,DELTA OAKS,EUGENE,OR,97408,United States,541-344-9622,44.0911,-123.096,MON 09:00 - 21:30; TUE 09:00 - 21:30; WED 09:00 - 21:30; THU 09:00 - 21:30; FRI 09:00 - 21:30; SAT 09:00 - 21:30; SUN 10:00 - 19:00,,0
MORGANTOWN,1571527291,596 GIANT STREET,UNIVERSITY TOWNE CENTRE,GRANVILLE,WV,26501,United States,304-598-0554,39.6487,-80.0041,MON 09:00 - 21:30; TUE 09:00 - 21:30; WED 09:00 - 21:30; THU 09:00 - 21:30; FRI 09:00 - 21:30; SAT 09:00 - 21:30; SUN 10:00 - 19:00,,0
ISSAQUAH,1929529447,1422 10TH AVE NE,GRANDRIDGE PLAZA,ISSAQUAH,WA,98029,United States,425-427-9284,47.541128,-122.016679,MON 09:00 - 21:30; TUE 09:00 - 21:30; WED 09:00 - 21:30; THU 09:00 - 21:30; FRI 09:00 - 21:30; SAT 09:00 - 21:30; SUN 10:00 - 19:00,,0
PETALUMA,1929529454,"401 KENILWORTH DRIVE, SUITE 1030",EAST WASHINGTON PLACE,PETALUMA,CA,94952,United States,707-763-3750,38.243412,-122.624013,MON 09:00 - 21:30; TUE 09:00 - 21:30; WED 09:00 - 21:30; THU 09:00 - 21:30; FRI 09:00 - 21:30; SAT 09:00 - 21:30; SUN 10:00 - 19:00,,0
SALEM,1571527510,275 LANCASTER DRIVE,SALEM,SALEM,OR,97301,United States,503-363-4860,44.9308,-122.985,MON 09:00 - 21:30; TUE 09:00 - 21:30; WED 09:00 - 21:30; THU 09:00 - 21:30; FRI 09:00 - 21:30; SAT 09:00 - 21:30; SUN 10:00 - 19:00,,0
PITTSBURGH MILLS,1571527243,329 PITTSBURGH MILLS CIRCLE,GALLERIA AT PITTSBURGH MILLS,TARENTUM,PA,15084,United States,724-274-0240,40.5726,-79.7933,MON 09:00 - 21:30; TUE 09:00 - 21:30; WED 09:00 - 21:30; THU 09:00 - 21:30; FRI 09:00 - 21:30; SAT 09:00 - 21:30; SUN 10:00 - 19:00,,0
DALY CITY,1526184073,64 SERRAMONTE CENTER,SERRAMONTE MALL,DALY CITY,CA,94015,United States,415-325-4109,37.671793,-122.472257,MON 09:00 - 21:30; TUE 09:00 - 21:30; WED 09:00 - 21:30; THU 09:00 - 21:30; FRI 09:00 - 21:30; SAT 09:00 - 21:30; SUN 10:00 - 19:00,,0
SANTA ROSA,767174582,1975 CLEVELAND AVENUE,CODDINGTOWN MALL,SANTA ROSA,CA,95401,United States,707-228-1223,38.455938,-122.72787,MON 09:00 - 21:30; TUE 09:00 - 21:30; WED 09:00 - 21:30; THU 09:00 - 21:30; FRI 09:00 - 21:30; SAT 09:00 - 21:30; SUN 10:00 - 19:00,,0
MONROEVILLE,1316092300,501 MONROEVILLE MALL,MONROEVILLE MALL,MONROEVILLE,PA,15146,United States,412-843-0024,40.429465,-79.797445,MON 09:00 - 21:30; TUE 09:00 - 21:30; WED 09:00 - 21:30; THU 09:00 - 21:30; FRI 09:00 - 21:30; SAT 09:00 - 21:30; SUN 10:00 - 19:00,,0
HICKORY,1571527255,1860 CATAWBA VALLEY BLVD. SE,HICKORY RIDGE,HICKORY,NC,28602,United States,828-431-3025,35.7008,-81.3101,MON 09:00 - 21:30; TUE 09:00 - 21:30; WED 09:00 - 21:30; THU 09:00 - 21:30; FRI 09:00 - 21:30; SAT 09:00 - 21:30; SUN 10:00 - 19:00,,0
PUYALLUP,1571527507,"3500 S. MERIDIAN STREET, #600",SOUTH HILLS,PUYALLUP,WA,98373,United States,253-845-5188,47.1581,-122.296,MON 09:00 - 21:30; TUE 09:00 - 21:30; WED 09:00 - 21:30; THU 09:00 - 21:30; FRI 09:00 - 21:30; SAT 09:00 - 21:30; SUN 10:00 - 19:00,,0
HILLSBORO,1571527506,7280 NW BUTLER STREET,CROSSROADS SHOPPING CENTER,HILLSBORO,OR,97124,United States,503-547-2904,45.5352,-122.905,MON 09:00 - 21:30; TUE 09:00 - 21:30; WED 09:00 - 21:30; THU 09:00 - 21:30; FRI 09:00 - 21:30; SAT 09:00 - 21:30; SUN 10:00 - 19:00,,0
RENTON,1571527544,915 NORTH LANDING WAY,THE LANDING IN RENTON,RENTON,WA,98057,United States,425-255-3070,47.4961,-122.203,MON 09:00 - 21:30; TUE 09:00 - 21:30; WED 09:00 - 21:30; THU 09:00 - 21:30; FRI 09:00 - 21:30; SAT 09:00 - 21:30; SUN 10:00 - 19:00,,0
FEDERAL WAY,1032966202,1819 S. COMMONS,THE COMMONS,FEDERAL WAY,WA,98003,United States,206-400-2811,47.31327,-122.3103241,MON 09:00 - 21:30; TUE 09:00 - 21:30; WED 09:00 - 21:30; THU 09:00 - 21:30; FRI 09:00 - 21:30; SAT 09:00 - 21:30; SUN 10:00 - 19:00,,0
UNIONTOWN,537757764,320 WALMART DRIVE,FAYETTE CROSSING,UNIONTOWN,PA,15401,United States,724-415-3460,39.91689,-79.754974,MON 09:00 - 21:30; TUE 09:00 - 21:30; WED 09:00 - 21:30; THU 09:00 - 21:30; FRI 09:00 - 21:30; SAT 09:00 - 21:30; SUN 10:00 - 19:00,,0
GREENSBURG,1571527175,"RR 17, BOX 18",HEMPFIELD POINTE PLAZA,GREENSBURG,PA,15601,United States,724-522-9777,40.3106,-79.5965,MON 09:00 - 21:30; TUE 09:00 - 21:30; WED 09:00 - 21:30; THU 09:00 - 21:30; FRI 09:00 - 21:30; SAT 09:00 - 21:30; SUN 10:00 - 19:00,,0
CHRISTIANSBURG,1571527339,100 NEW RIVER ROAD,RIVER VALLEY MALL,CHRISTIANSBURG,VA,24073,United States,540-381-0102,37.1645,-80.4283,MON 09:00 - 21:30; TUE 09:00 - 21:30; WED 09:00 - 21:30; THU 09:00 - 21:30; FRI 09:00 - 21:30; SAT 09:00 - 21:30; SUN 10:00 - 19:00,,0
NORTHGATE,623666221,328 NE NORTHGATE WAY,NORTHGATE NORTH,SEATTLE,WA,98125,United States,206-962-5894,47.709275,-122.324644,MON 09:00 - 21:30; TUE 09:00 - 21:30; WED 09:00 - 21:30; THU 09:00 - 21:30; FRI 09:00 - 21:30; SAT 09:00 - 21:30; SUN 10:00 - 19:00,,0
WESTMORELAND,1571527296,5289 ROUTE 30,WESTMORELAND MALL,GREENSBURG,PA,15601,United States,724-853-1752,40.2975,-79.5061,MON 09:00 - 21:30; TUE 09:00 - 21:30; WED 09:00 - 21:30; THU 09:00 - 21:30; FRI 09:00 - 21:30; SAT 09:00 - 21:30; SUN 10:00 - 19:00,,0
MARYSVILLE,219430315,2609 172 ST NE,SMOKEY POINT TOWN CENTER,MARYSVILLE,WA,98271,United States,360-287-5822,48.1542,-122.195,MON 09:00 - 21:30; TUE 09:00 - 21:30; WED 09:00 - 21:30; THU 09:00 - 21:30; FRI 09:00 - 21:30; SAT 09:00 - 21:30; SUN 10:00 - 19:00,,0
GASTONIA,1571527533,"415 COX ROAD, SUITE 100",GASTON MALL,GASTONIA,NC,28054,United States,704-810-0994,35.2622,-81.1353,MON 09:00 - 21:30; TUE 09:00 - 21:30; WED 09:00 - 21:30; THU 09:00 - 21:30; FRI 09:00 - 21:30; SAT 09:00 - 21:30; SUN 10:00 - 19:00,,0
MOORESVILLE,1571527267,590 J. RIVER HIGHWAY,WINSLOW BAY COMMONS,MOORESVILLE,NC,28117,United States,704-662-9066,35.5981,-80.8698,MON 09:00 - 21:30; TUE 09:00 - 21:30; WED 09:00 - 21:30; THU 09:00 - 21:30; FRI 09:00 - 21:30; SAT 09:00 - 21:30; SUN 10:00 - 19:00,,0
AUGUSTA,1571527394,3450 WRIGHTSBORO ROAD,AUGUSTA MALL,AUGUSTA,GA,30909,United States,706-733-1199,33.4649,-82.0807,MON 09:00 - 21:30; TUE 09:00 - 21:30; WED 09:00 - 21:30; THU 09:00 - 21:30; FRI 09:00 - 21:30; SAT 09:00 - 21:30; SUN 10:00 - 19:00,,0
OLYMPIA,571937026,625 BLACK LANE BLVD SW,CAPITAL MALL,OLYMPIA,WA,98502,United States,360-999-5607,47.041,-122.933,MON 09:00 - 21:30; TUE 09:00 - 21:30; WED 09:00 - 21:30; THU 09:00 - 21:30; FRI 09:00 - 21:30; SAT 09:00 - 21:30; SUN 10:00 - 19:00,,0
SILVERDALE,495938226,"10315 SILVERDALE WAY NW, SUITE E20",KITSAP MALL,SILVERDALE,WA,98383,United States,360-633-2287,47.657,-122.691,MON 09:00 - 21:30; TUE 09:00 - 21:30; WED 09:00 - 21:30; THU 09:00 - 21:30; FRI 09:00 - 21:30; SAT 09:00 - 21:30; SUN 10:00 - 19:00,,0
HUNTERSVILLE,1571527266,8825 TOWNLEY ROAD,BIRKDALE VILLAGE,HUNTERSVILLE,NC,28078,United States,704-896-6244,35.445,-80.878,MON 09:00 - 21:30; TUE 09:00 - 21:30; WED 09:00 - 21:30; THU 09:00 - 21:30; FRI 09:00 - 21:30; SAT 09:00 - 21:30; SUN 10:00 - 19:00,,0
BURLINGTON,1032966191,2000 S. BURLINGTON BLVD,BURLINGTON,BURLINGTON,WA,98233,United States,360-419-6072,48.44829,-122.3337075,MON 09:00 - 21:30; TUE 09:00 - 21:30; WED 09:00 - 21:30; THU 09:00 - 21:30; FRI 09:00 - 21:30; SAT 09:00 - 21:30; SUN 10:00 - 19:00,,0
CHARLOTTE,1571527269,6445 NORTHLAKE MALL DRIVE,NORTHLAKE MALL,CHARLOTTE,NC,28216,United States,704-598-2577,35.3526,-80.8524,MON 09:00 - 21:30; TUE 09:00 - 21:30; WED 09:00 - 21:30; THU 09:00 - 21:30; FRI 09:00 - 21:30; SAT 09:00 - 21:30; SUN 10:00 - 19:00,,0
ROANOKE,1571527190,1910 VALLEY VIEW BLVD NW,VALLEY VIEW MALL,ROANOKE,VA,24012,United States,540-265-0861,37.3071,-79.9619,MON 09:00 - 21:30; TUE 09:00 - 21:30; WED 09:00 - 21:30; THU 09:00 - 21:30; FRI 09:00 - 21:30; SAT 09:00 - 21:30; SUN 10:00 - 19:00,,0
ROCK HILL,1571527534,548 JOHN ROSS PARKWAY,MANCHESTER VILLAGE,ROCK HILL,SC,29730,United States,803-324-2393,34.9428,-80.977,MON 09:00 - 21:30; TUE 09:00 - 21:30; WED 09:00 - 21:30; THU 09:00 - 21:30; FRI 09:00 - 21:30; SAT 09:00 - 21:30; SUN 10:00 - 19:00,,0
PINEVILLE,1571527265,9600 PINEVILLE-MATTHEWS ROAD,PINEVILLE,PINEVILLE,NC,28134,United States,704-540-4750,35.088,-80.8803,MON 09:00 - 21:30; TUE 09:00 - 21:30; WED 09:00 - 21:30; THU 09:00 - 21:30; FRI 09:00 - 21:30; SAT 09:00 - 21:30; SUN 10:00 - 19:00,,0
SOUTH PARK,1571527444,4325 BARCLAY DOWNS DRIVE,SOUTH PARK MALL,CHARLOTTE,NC,28209,United States,704-972-9400,35.1532,-80.8339,MON 09:00 - 21:30; TUE 09:00 - 21:30; WED 09:00 - 21:30; THU 09:00 - 21:30; FRI 09:00 - 21:30; SAT 09:00 - 21:30; SUN 10:00 - 19:00,,0
CONCORD,1571527364,6080 BAYFIELD PARKWAY,AFTON RIDGE,CONCORD,NC,28027,United States,704-262-7373,35.4173,-80.6789,MON 09:00 - 21:30; TUE 09:00 - 21:30; WED 09:00 - 21:30; THU 09:00 - 21:30; FRI 09:00 - 21:30; SAT 09:00 - 21:30; SUN 10:00 - 19:00,,0
TALLAHASSEE,1929529446,1729 APALACHEE PARKWAY,TALLAHASSEE SHOPPING CENTER,TALLAHASSEE,FL,32301,United States,850-309-0490,30.4311,-84.2514,MON 09:00 - 21:30; TUE 09:00 - 21:30; WED 09:00 - 21:30; THU 09:00 - 21:30; FRI 09:00 - 21:30; SAT 09:00 - 21:30; SUN 10:00 - 19:00,,0
AMHERST,219430307,640 ALBERTA DRIVE,BOULEVARD MALL,AMHERST,NY,14226,United States,716-242-6903,42.9868,-78.8193,MON 09:00 - 21:30; TUE 09:00 - 21:30; WED 09:00 - 21:30; THU 09:00 - 21:30; FRI 09:00 - 21:30; SAT 09:00 - 21:30; SUN 10:00 - 19:00,,0
WINSTON SALEM,1571527251,164 HANES MALL CIRCLE,HANES MALL,WINSTON SALEM,NC,27103,United States,336-659-3557,36.0663,-80.304,MON 09:00 - 21:30; TUE 09:00 - 21:30; WED 09:00 - 21:30; THU 09:00 - 21:30; FRI 09:00 - 21:30; SAT 09:00 - 21:30; SUN 10:00 - 19:00,,0
ORCHARD PARK,1571527532,3434 AMELIA DRIVE,QUAKER CROSSING,ORCHARD PARK,NY,14127,United States,716-821-1616,42.7925,-78.7867,MON 09:00 - 21:30; TUE 09:00 - 21:30; WED 09:00 - 21:30; THU 09:00 - 21:30; FRI 09:00 - 21:30; SAT 09:00 - 21:30; SUN 10:00 - 19:00,,0
SALISBURY,279993682,"125 TINGLE DRIVE, SUITE 300",SHOPPES AT SUMMIT PARK,SALISBURY,NC,28146,United States,704-212-2482,35.628717,-80.491407,MON 09:00 - 21:30; TUE 09:00 - 21:30; WED 09:00 - 21:30; THU 09:00 - 21:30; FRI 09:00 - 21:30; SAT 09:00 - 21:30; SUN 10:00 - 19:00,,0
CHEEKTOWAGA,1571527416,2 WALDEN GALLERIA,WALDEN GALLERIA,BUFFALO,NY,14225,United States,716-651-0600,42.9138,-78.764,MON 09:00 - 21:30; TUE 09:00 - 21:30; WED 09:00 - 21:30; THU 09:00 - 21:30; FRI 09:00 - 21:30; SAT 09:00 - 21:30; SUN 10:00 - 19:00,,0
MATTHEWS,1571527264,"10530 NE PARKWAY, SUITE J",SYCAMORE COMMONS,MATTHEWS,NC,28105,United States,704-841-3959,35.1303,-80.7004,MON 09:00 - 21:30; TUE 09:00 - 21:30; WED 09:00 - 21:30; THU 09:00 - 21:30; FRI 09:00 - 21:30; SAT 09:00 - 21:30; SUN 10:00 - 19:00,,0
BELLINGHAM,1005094695,20 BELLIS FAIR PARKWAY,BELLIS FAIR MALL,BELLINGHAM,WA,98226,United States,306-305-3099,48.78494263,-122.4932744,MON 09:00 - 21:30; TUE 09:00 - 21:30; WED 09:00 - 21:30; THU 09:00 - 21:30; FRI 09:00 - 21:30; SAT 09:00 - 21:30; SUN 10:00 - 19:00,,0
WILLIAMSVILLE,1571527104,5105 TRANSIT RD,EASTGATE PLAZA,WILLIAMSVILLE,NY,14221,United States,716-565-0417,42.9865,-78.6939,MON 09:00 - 21:30; TUE 09:00 - 21:30; WED 09:00 - 21:30; THU 09:00 - 21:30; FRI 09:00 - 21:30; SAT 09:00 - 21:30; SUN 10:00 - 19:00,,0
COLUMBIA,1571527256,1110 BOWER PARKWAY,COLUMBIANA STATION SHOPPING CENTER,COLUMBIA,SC,29212,United States,803-749-0756,34.068,-81.1594,MON 09:00 - 21:30; TUE 09:00 - 21:30; WED 09:00 - 21:30; THU 09:00 - 21:30; FRI 09:00 - 21:30; SAT 09:00 - 21:30; SUN 10:00 - 19:00,,0
GREENSBORO,1571527258,1208-A BRIDFORD PARKWAY,WENDOVER PLACE SHOPPING CENTER,GREENSBORO,NC,27407,United States,336-856-8875,36.0587,-79.9075,MON 09:00 - 21:30; TUE 09:00 - 21:30; WED 09:00 - 21:30; THU 09:00 - 21:30; FRI 09:00 - 21:30; SAT 09:00 - 21:30; SUN 10:00 - 19:00,,0
NE COLUMBIA,1929529480,10204A TWO NOTCH ROAD,TARGET CENTER,COLUMBIA,SC,29229,United States,803-699-8380,34.1184,-80.88,MON 09:00 - 21:30; TUE 09:00 - 21:30; WED 09:00 - 21:30; THU 09:00 - 21:30; FRI 09:00 - 21:30; SAT 09:00 - 21:30; SUN 10:00 - 19:00,,0
ALTOONA,1571527165,149 FALON LANE,LOGAN TOWN CENTER,ALTOONA,PA,16602,United States,814-941-2273,40.487,-78.3841,MON 09:00 - 21:30; TUE 09:00 - 21:30; WED 09:00 - 21:30; THU 09:00 - 21:30; FRI 09:00 - 21:30; SAT 09:00 - 21:30; SUN 10:00 - 19:00,,0
HARRISONBURG,1929529488,1925 EAST MARKET STREET,VALLEY MALL,HARRISONBURG,VA,22801,United States,540-433-1268,38.4284,-78.845,MON 09:00 - 21:30; TUE 09:00 - 21:30; WED 09:00 - 21:30; THU 09:00 - 21:30; FRI 09:00 - 21:30; SAT 09:00 - 21:30; SUN 10:00 - 19:00,,0
LYNCHBURG,1571527186,4026-C WARDS ROAD,WARD'S CROSSING,LYNCHBURG,VA,24502,United States,434-832-5666,37.3473,-79.191,MON 09:00 - 21:30; TUE 09:00 - 21:30; WED 09:00 - 21:30; THU 09:00 - 21:30; FRI 09:00 - 21:30; SAT 09:00 - 21:30; SUN 10:00 - 19:00,,0
BATAVIA,1929529424,4180 VETERANS MEMORIAL DRIVE,TOWNE CENTER AT BATAVIA,BATAVIA,NY,14020,United States,585-344-7150,43.0133496699494,-78.2039176298671,MON 09:00 - 21:30; TUE 09:00 - 21:30; WED 09:00 - 21:30; THU 09:00 - 21:30; FRI 09:00 - 21:30; SAT 09:00 - 21:30; SUN 10:00 - 19:00,,0
DANVILLE,1571527398,145 HOLT GARRISON PARKWAY,COLEMAN MARKETPLACE,DANVILLE,VA,24540,United States,434-792-9612,36.5991,-79.4189,MON 09:00 - 21:30; TUE 09:00 - 21:30; WED 09:00 - 21:30; THU 09:00 - 21:30; FRI 09:00 - 21:30; SAT 09:00 - 21:30; SUN 10:00 - 19:00,,0
BURLINGTON,1571527556,1465 BOONE STATION DRIVE,ALAMANCE WEST,BURLINGTON,NC,27215,United States,336-584-7545,36.0701,-79.5149,MON 09:00 - 21:30; TUE 09:00 - 21:30; WED 09:00 - 21:30; THU 09:00 - 21:30; FRI 09:00 - 21:30; SAT 09:00 - 21:30; SUN 10:00 - 19:00,,0
STATE COLLEGE,1571527177,325 LOWES BLVD,THE COLONNADE AT STATE COLLEGE,STATE COLLEGE,PA,16803,United States,814-861-1350,40.8125,-77.9073,MON 09:00 - 21:30; TUE 09:00 - 21:30; WED 09:00 - 21:30; THU 09:00 - 21:30; FRI 09:00 - 21:30; SAT 09:00 - 21:30; SUN 10:00 - 19:00,,0
CHARLOTTESVILLE,1571527202,1940 RIO HILL CENTER,RIO HILL SHOPPING CENTER,CHARLOTTESVILLE,VA,22901,United States,434-974-5640,38.0883,-78.4748,MON 09:00 - 21:30; TUE 09:00 - 21:30; WED 09:00 - 21:30; THU 09:00 - 21:30; FRI 09:00 - 21:30; SAT 09:00 - 21:30; SUN 10:00 - 19:00,,0
CHARLOTTESVILLE,495938250,"120 WEGMANS WAY, BUILDING 200, SUITE A",5TH STREET STATION,CHARLOTTESVILLE,VA,22902,United States,434-270-7117,38.009,-78.5,MON 09:00 - 21:30; TUE 09:00 - 21:30; WED 09:00 - 21:30; THU 09:00 - 21:30; FRI 09:00 - 21:30; SAT 09:00 - 21:30; SUN 10:00 - 20:00,,0
WINCHESTER,498700651,1675 SOUTH PLEASANT VALLEY ROAD,WINCHESTER PLAZA,WINCHESTER,VA,22601,United States,540-431-3487,39.167105,-78.167011,MON 09:00 - 21:30; TUE 09:00 - 21:30; WED 09:00 - 21:30; THU 09:00 - 21:30; FRI 09:00 - 21:30; SAT 09:00 - 21:30; SUN 10:00 - 19:00,,0
GREECE,1929529496,304 GREECE RIDGE CENTER,THE MALL AT GREECE RIDGE,ROCHESTER,NY,14626,United States,585-227-3730,43.2049,-77.6938,MON 09:00 - 21:30; TUE 09:00 - 21:30; WED 09:00 - 21:30; THU 09:00 - 21:30; FRI 09:00 - 21:30; SAT 09:00 - 21:30; SUN 10:00 - 19:00,,0
ROCHESTER,1571527421,305 MIRACLE MILE DRIVE,MARKETPLACE MALL,ROCHESTER,NY,14623,United States,585-697-7400,43.0826,-77.6351,MON 09:00 - 21:30; TUE 09:00 - 21:30; WED 09:00 - 21:30; THU 09:00 - 21:30; FRI 09:00 - 21:30; SAT 09:00 - 21:30; SUN 10:00 - 19:00,,0
MARTINSBURG,1571527487,398 RETAIL COMMONS PARKWAY,THE COMMONS,MARTINSBURG,WV,25403,United States,304-263-1225,39.4378,-77.9937,MON 09:00 - 21:30; TUE 09:00 - 21:30; WED 09:00 - 21:30; THU 09:00 - 21:30; FRI 09:00 - 21:30; SAT 09:00 - 21:30; SUN 10:00 - 19:00,,0
HINESVILLE,867714675,"863 OGLETHORPE HIGHWAY, SUITE 101",OGLETHORPE SQUARE,HINESVILLE,GA,31313,United States,912-369-0701,31.820698,-81.600938,MON 09:00 - 21:30; TUE 09:00 - 21:30; WED 09:00 - 21:30; THU 09:00 - 21:30; FRI 09:00 - 21:30; SAT 09:00 - 21:30; SUN 10:00 - 19:00,,0
WEBSTER,1571527248,1062 RIDGE ROAD,TOWNE CENTER AT WEBSTER,WEBSTER,NY,14580,United States,585-872-1080,43.2111,-77.4492,MON 09:00 - 21:30; TUE 09:00 - 21:30; WED 09:00 - 21:30; THU 09:00 - 21:30; FRI 09:00 - 21:30; SAT 09:00 - 21:30; SUN 10:00 - 19:00,,0
ABERDEEN,1929529493,"11109 HIGHWAY 15/501, SUITE A",CENTER PARK,ABERDEEN,NC,28315,United States,910-246-0778,35.1565,-79.4176,MON 09:00 - 21:30; TUE 09:00 - 21:30; WED 09:00 - 21:30; THU 09:00 - 21:30; FRI 09:00 - 21:30; SAT 09:00 - 21:30; SUN 10:00 - 19:00,,0
VICTOR,1929529501,20 COBBLESTONE COURT DRIVE,COBBLESTONE COURT,VICTOR,NY,14564,United States,585-223-1530,43.0306,-77.4379,MON 09:00 - 21:30; TUE 09:00 - 21:30; WED 09:00 - 21:30; THU 09:00 - 21:30; FRI 09:00 - 21:30; SAT 09:00 - 21:30; SUN 10:00 - 19:00,,0
HAGERSTOWN,1571527172,17780 GARLAND GROH BLVD,HAGERSTOWN,HAGERSTOWN,MD,21740,United States,240-420-0140,39.6563,-77.7524,MON 09:00 - 21:30; TUE 09:00 - 21:30; WED 09:00 - 21:30; THU 09:00 - 21:30; FRI 09:00 - 21:30; SAT 09:00 - 21:30; SUN 10:00 - 19:00,,0
DURHAM,1571527259,5422 NEW HOPE COMMONS DRIVE,NEW HOPE COMMONS,DURHAM,NC,27707,United States,919-493-9884,35.9565,-78.9956,MON 09:00 - 21:30; TUE 09:00 - 21:30; WED 09:00 - 21:30; THU 09:00 - 21:30; FRI 09:00 - 21:30; SAT 09:00 - 21:30; SUN 10:00 - 19:00,,0
CHAMBERSBURG,537757770,1320 LINCOLN WAY E - UNIT 1,FRANKLIN CENTER,CHAMBERSBURG,PA,17202,United States,717-446-8115,39.925644,-77.631052,MON 09:00 - 21:30; TUE 09:00 - 21:30; WED 09:00 - 21:30; THU 09:00 - 21:30; FRI 09:00 - 21:30; SAT 09:00 - 21:30; SUN 10:00 - 19:00,,0
FLORENCE,1571527351,"DAVID MCLEOD BLVD, SUITE 1500",MAGNOLIA MALL,FLORENCE,SC,29501,United States,843-413-1321,34.192,-79.8322,MON 09:00 - 21:30; TUE 09:00 - 21:30; WED 09:00 - 21:30; THU 09:00 - 21:30; FRI 09:00 - 21:30; SAT 09:00 - 21:30; SUN 10:00 - 19:00,,0
CULPEPER,1377327039,15359 MONTANUS DRIVE,CULPEPER COLONNADE,CULPEPER,VA,22701,United States,540-317-4839,38.4832202181606,-77.9659601116221,MON 09:00 - 21:30; TUE 09:00 - 21:30; WED 09:00 - 21:30; THU 09:00 - 21:30; FRI 09:00 - 21:30; SAT 09:00 - 21:30; SUN 10:00 - 19:00,,0
LAKE CITY,1005094685,233 NW HUTTON DRIVE,GLEASON PLACE,LAKE CITY,FL,32055,United States,,30.18124891,-82.66873562,MON 09:00 - 21:30; TUE 09:00 - 21:30; WED 09:00 - 21:30; THU 09:00 - 21:30; FRI 09:00 - 21:30; SAT 09:00 - 21:30; SUN 10:00 - 19:00,,0
APEX,1571527314,1531 BEAVER CREEK COMMONS DRIVE,BEAVER CREEK CROSSINGS,APEX,NC,27502,United States,919-367-0194,35.7448,-78.8858,MON 09:00 - 21:30; TUE 09:00 - 21:30; WED 09:00 - 21:30; THU 09:00 - 21:30; FRI 09:00 - 21:30; SAT 09:00 - 21:30; SUN 10:00 - 19:00,,0
RALEIGH,1571527261,"8021 BRIER CREEK PARKWAY, SUITE 100",BRIER CREEK COMMONS,RALEIGH,NC,27617,United States,919-806-5153,35.91,-78.7806,MON 09:00 - 21:30; TUE 09:00 - 21:30; WED 09:00 - 21:30; THU 09:00 - 21:30; FRI 09:00 - 21:30; SAT 09:00 - 21:30; SUN 10:00 - 19:00,,0
SAVANNAH,1032966194,"318 MALL BLVD, SUITE #200",MARKET WALK,SAVANNAH,GA,31406,United States,912-480-9037,32.00625,-81.111547,MON 09:00 - 21:30; TUE 09:00 - 21:30; WED 09:00 - 21:30; THU 09:00 - 21:30; FRI 09:00 - 21:30; SAT 09:00 - 21:30; SUN 10:00 - 19:00,,0
HOLLY SPRINGS,1929529455,168 GRAND HILL PLACE,HOLLY SPRINGS TOWNE CENTER,HOLLY SPRINGS,NC,27540,United States,919-552-4148,35.6636496154626,-78.8484036806966,MON 09:00 - 21:30; TUE 09:00 - 21:30; WED 09:00 - 21:30; THU 09:00 - 21:30; FRI 09:00 - 21:30; SAT 09:00 - 21:30; SUN 10:00 - 19:00,,0
BLUFFTON,1929529475,"1050 FORDING ISLAND ROAD, SUITE B",BLUFFTON TARGET CENTER,BLUFFTON,SC,29910,United States,843-815-3000,32.255,-80.8509,MON 09:00 - 21:30; TUE 09:00 - 21:30; WED 09:00 - 21:30; THU 09:00 - 21:30; FRI 09:00 - 21:30; SAT 09:00 - 21:30; SUN 10:00 - 19:00,,0
GAINESVILLE,1571527569,8009 STONEWALL SHOPS SQUARE,SHOPS AT STONEWALL,GAINESVILLE,VA,20155,United States,571-248-6261,38.7851,-77.6486,MON 09:00 - 21:30; TUE 09:00 - 21:30; WED 09:00 - 21:30; THU 09:00 - 21:30; FRI 09:00 - 21:30; SAT 09:00 - 21:30; SUN 10:00 - 19:00,,0
CARY,1571527253,401 CROSSROADS BLVD,CROSSROAD PLAZA,CARY,NC,27518,United States,919-851-7721,35.7622,-78.7359,MON 09:00 - 21:30; TUE 09:00 - 21:30; WED 09:00 - 21:30; THU 09:00 - 21:30; FRI 09:00 - 21:30; SAT 09:00 - 21:30; SUN 10:00 - 19:00,,0
LEESBURG,279993679,1079 EDWARDS FERRY ROAD,BATTLEFIELD SHOPPING CENTER,LEESBURG,VA,20176,United States,571-707-3344,39.10797,-77.526994,MON 09:00 - 21:30; TUE 09:00 - 21:30; WED 09:00 - 21:30; THU 09:00 - 21:30; FRI 09:00 - 21:30; SAT 09:00 - 21:30; SUN 10:00 - 19:00,,0
ARCOLA,543131497,"24670 DULLES LANDING DRIVE, UNIT 100",DULLES LANDING,STERLING,VA,20166,United States,571-367-5120,38.933279,-77.520162,MON 09:00 - 21:30; TUE 09:00 - 21:30; WED 09:00 - 21:30; THU 09:00 - 21:30; FRI 09:00 - 21:30; SAT 09:00 - 21:30; SUN 10:00 - 19:00,,0
FREDERICK,1044478694,"5500 BUCKEYSTOWN PIKE, SUITE 900",FRANCIS SCOTT KEY MALL,FREDERICK,MD,21703,United States,240-772-3181,39.3827,-77.4072,MON 09:00 - 21:30; TUE 09:00 - 21:30; WED 09:00 - 21:30; THU 09:00 - 21:30; FRI 09:00 - 21:30; SAT 09:00 - 21:30; SUN 10:00 - 19:00,,0
MANASSAS,1571527203,10800 SUDLEY MANOR DRIVE,BULL RUN PLAZA,MANASSAS,VA,20109,United States,703-257-4300,38.7877,-77.5177,MON 09:00 - 21:30; TUE 09:00 - 21:30; WED 09:00 - 21:30; THU 09:00 - 21:30; FRI 09:00 - 21:30; SAT 09:00 - 21:30; SUN 10:00 - 19:00,,0
SUMMERVILLE,1571527352,355 AZALEA SQ. BLVD.,AZALEA SQUARE,SUMMERVILLE,SC,29483,United States,843-873-4065,33.038,-80.1614,MON 09:00 - 21:30; TUE 09:00 - 21:30; WED 09:00 - 21:30; THU 09:00 - 21:30; FRI 09:00 - 21:30; SAT 09:00 - 21:30; SUN 10:00 - 19:00,,0
RALEIGH,1571527260,3630 SUMNER BLVD,TRIANGLE TOWN CENTER,RALEIGH,NC,27616,United States,919-792-9090,35.8627,-78.5762,MON 09:00 - 21:30; TUE 09:00 - 21:30; WED 09:00 - 21:30; THU 09:00 - 21:30; FRI 09:00 - 21:30; SAT 09:00 - 21:30; SUN 10:00 - 19:00,,0
FAYETTEVILLE,1571527250,2051 SKIBO ROAD,FAYETTEVILLE PAVILION,FAYETTEVILLE,NC,28314,United States,910-867-8566,35.0543,-78.9699,MON 09:00 - 21:30; TUE 09:00 - 21:30; WED 09:00 - 21:30; THU 09:00 - 21:30; FRI 09:00 - 21:30; SAT 09:00 - 21:30; SUN 10:00 - 19:00,,0
DULLES,1571527321,21070 DULLES TOWN CIRCLE,DULLES TOWN CENTER,DULLES,VA,20166,United States,571-434-0046,39.032,-77.4225,MON 09:00 - 21:30; TUE 09:00 - 21:30; WED 09:00 - 21:30; THU 09:00 - 21:30; FRI 09:00 - 21:30; SAT 09:00 - 21:30; SUN 10:00 - 19:00,,0
BRUNSWICK,1571527571,440 GLYNN ISLES,GLYNN ISLES,BRUNSWICK,GA,31525,United States,912-262-2433,31.2044,-81.481,MON 09:00 - 21:30; TUE 09:00 - 21:30; WED 09:00 - 21:30; THU 09:00 - 21:30; FRI 09:00 - 21:30; SAT 09:00 - 21:30; SUN 10:00 - 19:00,,0
GARNER,1571527268,145 SHENSTONE BLVD,WHITE OAK CROSSING,GARNER,NC,27529,United States,919-662-4177,35.6945,-78.5804,MON 09:00 - 21:30; TUE 09:00 - 21:30; WED 09:00 - 21:30; THU 09:00 - 21:30; FRI 09:00 - 21:30; SAT 09:00 - 21:30; SUN 10:00 - 19:00,,0
HORSEHEADS,1571527485,1216 COUNTY ROUTE 64,SOUTHERN TIER CROSSING,HORSEHEADS,NY,14845,United States,607-796-0850,42.1583,-76.8529,MON 09:00 - 21:30; TUE 09:00 - 21:30; WED 09:00 - 21:30; THU 09:00 - 21:30; FRI 09:00 - 21:30; SAT 09:00 - 21:30; SUN 10:00 - 19:00,,0
KNIGHTDALE,1571527460,216 HINTON OAKS BLVD.,KNIGHTDALE,KNIGHTDALE,NC,27545,United States,919-266-7876,35.797,-78.5127,MON 09:00 - 21:30; TUE 09:00 - 21:30; WED 09:00 - 21:30; THU 09:00 - 21:30; FRI 09:00 - 21:30; SAT 09:00 - 21:30; SUN 10:00 - 19:00,,0
FAIRLAKES,1571527408,12501 FAIRLAKES CIRCLE,EAST MARKET,FAIRFAX,VA,22033,United States,703-803-0300,38.8573,-77.379,MON 09:00 - 21:30; TUE 09:00 - 21:30; WED 09:00 - 21:30; THU 09:00 - 21:30; FRI 09:00 - 21:30; SAT 09:00 - 21:30; SUN 10:00 - 19:00,,0
FREDERICKSBURG,1571527208,"137 SPOTSYLVANIA MALL, UNIT 290",SPOTSYLVANIA MALL,FREDERICKSBURG,VA,22407,United States,540-548-1200,38.2928,-77.5115,MON 09:00 - 21:30; TUE 09:00 - 21:30; WED 09:00 - 21:30; THU 09:00 - 21:30; FRI 09:00 - 21:30; SAT 09:00 - 21:30; SUN 10:00 - 19:00,,0
MECHANICSBURG,1571527124,5950 CARLISLE PIKE/US RT 11,HAMPDEN COMMONS,MECHANICSBURG,PA,17050,United States,717-766-8377,40.2404,-76.9906,MON 09:00 - 21:30; TUE 09:00 - 21:30; WED 09:00 - 21:30; THU 09:00 - 21:30; FRI 09:00 - 21:30; SAT 09:00 - 21:30; SUN 10:00 - 19:00,,0
WILLIAMSPORT,1571527316,300 LYCOMING MALL CIRCLE,LYCOMING MALL,WILLIAMSPORT,PA,17756,United States,570-546-2625,41.239,-76.8259,MON 09:00 - 21:30; TUE 09:00 - 21:30; WED 09:00 - 21:30; THU 09:00 - 21:30; FRI 09:00 - 21:30; SAT 09:00 - 21:30; SUN 10:00 - 19:00,,0
WASHINGTONIAN,1571527409,2 GRAND CORNER AVENUE,WASHINGTONIAN CENTER,GAITHERSBURG,MD,20878,United States,301-947-0200,39.1178,-77.2011,MON 09:00 - 21:30; TUE 09:00 - 21:30; WED 09:00 - 21:30; THU 09:00 - 21:30; FRI 09:00 - 21:30; SAT 09:00 - 21:30; SUN 10:00 - 19:00,,0
SHORT PUMP,1571527191,"11800 W BROAD STREET, SUITE 1096",SHORT PUMP TOWN CENTER,RICHMOND,VA,23233,United States,804-360-8165,37.6573,-77.6189,MON 09:00 - 21:30; TUE 09:00 - 21:30; WED 09:00 - 21:30; THU 09:00 - 21:30; FRI 09:00 - 21:30; SAT 09:00 - 21:30; SUN 10:00 - 19:00,,0
SELINSGROVE,1571527395,486 MARTKETPLACE,MONROE COMMONS,SELINSGROVE,PA,17870,United States,570-743-1780,40.8434,-76.8368,MON 09:00 - 21:30; TUE 09:00 - 21:30; WED 09:00 - 21:30; THU 09:00 - 21:30; FRI 09:00 - 21:30; SAT 09:00 - 21:30; SUN 10:00 - 19:00,,0
DALE CITY,1571527348,13080 WORTH AVENUE,SMOKE TOWN STATION,DALE CITY,VA,22192,United States,703-491-9432,38.6497,-77.2959,MON 09:00 - 21:30; TUE 09:00 - 21:30; WED 09:00 - 21:30; THU 09:00 - 21:30; FRI 09:00 - 21:30; SAT 09:00 - 21:30; SUN 10:00 - 19:00,,0
HANOVER,1571527388,1155 CARLISLE STREET,NORTH HANOVER MALL,HANOVER,PA,17331,United States,717-632-9362,39.8221,-76.9954,MON 09:00 - 21:30; TUE 09:00 - 21:30; WED 09:00 - 21:30; THU 09:00 - 21:30; FRI 09:00 - 21:30; SAT 09:00 - 21:30; SUN 10:00 - 19:00,,0
WEST CHESTERFIELD,1571527573,14629 HANCOCK VILLAGE STREET,HANCOCK VILLAGE,WEST CHESTERFIELD,VA,23832,United States,804-639-1107,37.4009,-77.6761,MON 09:00 - 21:30; TUE 09:00 - 21:30; WED 09:00 - 21:30; THU 09:00 - 21:30; FRI 09:00 - 21:30; SAT 09:00 - 21:30; SUN 10:00 - 19:00,,0
CHARLESTON,1571527272,2070 SAM RITTENBURG BLVD.,CITADEL MALL,CHARLESTON,SC,29407,United States,843-573-0891,32.8013,-80.0307,MON 09:00 - 21:30; TUE 09:00 - 21:30; WED 09:00 - 21:30; THU 09:00 - 21:30; FRI 09:00 - 21:30; SAT 09:00 - 21:30; SUN 10:00 - 19:00,,0
MIDLOTHIAN,1571527168,1520 W. KOGER CENTER BLVD,CHESTERFIELD PLAZA,NORTH CHESTERFIELD,VA,23235,United States,804-897-5299,37.515,-77.6109,MON 09:00 - 21:30; TUE 09:00 - 21:30; WED 09:00 - 21:30; THU 09:00 - 21:30; FRI 09:00 - 21:30; SAT 09:00 - 21:30; SUN 10:00 - 19:00,,0
AUBURN,1571527451,1620 CLARK STREET ROAD,FINGERLAKES CROSSING,AUBURN,NY,13021,United States,315-258-3750,42.9248,-76.6088,MON 09:00 - 21:30; TUE 09:00 - 21:30; WED 09:00 - 21:30; THU 09:00 - 21:30; FRI 09:00 - 21:30; SAT 09:00 - 21:30; SUN 10:00 - 19:00,,0
RICHMOND,1571527433,9204 STONY POINT PKWY,STONY POINT FASHION PARK,RICHMOND,VA,23235,United States,804-253-0800,37.5484,-77.5726,MON 09:00 - 21:30; TUE 09:00 - 21:30; WED 09:00 - 21:30; THU 09:00 - 21:30; FRI 09:00 - 21:30; SAT 09:00 - 21:30; SUN 10:00 - 19:00,,0
WESTMINSTER,1571527535,400 NORTH CENTER STREET,TOWN MALL,WESTMINSTER,MD,21157,United States,410-848-1039,39.58,-76.983,MON 09:00 - 21:30; TUE 09:00 - 21:30; WED 09:00 - 21:30; THU 09:00 - 21:30; FRI 09:00 - 21:30; SAT 09:00 - 21:30; SUN 10:00 - 19:00,,0
SPRINGFIELD,1044478680,6601 SPRINGFIELD MALL,SPRINGFIELD TOWN CENTER,SPRINGFIELD,VA,22150,United States,571-255-6367,38.7734,-77.1739,MON 09:00 - 21:30; TUE 09:00 - 21:30; WED 09:00 - 21:30; THU 09:00 - 21:30; FRI 09:00 - 21:30; SAT 09:00 - 21:30; SUN 10:00 - 19:00,,0
HARRISBURG,1571527125,5086 JONESTOWN RD,COLONIAL COMMONS,HARRISBURG,PA,17112,United States,717-652-3174,40.3122,-76.8058,MON 09:00 - 21:30; TUE 09:00 - 21:30; WED 09:00 - 21:30; THU 09:00 - 21:30; FRI 09:00 - 21:30; SAT 09:00 - 21:30; SUN 10:00 - 19:00,,0
BAILEY'S CROSSROADS,1571527327,5716 COLUMBIA PIKE,CROSSROADS CENTER,BAILEY'S CROSSROADS,VA,22041,United States,703-933-0736,38.8522,-77.1278,MON 09:00 - 21:30; TUE 09:00 - 21:30; WED 09:00 - 21:30; THU 09:00 - 21:30; FRI 09:00 - 21:30; SAT 09:00 - 21:30; SUN 10:00 - 19:00,,0
WHEATON,1929529457,"11160 VEIRS MILL ROAD, SUITE P100",WHEATON PLAZA,WHEATON,MD,20902,United States,301-933-3494,39.0349,-77.0551,MON 09:00 - 21:30; TUE 09:00 - 21:30; WED 09:00 - 21:30; THU 09:00 - 21:30; FRI 09:00 - 21:30; SAT 09:00 - 21:30; SUN 10:00 - 19:00,,0
GLEN ALLEN,1571527179,9940 BROOK ROAD,THE CREEKS,GLEN ALLEN,VA,23059,United States,804-261-1853,37.6704,-77.4647,MON 09:00 - 21:30; TUE 09:00 - 21:30; WED 09:00 - 21:30; THU 09:00 - 21:30; FRI 09:00 - 21:30; SAT 09:00 - 21:30; SUN 10:00 - 19:00,,0
NORTH JACKSONVILLE,1929529485,"14964 MAX LEGGETT PARKWAY, SUITE 300",PARKWAY SHOPS,JACKSONVILLE,FL,32218,United States,904-757-9602,30.482,-81.6409,MON 09:00 - 21:30; TUE 09:00 - 21:30; WED 09:00 - 21:30; THU 09:00 - 21:30; FRI 09:00 - 21:30; SAT 09:00 - 21:30; SUN 10:00 - 19:00,,0
ITHACA,1571527214,40 CATHERWOOD ROAD,PYRAMID MALL,ITHACA,NY,14850,United States,607-257-5077,42.4821,-76.4898,MON 09:00 - 21:30; TUE 09:00 - 21:30; WED 09:00 - 21:30; THU 09:00 - 21:30; FRI 09:00 - 21:30; SAT 09:00 - 21:30; SUN 10:00 - 19:00,,0
MT PLEASANT,543131483,1114 BOWMAN ROAD,KMART CENTER,MT PLEASANT,SC,29464,United States,843-800-3032,32.812125,-79.852181,MON 09:00 - 21:30; TUE 09:00 - 21:30; WED 09:00 - 21:30; THU 09:00 - 21:30; FRI 09:00 - 21:30; SAT 09:00 - 21:30; SUN 10:00 - 19:00,,0
GAINESVILLE,288683227,"3964 PLAZA BLVD, SUITE 20",BUTLER NORTH,GAINESVILLE,FL,32608,United States,352-377-3316,29.628144,-82.38346,MON 09:00 - 21:30; TUE 09:00 - 21:30; WED 09:00 - 21:30; THU 09:00 - 21:30; FRI 09:00 - 21:30; SAT 09:00 - 21:30; SUN 10:00 - 19:00,,0
YORK,1571527117,RT. 30 & KENNETH ROAD,MARKET SQUARE,YORK,PA,17404,United States,717-848-1696,39.9746,-76.7625,MON 09:00 - 21:30; TUE 09:00 - 21:30; WED 09:00 - 21:30; THU 09:00 - 21:30; FRI 09:00 - 21:30; SAT 09:00 - 21:30; SUN 10:00 - 19:00,,0
DAKOTA CROSSING,437467199,2470 MARKET STREET NE,THE SHOPS AT DAKOTA CROSSING,WASHINGTON,DC,20018,United States,202-971-8214,38.921,-76.955,MON 09:00 - 21:30; TUE 09:00 - 21:30; WED 09:00 - 21:30; THU 09:00 - 21:30; FRI 09:00 - 21:30; SAT 09:00 - 21:30; SUN 10:00 - 19:00,,0
YORK,1571527313,2925 CONCORD ROAD,YORK TOWN CENTER,YORK,PA,17402,United States,717-751-4450,39.9845,-76.6673,MON 09:00 - 21:30; TUE 09:00 - 21:30; WED 09:00 - 21:30; THU 09:00 - 21:30; FRI 09:00 - 21:30; SAT 09:00 - 21:30; SUN 10:00 - 19:00,,0
ORANGE PARK,1571527305,1910 WELLS ROAD,ORANGE PARK MALL,ORANGE PARK,FL,32073,United States,904-215-0207,30.1847,-81.7332,MON 09:00 - 21:30; TUE 09:00 - 21:30; WED 09:00 - 21:30; THU 09:00 - 21:30; FRI 09:00 - 21:30; SAT 09:00 - 21:30; SUN 10:00 - 19:00,,0
COLUMBIA,1571527148,6221 COLUMBIA CROSSING CIRCLE,COLUMBIA CROSSING,COLUMBIA,MD,21045,United States,410-872-1100,39.1984,-76.8164,MON 09:00 - 21:30; TUE 09:00 - 21:30; WED 09:00 - 21:30; THU 09:00 - 21:30; FRI 09:00 - 21:30; SAT 09:00 - 21:30; SUN 10:00 - 19:00,,0
COLONIAL HEIGHTS,1929529451,324 SOUTHPARK CIRCLE,SOUTHPARK MALL,COLONIAL HEIGHTS,VA,23834,United States,804-526-2745,37.2548,-77.3946,MON 09:00 - 21:30; TUE 09:00 - 21:30; WED 09:00 - 21:30; THU 09:00 - 21:30; FRI 09:00 - 21:30; SAT 09:00 - 21:30; SUN 10:00 - 19:00,,0
WALDORF,1571527204,11080 MALL CIRCLE ROAD,ST. CHARLES TOWNE CENTER,WALDORF,MD,20603,United States,301-885-1762,38.6184,-76.9242,MON 09:00 - 21:30; TUE 09:00 - 21:30; WED 09:00 - 21:30; THU 09:00 - 21:30; FRI 09:00 - 21:30; SAT 09:00 - 21:30; SUN 10:00 - 19:00,,0
HUNT VALLEY,1571527147,118 SHAWAN ROAD,HUNT VALLEY TOWNE PLAZA,COCKEYSVILLE,MD,21030,United States,410-584-9050,39.4988,-76.6532,MON 09:00 - 21:30; TUE 09:00 - 21:30; WED 09:00 - 21:30; THU 09:00 - 21:30; FRI 09:00 - 21:30; SAT 09:00 - 21:30; SUN 10:00 - 19:00,,0
CLAY,1972983351,4081 STATE HIGHWAY 31,GREAT NORTHERN MALL,CLAY,NY,13041,United States,315-652-7674,43.1885,-76.2274,MON 09:00 - 21:30; TUE 09:00 - 21:30; WED 09:00 - 21:30; THU 09:00 - 21:30; FRI 09:00 - 21:30; SAT 09:00 - 21:30; SUN 10:00 - 19:00,,0
JACKSONVILLE,1571527284,10390 MIDTOWN PARKWAY,ST JOHNS TOWN CENTER,JACKSONVILLE,FL,32246,United States,904-642-4299,30.2568,-81.5245,MON 09:00 - 21:30; TUE 09:00 - 21:30; WED 09:00 - 21:30; THU 09:00 - 21:30; FRI 09:00 - 21:30; SAT 09:00 - 21:30; SUN 10:00 - 19:00,,0
SYRACUSE,1929529456,10311 DESTINY USA DRIVE,DESTINY USA,SYRACUSE,NY,13204,United States,315-471-7770,43.067,-76.1721,MON 09:00 - 21:30; TUE 09:00 - 21:30; WED 09:00 - 21:30; THU 09:00 - 21:30; FRI 09:00 - 21:30; SAT 09:00 - 21:30; SUN 10:00 - 19:00,,0
CROFTON,1571527554,1417 SOUTH MAIN CHAPEL WAY,VILLAGE AT WAUGH CHAPEL,GAMBRILLS,MD,21054,United States,410-721-4941,39.0335,-76.6891,MON 09:00 - 21:30; TUE 09:00 - 21:30; WED 09:00 - 21:30; THU 09:00 - 21:30; FRI 09:00 - 21:30; SAT 09:00 - 21:30; SUN 10:00 - 19:00,,0
GLEN BURNIE,1571527536,6633 RITCHIE HIGHWAY,GOVERNOR PLAZA,GLEN BURNIE,MD,21061,United States,410-768-9372,39.1947,-76.6101,MON 09:00 - 21:30; TUE 09:00 - 21:30; WED 09:00 - 21:30; THU 09:00 - 21:30; FRI 09:00 - 21:30; SAT 09:00 - 21:30; SUN 10:00 - 19:00,,0
MYRTLE BEACH,1571527245,600 COSTAL GRAND CIRCLE,MALL OF SOUTH CAROLINA,MYRTLE BEACH,SC,29577,United States,843-916-9148,33.7029,-78.9242,MON 10:00 - 22:00; TUE 10:00 - 22:00; WED 10:00 - 22:00; THU 10:00 - 22:00; FRI 10:00 - 22:00; SAT 10:00 - 22:00; SUN 12:00 - 19:00,,0
DEWITT,51103870,3469 ERIE BLVD. EAST - SPACE 1,ERIE CANAL CENTRE,DEWITT,NY,13214,United States,315-802-0005,43.04443,-76.066123,MON 09:00 - 21:30; TUE 09:00 - 21:30; WED 09:00 - 21:30; THU 09:00 - 21:30; FRI 09:00 - 21:30; SAT 09:00 - 21:30; SUN 10:00 - 19:00,,0
GOLDSBORO,767174566,BERKELEY MALL RING ROAD,GOLDSBORO,GOLDSBORO,NC,27534,United States,919-221-6331,35.3769,-77.946585,MON 09:00 - 21:30; TUE 09:00 - 21:30; WED 09:00 - 21:30; THU 09:00 - 21:30; FRI 09:00 - 21:30; SAT 09:00 - 21:30; SUN 10:00 - 19:00,,0
WHITE MARSH,1571527146,5220 CAMPBELL BLVD.,NOTTINGHAM SQUARE,BALTIMORE,MD,21236,United States,410-933-0134,39.3718,-76.4527,MON 09:00 - 21:30; TUE 09:00 - 21:30; WED 09:00 - 21:30; THU 09:00 - 21:30; FRI 09:00 - 21:30; SAT 09:00 - 21:30; SUN 10:00 - 19:00,,0
VESTAL,1972981180,2433 VESTAL PKWY EAST,TOWN SQUARE MALL,VESTAL,NY,13850,United States,607-797-5220,42.0983,-76.0087,MON 09:00 - 21:30; TUE 09:00 - 21:30; WED 09:00 - 21:30; THU 09:00 - 21:30; FRI 09:00 - 21:30; SAT 09:00 - 21:30; SUN 10:00 - 19:00,,0
WATERTOWN,1571527216,21143 SALMON RUN LOOP WEST,SALMON RUN MALL,WATERTOWN,NY,13601,United States,315-786-8681,43.9793,-75.9531,MON 09:00 - 21:30; TUE 09:00 - 21:30; WED 09:00 - 21:30; THU 09:00 - 21:30; FRI 09:00 - 21:30; SAT 09:00 - 21:30; SUN 10:00 - 19:00,,0
BEL AIR,1571527149,540 WEST MACPHAIL ROAD,MACPHAIL CROSSING EAST,BEL AIR,MD,21014,United States,410-638-7404,39.5238,-76.3463,MON 09:00 - 21:30; TUE 09:00 - 21:30; WED 09:00 - 21:30; THU 09:00 - 21:30; FRI 09:00 - 21:30; SAT 09:00 - 21:30; SUN 10:00 - 19:00,,0
NORTH MYRTLE BEACH,1212359323,1536 HIGHWAY 17 NORTH,COASTAL NORTH TOWN CENTER,NORTH MYRTLE BEACH,SC,29582,United States,843-213-2103,33.840626748997,-78.65715709898,MON 09:00 - 21:30; TUE 09:00 - 21:30; WED 09:00 - 21:30; THU 09:00 - 21:30; FRI 09:00 - 21:30; SAT 09:00 - 21:30; SUN 10:00 - 19:00,,0
OCALA,1929529499,"4414 SW COLLEGE ROAD, SUITE 1800",MARKET STREET AT HEATHBROOK,OCALA,FL,34474,United States,352-237-7672,29.1423,-82.1911,MON 09:00 - 21:30; TUE 09:00 - 21:30; WED 09:00 - 21:30; THU 09:00 - 21:30; FRI 09:00 - 21:30; SAT 09:00 - 21:30; SUN 10:00 - 19:00,,0
BINGHAMTON,1972983429,347 COURT ST.,BINGHAMTON,BINGHAMTON,NY,13904,United States,607-724-4361,42.1048,-75.89,MON 09:00 - 21:30; TUE 09:00 - 21:30; WED 09:00 - 21:30; THU 09:00 - 21:30; FRI 09:00 - 21:30; SAT 09:00 - 21:30; SUN 10:00 - 19:00,,0
READING,1571527111,"2767 PAPER MILL ROAD, SPACE F",BROADCASTING SQUARE,READING,PA,19610,United States,610-373-7366,40.3595,-75.9827,MON 09:00 - 21:30; TUE 09:00 - 21:30; WED 09:00 - 21:30; THU 09:00 - 21:30; FRI 09:00 - 21:30; SAT 09:00 - 21:30; SUN 10:00 - 19:00,,0
WILKES-BARRE,1972982788,479 ARENA HUB PLAZA,ARENA HUB PLAZA,WILKES-BARRE,PA,18702,United States,570-823-8288,41.2391,-75.8403,MON 09:00 - 21:30; TUE 09:00 - 21:30; WED 09:00 - 21:30; THU 09:00 - 21:30; FRI 09:00 - 21:30; SAT 09:00 - 21:30; SUN 10:00 - 19:00,,0
LEXINGTON PARK,1571527568,46260 LEXINGTON VILLAGE WAY,LEXINGTON VILLAGE,LEXINGTON PARK,MD,20653,United States,240-725-0142,38.2839,-76.4803,MON 09:00 - 21:30; TUE 09:00 - 21:30; WED 09:00 - 21:30; THU 09:00 - 21:30; FRI 09:00 - 21:30; SAT 09:00 - 21:30; SUN 10:00 - 19:00,,0
SPRING HILL,722313991,12936 CORTEZ BLVD,CORTEZ COMMONS,BROOKSVILLE,FL,34613,United States,352-200-5716,28.531397,-82.514107,MON 09:00 - 21:30; TUE 09:00 - 21:30; WED 09:00 - 21:30; THU 09:00 - 21:30; FRI 09:00 - 21:30; SAT 09:00 - 21:30; SUN 10:00 - 19:00,,0
GREENVILLE,1929529476,3500 GALLERIA DRIVE,11 GALLERIA,GREENVILLE,NC,27834,United States,252-329-0241,35.5678,-77.4072,MON 09:00 - 21:30; TUE 09:00 - 21:30; WED 09:00 - 21:30; THU 09:00 - 21:30; FRI 09:00 - 21:30; SAT 09:00 - 21:30; SUN 10:00 - 19:00,,0
SCRANTON,1972982767,600 COMMERCE BLVD.,DICKSON CITY CROSSING,DICKSON CITY,PA,18519,United States,570-963-1550,41.4628,-75.649,MON 09:00 - 21:30; TUE 09:00 - 21:30; WED 09:00 - 21:30; THU 09:00 - 21:30; FRI 09:00 - 21:30; SAT 09:00 - 21:30; SUN 10:00 - 19:00,,0
WILLIAMSBURG,1571527389,120 GRISTMIL PLAZA,THE MARQUIS,WILLIAMSBURG,VA,23185,United States,757-258-3364,37.2554,-76.6407,MON 09:00 - 21:30; TUE 09:00 - 21:30; WED 09:00 - 21:30; THU 09:00 - 21:30; FRI 09:00 - 21:30; SAT 09:00 - 21:30; SUN 10:00 - 19:00,,0
EASTON,1044478656,28564 MARLBORO AVENUE,WATERSIDE VILLAGE AT EASTON,EASTON,MD,21601,United States,410-200-9560,38.7842,-76.0846,MON 09:00 - 21:30; TUE 09:00 - 21:30; WED 09:00 - 21:30; THU 09:00 - 21:30; FRI 09:00 - 21:30; SAT 09:00 - 21:30; SUN 10:00 - 19:00,,0
POTTSTOWN,1571527279,ROUTE 724 AND ROUTE 100,COVENTRY MALL,POTTSTOWN,PA,19465,United States,610-323-7100,40.2368,-75.6609,MON 09:00 - 21:30; TUE 09:00 - 21:30; WED 09:00 - 21:30; THU 09:00 - 21:30; FRI 09:00 - 21:30; SAT 09:00 - 21:30; SUN 10:00 - 19:00,,0
WILMINGTON,1036048175,816 SOUTH COLLEGE ROAD,WILMINGTON TOWN CENTER,WILMINGTON,NC,28403,United States,910-793-1904,34.221,-77.8857,MON 09:00 - 21:30; TUE 09:00 - 21:30; WED 09:00 - 21:30; THU 09:00 - 21:30; FRI 09:00 - 21:30; SAT 09:00 - 21:30; SUN 10:00 - 19:00,,0
DOWNINGTOWN,1571527153,1026 E. LANCASTER AVENUE,BRANDYWINE SQUARE,DOWNINGTOWN,PA,19335,United States,610-518-5200,40.0162,-75.6796,MON 09:00 - 21:30; TUE 09:00 - 21:30; WED 09:00 - 21:30; THU 09:00 - 21:30; FRI 09:00 - 21:30; SAT 09:00 - 21:30; SUN 10:00 - 19:00,,0
TREXLERTOWN,347275657,"707 NORTH KROCKS RD, SUITE 101",HAMILTON CROSSING,ALLENTOWN,PA,18106,United States,484-866-9428,40.566398,-75.561625,MON 09:00 - 21:30; TUE 09:00 - 21:30; WED 09:00 - 21:30; THU 09:00 - 21:30; FRI 09:00 - 21:30; SAT 09:00 - 21:30; SUN 10:00 - 19:00,,0
CLEARWATER,1571527567,26583 HWY 19 NORTH,COUNTRYSIDE CENTER,CLEARWATER,FL,33761,United States,727-791-8580,28.0137,-82.7344,MON 09:00 - 21:30; TUE 09:00 - 21:30; WED 09:00 - 21:30; THU 09:00 - 21:30; FRI 09:00 - 21:30; SAT 09:00 - 21:30; SUN 10:00 - 19:00,,0
NEW HARTFORD,1571527476,ROUTE 5 AND 5A,SANGERTOWN SQUARE,NEW HARTFORD,NY,13413,United States,315-798-9626,43.0823,-75.314,MON 09:00 - 21:30; TUE 09:00 - 21:30; WED 09:00 - 21:30; THU 09:00 - 21:30; FRI 09:00 - 21:30; SAT 09:00 - 21:30; SUN 10:00 - 19:00,,0
NEWPORT NEWS,1571527294,12300 JEFFERSON AVENUE,PATRICK HENRY MALL,NEWPORT NEWS,VA,23602,United States,757-249-2140,37.1135,-76.4955,MON 09:00 - 21:30; TUE 09:00 - 21:30; WED 09:00 - 21:30; THU 09:00 - 21:30; FRI 09:00 - 21:30; SAT 09:00 - 21:30; SUN 10:00 - 19:00,,0
MAYFAIRE TOWN CENTER,1212359316,6810 PARKER FARM DRIVE,,WILMINGTON,NC,28405,United States,910-208-4437,34.234300619373,-77.831577815151,MON 09:00 - 21:30; TUE 09:00 - 21:30; WED 09:00 - 21:30; THU 09:00 - 21:30; FRI 09:00 - 21:30; SAT 09:00 - 21:30; SUN 10:00 - 19:00,,0
ALLENTOWN,1571527228,2631 MACARTHER ROAD,ALLENTOWN,WHITEHALL,PA,18052,United States,610-231-0691,40.647,-75.4908,MON 09:00 - 21:30; TUE 09:00 - 21:30; WED 09:00 - 21:30; THU 09:00 - 21:30; FRI 09:00 - 21:30; SAT 09:00 - 21:30; SUN 10:00 - 19:00,,0
CITRUS PARK,1571527325,8100 CITRUS PARK TOWN CENTER,WESTFIELD CITRUS PARK,TAMPA,FL,33625,United States,813-920-5700,28.0694,-82.5783,MON 09:00 - 21:30; TUE 09:00 - 21:30; WED 09:00 - 21:30; THU 09:00 - 21:30; FRI 09:00 - 21:30; SAT 09:00 - 21:30; SUN 10:00 - 19:00,,0
CHRISTIANA,1571527120,100 CENTER DRIVE,CHRISTIANA CENTER,NEWARK,DE,19702,United States,302-738-8322,39.6744,-75.6525,MON 09:00 - 21:30; TUE 09:00 - 21:30; WED 09:00 - 21:30; THU 09:00 - 21:30; FRI 09:00 - 21:30; SAT 09:00 - 21:30; SUN 10:00 - 19:00,,0
WESLEY CHAPEL,1571527345,5925 WESLEY GROVE BLVD,WESLEY CHAPEL,WESLEY CHAPEL,FL,33544,United States,813-991-1618,28.2439,-82.3528,MON 09:00 - 21:30; TUE 09:00 - 21:30; WED 09:00 - 21:30; THU 09:00 - 21:30; FRI 09:00 - 21:30; SAT 09:00 - 21:30; SUN 10:00 - 19:00,,0
COLLEGEVILLE,1571527503,400 FRONT STREET,PROVIDENCE TOWN CENTER,COLLEGEVILLE,PA,19426,United States,610-409-9790,40.1639,-75.4796,MON 09:00 - 21:30; TUE 09:00 - 21:30; WED 09:00 - 21:30; THU 09:00 - 21:30; FRI 09:00 - 21:30; SAT 09:00 - 21:30; SUN 10:00 - 19:00,,0
BRANDYWINE,1571527119,1000 BRANDYWINE PARKWAY,BRANDYWINE TOWNE CENTER,WILMINGTON,DE,19803,United States,302-477-9577,39.8312,-75.5406,MON 09:00 - 21:30; TUE 09:00 - 21:30; WED 09:00 - 21:30; THU 09:00 - 21:30; FRI 09:00 - 21:30; SAT 09:00 - 21:30; SUN 10:00 - 19:00,,0
JACKSONVILLE,1571527340,1112 WESTERN BOULEVARD,JACKSONVILLE,JACKSONVILLE,NC,28546,United States,910-455-0928,34.7819,-77.394,MON 09:00 - 21:30; TUE 09:00 - 21:30; WED 09:00 - 21:30; THU 09:00 - 21:30; FRI 09:00 - 21:30; SAT 09:00 - 21:30; SUN 10:00 - 19:00,,0
SUFFOLK,1571527572,"6253 COLLEGE DRIVE, SUITE 200",HARBOUR VIEW EAST,SUFFOLK,VA,23435,United States,757-638-2001,36.8801,-76.4288,MON 09:00 - 21:30; TUE 09:00 - 21:30; WED 09:00 - 21:30; THU 09:00 - 21:30; FRI 09:00 - 21:30; SAT 09:00 - 21:30; SUN 10:00 - 19:00,,0
STROUDSBURG,1929529427,500 COMMERCE BLVD,BARTONSVILLE SQUARE,STROUDSBURG,PA,18360,United States,570-421-7501,40.998599,-75.265962,MON 09:00 - 21:30; TUE 09:00 - 21:30; WED 09:00 - 21:30; THU 09:00 - 21:30; FRI 09:00 - 21:30; SAT 09:00 - 21:30; SUN 10:00 - 19:00,,0
TAMPA,1456364510,258 WESTSHORE PLAZA,WESTSHORE PLAZA,TAMPA,FL,33609,United States,813-422-5132,27.946727,-82.529415,MON 09:00 - 21:30; TUE 09:00 - 21:30; WED 09:00 - 21:30; THU 09:00 - 21:30; FRI 09:00 - 21:30; SAT 09:00 - 21:30; SUN 10:00 - 19:00,,0
KING OF PRUSSIA,1044478661,"160 N GULPH ROAD, SUITE 4000",KING OF PRUSSIA MALL,KING OF PRUSSIA,PA,19406,United States,484-751-0071,40.0875,-75.3942,MON 09:00 - 21:30; TUE 09:00 - 21:30; WED 09:00 - 21:30; THU 09:00 - 21:30; FRI 09:00 - 21:30; SAT 09:00 - 21:30; SUN 10:00 - 19:00,,0
EASTON,1571527280,4423 BIRKLAND PLACE,THE VILLAGE AT SOUTHMONT CENTER,EASTON,PA,18045,United States,610-330-0383,40.6575,-75.2865,MON 09:00 - 21:30; TUE 09:00 - 21:30; WED 09:00 - 21:30; THU 09:00 - 21:30; FRI 09:00 - 21:30; SAT 09:00 - 21:30; SUN 10:00 - 19:00,,0
ONEONTA,1929529458,"5006 STATE HIGHWAY 23, SUITE 1C",SOUTHSIDE MALL,ONEONTA,NY,13820,United States,607-432-0203,42.4469,-75.0466,MON 09:00 - 21:30; TUE 09:00 - 21:30; WED 09:00 - 21:30; THU 09:00 - 21:30; FRI 09:00 - 21:30; SAT 09:00 - 21:30; SUN 10:00 - 19:00,,0
DOVER,1929529490,"1365 N DUPONT HIGHWAY, SUITE 6000",DOVER MALL,DOVER,DE,19901,United States,302-678-9160,39.1930728788528,-75.5391347019113,MON 09:00 - 21:30; TUE 09:00 - 21:30; WED 09:00 - 21:30; THU 09:00 - 21:30; FRI 09:00 - 21:30; SAT 09:00 - 21:30; SUN 10:00 - 19:00,,0
PLYMOUTH MEETING,1571527167,2430 CHEMICAL ROAD,THE METROPLEX,PLYMOUTH MEETING,PA,19462,United States,610-260-4400,40.1056,-75.2936,MON 09:00 - 21:30; TUE 09:00 - 21:30; WED 09:00 - 21:30; THU 09:00 - 21:30; FRI 09:00 - 21:30; SAT 09:00 - 21:30; SUN 10:00 - 19:00,,0
MONTGOMERYVILLE,1571527367,113 MONTGOMERY MALL,MONTGOMERY MALL,NORTH WALES,PA,19454,United States,215-368-2186,40.2358,-75.2458,MON 09:00 - 21:30; TUE 09:00 - 21:30; WED 09:00 - 21:30; THU 09:00 - 21:30; FRI 09:00 - 21:30; SAT 09:00 - 21:30; SUN 10:00 - 19:00,,0
CHESAPEAKE,347275658,"1501 SENTINEL DRIVE, SUITE A",GREENBRIER SQUARE,CHESAPEAKE,VA,23320,United States,757-386-4274,36.76674,-76.267121,MON 09:00 - 21:30; TUE 09:00 - 21:30; WED 09:00 - 21:30; THU 09:00 - 21:30; FRI 09:00 - 21:30; SAT 09:00 - 21:30; SUN 10:00 - 20:00,,0
CLERMONT,1386981410,1325 SANDY GROVE AVENUE,SANDHILLS COMMONS,CLERMONT,FL,34711,United States,352-404-5354,28.5438898933795,-81.7333477861072,MON 09:00 - 21:30; TUE 09:00 - 21:30; WED 09:00 - 21:30; THU 09:00 - 21:30; FRI 09:00 - 21:30; SAT 09:00 - 21:30; SUN 10:00 - 19:00,,0
BRANDON,1571527324,901 BRANDON TOWNE CENTER MALL,BRANDON TOWN CENTER,BRANDON,FL,33511,United States,813-684-3100,27.9328,-82.3274,MON 09:00 - 21:30; TUE 09:00 - 21:30; WED 09:00 - 21:30; THU 09:00 - 21:30; FRI 09:00 - 21:30; SAT 09:00 - 21:30; SUN 10:00 - 19:00,,0
DAYTONA BEACH,1571527521,"2500 W. INTERNATIONAL SPEEDWAY BLVD, SUITE 100",INTERNATIONAL SPEEDWAY SQUARE,DAYTONA BEACH,FL,32114,United States,386-255-5533,29.1801,-81.0819,MON 09:00 - 21:30; TUE 09:00 - 21:30; WED 09:00 - 21:30; THU 09:00 - 21:30; FRI 09:00 - 21:30; SAT 09:00 - 21:30; SUN 10:00 - 19:00,,0
VIRGINIA BEACH,1571527434,"4621 COLUMBUS STREET, SUITE 100",TOWN CENTER AT VIRGINIA BEACH,VIRGINIA BEACH,VA,23462,United States,757-493-6400,36.8406,-76.1364,MON 09:00 - 21:30; TUE 09:00 - 21:30; WED 09:00 - 21:30; THU 09:00 - 21:30; FRI 09:00 - 21:30; SAT 09:00 - 21:30; SUN 10:00 - 19:00,,0
SALISBURY,1571527347,2300 N. SALISBURY BLVD.,THE CENTRE AT SALISBURY,SALISBURY,MD,21801,United States,410-219-1136,38.3976,-75.5654,MON 09:00 - 21:30; TUE 09:00 - 21:30; WED 09:00 - 21:30; THU 09:00 - 21:30; FRI 09:00 - 21:30; SAT 09:00 - 21:30; SUN 10:00 - 19:00,,0
WILLOW GROVE,1571527166,2510 MORELAND RD,PLAZA AT WILLOW GROVE,WILLOW GROVE,PA,19090,United States,215-657-8977,40.1423,-75.1207,MON 09:00 - 21:30; TUE 09:00 - 21:30; WED 09:00 - 21:30; THU 09:00 - 21:30; FRI 09:00 - 21:30; SAT 09:00 - 21:30; SUN 10:00 - 19:00,,0
SANFORD,1929529477,350 TOWNE CENTER CIRCLE,SEMINOLE TOWNE CENTER,SANFORD,FL,32771,United States,407-324-5800,28.8036,-81.3379,MON 09:00 - 21:30; TUE 09:00 - 21:30; WED 09:00 - 21:30; THU 09:00 - 21:30; FRI 09:00 - 21:30; SAT 09:00 - 21:30; SUN 10:00 - 19:00,,0
LYNNHAVEN,1571527206,"701 LYNNHAVEN PARKWAY, SUITE 1001",LYNNHAVEN MALL,VIRGINIA BEACH,VA,23452,United States,757-463-4379,36.8183,-76.0698,MON 09:00 - 21:30; TUE 09:00 - 21:30; WED 09:00 - 21:30; THU 09:00 - 21:30; FRI 09:00 - 21:30; SAT 09:00 - 21:30; SUN 10:00 - 19:00,,0
LAKELAND,1212359321,"919 LAKELAND PARK CENTER DR., SUITE 300",LAKELAND PARK CENTER,LAKELAND,FL,33809,United States,863-248-1200,28.090304,-81.970709,MON 09:00 - 21:30; TUE 09:00 - 21:30; WED 09:00 - 21:30; THU 09:00 - 21:30; FRI 09:00 - 21:30; SAT 09:00 - 21:30; SUN 10:00 - 19:00,,0
DEPTFORD,1571527155,399 ALMONESSON ROAD,DEPTFORD,DEPTFORD,NJ,08096,United States,856-384-8533,39.8301,-75.1026,MON 09:00 - 21:30; TUE 09:00 - 21:30; WED 09:00 - 21:30; THU 09:00 - 21:30; FRI 09:00 - 21:30; SAT 09:00 - 21:30; SUN 10:00 - 19:00,,0
BRADENTON,1571527362,4108 14TH STREET WEST,CENTRE POINT COMMONS,BRADENTON,FL,34205,United States,941-751-6900,27.4643,-82.5781,MON 09:00 - 21:30; TUE 09:00 - 21:30; WED 09:00 - 21:30; THU 09:00 - 21:30; FRI 09:00 - 21:30; SAT 09:00 - 21:30; SUN 10:00 - 19:00,,0
CHERRY HILL,1571527303,2130 ROUTE 70 WEST,MARKET PLACE AT GARDEN STATE PARK,CHERRY HILL,NJ,08002,United States,856-317-8394,39.9234,-75.0366,MON 09:00 - 21:30; TUE 09:00 - 21:30; WED 09:00 - 21:30; THU 09:00 - 21:30; FRI 09:00 - 21:30; SAT 09:00 - 21:30; SUN 10:00 - 19:00,,0
FRANKLIN MILLS,1571527150,20 FRANKLIN MILLS BLVD.,LIBERTY PLAZA,PHILADELPHIA,PA,19154,United States,215-637-3230,40.0855,-74.9675,MON 09:00 - 21:30; TUE 09:00 - 21:30; WED 09:00 - 21:30; THU 09:00 - 21:30; FRI 09:00 - 21:30; SAT 09:00 - 21:30; SUN 10:00 - 19:00,,0
ORLANDO,1571527540,4615 MILLENIA PLAZA WAY,MILLENIA PLAZA,ORLANDO,FL,32839,United States,407-355-0733,28.4969,-81.4274,MON 09:00 - 21:30; TUE 09:00 - 21:30; WED 09:00 - 21:30; THU 09:00 - 21:30; FRI 09:00 - 21:30; SAT 09:00 - 21:30; SUN 10:00 - 19:00,,0
MOORESTOWN,1571527152,1300 NIXON DRIVE,EAST GATE SQUARE,MT LAUREL,NJ,08054,United States,856-802-1225,39.9397,-74.9594,MON 09:00 - 21:30; TUE 09:00 - 21:30; WED 09:00 - 21:30; THU 09:00 - 21:30; FRI 09:00 - 21:30; SAT 09:00 - 21:30; SUN 10:00 - 19:00,,0
EAST COLONIAL,1044478677,724 HERNDON AVENUE,FASHION SQUARE MALL,ORLANDO,FL,32803,United States,321-332-9991,28.5549,-81.338,MON 09:00 - 21:30; TUE 09:00 - 21:30; WED 09:00 - 21:30; THU 09:00 - 21:30; FRI 09:00 - 21:30; SAT 09:00 - 21:30; SUN 10:00 - 19:00,,0
DAVENPORT,1571527452,1300 POSNER BLVD,POSNER TOWN CENTER,DAVENPORT,FL,33837,United States,863-424-4444,28.2266,-81.645,MON 09:00 - 21:30; TUE 09:00 - 21:30; WED 09:00 - 21:30; THU 09:00 - 21:30; FRI 09:00 - 21:30; SAT 09:00 - 21:30; SUN 10:00 - 19:00,,0
OXFORD VALLEY,1571527151,150 COMMERCE BLVD.,COURT AT OXFORD VALLEY,FAIRLESS HILLS,PA,19030,United States,215-946-8750,40.1807,-74.8697,MON 09:00 - 21:30; TUE 09:00 - 21:30; WED 09:00 - 21:30; THU 09:00 - 21:30; FRI 09:00 - 21:30; SAT 09:00 - 21:30; SUN 10:00 - 19:00,,0
VINELAND,472662087,"3849 S DELSEA DRIVE, SPACE G0000",CUMBERLAND MALL,VINELAND,NJ,08360,United States,856-776-7630,39.43,-75.038,MON 09:00 - 21:30; TUE 09:00 - 21:30; WED 09:00 - 21:30; THU 09:00 - 21:30; FRI 09:00 - 21:30; SAT 09:00 - 21:30; SUN 10:00 - 19:00,,0
ORLANDO (FLORIDA MALL),543131481,"8001 S ORANGE BLOSSOM TRAIL, SUITE 1302",FLORIDA MALL,ORLANDO,FL,32809,United States,321-445-4286,28.449233,-81.400088,MON 09:00 - 21:30; TUE 09:00 - 21:30; WED 09:00 - 21:30; THU 09:00 - 21:30; FRI 09:00 - 21:30; SAT 09:00 - 21:30; SUN 10:00 - 19:00,,0
MOREHEAD CITY,1571527586,5130 HIGHWAY 70 WEST,CRYSTAL COAST PLAZA,MOREHEAD,NC,28557,United States,252-222-3244,34.7401,-76.8044,MON 09:00 - 21:30; TUE 09:00 - 21:30; WED 09:00 - 21:30; THU 09:00 - 21:30; FRI 09:00 - 21:30; SAT 09:00 - 21:30; SUN 10:00 - 19:00,,0
BURLINGTON,1571527156,"2703 RT. 541, SUITE 4",TOWNE CROSSING SHOPPING CENTER,BURLINGTON TWP,NJ,08016,United States,609-747-0400,40.0369,-74.8233,MON 09:00 - 21:30; TUE 09:00 - 21:30; WED 09:00 - 21:30; THU 09:00 - 21:30; FRI 09:00 - 21:30; SAT 09:00 - 21:30; SUN 10:00 - 19:00,,0
WATERFORD LAKES,1929529494,1100 ALAFAYA TRAIL,SHOPPES AT ALAFAYA,ORLANDO,FL,32828,United States,407-380-9066,28.5592,-81.208,MON 09:00 - 21:30; TUE 09:00 - 21:30; WED 09:00 - 21:30; THU 09:00 - 21:30; FRI 09:00 - 21:30; SAT 09:00 - 21:30; SUN 10:00 - 19:00,,0
PRINCETON,1571527170,530 NASSAU PARK BLVD,NASSAU PARK PAVILION,PRINCETON,NJ,08540,United States,609-419-1661,40.3059,-74.6796,MON 09:00 - 21:30; TUE 09:00 - 21:30; WED 09:00 - 21:30; THU 09:00 - 21:30; FRI 09:00 - 21:30; SAT 09:00 - 21:30; SUN 10:00 - 19:00,,0
ROCKAWAY,1571527249,387 MOUNT HOPE AVENUE,ROCKAWAY PLAZA,ROCKAWAY,NJ,07866,United States,973-659-1950,40.9067,-74.5597,MON 09:00 - 21:30; TUE 09:00 - 21:30; WED 09:00 - 21:30; THU 09:00 - 21:30; FRI 09:00 - 21:30; SAT 09:00 - 21:30; SUN 10:00 - 19:00,,0
MIDDLETOWN,1571527105,"1 N. GALLERIA DRIVE, SUITE 132",CRYSTAL RUN GALLERIA,MIDDLETOWN,NY,10941,United States,845-692-5035,41.4523,-74.3684,MON 09:00 - 21:30; TUE 09:00 - 21:30; WED 09:00 - 21:30; THU 09:00 - 21:30; FRI 09:00 - 21:30; SAT 09:00 - 21:30; SUN 10:00 - 19:00,,0
SOUTH PLAINFIELD,1929529439,4999 STELTON ROAD,HADLEY CENTER,SOUTH PLAINFIELD,NJ,07080,United States,908-226-4912,40.550172,-74.425678,MON 09:00 - 21:30; TUE 09:00 - 21:30; WED 09:00 - 21:30; THU 09:00 - 21:30; FRI 09:00 - 21:30; SAT 09:00 - 21:30; SUN 10:00 - 19:00,,0
EAST HANOVER,1571527215,240 ROUTE 10 WEST,EAST HANOVER,EAST HANOVER,NJ,07936,United States,973-428-0889,40.8092,-74.3722,MON 09:00 - 21:30; TUE 09:00 - 21:30; WED 09:00 - 21:30; THU 09:00 - 21:30; FRI 09:00 - 21:30; SAT 09:00 - 21:30; SUN 10:00 - 19:00,,0
ATLANTIC CITY,1571527154,210 CONSUMER SQUARE,WRANGLEBOROUGH CONSUMER SQUARE,MAYS LANDING,NJ,08330,United States,609-407-1711,39.4509,-74.6295,MON 09:00 - 21:30; TUE 09:00 - 21:30; WED 09:00 - 21:30; THU 09:00 - 21:30; FRI 09:00 - 21:30; SAT 09:00 - 21:30; SUN 10:00 - 19:00,,0
EAST BRUNSWICK,1571527209,325 STATE ROUTE 18,EAST BRUNSWICK,EAST BRUNSWICK,NJ,08816,United States,732-651-3284,40.4555,-74.4021,MON 09:00 - 21:30; TUE 09:00 - 21:30; WED 09:00 - 21:30; THU 09:00 - 21:30; FRI 09:00 - 21:30; SAT 09:00 - 21:30; SUN 10:00 - 19:00,,0
UNION,1571527587,2700A ROUTE 22 EAST,ROUTE 22 RETAIL CENTER,UNION,NJ,07083,United States,908-964-2580,40.6871,-74.3107,MON 09:00 - 21:30; TUE 09:00 - 21:30; WED 09:00 - 21:30; THU 09:00 - 21:30; FRI 09:00 - 21:30; SAT 09:00 - 21:30; SUN 10:00 - 19:00,,0
WAYNE,1044478708,76 WILLOWBROOK BLVD,WAYNE TOWNE CENTER,WAYNE,NJ,07470,United States,973-200-8077,40.8886,-74.2536,MON 09:00 - 21:30; TUE 09:00 - 21:30; WED 09:00 - 21:30; THU 09:00 - 21:30; FRI 09:00 - 21:30; SAT 09:00 - 21:30; SUN 10:00 - 19:00,,0
WOODBRIDGE,1571527436,366 WOODBRIDGE CENTER DRIVE,WOODBRIDGE CENTER,WOODBRIDGE,NJ,07095,United States,732-621-8400,40.5554,-74.2983,MON 09:00 - 21:30; TUE 09:00 - 21:30; WED 09:00 - 21:30; THU 09:00 - 21:30; FRI 09:00 - 21:30; SAT 09:00 - 21:30; SUN 10:00 - 19:00,,0
FREEHOLD,1571527420,650 TROTTER'S WAY,FREEHOLD RACEWAY MALL,FREEHOLD,NJ,07728,United States,732-358-1400,40.252,-74.2966,MON 09:00 - 21:30; TUE 09:00 - 21:30; WED 09:00 - 21:30; THU 09:00 - 21:30; FRI 09:00 - 21:30; SAT 09:00 - 21:30; SUN 10:00 - 19:00,,0
KINGSTON,1571527213,"1300 ULSTER AVE., SUITE 127",HUDSON VALLEY MALL,KINGSTON,NY,12401,United States,845-382-2151,41.9678,-73.9849,MON 09:00 - 21:30; TUE 09:00 - 21:30; WED 09:00 - 21:30; THU 09:00 - 21:30; FRI 09:00 - 21:30; SAT 09:00 - 21:30; SUN 10:00 - 19:00,,0
STATEN ISLAND,1571527562,2505 RICHMOND AVENUE,SHOPS ON RICHMOND AVENUE,STATEN ISLAND,NY,10314,United States,718-982-7260,40.5865,-74.1674,MON 09:00 - 21:30; TUE 09:00 - 21:30; WED 09:00 - 21:30; THU 09:00 - 21:30; FRI 09:00 - 21:30; SAT 09:00 - 21:30; SUN 10:00 - 19:00,,0
PARAMUS,1571527508,"240 ROUTE 17, NORTH",PARAMUS TOWNE SQUARE,PARAMUS,NJ,07652,United States,201-261-2926,40.935,-74.0678,MON 09:00 - 21:30; TUE 09:00 - 21:30; WED 09:00 - 21:30; THU 09:00 - 21:30; FRI 09:00 - 21:30; SAT 09:00 - 21:30; SUN 00:00 - 00:00,,0
ALBANY,1571527505,1 CROSSGATES MALL ROAD,CROSSGATES MALL,ALBANY,NY,12203,United States,518-218-7410,42.69,-73.8535,MON 09:00 - 21:30; TUE 09:00 - 21:30; WED 09:00 - 21:30; THU 09:00 - 21:30; FRI 09:00 - 21:30; SAT 09:00 - 21:30; SUN 10:00 - 19:00,,0
MANAHAWKIN,1571527458,223 STAFFORD PARK BLVD.,STAFFORD PARK,MANAHAWKIN,NJ,08050,United States,609-597-5396,39.7087,-74.2852,MON 09:00 - 21:30; TUE 09:00 - 21:30; WED 09:00 - 21:30; THU 09:00 - 21:30; FRI 09:00 - 21:30; SAT 09:00 - 21:30; SUN 10:00 - 19:00,,0
POUGHKEEPSIE,1571527106,2001 SOUTH RD,POUGHKEEPSIE GALLERIA,POUGHKEEPSIE,NY,12601,United States,845-297-4767,41.6253,-73.9216,MON 09:00 - 21:30; TUE 09:00 - 21:30; WED 09:00 - 21:30; THU 09:00 - 21:30; FRI 09:00 - 21:30; SAT 09:00 - 21:30; SUN 10:00 - 19:00,,0
BRICK,1571527502,487 ROUTE 70,BRICK 70 PLAZA,BRICK,NJ,08723,United States,732-477-4844,40.055,-74.1549,MON 09:00 - 21:30; TUE 09:00 - 21:30; WED 09:00 - 21:30; THU 09:00 - 21:30; FRI 09:00 - 21:30; SAT 09:00 - 21:30; SUN 10:00 - 19:00,,0
WEST NYACK,1929529472,2400 PALISADES CENTER DRIVE,PALISADES CENTER,WEST NYACK,NY,10994,United States,845-353-1086,41.0967,-73.9574,MON 09:00 - 21:30; TUE 09:00 - 21:30; WED 09:00 - 21:30; THU 09:00 - 21:30; FRI 09:00 - 21:30; SAT 09:00 - 21:30; SUN 10:00 - 19:00,,0
LATHAM,347275654,"579 TROY SCHENECTADY ROAD #101, SUITE A",LATHAM FARMS,LATHAM,NY,12110,United States,518-213-3478,42.752953,-73.763981,MON 09:00 - 21:30; TUE 09:00 - 21:30; WED 09:00 - 21:30; THU 09:00 - 21:30; FRI 09:00 - 21:30; SAT 09:00 - 21:30; SUN 09:00 - 20:00,,0
SARATOGA,1571527110,3065 RT. 50,WILTON MALL AT SARATOGA,SARATOGA SPRINGS,NY,12866,United States,518-583-7218,43.1036,-73.7374,MON 09:00 - 21:30; TUE 09:00 - 21:30; WED 09:00 - 21:30; THU 09:00 - 21:30; FRI 09:00 - 21:30; SAT 09:00 - 21:30; SUN 10:00 - 19:00,,0
GLENS FALLS,1571527222,"578 AVIATION ROAD, SPACE D-103",AVIATION MALL,QUEENSBURY,NY,12804,United States,518-743-8790,43.3263,-73.6789,MON 09:00 - 21:30; TUE 09:00 - 21:30; WED 09:00 - 21:30; THU 09:00 - 21:30; FRI 09:00 - 21:30; SAT 09:00 - 21:30; SUN 10:00 - 19:00,,0
YORKTOWN HEIGHTS,472662085,650 LEE BOULEVARD,JEFFERSON VALLEY MALL,YORKTOWN HEIGHTS,NY,10598,United States,914-302-5452,41.329,-73.808,MON 09:00 - 21:30; TUE 09:00 - 21:30; WED 09:00 - 21:30; THU 09:00 - 21:30; FRI 09:00 - 21:30; SAT 09:00 - 21:30; SUN 10:00 - 19:00,,0
YONKERS,1571527563,45 FITZGERALD STREET,RIDGE HILL,YONKERS,NY,10710,United States,914-964-0580,40.9666,-73.8574,MON 09:00 - 21:30; TUE 09:00 - 21:30; WED 09:00 - 21:30; THU 09:00 - 21:30; FRI 09:00 - 21:30; SAT 09:00 - 21:30; SUN 10:00 - 19:00,,0
MIDDLE VILLAGE,867714676,73-25 WOODHAVEN BOULEVARD,WOODHAVEN,GLENDALE,NY,11385,United States,347-396-9636,40.71014,-73.858315,MON 09:00 - 21:30; TUE 09:00 - 21:30; WED 09:00 - 21:30; THU 09:00 - 21:30; FRI 09:00 - 21:30; SAT 09:00 - 21:30; SUN 10:00 - 19:00,,0
WHITE PLAINS,1571527548,1 MAPLE AVENUE,THE SOURCE,WHITE PLAINS,NY,10605,United States,914-328-3487,41.0292,-73.7589,MON 09:00 - 21:30; TUE 09:00 - 21:30; WED 09:00 - 21:30; THU 09:00 - 21:30; FRI 09:00 - 21:30; SAT 09:00 - 21:30; SUN 10:00 - 19:00,,0
MELBOURNE,1571527306,1700 W. NEW HAVEN AVENUE,MELBOURNE SQUARE,MELBOURNE,FL,32904,United States,321-984-4012,28.0806,-80.6508,MON 09:00 - 21:30; TUE 09:00 - 21:30; WED 09:00 - 21:30; THU 09:00 - 21:30; FRI 09:00 - 21:30; SAT 09:00 - 21:30; SUN 10:00 - 19:00,,0
PLATTSBURGH,1571527217,60 SMITHFIELD BLVD,CHAMPLAIN CENTRE NORTH,PLATTSBURGH,NY,12901,United States,518-562-1121,44.7031,-73.4906,MON 09:00 - 21:30; TUE 09:00 - 21:30; WED 09:00 - 21:30; THU 09:00 - 21:30; FRI 09:00 - 21:30; SAT 09:00 - 21:30; SUN 10:00 - 19:00,,0
VALLEY STREAM,290211103,7 GREEN ACRES COMMONS,GREEN ACRES COMMONS,VALLEY STREAM,NY,11582,United States,516-256-8722,40.66263,-73.7226,MON 09:00 - 21:30; TUE 09:00 - 21:30; WED 09:00 - 21:30; THU 09:00 - 21:30; FRI 09:00 - 21:30; SAT 09:00 - 21:30; SUN 10:00 - 19:00,,0
GARDEN CITY,1571527441,630 OLD COUNTRY ROAD,ROOSEVELT FIELD,GARDEN CITY,NY,11530,United States,516-247-6400,40.7386,-73.6125,MON 09:00 - 21:30; TUE 09:00 - 21:30; WED 09:00 - 21:30; THU 09:00 - 21:30; FRI 09:00 - 21:30; SAT 09:00 - 21:30; SUN 10:00 - 19:00,,0
DANBURY,1571527527,7 BACKUS AVENUE,DANBURY FAIR MALL,DANBURY,CT,06810,United States,203-730-0164,41.3812,-73.4783,MON 09:00 - 21:30; TUE 09:00 - 21:30; WED 09:00 - 21:30; THU 09:00 - 21:30; FRI 09:00 - 21:30; SAT 09:00 - 21:30; SUN 10:00 - 19:00,,0
NORWALK,880185564,444 CONNECTICUT AVENUE,CONNECTICUT AVE,NORWALK,CT,06854,United States,203-642-2083,41.101071,-73.441518,MON 09:00 - 21:30; TUE 09:00 - 21:30; WED 09:00 - 21:30; THU 09:00 - 21:30; FRI 09:00 - 21:30; SAT 09:00 - 21:30; SUN 10:00 - 19:00,,0
FORT MYERS,1619448563,4977 CLEVELAND AVENUE,PAGE FIELD COMMONS,FORT MYERS,FL,33907,United States,239-362-9575,26.587495,-81.869691,MON 09:00 - 21:30; TUE 09:00 - 21:30; WED 09:00 - 21:30; THU 09:00 - 21:30; FRI 09:00 - 21:30; SAT 09:00 - 21:30; SUN 10:00 - 19:00,,0
PITTSFIELD,1571527275,635 MERRILL ROAD,PITTSFIELD,PITTSFIELD,MA,01201,United States,413-395-0870,42.465,-73.2067,MON 09:00 - 21:30; TUE 09:00 - 21:30; WED 09:00 - 21:30; THU 09:00 - 21:30; FRI 09:00 - 21:30; SAT 09:00 - 21:30; SUN 10:00 - 19:00,,0
MASSAPEQUA,956726186,1188 SUNRISE MALL,SUNRISE MALL,MASSAPEQUA,NY,11758,United States,,40.68143,-73.43332,MON 09:00 - 21:30; TUE 09:00 - 21:30; WED 09:00 - 21:30; THU 09:00 - 21:30; FRI 09:00 - 21:30; SAT 09:00 - 21:30; SUN 10:00 - 19:00,,0
HUNTINGTON,495938238,870 WALT WHITMAN ROAD,MELVILLE MALL,MELVILLE,NY,11747,United States,631-421-3028,40.799,-73.41,MON 09:00 - 21:30; TUE 09:00 - 21:30; WED 09:00 - 21:30; THU 09:00 - 21:30; FRI 09:00 - 21:30; SAT 09:00 - 21:30; SUN 10:00 - 20:00,,0
WILLISTON,1571527210,1355 MAPLE TREE PLACE,MAPLE TREE PLACE,WILLISTON,VT,05495,United States,802-288-9854,44.4429,-73.1113,MON 09:00 - 21:30; TUE 09:00 - 21:30; WED 09:00 - 21:30; THU 09:00 - 21:30; FRI 09:00 - 21:30; SAT 09:00 - 21:30; SUN 10:00 - 19:00,,0
COMMACK,1929529473,6070 JERICHO TURNPIKE,COMMACK SHOPPING CENTER,COMMACK,NY,11725,United States,631-499-1410,40.8406,-73.3063,MON 09:00 - 21:30; TUE 09:00 - 21:30; WED 09:00 - 21:30; THU 09:00 - 21:30; FRI 09:00 - 21:30; SAT 09:00 - 21:30; SUN 10:00 - 19:00,,0
SOUTH FORT MYERS,1571527467,10011 GULF CENTER DRIVE,GULF COAST TOWN CENTER,FORT MYERS,FL,33913,United States,239-433-0216,26.4856,-81.7882,MON 09:00 - 21:30; TUE 09:00 - 21:30; WED 09:00 - 21:30; THU 09:00 - 21:30; FRI 09:00 - 21:30; SAT 09:00 - 21:30; SUN 10:00 - 19:00,,0
RUTLAND,1571527297,320 US ROUTE 7 SOUTH,GREEN MOUNTAIN PLAZA,RUTLAND,VT,05701,United States,802-773-2710,43.5852,-72.9706,MON 09:00 - 21:30; TUE 09:00 - 21:30; WED 09:00 - 21:30; THU 09:00 - 21:30; FRI 09:00 - 21:30; SAT 09:00 - 21:30; SUN 10:00 - 19:00,,0
BAY SHORE,956726189,1701 SUNRISE HIGHWAY,BAY SHORE MALL - SUITE A,BAY SHORE,NY,11706,United States,631-892-8242,40.736954,-73.243908,MON 09:00 - 21:30; TUE 09:00 - 21:30; WED 09:00 - 21:30; THU 09:00 - 21:30; FRI 09:00 - 21:30; SAT 09:00 - 21:30; SUN 10:00 - 19:00,,0
LAKE GROVE,1571527304,620 SMITH HAVEN MALL,SMITH HAVEN MALL,LAKE GROVE,NY,11755,United States,631-265-2987,40.8642,-73.1338,MON 09:00 - 21:30; TUE 09:00 - 21:30; WED 09:00 - 21:30; THU 09:00 - 21:30; FRI 09:00 - 21:30; SAT 09:00 - 21:30; SUN 10:00 - 19:00,,0
MILFORD,1571527320,1201 BOSTON POST ROAD,WESTFIELD SHOPPINGTON CENTER,MILFORD,CT,06460,United States,203-876-0477,41.2343,-73.0382,MON 09:00 - 21:30; TUE 09:00 - 21:30; WED 09:00 - 21:30; THU 09:00 - 21:30; FRI 09:00 - 21:30; SAT 09:00 - 21:30; SUN 10:00 - 19:00,,0
CANTON,1571527270,110 ALBANY TURNPIKE,SHOPPES AT FARMINGTON VALLEY,CANTON,CT,06019,United States,860-693-1619,41.8212,-72.8805,MON 09:00 - 21:30; TUE 09:00 - 21:30; WED 09:00 - 21:30; THU 09:00 - 21:30; FRI 09:00 - 21:30; SAT 09:00 - 21:30; SUN 10:00 - 19:00,,0
NAPLES,1044478671,5955 NAPLES BLVD,NAPLES,NAPLES,FL,34109,United States,239-325-6456,26.218,-81.7757,MON 09:00 - 21:30; TUE 09:00 - 21:30; WED 09:00 - 21:30; THU 09:00 - 21:30; FRI 09:00 - 21:30; SAT 09:00 - 21:30; SUN 10:00 - 19:00,,0
PATCHOGUE,1032966205,499-64 SUNRISE HIGHWAY,GATEWAY CENTER II,PATCHOGUE,NY,11772,United States,631-891-4044,40.77863,-73.04027134,MON 09:00 - 21:30; TUE 09:00 - 21:30; WED 09:00 - 21:30; THU 09:00 - 21:30; FRI 09:00 - 21:30; SAT 09:00 - 21:30; SUN 10:00 - 19:00,,0
PLAINVILLE,1571527240,280 NEW BRITAIN AVENUE,CONNECTICUT COMMONS,PLAINVILLE,CT,06062,United States,860-747-2102,41.6732,-72.84,MON 09:00 - 21:30; TUE 09:00 - 21:30; WED 09:00 - 21:30; THU 09:00 - 21:30; FRI 09:00 - 21:30; SAT 09:00 - 21:30; SUN 10:00 - 19:00,,0
NORTH HAVEN,219430302,411 UNIVERSAL DRIVE NORTH,HOME DEPOT PLAZA,NORTH HAVEN,CT,06473,United States,203-836-2860,41.3513,-72.8718,MON 09:00 - 21:30; TUE 09:00 - 21:30; WED 09:00 - 21:30; THU 09:00 - 21:30; FRI 09:00 - 21:30; SAT 09:00 - 21:30; SUN 10:00 - 19:00,,0
MERIDEN,1571527226,470 LEWIS AVENUE,WESTFIELD SHOPPINGTOWN MERIDEN,MERIDEN,CT,06451,United States,203-686-0462,41.5512,-72.8101,MON 09:00 - 21:30; TUE 09:00 - 21:30; WED 09:00 - 21:30; THU 09:00 - 21:30; FRI 09:00 - 21:30; SAT 09:00 - 21:30; SUN 10:00 - 19:00,,0
NEWINGTON,1571527118,2985 BERLIN TURNPIKE,TURNPIKE PLAZA,NEWINGTON,CT,06111,United States,860-666-3877,41.6684,-72.7217,MON 09:00 - 21:30; TUE 09:00 - 21:30; WED 09:00 - 21:30; THU 09:00 - 21:30; FRI 09:00 - 21:30; SAT 09:00 - 21:30; SUN 10:00 - 19:00,,0
SPRINGFIELD,1571527121,1081 RIVERDALE STREET,RIVERDALE SHOPPING CENTER,WEST SPRINGFIELD,MA,01089,United States,413-781-6155,42.1329,-72.6226,MON 09:00 - 21:30; TUE 09:00 - 21:30; WED 09:00 - 21:30; THU 09:00 - 21:30; FRI 09:00 - 21:30; SAT 09:00 - 21:30; SUN 10:00 - 19:00,,0
HADLEY,1929529503,367 RUSSELL STREET,HAMPSHIRE MALL,HADLEY,MA,01035,United States,413-584-6934,42.3565,-72.5487,MON 09:00 - 21:30; TUE 09:00 - 21:30; WED 09:00 - 21:30; THU 09:00 - 21:30; FRI 09:00 - 21:30; SAT 09:00 - 21:30; SUN 10:00 - 19:00,,0
ENFIELD,1571527225,130 ELM STREET,STATE LINE PLAZA,ENFIELD,CT,06082,United States,860-253-9475,41.9949,-72.5756,MON 09:00 - 21:30; TUE 09:00 - 21:30; WED 09:00 - 21:30; THU 09:00 - 21:30; FRI 09:00 - 21:30; SAT 09:00 - 21:30; SUN 10:00 - 19:00,,0
RIVERHEAD,1929529431,1779 OLD COUNTRY ROAD,OLD COUNTRY ROAD 58 CENTER,RIVERHEAD,NY,11901,United States,631-727-1395,40.922312,-72.702162,MON 09:00 - 21:30; TUE 09:00 - 21:30; WED 09:00 - 21:30; THU 09:00 - 21:30; FRI 09:00 - 21:30; SAT 09:00 - 21:30; SUN 10:00 - 19:00,,0
BUCKLAND HILLS,1571527331,179 PAVILLION DRIVE,THE PAVILIONS AT BUCKLAND HILLS,MANCHESTER,CT,06042,United States,860-648-4044,41.8067,-72.5471,MON 09:00 - 21:30; TUE 09:00 - 21:30; WED 09:00 - 21:30; THU 09:00 - 21:30; FRI 09:00 - 21:30; SAT 09:00 - 21:30; SUN 10:00 - 19:00,,0
JENSEN BEACH,896039683,3101 N.W. FEDERAL HIGHWAY,TREASURE COAST COMMONS,JENSEN BEACH,FL,34957,United States,772-934-5360,27.241856,-80.269655,MON 09:00 - 21:30; TUE 09:00 - 21:30; WED 09:00 - 21:30; THU 09:00 - 21:30; FRI 09:00 - 21:30; SAT 09:00 - 21:30; SUN 10:00 - 19:00,,0
KEENE,1571527273,42 ASH BROOK ROAD,MONADNOCK MARKETPLACE,KEENE,NH,03431,United States,603-357-0861,42.9282,-72.3028,MON 09:00 - 21:30; TUE 09:00 - 21:30; WED 09:00 - 21:30; THU 09:00 - 21:30; FRI 09:00 - 21:30; SAT 09:00 - 21:30; SUN 10:00 - 19:00,,0
WATERFORD,1571527212,"915 HARTFORD TURNPIKE, #A1",WATERFORD COMMONS,WATERFORD,CT,06385,United States,860-447-2886,41.3829,-72.1522,MON 09:00 - 21:30; TUE 09:00 - 21:30; WED 09:00 - 21:30; THU 09:00 - 21:30; FRI 09:00 - 21:30; SAT 09:00 - 21:30; SUN 10:00 - 19:00,,0
LISBON,1571527578,"170 RIVER ROAD, SUITE 2",LISBON LANDING,LISBON,CT,06351,United States,860-376-4141,41.5814,-71.9914,MON 09:00 - 21:30; TUE 09:00 - 21:30; WED 09:00 - 21:30; THU 09:00 - 21:30; FRI 09:00 - 21:30; SAT 09:00 - 21:30; SUN 10:00 - 19:00,,0
WELLINGTON,1571527470,8821 SOUTHERN BLVD,SOUTHERN CROSSING,WEST PALM BEACH,FL,33411,United States,561-204-4133,26.6816,-80.1829,MON 09:00 - 21:30; TUE 09:00 - 21:30; WED 09:00 - 21:30; THU 09:00 - 21:30; FRI 09:00 - 21:30; SAT 09:00 - 21:30; SUN 10:00 - 19:00,,0
WORCESTER,1571527211,541E LINCOLN STREET,LINCOLN PLAZA,WORCESTER,MA,01605,United States,508-595-9808,42.2929,-71.7706,MON 09:00 - 21:30; TUE 09:00 - 21:30; WED 09:00 - 21:30; THU 09:00 - 21:30; FRI 09:00 - 21:30; SAT 09:00 - 21:30; SUN 10:00 - 19:00,,0
MILLBURY,1571527220,"70 WORCHESTER PROVIDENCE TURNPIKE, SUITE 200",THE SHOPPES AT BLACKSTONE VALLEY,MILLBURY,MA,01527,United States,508-865-7250,42.1954,-71.7781,MON 09:00 - 21:30; TUE 09:00 - 21:30; WED 09:00 - 21:30; THU 09:00 - 21:30; FRI 09:00 - 21:30; SAT 09:00 - 21:30; SUN 10:00 - 19:00,,0
LEOMINSTER,1571527241,56 ORCHARD HILL PARK DRIVE,ORCHARD HILL PARK,LEOMINSTER,MA,01453,United States,978-537-4081,42.5254,-71.7147,MON 09:00 - 21:30; TUE 09:00 - 21:30; WED 09:00 - 21:30; THU 09:00 - 21:30; FRI 09:00 - 21:30; SAT 09:00 - 21:30; SUN 10:00 - 19:00,,0
NORTHBOROUGH,1972979036,5102 SHOPS WAY,NORTHBOROUGH CROSSING,NORTHBOROUGH,MA,01532,United States,508-393-1638,42.2885,-71.6711,MON 09:00 - 21:30; TUE 09:00 - 21:30; WED 09:00 - 21:30; THU 09:00 - 21:30; FRI 09:00 - 21:30; SAT 09:00 - 21:30; SUN 10:00 - 19:00,,0
BOYNTON BEACH,1571527531,515 N. CONGRESS AVE,BOYNTON FESTIVE CENTER,BOYNTON BEACH,FL,33426,United States,561-734-7771,26.5323,-80.0929,MON 09:00 - 21:30; TUE 09:00 - 21:30; WED 09:00 - 21:30; THU 09:00 - 21:30; FRI 09:00 - 21:30; SAT 09:00 - 21:30; SUN 10:00 - 19:00,,0
BOCA RATON,571937015,20429 SOUTH STATE ROAD 7,MISSION BAY PLAZA,BOCA RATON,FL,33498,United States,561-288-4044,26.371,-80.207,MON 09:00 - 21:30; TUE 09:00 - 21:30; WED 09:00 - 21:30; THU 09:00 - 21:30; FRI 09:00 - 21:30; SAT 09:00 - 21:30; SUN 10:00 - 19:00,,0
CONCORD,1571527311,295 LOUDON ROAD,PATRIOT PLACE,CONCORD,NH,03301,United States,603-224-1564,43.227,-71.4866,MON 09:00 - 21:30; TUE 09:00 - 21:30; WED 09:00 - 21:30; THU 09:00 - 21:30; FRI 09:00 - 21:30; SAT 09:00 - 21:30; SUN 10:00 - 19:00,,0
CORAL SPRINGS,1212359330,8921 W. ATLANTIC BOULEVARD,THE PLAZA AT CORAL SPRINGS,CORAL SPRINGS,FL,33071,United States,754-484-3423,26.238573,-80.245685,MON 09:00 - 21:30; TUE 09:00 - 21:30; WED 09:00 - 21:30; THU 09:00 - 21:30; FRI 09:00 - 21:30; SAT 09:00 - 21:30; SUN 10:00 - 19:00,,0
SAWGRASS MILLS,1077270994,12801 WEST SUNRISE BOULEVARD,SAWGRASS MILLS MALL,SUNRISE,FL,33323,United States,,26.150336,-80.324242,MON 09:00 - 21:30; TUE 09:00 - 21:30; WED 09:00 - 21:30; THU 09:00 - 21:30; FRI 09:00 - 21:30; SAT 09:00 - 21:30; SUN 10:00 - 19:00,,1
NASHUA,1571527560,310 DANIEL WEBSTER HIGHWAY,PHEASANT LANE MALL,NASHUA,NH,03060,United States,603-888-3579,42.7019,-71.4385,MON 09:00 - 21:30; TUE 09:00 - 21:30; WED 09:00 - 21:30; THU 09:00 - 21:30; FRI 09:00 - 21:30; SAT 09:00 - 21:30; SUN 10:00 - 19:00,,0
SMITHFIELD,1571527221,"371 PUTNAM PIKE, SUITE 300",THE CROSSING AT SMITHFIELD,SMITHFIELD,RI,02917,United States,401-232-0051,41.875,-71.5168,MON 09:00 - 21:30; TUE 09:00 - 21:30; WED 09:00 - 21:30; THU 09:00 - 21:30; FRI 09:00 - 21:30; SAT 09:00 - 21:30; SUN 10:00 - 19:00,,0
WARWICK,1571527219,1350 EAST BALD HILL ROAD,WARWICK CENTRE,WARWICK,RI,02886,United States,401-823-8079,41.7013,-71.4931,MON 09:00 - 21:30; TUE 09:00 - 21:30; WED 09:00 - 21:30; THU 09:00 - 21:30; FRI 09:00 - 21:30; SAT 09:00 - 21:30; SUN 10:00 - 19:00,,0
PLANTATION,1571527528,801 S. UNIVERSITY DRIVE,THE FOUNTAINS,PLANTATION,FL,33324,United States,954-472-8855,26.1102,-80.2532,MON 09:00 - 21:30; TUE 09:00 - 21:30; WED 09:00 - 21:30; THU 09:00 - 21:30; FRI 09:00 - 21:30; SAT 09:00 - 21:30; SUN 10:00 - 19:00,,0
NATICK,1571527299,1336 WORCESTER STREET,SHERWOOD PLAZA,NATICK,MA,01760,United States,508-653-0908,42.2987,-71.3919,MON 09:00 - 21:30; TUE 09:00 - 21:30; WED 09:00 - 21:30; THU 09:00 - 21:30; FRI 09:00 - 21:30; SAT 09:00 - 21:30; SUN 10:00 - 19:00,,0
PEMBROKE PINES,1571527529,11940 PINES BLVD.,PEMBROKE CROSSINGS,PEMBROKE,FL,33026,United States,954-430-5873,26.0058,-80.3099,MON 09:00 - 21:30; TUE 09:00 - 21:30; WED 09:00 - 21:30; THU 09:00 - 21:30; FRI 09:00 - 21:30; SAT 09:00 - 21:30; SUN 10:00 - 19:00,,0
FT. LAUDERDALE,1571527550,2420 NORTH FEDERAL HWY,REGIONS BANK PLAZA,FT. LAUDERDALE,FL,33305,United States,954-566-1448,26.1564,-80.1171,MON 09:00 - 21:30; TUE 09:00 - 21:30; WED 09:00 - 21:30; THU 09:00 - 21:30; FRI 09:00 - 21:30; SAT 09:00 - 21:30; SUN 10:00 - 19:00,,0
NORTH ATTLEBORO,1571527218,1360 SOUTH WASHINGTON STREET,ATTLEBORO MARKETPLACE,NORTH ATTLEBORO,MA,02760,United States,508-699-8475,41.9381,-71.3453,MON 09:00 - 21:30; TUE 09:00 - 21:30; WED 09:00 - 21:30; THU 09:00 - 21:30; FRI 09:00 - 21:30; SAT 09:00 - 21:30; SUN 10:00 - 19:00,,0
SALEM,279993681,77 ROCKINGHAM BLVD.,THE MALL AT ROCKINGHAM PARK,SALEM,NH,03079,United States,603-824-3152,42.769618,-71.23166,MON 09:00 - 21:30; TUE 09:00 - 21:30; WED 09:00 - 21:30; THU 09:00 - 21:30; FRI 09:00 - 21:30; SAT 09:00 - 21:30; SUN 10:00 - 19:00,,0
SEEKONK,1571527224,275 HIGHLAND AVE,SEEKONK,SEEKONK,MA,02771,United States,508-336-3004,41.7972,-71.3327,MON 09:00 - 21:30; TUE 09:00 - 21:30; WED 09:00 - 21:30; THU 09:00 - 21:30; FRI 09:00 - 21:30; SAT 09:00 - 21:30; SUN 10:00 - 19:00,,0
DEDHAM,1571527337,180 PROVIDENCE HIGHWAY,DEDHAM MALL,DEDHAM,MA,02026,United States,781-329-2862,42.254,-71.1695,MON 09:00 - 21:30; TUE 09:00 - 21:30; WED 09:00 - 21:30; THU 09:00 - 21:30; FRI 09:00 - 21:30; SAT 09:00 - 21:30; SUN 10:00 - 19:00,,0
AVENTURA,1077270989,18499 BISCAYNE BOULEVARD,AVENTURA,AVENTURA,FL,33160,United States,,25.946539,-80.146244,MON 09:00 - 21:30; TUE 09:00 - 21:30; WED 09:00 - 21:30; THU 09:00 - 21:30; FRI 09:00 - 21:30; SAT 09:00 - 21:30; SUN 10:00 - 19:00,,1
KENDALL,1929529466,11900 MILLS DRIVE,THE PALMS AT TOWN & COUNTRY,MIAMI,FL,33183,United States,305-595-9410,25.689833,-80.386052,MON 09:00 - 21:30; TUE 09:00 - 21:30; WED 09:00 - 21:30; THU 09:00 - 21:30; FRI 09:00 - 21:30; SAT 09:00 - 21:30; SUN 10:00 - 19:00,,0
MIDTOWN (MIAMI),1077270993,3401 NORTH MIAMI AVENUE,THE SHOPS AT MIDTOWN MIAMI,MIAMI,FL,33137,United States,,25.808598,-80.194854,MON 09:00 - 21:30; TUE 09:00 - 21:30; WED 09:00 - 21:30; THU 09:00 - 21:30; FRI 09:00 - 21:30; SAT 09:00 - 21:30; SUN 10:00 - 19:00,,1
DADELAND STATION,1077270984,8364 SOUTH DIXIE HIGHWAY,DADELAND STATION,DADELAND STATION,FL,33143,United States,,25.693323,-80.305973,MON 09:00 - 21:30; TUE 09:00 - 21:30; WED 09:00 - 21:30; THU 09:00 - 21:30; FRI 09:00 - 21:30; SAT 09:00 - 21:30; SUN 10:00 - 19:00,,1
SAUGUS,1571527287,1201 BROADWAY,SQUARE ONE MALL,SAUGUS,MA,01906,United States,781-233-0476,42.4613,-71.0289,MON 09:00 - 21:30; TUE 09:00 - 21:30; WED 09:00 - 21:30; THU 09:00 - 21:30; FRI 09:00 - 21:30; SAT 09:00 - 21:30; SUN 10:00 - 19:00,,0
BROCKTON,1571527285,435 WESTGATE DRIVE,WESTGATE MALL,BROCKTON,MA,02301,United States,508-559-9290,42.0947,-71.0556,MON 09:00 - 21:30; TUE 09:00 - 21:30; WED 09:00 - 21:30; THU 09:00 - 21:30; FRI 09:00 - 21:30; SAT 09:00 - 21:30; SUN 10:00 - 19:00,,0
TAUNTON,1571527293,2 GALLERIA MALL DRIVE,SILVER CITY GALLERIA,TAUNTON,MA,02780,United States,508-823-8132,41.8631,-71.0529,MON 09:00 - 21:30; TUE 09:00 - 21:30; WED 09:00 - 21:30; THU 09:00 - 21:30; FRI 09:00 - 21:30; SAT 09:00 - 21:30; SUN 10:00 - 19:00,,0
DANVERS,1571527426,96 COMMONWEALTH AVENUE,LIBERTY TREE,DANVERS,MA,01923,United States,978-646-6400,42.5512,-70.9448,MON 09:00 - 21:30; TUE 09:00 - 21:30; WED 09:00 - 21:30; THU 09:00 - 21:30; FRI 09:00 - 21:30; SAT 09:00 - 21:30; SUN 10:00 - 19:00,,0
SEABROOK,1316092299,"700 LAFAYETTE ROAD, SUITE 212",SEABROOK TOWN CENTER,SEABROOK,NH,03874,United States,603-760-7369,42.8925474529976,-70.866524862778,MON 09:00 - 21:30; TUE 09:00 - 21:30; WED 09:00 - 21:30; THU 09:00 - 21:30; FRI 09:00 - 21:30; SAT 09:00 - 21:30; SUN 10:00 - 19:00,,0
NORTH DARTMOUTH,1571527286,475 STATE ROAD,DARTMOUTH COMMONS,DARTMOUTH,MA,02747,United States,508-999-1617,41.6387,-71.0025,MON 09:00 - 21:30; TUE 09:00 - 21:30; WED 09:00 - 21:30; THU 09:00 - 21:30; FRI 09:00 - 21:30; SAT 09:00 - 21:30; SUN 10:00 - 19:00,,0
NEWINGTON,1571527283,45 GOSLING ROAD,THE CROSSINGS AT FOXRUN,PORTSMOUTH,NH,03801,United States,603-431-8036,43.0937,-70.8025,MON 09:00 - 21:30; TUE 09:00 - 21:30; WED 09:00 - 21:30; THU 09:00 - 21:30; FRI 09:00 - 21:30; SAT 09:00 - 21:30; SUN 10:00 - 19:00,,0
HANOVER,1929529483,1803 WASHINGTON STREET,HANOVER MALL,HANOVER,MA,02339,United States,781-826-9282,42.1434,-70.8409,MON 09:00 - 21:30; TUE 09:00 - 21:30; WED 09:00 - 21:30; THU 09:00 - 21:30; FRI 09:00 - 21:30; SAT 09:00 - 21:30; SUN 10:00 - 19:00,,0
PLYMOUTH,1571527231,205 COLONY PLACE,THE PLAZA AT COLONY PLACE,PLYMOUTH,MA,02360,United States,508-746-6932,41.9531,-70.7172,MON 09:00 - 21:30; TUE 09:00 - 21:30; WED 09:00 - 21:30; THU 09:00 - 21:30; FRI 09:00 - 21:30; SAT 09:00 - 21:30; SUN 10:00 - 19:00,,0
PORTLAND,1571527223,385 GORHAM ROAD,PORTLAND,SOUTH PORTLAND,ME,04106,United States,207-828-4950,43.6375,-70.3318,MON 09:00 - 21:30; TUE 09:00 - 21:30; WED 09:00 - 21:30; THU 09:00 - 21:30; FRI 09:00 - 21:30; SAT 09:00 - 21:30; SUN 10:00 - 19:00,,0
TOPSHAM,1571527346,131 TOPSHAM FAIR MALL ROAD,TOPSHAM FAIR MALL,TOPSHAM,ME,04086,United States,207-721-3074,43.9325,-69.9846,MON 09:00 - 21:30; TUE 09:00 - 21:30; WED 09:00 - 21:30; THU 09:00 - 21:30; FRI 09:00 - 21:30; SAT 09:00 - 21:30; SUN 10:00 - 19:00,,0
AUGUSTA,1571527292,"80 STEPHEN KING DRIVE, SUITE 2",THE MARKETPLACE AT AUGUSTA,AUGUSTA,ME,04330,United States,207-622-3987,44.349,-69.7852,MON 09:00 - 21:30; TUE 09:00 - 21:30; WED 09:00 - 21:30; THU 09:00 - 21:30; FRI 09:00 - 21:30; SAT 09:00 - 21:30; SUN 10:00 - 19:00,,0
BANGOR,1571527274,641 STILLWATER AVENUE,BANGOR MALL,BANGOR,ME,04401,United States,207-990-5932,44.8302,-68.7493,MON 09:00 - 21:30; TUE 09:00 - 21:30; WED 09:00 - 21:30; THU 09:00 - 21:30; FRI 09:00 - 21:30; SAT 09:00 - 21:30; SUN 10:00 - 19:00,,0
