store_name,store_number,address,address2,city,state,zip_code,country,phone_number,latitude,longitude,store_hours,other_fields,coming_soon
Samuels Jewelers - Rimrock Mall,731,300 S 24th St W Ste D6,,Billings,MT,59102,United States,(406) 656-7224,45.7663944000,-108.5800058000,Tue:  10am -9pm; Wed:  10am -9pm; Thu:  10am -9pm; Fri:  10am -9pm; Sat:  10am -9pm; Sun:  12pm -6pm,,0
Samuels Jewelers - Northtowne Mall,454,1500 North Clinton Ste 15,,Defiance,OH,43512,United States,(419) 784-4110,41.3028837000,-84.3635728000,Tue:  10am -9pm; Wed:  10am -9pm; Thu:  10am -9pm; Fri:  10am -9pm; Sat:  10am -9pm; Sun:  12pm -5pm,,0
Rogers Jewelers - Towne Mall,607,3461 Towne Blvd Ste 432,,Franklin,OH,45005,United States,(513) 423-9268,39.4964491000,-84.3315301000,Tue:  10am -9pm; Wed:  10am -9pm; Thu:  10am -9pm; Fri:  10am -9pm; Sat:  10am -9pm; Sun:  12pm -6pm,,0
Rogers Jewelers - Richmond Square Mall,609,3801 National Rd E Ste 743,,Richmond,IN,47374,United States,(765) 962-0559,39.8298741000,-84.8451296000,Tue:  10am -9pm; Wed:  10am -9pm; Thu:  10am -9pm; Fri:  10am -9pm; Sat:  10am -9pm; Sun:  12pm -6pm,,0
Rogers Jewelers - Empire Mall,629,780 W Empire Mall,,Sioux Falls,SD,57106,United States,(605) 361-9700,43.5108625000,-96.7760454000,Tue:  10am -9pm; Wed:  10am -9pm; Thu:  10am -9pm; Fri:  10am -9pm; Sat:  10am -9pm; Sun:  12pm -6pm,,0
Samuels Jewelers - Eastridge Mall,772,601 SE Wyoming Blvd Unit 183,,Casper,WY,82609,United States,(307) 266-6583,42.8460575000,-106.2656422000,Tue:  10am -9pm; Wed:  10am -9pm; Thu:  10am -9pm; Fri:  10am -9pm; Sat:  10am -9pm; Sun:  11am -7pm,,0
Rogers Jewelers - Northgate Mall,604,9717 Colerain Ave,,Cincinnati,OH,45251,United States,(513) 741-3344,39.2444137000,-84.5986769000,Tue:  10am -9pm; Wed:  10am -9pm; Thu:  10am -9pm; Fri:  10am -9pm; Sat:  10am -9pm; Sun:  12pm -6pm,,0
Rogers Jewelers - Dayton Mall,652,2700 Miamisburg Centerville Rd Ste 920,,Dayton,OH,45459,United States,(937) 438-1068,39.6339777000,-84.2205722000,Tue:  10am -9pm; Wed:  10am -9pm; Thu:  10am -9pm; Fri:  10am -9pm; Sat:  10am -9pm; Sun:  12pm -6pm,,0
Samuels Jewelers - Central Mall,536,3100 Highway 365 Suite 146,,Port Arthur,TX,77642,United States,(409) 724-1706,29.9481237000,-93.9894991000,Tue:  10am -9pm; Wed:  10am -9pm; Thu:  10am -9pm; Fri:  10am -9pm; Sat:  10am -9pm; Sun:  12pm -6pm,,0
Samuels Jewelers - Prien Lake Mall ,530,496 W. Prien Lake Rd.,,Lake Charles,LA,70601,United States,(337) 487-8909,30.2293526000,-93.2131232000,Mon:  10am -9pm; Tue:  10am -9pm; Wed:  10am -9pm; Thu:  10am -9pm; Fri:  10am -9pm; Sat:  10am -9pm; Sun:  12PM -6pm,,0
Samuels Jewelers - Broadway Square,557,4601 S Broadway Ave B23,,Tyler,TX,75703,United States,(903) 939-0232,32.2992813000,-95.3028928000,Fri:  10am -9pm; Sat:  10am -9pm; Sun:  11am -6pm,,0
Samuels Jewelers - Longview Mall,75552,3500 Mccann Rd Ste L8,,Longview,TX,75605,United States,(903) 758-4955,32.5390775000,-94.7518281000,Tue:  10am -9pm; Wed:  10am -9pm; Thu:  10am -9pm; Fri:  10am -9pm; Sat:  10am -9pm; Sun:  12pm -6pm,,0
Samuels Jewelers - Stonebriar,558,2601 Preston Road,,Frisco,TX,75034,United States,(469) 362-5344/56,33.0994285000,-96.8080663000,,,0
Samuels Jewelers - Towne East,508,2063 Town East Mall,,Mesquite,TX,75150,United States,(972) 613-4570/80,32.8086283000,-96.6253508000,,,0
Samuels Jewelers - Westfield Shoppingtown,157,72840 Highway  111 Ste 413,,Palm Desert,CA,92260,United States,(760) 346-8030,33.7237333000,-116.3950907000,Tue:  10am -8pm; Wed:  10am -8pm; Thu:  10am -8pm; Fri:  10am -9pm; Sat:  10am -9pm; Sun:  11am -7pm,,0
Samuels Jewelers - Parkdale Mall,533,6155 Eastex Freeway Space 132,,Beaumont,TX,77706,United States,(409) 234-4820,30.1256994000,-94.1616040000,Tue:  10am -9pm; Wed:  10am -9pm; Thu:  10am -9pm; Fri:  10am -9pm; Sat:  10am -9pm; Sun:  12pm -6pm,,0
Samuels Jewelers - Killeen Mall,529,2100 S W S  Young Dr Ste1072,,Killeen,TX,76543,United States,(254) 699-6404,31.0934120000,-97.7176059000,Tue:  10am -9pm; Wed:  10am -9pm; Thu:  10am -9pm; Fri:  10am -9pm; Sat:  10am -9pm; Sun:  12pm -6pm,,0
Samuels Jewelers - Baybrook Mall,535,1376 Baybrook Mall,,Friendswood,TX,77546,United States,(281) 486-5588,29.5441984000,-95.1504428000,Tue:  10am -9pm; Wed:  10am -9pm; Thu:  10am -9pm; Fri:  10am -9pm; Sat:  10am -9pm; Sun:  12pm -6pm,,0
Samuels Jewelers - Post Oak Mall,528,1500 Harvey Rd Ste 6002,,College Station,TX,77840,United States,(979) 764-0424,30.6241831000,-96.3033950000,Tue:  10am -9pm; Wed:  10am -9pm; Thu:  10am -9pm; Fri:  10am -9pm; Sat:  10am -9pm; Sun:  12pm -6pm,,0
Samuels Jewelers - Woodland Hills Mall,581,7021 S Memorial Ste 274,,Tulsa,OK,74133,United States,(918) 250-8501,36.0632284000,-95.8818735000,Tue:  10am -9pm; Wed:  10am -9pm; Thu:  10am -9pm; Fri:  10am -9pm; Sat:  10am -9pm; Sun:  12pm -7pm,,0
Samuels Jewelers - The Woodlands Mall,550,1201 Lake Woodlands Dr Ste 2090,,The Woodlands,TX,77380,United States,(281) 298-5571,30.1644128000,-95.4556496000,Tue:  10am -9pm; Wed:  10am -9pm; Thu:  10am -9pm; Fri:  10am -9pm; Sat:  10am -9pm; Sun:  12pm -6pm,,0
Rogers Jewelers - Pinnacle Hills Promenade,566,2203 S Promenade Blvd Suite 2165,,Rogers,AR,72758,United States,(479) 621-5143,36.3057803000,-94.1757340000,Tue:  10am -9pm; Wed:  10am -9pm; Thu:  10am -9pm; Fri:  10am -9pm; Sat:  10am -9pm; Sun:  12pm -6pm,,0
Andrews Jewelers - Battlefield Mall,627,2825 S Glenstone Ave Ste 101,,Springfield,MO,65804,United States,(417) 887-0604,37.1627417000,-93.2656737000,Tue:  10am -9pm; Wed:  10am -9pm; Thu:  10am -9pm; Fri:  10am -9pm; Sat:  10am -9pm; Sun:  12pm -6pm,,0
Rogers Jewelers - Central Mall,624,2400 Richmond Rd Ste 78,,Texarkana,TX,75503,United States,(903) 223-7022,33.4557813000,-94.0805777000,Tue:  10am -9pm; Wed:  10am -9pm; Thu:  10am -9pm; Fri:  10am -9pm; Sat:  10am -9pm; Sun:  12:30pm -6pm,,0
Rogers Jewelers - Central Mall,653,5111 Rogers Ave Ste 131,,Fort Smith,AR,72903,United States,(479) 478-7078,35.3669240000,-94.3751160000,Tue:  10am -9pm; Wed:  10am -9pm; Thu:  10am -9pm; Fri:  10am -9pm; Sat:  10am -9pm; Sun:  12:30pm -6pm,,0
Rogers Jewelers - The Pines,314,2901 Pines Mall Rd (US 65S and Commerce Rd.),,Pine Bluff,AR,71601,United States,(870) 534-4100,34.2116283000,-91.9720975000,Tue:  10am -8pm; Wed:  10am -8pm; Thu:  10am -8pm; Fri:  10am -8pm; Sat:  10am -8pm; Sun:  12pm -6pm,,0
Rogers Jewelers - McCain Mall,664,3929 McCain Blvd  Ste F09,,North Little Rock,AR,72116,United States,(501) 812-6424,34.7920519000,-92.2251753000,Tue:  10am -9pm; Wed:  10am -9pm; Thu:  10am -9pm; Fri:  10am -9pm; Sat:  10am -9pm; Sun:  12:30pm -6pm,,0
Samuels Jewelers - Towne West Square,403,4600 W Kellogg Dr,,Wichita,KS,67209,United States,(316) 941-9762,37.6778143000,-97.3986230000,Mon:  10am -8pm; Tue:  10am -8pm; Wed:  10am -8pm; Thu:  10am -8pm; Fri:  10am -8pm; Sat:  10am -8pm; Sun:  12pm -6pm,,0
Samuels Jewelers - Towne Center East,404,7700 E Kellogg Dr,,Wichita,KS,67207,United States,(316) 686-1724,37.6834039000,-97.2470995000,,,0
Samuels Jewelers - Oak Park Mall,405,11711 W 95th St Ste 133,,Overland Park,KS,66214,United States,(913) 888-7090,38.9564510000,-94.7215335000,Tue:  10am -9pm; Wed:  10am -9pm; Thu:  10am -9pm; Fri:  10am -9pm; Sat:  10am -9pm; Sun:  11am -6pm,,0
Rogers Jewelers - West Park Mall,612,3049 William St Ste 247,,Cape Girardeau,MO,63703,United States,(573) 339-0011,37.2984548000,-89.5710318000,Tue:  10am -9pm; Wed:  10am -9pm; Thu:  10am -9pm; Fri:  10am -9pm; Sat:  10am -9pm; Sun:  12pm -6pm,,0
Samuels Jewelers - Montclair Plaza,124,5132 N Montclair Plaza Ln,,Montclair,CA,91763,United States,(909) 621-2903,34.0869616000,-117.6931434000,Tue:  10am -8:30pm; Wed:  10am -8:30pm; Thu:  10am -8:30pm; Fri:  10am -9pm; Sat:  10am -9pm; Sun:  11am -7pm,,0
Samuels Jewelers - The Mall Of Victor Valley,167,14400 Bear Valley Road Ste 257,,Victorville,CA,92392,United States,(760) 241-3161,34.4733829000,-117.3474669000,Tue:  10am -9pm; Wed:  10am -9pm; Thu:  10am -9pm; Fri:  10am -9pm; Sat:  10am -8pm; Sun:  11am -7pm,,0
Rogers Jewelers - Westfield Gateway Mall,636,5 Gateway Mall Ste 274,,Lincoln,NE,68505,United States,(402) 467-3600,40.8152549000,-96.6362521000,Tue:  10am -9pm; Wed:  10am -9pm; Thu:  10am -9pm; Fri:  10am -9pm; Sat:  10am -9pm; Sun:  12pm -6pm,,0
Samuels Jewelers - South County Mall,63404,75 S County Center Way,,Saint Louis,MO,63129,United States,(314) 894-2503,38.5042025000,-90.3283711000,Tue:  10am -9pm; Wed:  10am -9pm; Thu:  10am -9pm; Fri:  10am -9pm; Sat:  10am -9pm; Sun:  11am -6pm,,0
Andrews Jewelers - Greenwood Park,643,1251 US 31N Ste 66,,Greenwood,IN,46142,United States,(317)-889-4200,39.6326233000,-86.1205805000,Tue:  10am -9pm; Wed:  10am -9pm; Thu:  10am -9pm; Fri:  10am -9pm; Sat:  10am -9pm; Sun:  12pm -6pm,,0
Andrews Jewelers - Circle Centre,640,49 W Maryland St Ste. 105,,Indianapolis,IN,46204,United States,(317) 634-4602,39.7663040000,-86.1593220000,Tue:  10am -9pm; Wed:  10am -9pm; Thu:  10am -9pm; Fri:  10am -9pm; Sat:  10am -9pm; Sun:  12pm -6pm,,0
Andrews Jewelers - Muncie Mall,634,3501 N Granville Ave Ste 5,,Muncie,IN,47303,United States,(765) 288-3400,40.2219157000,-85.3752020000,Tue:  10am -9pm; Wed:  10am -9pm; Thu:  10am -9pm; Fri:  10am -9pm; Sat:  10am -9pm; Sun:  12pm -5:30pm,,0
Andrews Jewelers - Markland Mall,608,1205 S Reed Rd.,,Kokomo,IN,46902,United States,(765) 457-6688,40.4722661000,-86.1079617000,Tue:  10am -9pm; Wed:  10am -9pm; Thu:  10am -9pm; Fri:  10am -9pm; Sat:  10am -9pm; Sun:  12pm -4pm,,0
Andrews Jewelers - Tippecanoe Mall,642,2415 Sagamore Pkwy S Ste A14,,Lafayette,IN,47905,United States,(765) 449-0112,40.3916997000,-86.8499758000,Tue:  10am -9pm; Wed:  10am -9pm; Thu:  10am -9pm; Fri:  10am -9pm; Sat:  10am -9pm; Sun:  12pm -6pm,,0
Rogers Jewelers - Jordan Creek Town Center,663,101 Jordan Creek Pkwy Ste 12180,,West Des Moines,IA,50266,United States,(515) 224-2093,41.5702624000,-93.8070392000,Tue:  10am -9pm; Wed:  10am -9pm; Thu:  10am -9pm; Fri:  10am -9pm; Sat:  10am -9pm; Sun:  11am -6pm,,0
Andrews Jewelers - University Town Center,644,6501 North Grape Rd,,Mishawaka,IN,46545,United States,(574) 271-1910,41.7194900000,-86.1910125000,"Mon:  10am -9pm; Tue:  10am -9pm; Wed:  10am -9pm; Thu:  10am -9pm; Fri:  10am -9pm; Sat:  

10am -9pm; Sun:  11am -6pm",,0
Rogers Jewelers - Lindale Mall,615,4444 First Ave NE Ste 121,,Cedar Rapids,IA,52402,United States,(319) 378-1100,42.0255179000,-91.6272126000,Tue:  10am -9pm; Wed:  10am -9pm; Thu:  10am -9pm; Fri:  10am -9pm; Sat:  10am -9pm; Sun:  12pm -6pm,,0
Rogers Jewelers - Mall at Fairfield Commons,651,2727 N Fairfield Commons Ste B42,,Beavercreek,OH,45431,United States,(937) 320-1151,39.7673000000,-84.0559100000,Tue:  9am -9pm; Wed:  9am -9pm; Thu:  9am -9pm; Fri:  9am -9pm; Sat:  10am -9pm; Sun:  12pm -6pm,,0
Samuels Jewelers - Upper Valley Mall,45460,1475 Upper Valley Pike Ste 202,,Springfield,OH,45504,United States,(937) 325-7646,39.9489206000,-83.8539838000,Tue:  10am -8pm; Wed:  10am -8pm; Thu:  10am -8pm; Fri:  10am -8pm; Sat:  10am -8pm; Sun:  12pm -6pm,,0
Andrews Jewelers - Sandusky Mall,649,4314 Milan Road Suite 540,,Sandusky ,OH,44870,United States,(419) 6276249,41.4189016000,-82.6698386000,Tue:  10am -9pm; Wed:  10am -9pm; Thu:  10am -9pm; Fri:  10am -9pm; Sat:  10am -9pm; Sun:  11am -6pm,,0
Rogers Jewelers - Liberty Center,669,7139 Foundry Row,,Liberty Township,OH,45069,United States,(513-755-2942,39.3721633000,-84.3715002000,Fri:  10am -9pm; Sat:  10am -9pm; Sun:  11am -6pm,,0
Rogers Jewelers - Tri-County Mall,605,11700 Princeton Pike Ste B8,,Cincinnati,OH,45246,United States,(513) 671-5000,39.2889965000,-84.4634811000,Tue:  10am -9pm; Wed:  10am -9pm; Thu:  10am -9pm; Fri:  10am -9pm; Sat:  10am -9pm; Sun:  12pm -6pm,,0
Andrews Jewelers - The Mall at Tuttle Crossing,554,5043 Tuttle Crossing Blvd Suite 217,,Dublin,OH,43016,United States,(614) 760-8390,40.0732776000,-83.1323201000,Tue:  10am -9pm; Wed:  10am -9pm; Thu:  10am -9pm; Fri:  10am -9pm; Sat:  10am -9pm; Sun:  11am -6pm,,0
Andrews Jewelers - Polaris Fashion Place,355,1500 Polaris Pkwy Ste 2196,,Columbus,OH,43240,United States,(614) 786-1630,40.1456984000,-82.9812948000,Mon:  10am -9pm; Tue:  10am -9pm; Wed:  10am -9pm; Thu:  10am -9pm; Fri:  10am -9:30pm; Sat:  10am -9:30pm; Sun:  12pm -6pm,,0
Rogers Jewelers - Kenwood Towne Centre,630,7875 Montgomery Rd Ste 2417,,Cincinnati,OH,45236,United States,(513) 745-9966,39.2027663000,-84.3774247000,Tue:  10am -9pm; Wed:  10am -9pm; Thu:  10am -9pm; Fri:  10am -9pm; Sat:  10am -9pm; Sun:  12pm -6pm,,0
Rogers Jewelers - Florence Mall,606,2020 Florence Mall,,Florence,KY,41042,United States,(859) 525-0200,38.9959099000,-84.6499825000,Tue:  10am -9pm; Wed:  10am -9pm; Thu:  10am -9pm; Fri:  10am -9pm; Sat:  10am -9pm; Sun:  12pm -6pm,,0
Rogers Jewelers - Eastwood Mall,619,5555 Youngtown Warren Rd Ste 914,,Niles,OH,44446,United States,(330) 505-0450,41.2130978000,-80.7463689000,"Mon:  10am -9pm; Tue:  10am -9pm; Wed:  10am -9pm; Thu:  10am -9pm; Fri:  10am -9pm; Sat:  10am -9pm; Sun:  

11am -6pm",,0
Andrews Jewelers - Easton Town Center,657,4049 The Strand E,,Columbus,OH,43219,United States,(614) 472-0057,40.0523846000,-82.9151075000,Tue:  10am -9pm; Wed:  10am -9pm; Thu:  10am -9pm; Fri:  10am -10pm; Sat:  10am -10pm; Sun:  12pm -6pm,,0
Rogers Jewelers - Eastgate Mall,633,4601 Eastgate Blvd Ste 414,,Cincinnati,OH,45245,United States,(513) 753-8800,39.1026323000,-84.2775330000,Tue:  10am -9pm; Wed:  10am -9pm; Thu:  10am -9pm; Fri:  10am -9pm; Sat:  10am -9pm; Sun:  12pm -6pm,,0
Andrews Jewelers - Eastland Mall,650,2725 Eastland Mall,,Columbus,OH,43232,United States,(614) 861-5115,39.9181007000,-82.8869627000,Tue:  10am -9pm; Wed:  10am -9pm; Thu:  10am -9pm; Fri:  10am -9pm; Sat:  10am -9pm; Sun:  12pm -6pm,,0
Andrews Jewelers - River Valley Mall,659,1635 River Valley Cir S Ste 233,,Lancaster,OH,43130,United States,(740) 653-0059,39.7321300000,-82.6282020000,Tue:  10am -9pm; Wed:  10am -9pm; Thu:  10am -9pm; Fri:  10am -9pm; Sat:  10am -9pm; Sun:  12pm -6pm,,0
Samuels Jewelers - Richmond Mall,40683,830 Eastern Byp Ste B9,,Richmond,KY,40475,United States,(859) 624-2150,37.7297614000,-84.2789875000,Tue:  10am -8pm; Wed:  10am -8pm; Thu:  10am -8pm; Fri:  10am -8pm; Sat:  10am -8pm; Sun:  11am -6pm,,0
Andrews Jewelers - Ohio Valley Mall,647,Unit 640 Mall Road ,,St. Clairsville,OH,43950,United States,(740) 695-5394,40.0715505000,-80.8659048000,Tue:  10am -9pm; Wed:  10am -9pm; Thu:  10am -9pm; Fri:  10am -9pm; Sat:  10am -9pm; Sun:  11am -6pm,,0
Rogers Jewelers - Grand Central Mall,660,100 Grand Central Mall Ste 220,,Parkersburg,WV,26101,United States,(304) 485-9360,39.3017041000,-81.5527762000,Tue:  10am -9pm; Wed:  10am -9pm; Thu:  10am -9pm; Fri:  10am -9pm; Sat:  10am -9pm; Sun:  12pm -6pm,,0
Samuels Jewelers - Somerset,42685,4150 S Highway 27 Ste 8A,,Somerset,KY,42501,United States,(606) 678-4111,37.0717587000,-84.6170441000,Tue:  10am -9pm; Wed:  10am -9pm; Thu:  10am -9pm; Fri:  10am -9pm; Sat:  10am -9pm; Sun:  12pm -6pm,,0
Rogers Jewelers - Huntington Mall,661,1 Mall Rd Ste 625 (Rt 60 & Mall Road),,Barboursville,WV,25504,United States,(304) 736-0061,38.4211923000,-82.2636112000,,,0
Samuels Jewelers - Claypool Hill Mall,24801,1051 Claypool Hill Mall Rd Ste 21,,Cedar Bluff ,VA,24609,United States,(276) 964-6890,37.0670517000,-81.7592412000,Tue:  10am -7pm; Wed:  10am -7pm; Thu:  10am -7pm; Fri:  10am -7pm; Sat:  10am -7pm; Sun:  Close,,0
Rogers Jewelers - Charleston Town Center,658,3000 Charleston Town Ctr Ste 2076,,Charleston,WV,25389,United States,(304) 345-0058,38.3537620000,-81.6378934000,Tue:  10am -9pm; Wed:  10am -9pm; Thu:  10am -9pm; Fri:  10am -9pm; Sat:  10am -9pm; Sun:  12:30pm -6pm,,0
Samuels Jewelers - The Avenues,871,10300 Southside Blvd,,Jacksonville,FL,32256,United States,(904) 538-9375/6,30.1844439000,-81.5563607000,,,0
Samuels Jewelers - Sierra Vista Mall,147,1050 Shaw Ave Ste A25,,Clovis,CA,93612,United States,(559) 324-9727,36.8061910000,-119.6953947000,Tue:  10am -9pm; Wed:  10am -9pm; Thu:  10am -9pm; Fri:  10am -9pm; Sat:  10am -8pm; Sun:  11am -6pm,,0
Samuels Jewelers - Altamonte Mall,872,451 E Altamonte Dr,,Altamonte Springs,FL,32701,United States,(407) 262-8135/6,28.6665790000,-81.3795681000,,,0
Schubach Jewelers - Valley Fair Mall,714,3601 Constitution Blvd Ste C110,,West Valley,UT,84119,United States,(801) 968-9035,40.6954023000,-111.9550287000,Tue:  10am -9pm; Wed:  10am -9pm; Thu:  10am -9pm; Fri:  10am -9pm; Sat:  10am -9pm; Sun:  12pm -6pm,,0
Samuels Jewelers - Gallatin Valley Mall,735,2825 W Main St Ste 7J,,Bozeman,MT,59715,United States,(406) 587-2350,45.6765002000,-111.0145222000,Tue:  10am -9pm; Wed:  10am -9pm; Thu:  10am -9pm; Fri:  10am -9pm; Sat:  10am -9pm; Sun:  11am -5pm,,0
Schubach Jewelers - Layton Hills Mall,720,1028 Layton Hills Mall,,Layton,UT,84041,United States,(801) 546-3469,41.0782627000,-111.9766645000,Tue:  10am -9pm; Wed:  10am -9pm; Thu:  10am -9pm; Fri:  10am -9pm; Sat:  10am -9pm; Sun:  12pm -6pm,,0
Schubach Jewelers - Cache Valley Mall,718,1300 N Main St Ste 1171,,Logan,UT,84341,United States,(435) 753-2990,41.7558821000,-111.8311288000,Tue:  10am -9pm; Wed:  10am -9pm; Thu:  10am -9pm; Fri:  10am -9pm; Sat:  10am -9pm; Sun:  12pm -5pm,,0
Samuels Diamonds - Westfield Shoppingtown Valley Fair,266,2855 Stevens Creek Blvd Ste 1163,,Santa Clara,CA,95050,United States,(408) 244-4333,37.3253266000,-121.9453801000,Tue:  10am -9pm; Wed:  10am -9pm; Thu:  10am -9pm; Fri:  10am -9pm; Sat:  10am -9pm; Sun:  10am -7pm,,0
Samuels Jewelers - Oakridge Mall,245,925 Blossom Hill Rd Ste 1253,,San Jose,CA,95123,United States,(408) 578-5555,37.2525161000,-121.8630003000,Tue:  10:30am -9pm; Wed:  10:30am -9pm; Thu:  10:30am -9pm; Fri:  10am -10pm; Sat:  10am -10pm; Sun:  11am -7:30pm,,0
Samuels Jewelers - Stoneridge Shopping Center,222,2105 Stoneridge Mall Rd. Suite B203,,Pleasanton,CA,94588,United States,(925) 201-0014,37.6976381000,-121.9306940000,,,0
Samuels Diamonds - Vintage Faire Mall,253,504 Vintage Faire Mall,,Modesto,CA,95356,United States,(209) 527-8183,37.6878162000,-121.0576196000,Tue:  10am -8pm; Wed:  10am -8pm; Thu:  10am -8pm; Fri:  10am -8pm; Sat:  10am -8pm; Sun:  12pm -5pm,,0
Samuels Jewelers - West Valley Mall,95254,3200 N Naglee R Ste 230,,Tracy,CA,95304,United States,(209) 830-6680,37.7605343000,-121.4589253000,Tue:  10am -9pm; Wed:  10am -9pm; Thu:  10am -9pm; Fri:  10am -9pm; Sat:  10am -9pm; Sun:  12pm -7pm,,0
Samuels Jewelers - Pine Ridge Mall,706,4155 Yellowstone Ave Ste 1255,,Chubbuck,ID,83202,United States,(208) 237-3441,42.9091292000,-112.4701318000,Tue:  10am -9pm; Wed:  10am -9pm; Thu:  10am -9pm; Fri:  10am -9pm; Sat:  10am -9pm; Sun:  12pm -5pm,,0
Samuels Jewelers - Sherwood Mall,256,5308 Pacific Ave Ste13,,Stockton,CA,95207,United States,(209) 957-5914,37.9989377000,-121.3137241000,Tue:  10am -9pm; Wed:  10am -9pm; Thu:  10am -9pm; Fri:  10am -9pm; Sat:  10am -9pm; Sun:  11am -6pm,,0
Samuels Jewelers - Southgate Mall,734,2901 Brooks St,,Missoula,MT,59801,United States,(406) 721-1952,46.8450725000,-114.0285821000,Tue:  10am -9pm; Wed:  10am -9pm; Thu:  10am -9pm; Fri:  10am -9pm; Sat:  10am -9pm; Sun:  11am -6pm,,0
Samuels Jewelers - Arden Fair Mall,252,1689 Arden Way Ste 2149,,Sacramento,CA,95815,United States,(916) 925-0867,38.6015798000,-121.4273691000,Tue:  10am -9pm; Wed:  10am -9pm; Thu:  10am -9pm; Fri:  10am -9pm; Sat:  10am -9pm; Sun:  11am -7pm,,0
Samuels Jewelers - Sunrise Mall Shopping Ctr,231,5965 Sunrise Mall,,Citrus Heights,CA,95610,United States,(916) 961-3444,38.6741892000,-121.2693601000,Tue:  10am -9:30pm; Wed:  10am -9:30pm; Thu:  10am -9:30pm; Fri:  10am -9:30pm; Sat:  10am -9:30pm; Sun:  11am -6pm,,0
Samuels Diamonds - Galleria at Roseville,208,1151 Galleria Blv.,,Roseville,CA,95678,United States,(916) 742-6477,38.7734416000,-121.2692829000,Tue:  10am -8pm; Wed:  10am -8pm; Thu:  10am -8pm; Fri:  10am -8pm; Sat:  10am -8pm; Sun:  12pm -5pm,,0
Samuels Jewelers - Silver Lake Mall,705,200 W. Hanley Ave Ste C301,,Coeur D Alene,ID,83814,United States,(208) 762-2323,47.7317686000,-116.7896362000,Tue:  10am -9pm; Wed:  10am -9pm; Thu:  10am -9pm; Fri:  10am -9pm; Sat:  10am -9pm; Sun:  11am -6pm,,0
Samuels Jewelers - Rogue Valley Mall,311,1600 N. Riverside Unit 2047,,Medford,OR,97501,United States,(541) 772-4766,42.3433769000,-122.8767950000,Tue:  10am -9pm; Wed:  10am -9pm; Thu:  10am -9pm; Fri:  10am -9pm; Sat:  10am -9pm; Sun:  11am -7pm,,0
Samuels Jewelers - Salem Center,310,480 Center St NE Ste 210,,Salem,OR,97301,United States,(503) 371-6003,44.9431631000,-123.0363398000,Tue: 10:00 AM - 8:00 PM; Wed: 10:00 AM - 8:00 PM; Thu: 10:00 AM - 8:00 PM; Fri: 10:00 AM - 8:00 PM; Sat: 10:00 AM - 8:00 PM; Sun: 11:00 AM - 6:00 PM,,0
Schubach Jewelers - Fashion Place Mall,713,6191 S State,,Murray,UT,84107,United States,(801) 262-9471,40.6381663000,-111.8888050000,Tue:  10am -9pm; Wed:  10am -9pm; Thu:  10am -9pm; Fri:  10am -9pm; Sat:  10am -9pm; Sun:  12pm -6pm,,0
Schubach Jewelers - South Towne Center,719,10450 S State St Ste2112,,Sandy,UT,84070,United States,(801) 572-0410,40.5620565000,-111.8950438000,Tue:  10am -9pm; Wed:  10am -9pm; Thu:  10am -9pm; Fri:  10am -9pm; Sat:  10am -9pm; Sun:  12pm -6pm,,0
Samuels Diamonds - White Mountain Mall,770,2441 Foothill Blvd Ste 1120,,Rock Springs,WY,82901,United States,(307) 382-5373,41.5810954000,-109.2643779000,Tue:  10am -9pm; Wed:  10am -9pm; Thu:  10am -9pm; Fri:  10am -9pm; Sat:  10am -9pm; Sun:  12pm -6pm,,0
Schubach Jewelers - Provo Towne Centre,721,1200 Towne Centre Blvd Spc 1084,,Provo,UT,84601,United States,(801) 852-5025,40.2168622000,-111.6628419000,Tue:  10am -9pm; Wed:  10am -9pm; Thu:  10am -9pm; Fri:  10am -9pm; Sat:  10am -9pm; Sun:  12pm -6pm,,0
Samuels Jewelers - Sikes Center,548,3111 Midwestern Pkwy Ste 342,,Wichita Falls,TX,76308,United States,(940) 692-8481,33.8685885000,-98.5328086000,Tue:  10am -9pm; Wed:  10am -9pm; Thu:  10am -9pm; Fri:  10am -9pm; Sat:  10am -9pm; Sun:  12pm -6pm,,0
Schubach Jewelers - University Mall,716,575 East University Pkwy Ste D57 ,,Orem,UT,84097,United States,(801) 225-9160,40.2758748000,-111.6810952000,Tue:  10am -9pm; Wed:  10am -9pm; Thu:  10am -9pm; Fri:  10am -9pm; Sat:  10am -9pm; Sun:  Closed,,0
Samuels Jewelers - Frontier Mall,771,1400 Dell Range Blvd Spc 48,,Cheyenne,WY,82009,United States,(307) 778-3030,41.1619940000,-104.8073520000,Tue:  10am -9pm; Wed:  10am -9pm; Thu:  10am -9pm; Fri:  10am -9pm; Sat:  10am -9pm; Sun:  11am -6pm,,0
Samuels Diamonds - Village at The Peaks,785,1248 South Hover Rd. Ste-K100,,Longmont,CO,80501,United States,(303) 651-2187,40.1471799000,-105.1282524000,"Mon:  10am -8pm; Tue:  10am -8pm; Wed:  10am -8pm; Thu:  10am -8pm; Fri:  10am -8pm; Sat:  

10am -8pm; Sun:  10am -8pm",,0
Samuels Jewelers - Mall Of Abilene,532,4310 Buffalo Gap Rd Ste1290,,Abilene,TX,79606,United States,(325) 695-2080,32.4008496000,-99.7619004000,Tue:  10am -9pm; Wed:  10am -9pm; Thu:  10am -9pm; Fri:  10am -9pm; Sat:  10am -9pm; Sun:  12pm -6pm,,0
Samuels Jewelers - Arrowhead Towne Center,369,7700 W Arrowhead Towne Ctr Ste 2250,,Glendale,AZ,85308,United States,(623) 979-4735,33.6421362000,-112.2252174000,Tue:  10am -9pm; Wed:  10am -9pm; Thu:  10am -9pm; Fri:  10am -9pm; Sat:  10am -9pm; Sun:  11am -6pm,,0
Samuels Jewelers - Mesa Mall,796,2424 Highway 6 and 50 Ste 74,,Grand Junction,CO,81505,United States,(970) 241-0345,39.0951733000,-108.6034802000,Tue:  10am -9pm; Wed:  10am -9pm; Thu:  10am -9pm; Fri:  10am -9pm; Sat:  10am -9pm; Sun:  11am -6pm,,0
Samuels Jewelers - Superstition Springs,85368,6555 E Southern Ave Ste 2304,,Mesa,AZ,85206,United States,(480) 654-5985,33.3905976000,-111.6896749000,Tue:  10am -9pm; Wed:  10am -9pm; Thu:  10am -9pm; Fri:  10am -9pm; Sat:  10am -9pm; Sun:  11am -6pm,,0
Samuels Jewelers - Chapel Hills Mall,793,1710 Briargate Blvd  Ste 471,,Colorado Springs,CO,80920,United States,(719) 598-3900,38.9492986000,-104.7931018000,Tue:  10am -9pm; Wed:  10am -9pm; Thu:  10am -9pm; Fri:  10am -9pm; Sat:  10am -9pm; Sun:  11am -6pm,,0
Samuels Jewelers - Music City Mall,545,4101 E. 42nd St Ste C24,,Odessa,TX,79762,United States,(432) 366-1769,31.8924701000,-102.3412492000,Tue:  10am -9pm; Wed:  10am -9pm; Thu:  10am -9pm; Fri:  10am -9pm; Sat:  10am -9pm; Sun:  12pm -6pm,,0
Samuels Jewelers - Mall At Sierra Vista,356,2200 El Mercado Loop Ste 1134,,Sierra Vista,AZ,85635,United States,(520) 452-1788,31.5291849000,-110.2598487000,Tue:  10am -9pm; Wed:  10am -9pm; Thu:  10am -9pm; Fri:  10am -9pm; Sat:  10am -9pm; Sun:  12pm -6pm,,0
Samuels Jewelers - Pueblo Mall,789,3429 Dillon Drive Space H2B,,Pueblo,CO,81008,United States,(719) 543-7041,38.3031326000,-104.6087924000,"Mon:  10am -9pm; Tue:  10am -9pm; Wed:  10am -9pm; Thu:  10am -9pm; Fri:  10am -9pm; Sat:  10am -

7pm; Sun:  11am -6pm",,0
Samuels Diamonds - Lubbock Location,79903,7310 Quaker Ave,,Lubbock,TX,79424,United States,(806) 791-5515,33.5272767000,-101.9061523000,Tue:  10am -8pm; Wed:  10am -8pm; Thu:  10am -8pm; Fri:  10am -8pm; Sat:  10am -8pm; Sun:  12pm -5pm,,0
Samuels Diamonds - Amarillo,524,7200 SW 45th Ave Unit 14,,Amarillo,TX,79109,United States,(806) 358-7211,35.1616630000,-101.9172126000,Tue:  10am -8pm; Wed:  10am -8pm; Thu:  10am -8pm; Fri:  10am -8pm; Sat:  10am -8pm; Sun:  10am -7pm,,0
Samuels Diamonds - El Paso East Location,79909,11325 Pellicano Dr,,El Paso,TX,79936,United States,(915) 590-9296,31.7477012000,-106.3162728000,,,0
Samuels Jewelers - Cielo Vista Mall,547,8401 Gateway Blvd W Q07A,,El Paso,TX,79925,United States,915-881-8387 ,31.7950511000,-106.3581527000,,,0
Samuels Jewelers - Hemet Valley Mall,109,2200 W. Florida Ave,,Hemet,CA,92545,United States,(951) 652-7891,33.7492026000,-116.9956375000,Tue:  10am -9pm; Wed:  10am -9pm; Thu:  10am -9pm; Fri:  10am -9pm; Sat:  10am -8pm; Sun:  11am -7pm,,0
Samuels Jewelers - Del Amo,129,3525 W Carson St,,Torrance,CA,90503,United States,(310) 214-1851/2,33.8324182000,-118.3497799000,,,0
Samuels Jewelers - The Oaks,163,350 W Hillcrest Dr,,Thousand Oaks,CA,91360,United States,(805) 230-1076/1977,34.1818450000,-118.8878818000,,,0
Samuels Jewelers - Brazos Mall,538,100 Highway 332 W Ste 1436,,Lake Jackson,TX,77566,United States,(979) 297-6299,29.0500407000,-95.4592852000,Tue:  10am -9pm; Wed:  10am -9pm; Thu:  10am -9pm; Fri:  10am -9pm; Sat:  10am -9pm; Sun:  12pm -6pm,,0
Samuels Diamonds - Round Rock  ,567,104 Sundance Parkway,,Round Rock,TX,78681,United States,(512) 600-0140,30.4836372000,-97.6763146000,Tue:  10am -8pm; Wed:  10am -8pm; Thu:  10am -8pm; Fri:  10am -8pm; Sat:  10am -8pm; Sun:  12pm -5pm,,0
Samuels Diamonds - Sunset Valley Market Fair,78910,5203-B  Brodie Ln ,,Sunset Valley,TX,78745,United States,(512) 892-3973,30.2307895000,-97.8193886000,Tue:  10am -8pm; Wed:  10am -8pm; Thu:  10am -8pm; Fri:  10am -8pm; Sat:  10am -8pm; Sun:  12pm -5pm,,0
Samuels Diamonds - Gateway Mkt Shopping Ctr,78906,9607 Research Blvd Ste 100 Bldg F,,Austin,TX,78759,United States,(512) 343-6363,30.3883992000,-97.7414031000,Tue:  10am -8pm; Wed:  10am -8pm; Thu:  10am -8pm; Fri:  10am -8pm; Sat:  10am -8pm; Sun:  12pm -5pm,,0
Samuels Jewelers - Lakeline Mall,515,11200 Lakeline Mall Dr Ste M1,,Cedar Park,TX,78613,United States,(512) 258-6991,30.4705571000,-97.8065583000,Tue:  10am -9pm; Wed:  10am -9pm; Thu:  10am -9pm; Fri:  10am -9pm; Sat:  10am -9pm; Sun:  12pm -6pm,,0
Samuels Diamonds - San Antonio Location,78907,25 NE Loop 410 Ste 130,,San Antonio,TX,78216,United States,(210) 366-9688,29.5219274000,-98.4936806000,Tue:  10am -8pm; Wed:  10am -8pm; Thu:  10am -8pm; Fri:  10am -8pm; Sat:  10am -8pm; Sun:  12pm -5pm,,0
Samuels Diamonds - Moore Plaza,561,5425 S Padre Island Dr Ste 57,,Corpus Christi,TX,78411,United States,(361) 994-5212,27.7079019000,-97.3746835000,Tue:  10am -8pm; Wed:  10am -8pm; Thu:  10am -8pm; Fri:  10am -8pm; Sat:  10am -8pm; Sun:  12pm -5pm,,0
