store_name,store_number,address,address2,city,state,zip_code,country,phone_number,latitude,longitude,store_hours,other_fields,coming_soon
Shops At Skyview Center,2205503,4024 College Point Blvd ,,Flushing ,NY,11354,United States,(718) 353-2034,40.757115,-73.835576,Mo-Sa 10:00-21:30; Su 10:00-20:00,,0
Jersey Gardens,2204353,651 Kapkowski Rd. ,,Elizabeth ,NJ,07201,United States,(908) 353-8603,40.6600434,-74.171557,Mo-Sa 10:00-21:00; Su 11:00-19:00,,0
Bay Terrace,2205739,212-09 26th Ave. ,,Bayside ,NY,11360,United States,(718) 229-2679,40.7786931,-73.7776147,Mo-Sa 10:00-21:00; Su 11:00-19:00,,0
Hylan,2204827,430 New Dorp Lane ,,Staten Island ,NY,10306,United States,(718) 979-2650,40.5689784,-74.1090882,Mo-Sa 09:00-21:00; Su 10:00-19:00,,0
Staten Island,2205065,2655 Richmond Ave ,,Staten Island ,NY,10314,United States,(718) 698-6207,40.5818776,-74.1652624,Mo-Sa 10:00-21:00; Su 11:00-18:00,,0
Green Acres,2205493,2034 Green Acres Mall Valley Stream ,,,NY,11581,United States,(516) 825-0670,40.661142,-73.720494,Mo-Sa 10:00-21:30; Su 11:00-19:00,,0
Lake Success,2205763,1480 Union Turnpike ,,New Hyde Park ,NY,11040,United States,(516) 328-0851,40.753384,-73.693057,Mo-Sa 10:00-21:00; Su 11:00-18:00,,0
Cross County,2204675,7040 Xavier Dr. ,,Yonkers ,NY,10704,United States,(914) 378-0978,40.927133,-73.852635,Mo-Sa 10:00-21:30; Su 11:00-19:00,,0
Garden State,2204385,1 Garden State Plaza ,,Paramus ,NJ,07652,United States,(201) 226-9856,40.918562,-74.12786,Mo-Sa 10:00-21:30,,0
Paramus Park,2204419,700 Paramus Park ,,Paramus ,NJ,07652,United States,(201) 576-0894,40.9568947,-74.0693002,Mo-Sa 10:00-21:30,,0
South Shore Plaza,2205327,2955 Veterans Road ,,West Staten Island ,NY,10309,United States,(718) 984-3913,40.5273286,-74.2326243,Mo-Sa 10:00-21:00; Su 11:00-18:00,,0
Woodbridge,2204477,355 Woodbridge Center ,,Woodbridge ,NJ,07095,United States,(732) 634-5322,40.576661,-74.281285,Mo-Sa 10:00-21:30; Su 11:00-19:00,,0
Roosevelt Field,2204407,630 Old Country Rd ,,Garden City ,NY,11530,United States,(516) 248-2450,40.7380572,-73.6128962,Mo-Sa 10:00-21:30; Su 11:00-19:00,,0
Willowbrook,2204417,1400 Willowbrook Mall ,,Wayne ,NJ,07470,United States,(973) 237-0406,40.8888568,-74.2593177,Mo-Sa 10:00-21:00; Su 11:00-19:00,,0
Livingston,2205257,112 Eisenhower Parkway ,,Livingston ,NJ,07039,United States,(973) 992-7281,40.7769144,-74.3538538,Mo-Fr 10:00-21:00; Sa 10:00-21:30; Su 11:00-19:00,,0
Short Hills,2190307,1200 Morris Turnpike ,,Short Hills ,NJ,07078,United States,(973) 921-9116,40.7399621,-74.3634129,Mo-Fr 10:00-21:00; Sa 10:00-20:00; Su 11:00-18:00,,0
Menlo Park,2205115,55 Parsonage Road ,,Edison ,NJ,08837,United States,(732) 549-0206,40.5480869,-74.3343192,Mo-Sa 10:00-21:30; Su 11:00-19:00,,0
Holmdel Commons,2204837,2130 State Route 35 ,,Holmdel ,NJ,07733,United States,(732) 796-0128,40.4105678,-74.1453433,Mo-Sa 09:30-21:00; Su 10:00-18:00,,0
Broadway,2204925,880 Broadway Mall ,,Hicksville ,NY,11801,United States,(516) 937-6005,40.7723217,-73.5330369,Mo-Sa 10:00-21:30; Su 11:00-19:00,,0
Westchester,2205773,125 Westchester Ave ,,White Plains ,NY,10601,United States,(914) 644-8762,41.0311023,-73.7599515,Mo-Sa 10:00-21:00; Su 11:00-18:30,,0
Hadley,2204351,5010 Hadley Center Dr. South ,,Plainfield ,NJ,07080,United States,(908) 754-2869,40.5487658,-74.4259098,Mo-Sa 10:00-21:00; Su 10:00-19:00,,0
Palisades,2204421,3720 Palisades Center Dr. ,,West Nyack ,NY,10994,United States,(845) 353-4628,41.0981382,-73.952817,Mo-Sa 10:00-21:30; Su 11:00-19:00,,0
Spring Valley Market,2204991,37 Spring Valley ,,Market Place Spring Valley ,NY,10977,United States,(845) 352-2086,41.1054186,-74.0256509,Mo-Sa 10:00-20:00; Su 10:00-18:30,,0
Sunrise,2205625,907 Sunrise Hwy. ,,Massapequa ,NY,11758,United States,(516) 541-1908,40.685025,-73.434399,Mo-Sa 10:00-21:30; Su 11:00-18:00,,0
Shoppes @ Old Bridge,2205017,3853 Us Highway 9 Old Bridge ,,,NJ,08857,United States,(732) 591-0241,40.3659844,-74.3024166,Mo-Sa 10:00-21:00; Su 11:00-18:00,,0
Monmouth,2205807,180 Route 35 South ,,Eatontown ,NJ,07724,United States,(732) 935-1170,40.2872747,-74.0551273,Mo-Sa 10:00-21:30; Su 11:00-19:00,,0
Shoppes At North Brunswick,2204395,771 Shoppes Boulevard ,,North Brunswick ,NJ,08902,United States,(732) 246-0073,40.459915,-74.4570736,Mo-Sa 10:00-21:00; Su 11:00-18:00,,0
Rockaway,2205259,301 Mt Hope Ave ,,Rockaway ,NJ,07866,United States,(973) 361-3604,40.9006377,-74.5461647,Mo-Sa 10:00-21:30; Su 11:00-18:00,,0
Great South Bay,2205589,1029 West Montauk Highway ,,West Babylon ,NY,11704,United States,(631) 893-3494,40.684675,-73.350411,Mo-Sa 10:00-21:00; Su 11:00-18:00,,0
Stamford,2205805,100 Greyrock Place ,,Stamford ,CT,06901,United States,(203) 323-9652,41.0530774,-73.5371438,Mo-Sa 10:00-21:00; Su 11:00-18:00,,0
Bridgewater Commons,2205067,400 Commons Way ,,Bridgewater ,NJ,08807,United States,(908) 253-8488,40.5858409,-74.6194921,Mo-Sa 10:00-21:00; Su 11:00-18:00,,0
Tanger Outlet Center At The Ar,2190305,1694 The Arches Circle ,,Deer Park ,NY,11729,United States,(631) 586-2032,40.7624237,-73.3034121,Mo-Sa 09:00-21:00; Su 10:00-20:00,,0
Freehold Raceway,2204301,3710 Route 9 ,,Freehold ,NJ,07728,United States,(732) 294-7766,40.2532995,-74.3002341,Mo-Sa 10:00-21:30; Su 11:00-19:00,,0
Mayfair Shopping Center,2205221,140 E. Jericho Turnpike ,,Commack ,NY,11725,United States,(631) 543-1075,40.83574,-73.282508,Mo-Sa 10:00-21:00; Su 11:00-18:00,,0
Streets Of Chester Village,2205093,290 Us Highway 206 S ,,Chester ,NJ,07930,United States,(908) 879-1309,40.778718,-74.696638,Mo-Fr 10:00-20:00; Sa 10:00-19:00; Su 11:00-18:00,,0
Roxbury,2205469,275 St. Rt. 10 E ,,Succasunna ,NJ,07876,United States,(973) 252-1101,40.90284,-74.682889,Mo-Sa 10:00-21:00; Su 11:00-18:00,,0
Kohl'S Shopping Center,2204993,2056 Sunrise Highway ,,Bayshore ,NY,11706,United States,(631) 968-1793,40.737921,-73.226379,Mo-Sa 10:00-21:00; Su 11:00-18:00,,0
Howell Commons,2205753,4743 Rt 9 ,,Howell ,NJ,07731,United States,(732) 901-0812,40.1324621,-74.2236865,Mo-Sa 10:00-21:00; Su 11:00-18:00,,0
Jefferson Valley,2204707,650 Lee Blvd ,,Yorktown Heights ,NY,10598,United States,(914) 962-5119,41.3285755,-73.8076819,Mo-Sa 10:00-21:30; Su 11:00-18:00,,0
Quakerbridge,2203977,234 Quaker Bridge Mall ,,Lawrenceville ,NJ,08648,United States,(609) 716-6977,40.328782,-74.679296,Mo-Th 10:00-21:00; Fr-Sa 10:00-21:30; Su 11:00-19:00,,0
Smith Haven Mall,2205157,226 Smith ,,Haven Mall Lake Grove ,NY,11755,United States,(631) 361-2015,40.8629423,-73.1300304,Mo-Sa 10:00-21:30; Su 11:00-19:00,,0
Shoppes At Flemington,2204567,100 Reaville Avenue ,,Flemington ,NJ,08822,United States,(908) 806-6601,40.5001092,-74.8516106,Mo-Sa 10:00-21:00; Su 11:00-18:00,,0
Hamilton Marketplace,2203995,420 Marketplace Blvd. ,,Hamilton ,NJ,08691,United States,(609) 581-4468,40.1937826,-74.6389681,Mo-Sa 10:00-21:00; Su 11:00-18:00,,0
Ocean County,2205009,1201 Hooper Avenue ,,Toms River ,NJ,08753,United States,(732) 914-8001,39.9798505,-74.1817206,Mo-Sa 10:00-21:30; Su 11:00-18:00,,0
Danbury Fair,2204519,7 Backus Ave ,,Danbury ,CT,06810,United States,(203) 730-1732,41.3802275,-73.4809725,Mo-Sa 10:00-21:00; Su 11:00-18:00,,0
Trumbull,2205083,5065 Main Street ,,Trumbull ,CT,06611,United States,(203) 372-2002,41.2293532,-73.226474,Mo-Sa 10:00-21:00; Su 11:00-18:00,,0
Galleria At Crystal Run,2204447,1 N Galleria Dr ,,Middletown ,NY,10941,United States,(845) 692-5947,41.4532801,-74.3692367,Mo-Sa 10:00-21:30; Su 11:00-18:00,,0
Oxford Valley,2205103,2300 E Lincoln Highway ,,Langhorne ,PA,19047,United States,(215) 752-2107,40.1837737,-74.880679,Mo-Sa 10:00-21:00; Su 11:00-18:00,,0
Connecticut Post,2205769,1201 Boston Post Road ,,Milford ,CT,06460,United States,(203) 876-2096,41.236614,-73.0362329,Mo-Sa 10:00-21:00; Su 11:00-18:00,,0
Poughkeepsie Galleria,2204279,2001 South Rd. ,,Poughkeepsie ,NY,12601,United States,(845) 297-6029,41.624351,-73.9204922,Mo-Sa 10:00-21:30; Su 11:00-18:00,,0
Neshaminy,2204905,707 Neshaminy Mall ,,Bensalem ,PA,19020,United States,(215) 354-0047,40.1388513,-74.9546221,Mo-Sa 10:00-21:00; Su 11:00-18:00,,0
Doylestown Shopping Center,2205663,430 N Main Street ,,Doylestown ,PA,18901,United States,(215) 345-1098,40.3202964,-75.1307261,Mo-Sa 10:00-21:00; Su 11:00-18:00,,0
Franklin Mills,2205573,1543 Franklin Mills Circle ,,Philadelphia ,PA,19154,United States,(215) 632-7688,40.0874414,-74.9617295,Mo-Sa 10:00-21:00; Su 11:00-19:00,,0
Riverhead Mall,2204717,604 Tanger Mall Drive ,,Riverhead ,NY,11901,United States,(631) 208-8691,40.9209367,-72.7146622,Mo-Sa 09:00-21:00; Su 10:00-20:00,,0
Riverheadii,2205325,1207 Tanger Mall Drive ,,Riverhead ,NY,11901,United States,(631) 369-2738,40.921227,-72.7147,Mo-Sa 09:00-21:00; Su 10:00-20:00,,0
Stroud,2204025,344 Stroud Mall Rd ,,Stroudsburg ,PA,18360,United States,(570) 420-0106,40.9896533,-75.2237557,Mo-Sa 10:00-21:00; Su 11:00-18:00,,0
Warminster,2204001,966 West Street Road ,,Warminster ,PA,18974,United States,(215) 957-1066,40.2102842,-75.1097174,Mo-Sa 10:00-21:00; Su 11:00-18:00,,0
Centerton Square,2204577,12 Centerton Road ,,Mount Laurel ,NJ,08054,United States,(856) 840-0789,39.9696395,-74.9123371,Mo-Sa 10:00-21:00; Su 11:00-18:00,,0
Willow Grove Park,2205105,2500 Moreland Rd. ,,Willow Grove ,PA,19090,United States,(215) 830-9590,40.140196,-75.123504,Mo-Sa 10:00-21:00; Su 11:00-18:00,,0
Montgomery Mall,2204947,230 Montgomery Mall ,,North Wales ,PA,19454,United States,(215) 362-7763,40.2343968,-75.2443079,Mo-Sa 10:00-21:00; Su 11:00-18:00,,0
Marlton Crossing,2204651,221-223 South Route 73 ,,Marlton ,NJ,08053,United States,(856) 983-3625,39.895745,-74.929361,Mo-Sa 10:00-21:00; Su 11:00-18:00,,0
Promenade Saucon Valley,2205281,2960 Center Valley Parkway ,,Center Valley ,PA,18034,United States,(610) 791-4278,40.5591663,-75.4109456,Mo-Sa 10:00-21:00; Su 11:00-18:00,,0
Cherry Hill,2205329,2000 Route 38 ,,Cherry Hill ,NJ,08002,United States,(856) 661-0644,39.9418533,-75.0261976,Mo-Sa 10:00-21:30; Su 11:00-18:00,,0
Brass Mill,2204291,495 Union St ,,Waterbury ,CT,06706,United States,(203) 573-1577,41.549215,-73.0251061,Mo-Sa 10:00-21:00; Su 12:00-18:00,,0
Macarthur Commons,2204247,2643 Macarthur Road ,,Whitehall ,PA,18052,United States,(610) 264-1917,40.6479589,-75.4921464,Mo-Sa 10:00-21:00; Su 11:00-18:00,,0
Plymouth Meeting,2204105,500 W. Germantown ,,Plymouth Meeting ,PA,19462,United States,(610) 828-7712,40.115407,-75.283556,Mo-Sa 10:00-21:00; Su 11:00-18:00,,0
Meriden Sq,2205101,470 Lewis Avenue ,,Meriden ,CT,06451,United States,(203) 237-7868,41.5508898,-72.8078576,Mo-Sa 10:00-21:00; Su 11:00-18:00,,0
Deptford Mall,2205247,1750 Deptford Center Rd. ,,Deptford ,NJ,08096,United States,(856) 853-5188,39.8314318,-75.0977344,Mo-Sa 10:00-21:30; Su 11:00-18:00,,0
Deptford,2203993,1800 Clements Bridge Road ,,Woodbury ,NJ,08096,United States,(856) 853-4202,39.83013,-75.108445,Mo-Sa 10:00-21:00; Su 11:00-18:00,,0
King Of Prussia,2205643,160 N Gulph Road ,,King Of Prussia ,PA,19406,United States,(610) 992-9391,40.0879189,-75.3897744,Mo-Sa 10:00-21:00; Su 11:00-18:00,,0
Shoppes At Cross Keys,2204549,611 Cross Keys Road ,,Sicklerville ,NJ,08081,United States,(856) 629-7241,39.7368365,-75.0087265,Mo-Sa 10:00-21:00; Su 11:00-18:00,,0
Connecticut Commons,2204835,286 New Britain Avenue ,,Plainville ,CT,06062,United States,(860) 747-5311,41.6731785,-72.8389839,Mo-Sa 10:00-21:00; Su 11:00-18:00,,0
Philadelphia Outlets,2204557,18 Lightcap Road ,,Pottstown ,PA,19464,United States,(610) 323-8380,40.2372296,-75.5703523,Mo-Th 10:00-21:00; Fr-Sa 10:00-22:00; Su 10:00-19:00,,0
Marple Crossroads,2204653,400 South State Road ,,Springfield ,PA,19064,United States,(610) 544-6157,39.9387376,-75.3556038,Mo-Sa 10:00-21:00; Su 11:00-18:00,,0
Westbrook,2205471,314 Flat Rock Place ,,Westbrook ,CT,06498,United States,(860) 399-0032,41.28919,-72.4287219,Mo-Sa 09:00-21:00; Su 10:00-19:00,,0
Springfield,2204501,1250 Baltimore Pike ,,Springfield ,PA,19064,United States,(610) 328-5119,39.9150986,-75.3519958,Mo-Sa 10:00-21:00; Su 11:00-18:00,,0
Hamilton Commons,2203991,210 Hamilton Commons ,,Mays Landing ,NJ,08330,United States,(609) 407-2846,39.44781,-74.630387,Mo-Sa 10:00-21:00; Su 11:00-18:00,,0
Westfarms,2204971,122 Westfarms Mall ,,Farmington ,CT,06032,United States,(860) 521-3114,41.722109,-72.762727,Mo-Sa 10:00-21:00; Su 11:00-18:00,,0
Shoppes At Farmington,2205417,110 Albany Turnpike ,,Canton ,CT,06019,United States,(860) 693-0683,41.8224465,-72.8829132,Mo-Sa 10:00-21:00; Su 12:00-18:00,,0
Exton Sq,2203967,279 Main Street ,,Exton ,PA,19341,United States,(610) 363-5752,40.0243412,-75.6272518,Mo-Sa 10:00-21:00; Su 11:00-18:00,,0
Shoppes At Brinton Lakes,2204561,947 Baltimore Pike ,,Glen Mills ,PA,19342,United States,(610) 558-4129,39.8859678,-75.5336317,Mo-Sa 10:00-21:00; Su 11:00-18:00,,0
Viewmont,2204625,Rt 6 Scranton-Carbondale Hwy ,,Scranton ,PA,18508,United States,(570) 341-7695,41.549798,-75.530931,Mo-Sa 10:00-21:00; Su 11:00-18:00,,0
Concord,2205285,4737 Concord Pike ,,Wilmington ,DE,19803,United States,(302) 477-9775,39.8228645,-75.5439358,Mo-Sa 10:00-21:00; Su 11:00-18:00,,0
Wyoming Valley,2203921,48 Wyoming Valley Mall ,,Wilkes Barre ,PA,18702,United States,(570) 824-7600,41.2499571,-75.8425921,Mo-Sa 10:00-21:00; Su 11:00-18:00,,0
Cumberland - (Nj),2204085,3849 S. Delsea Dr. ,,Vineland ,NJ,08360,United States,(856) 327-1059,39.431594,-75.0363752,Mo-Sa 10:00-21:00; Su 11:00-18:00,,0
Crystal,2204887,850 Hartford Turnpike ,,Waterford ,CT,06385,United States,(860) 439-1244,41.3748225,-72.1449958,Mo-Sa 10:00-21:00; Su 11:00-18:00,,0
Buckland Hills,2204487,194 Buckland Hills Drive ,,Manchester ,CT,06040,United States,(860) 644-6480,41.806952,-72.545398,Mo-Sa 10:00-21:00; Su 11:00-18:00,,0
Shoppes At Wyomissing,2204815,784 Woodland Road ,,Wyomissing ,PA,19610,United States,(610) 373-5825,40.3493964,-75.9641358,Mo-Sa 10:00-21:00; Su 11:00-18:00,,0
Christiana,2205173,736 Christiana ,,Newark ,DE,19702,United States,(302) 369-9460,39.675976,-75.653685,Mo-Sa 10:00-21:00; Su 11:00-18:00,,0
Riverdale Shops,2205619,935 Riverdale Street W ,,Springfield ,MA,01089,United States,(413) 733-0076,42.1288586,-72.6226341,Mo-Sa 10:00-21:00; Su 11:00-18:00,,0
Lancaster,2204795,1110 Stanley K. Tanger Blvd ,,Lancaster ,PA,17602,United States,(717) 207-0360,40.023693,-76.220963,Mo-Sa 09:00-21:00; Su 10:00-19:00,,0
Park City,2204483,436 Park City Center ,,Lancaster ,PA,17601,United States,(717) 399-7916,40.066727,-76.342761,Mo-Sa 10:00-21:00; Su 11:00-18:00,,0
Dover,2204875,1365 N Dupont Hwy ,,Dover ,DE,19901,United States,(302) 678-2632,39.1942288,-75.5398935,Mo-Sa 10:00-21:00; Su 11:00-18:00,,0
Crossgates,2205611,1 Crossgates Mall Road ,,Albany ,NY,12203,United States,(518) 869-3902,42.6896278,-73.8507596,Mo-Sa 10:00-21:30; Su 11:00-18:00,,0
Colonie,2205819,301-A Colonie Center ,,Albany ,NY,12205,United States,(518) 489-2120,42.709971,-73.818405,Mo-Sa 10:00-21:30; Su 11:00-18:00,,0
Oakdale,2205003,601-635 Harry L. Dr. ,,Johnson City ,NY,13790,United States,(607) 797-1384,42.127005,-75.974981,Mo-Sa 10:00-21:00; Su 11:00-19:00,,0
Tanger Outlet Center,2203917,46 Outlet Square ,,Hershey ,PA,17033,United States,(717) 533-1609,40.2947784,-76.6482376,Mo-Sa 09:00-21:00; Su 10:00-19:00,,0
Warwick,2203935,400 Bald Hill Road ,,Warwick ,RI,02886,United States,(401) 736-8835,41.7237662,-71.476944,Mo-Sa 10:00-21:00; Su 11:00-18:00,,0
Clifton Park Center,2203869,22 Clifton Country Road ,,Clifton Park ,NY,12065,United States,(518) 371-1352,42.8584127,-73.7782145,Mo-Sa 10:00-21:00; Su 11:00-17:00,,0
Harford,2204017,644 Baltimore Pike ,,Bel Air ,MD,21014,United States,(410) 420-7531,39.524638,-76.3562131,Mo-Sa 10:00-21:00; Su 11:00-17:00,,0
Rehoboth Beach,2204803,36454 Seaside Outlet Drive ,,Rehoboth Beach ,DE,19971,United States,(302) 226-7580,38.718616,-75.111187,Mo-Sa 09:00-21:00; Su 10:00-19:00,,0
York Town Center,2203953,2819 Concord Road ,,York ,PA,17402,United States,(717) 757-3047,39.9827474,-76.6685394,Mo-Sa 10:00-21:00; Su 11:00-18:00,,0
Crossing At Smithfield,2205523,371 Putnam Pike Suite 440 ,,Smithfield ,RI,02917,United States,(401) 231-2152,41.8711276,-71.5213696,Mo-Sa 10:00-21:00; Su 11:00-18:00,,0
Lycoming,2205049,300 Lycoming Mall Circle ,,Pennsdale ,PA,17756,United States,(570) 546-8955,41.24281,-76.826137,Mo-Sa 10:00-21:00; Su 11:00-17:00,,0
Shoppes @ Blackstone Valley,2204613,70 Worcester-Providence Turnpi ,,Millbury ,MA,01527,United States,(508) 865-3849,42.195447,-71.778282,Mo-Sa 10:00-21:00; Su 11:00-18:00,,0
Colonial Park,2204097,Rt. 22 & Colonial Park Rd ,,Harrisburg ,PA,17109,United States,(717) 526-4230,40.269398,-76.855294,Mo-Sa 10:00-21:00; Su 12:00-18:00,,0
Capital City,2204375,3516 Capital Mall Drive ,,Spac Camp Hill ,PA,17011,United States,(717) 975-8727,40.222272,-76.932415,Mo-Sa 10:00-21:00; Su 11:00-18:00,,0
Avenue At White Marsh,2204091,8153 Honeygo Blvd ,,Nottingham ,MD,21236,United States,(410) 933-5767,39.3712768,-76.4631437,Mo-Sa 10:00-21:00; Su 11:00-18:00,,0
White Marsh,2204913,8200 Perry Hall Blvd. ,,Baltimore ,MD,21236,United States,(410) 933-0637,39.3750347,-76.469089,Mo-Sa 10:00-21:00; Su 11:00-18:00,,0
Emerald Square,2205143,999 South Washington Street N ,,Attleboro ,MA,02760,United States,(508) 643-0329,41.9466139,-71.3502762,Mo-Sa 10:00-21:00; Su 11:00-18:00,,0
Wrentham Premium Outlets,2205069,One Premium Outlets Blvd ,,Wrentham ,MA,02093,United States,(508) 384-5356,42.038414,-71.353392,Mo-Th 10:00-21:00; Fr-Sa 09:00-21:00; Su 10:00-18:00,,0
Towson Town,2204461,825 Dulaney Valley Road ,,Towson ,MD,21204,United States,(410) 825-0300,39.4038996,-76.6006278,Mo-Sa 10:00-21:00; Su 11:00-18:00,,0
Wilton,2204923,3065 Route 50 ,,Saratoga Springs ,NY,12866,United States,(518) 581-2924,43.1015614,-73.7391628,Mo-Sa 10:00-21:30; Su 11:00-18:00,,0
Solomon Pond,2204863,601 Donald Lynch Blvd ,,Marlborough ,MA,01752,United States,(508) 485-4891,42.3561123,-71.6133216,Mo-Sa 10:00-21:00; Su 11:00-18:00,,0
Dartmouth,2204031,136 Dartmouth Mall ,,Dartmouth ,MA,02747,United States,(508) 996-3115,41.643112,-70.993922,Mo-Sa 10:00-21:00; Su 11:00-18:00,,0
Mansfield Crossing,2204339,280 School Street ,,Mansfield ,MA,02048,United States,(508) 339-0599,42.0128724,-71.2263291,Mo-Sa 10:00-21:00; Su 11:00-18:00,,0
Mall At  Whitney Field,2205127,100 Commercial Rd ,,Leominster ,MA,01453,United States,(978) 534-3936,42.5290978,-71.7416014,Mo-Sa 10:00-21:00; Su 11:00-18:00,,0
Silver City,2203875,2 Galleria Mall Drive ,,Taunton ,MA,02780,United States,(508) 824-0965,41.8643543,-71.0519346,Mo-Sa 10:00-21:00; Su 12:00-18:00,,0
Natick,2205073,1245 Worcester Street ,,Natick ,MA,01760,United States,(508) 655-4006,42.3019258,-71.3843794,Mo-Sa 10:00-21:00; Su 11:00-18:00,,0
Marley Station,2204903,7900 Governor Ritchie Hwy Glen ,,Burnie ,MD,21061,United States,(410) 590-2130,39.139247,-76.601781,Mo-Sa 10:00-21:00; Su 11:00-18:00,,0
Sangertown,2204145,1 Sangertown Sq. ,,New Hartford ,NY,13413,United States,(315) 733-7797,43.0837767,-75.3162279,Mo-Sa 10:00-21:30; Su 11:00-18:00,,0
Legacy Place,2204899,238 Legacy Place ,,Dedham ,MA,02026,United States,(781) 251-0873,42.2317017,-71.1770276,Mo-Sa 10:00-21:00; Su 11:00-18:00,,0
Centre At Salisbury,2205299,2300 N. Salisbury Road ,,Salisbury ,MD,21801,United States,(410) 860-4791,38.398857,-75.566277,Mo-Sa 10:00-21:00; Su 11:00-18:00,,0
Arnot,2204021,3300 Chambers Road South ,,Horseheads ,NY,14845,United States,(607) 739-7542,42.159955,-76.872802,Mo-Th 10:00-21:00; Fr-Sa 10:00-21:30; Su 11:00-18:00,,0
Annapolis,2205071,1350 Annapolis Mall ,,Annapolis ,MD,21401,United States,(410) 573-1170,38.987823,-76.544587,Mo-Sa 10:00-21:30; Su 11:00-19:00,,0
Arundel Mills,2205559,7000 Arundel Mills Circle ,,Hanover ,MD,21076,United States,(443) 755-9866,39.1573631,-76.7252493,Mo-Sa 10:00-21:30; Su 11:00-19:00,,0
The Outlet Shoppes At Gettysbu,2204805,1863 Gettysburg Village Drive ,,Gettysburg ,PA,17325,United States,(717) 334-4909,39.7940175,-77.201107,Mo-Sa 10:00-21:00; Su 10:00-18:00,,0
Columbia,2205823,10300 Little Patuxent Pkwy ,,Columbia ,MD,21044,United States,(410) 884-9945,39.2153947,-76.8602836,Mo-Sa 10:00-21:00; Su 11:00-18:00,,0
Waugh Chapel Towne Centre,2204071,1410 South Main Chapel Way ,,Gambrills ,MD,21054,United States,(410) 721-9643,39.0334991,-76.6833152,Mo-Sa 10:00-21:00; Su 11:00-18:00,,0
South Shore,2204555,250 Granite Street ,,Braintree ,MA,02184,United States,(781) 843-6183,42.2217222,-71.0220568,Mo-Sa 10:00-21:00; Su 11:00-18:00,,0
Burlington,2205035,75 Middlesex Turnpike ,,Burlington ,MA,01803,United States,(781) 272-3308,42.482538,-71.2135082,Mo-Sa 10:00-21:00; Su 11:00-18:00,,0
Wayside Commons,2205453,6 Wayside Road ,,Burlington ,MA,01803,United States,(781) 272-4296,42.4856249,-71.1939597,Mo-Sa 10:00-21:00; Su 11:00-18:00,,0
Village At Colony Place,2205113,128 Colony Place ,,Plymouth ,MA,02360,United States,(508) 746-5017,41.95374,-70.718022,Mo-Sa 10:00-21:00; Su 11:00-18:00,,0
Pheasant Lane,2204769,310 Daniel Webster Highway ,,Nashua ,NH,03060,United States,(603) 897-0575,42.7016049,-71.4367899,Mo-Sa 10:00-21:00; Su 11:00-18:00,,0
Hanover,2204109,1775 Washington Street ,,Hanover ,MA,02339,United States,(781) 826-6976,42.146876,-70.840638,Mo-Sa 10:00-21:00; Su 12:00-18:00,,0
Square One,2205641,1277 Broadway ,,Saugus ,MA,01906,United States,(781) 231-9511,42.4610998,-71.0269103,Mo-Sa 10:00-21:00; Su 11:00-18:00,,0
Market Street At Lynnfield,2205653,310 Market Street ,,Lynnfield ,MA,01940,United States,(781) 334-2457,42.5146482,-71.0335137,Mo-Sa 10:00-21:00; Su 11:00-18:00,,0
Destiny Usa,2204365,9090 Destiny Usa Drive ,,Syracuse ,NY,13204,United States,(315) 466-2108,43.0705656,-76.1735703,Mo-Sa 10:00-21:30; Su 11:00-18:00,,0
Nittany,2204111,2901 East College Avenue ,,State College ,PA,16801,United States,(814) 861-8055,40.8325292,-77.8004596,Mo-Sa 10:00-21:00; Su 11:00-18:00,,0
Rockingham Park,2204893,99 Rockingham Park Blvd ,,Salem ,NH,03079,United States,(603) 890-1785,42.7678029,-71.2311553,Mo-Sa 10:00-21:00; Su 11:00-18:00,,0
Liberty Tree,2205595,100 Independence Way ,,Danvers ,MA,01923,United States,(978) 777-1686,42.5526233,-70.9392495,Mo-Sa 10:00-21:00; Su 11:00-18:00,,0
Washingtonian,2205317,31 Grand Corner Avenue ,,Gaithersburg ,MD,20878,United States,(301) 978-9774,39.1190598,-77.2026131,Mo-Sa 10:00-21:00; Su 11:00-18:00,,0
Francis Scott Key,2204773,5500 Buckeyestown Pike ,,Frederick ,MD,21703,United States,(301) 668-5901,39.382737,-77.406041,Mo-Sa 10:00-21:00; Su 11:00-18:00,,0
Mall Of New Hampshire,2204921,1500 S Willow St ,,Manchester ,NH,03103,United States,(603) 641-0187,42.9553882,-71.4327448,Mo-Sa 10:00-21:00; Su 11:00-18:00,,0
Great Northern Mall,2204747,4155 Route 31 ,,Clay ,NY,13041,United States,(315) 622-7638,43.1882256,-76.2244059,Mo-Sa 10:00-21:00; Su 11:00-18:00,,0
Tanger National Harbor Outlet,2203899,6800 Oxon Hill Road ,,Oxon Hill ,MD,20745,United States,(301) 839-0748,38.7945102,-77.0010248,Mo-Sa 09:00-21:00; Su 10:00-19:00,,0
Tysons Corner,2204543,1961 Chain Bridge ,,Mclean ,VA,22102,United States,(703) 748-0956,38.917026,-77.221159,Mo-Sa 10:00-21:30; Su 11:00-19:00,,0
St. Charles Town Center,2205495,11110 Mall Cir ,,Waldorf ,MD,20603,United States,(301) 374-9738,38.6173496,-76.9257502,Mo-Sa 10:00-21:00; Su 11:00-18:00,,0
Valley,2204511,17301 Valley Mall Road ,,Hagerstown ,MD,21740,United States,(301) 582-5063,39.6240248,-77.7703228,Mo-Sa 10:00-21:00; Su 11:00-18:00,,0
Springfield Town Center (Va),2205511,6500 Springfield Mall ,,Springfield ,VA,22150,United States,(703) 971-5340,38.774511,-77.1738942,Mo-Sa 10:00-21:30; Su 11:00-19:00,,0
Dulles Town Circle,2204401,21100 Dulles Town Circle ,,Sterling ,VA,20166,United States,(703) 421-7001,39.0322001,-77.4236031,Mo-Sa 10:00-21:30; Su 11:00-19:00,,0
Waterloo Premium Outlets,2205811,655 Route 318 ,,Waterloo ,NY,13165,United States,(315) 539-1205,42.9567867,-76.9217181,Mo-Th 10:00-21:00; Fr-Sa 10:00-22:00; Su 10:00-20:00,,0
Dulles 28 Centre,2204363,22000 Dulles Retail Plaza ,,Sterling ,VA,20166,United States,(703) 421-4526,39.0064082,-77.4372296,Mo-Sa 10:00-21:00; Su 11:00-18:00,,0
Fair Oaks,2204357,11759l Fair Oaks Mall ,,Fairfax ,VA,22033,United States,(703) 352-8393,38.861346,-77.355167,Mo-Sa 10:00-21:30; Su 11:00-18:00,,0
Potomac Mills,2205575,2700 Potomac Mills Circle ,,Woodbridge ,VA,22192,United States,(703) 490-6664,38.643548,-77.2953745,Mo-Sa 10:00-21:00; Su 11:00-18:00,,0
Tilton Outlet Center,2205655,120 Laconia Road ,,Tilton ,NH,03276,United States,(603) 266-1257,43.4591319,-71.5620413,Mo-Sa 09:00-21:00; Su 10:00-19:00,,0
Fox Run,2204283,50 Fox Run Mall Rd ,,Newington ,NH,03801,United States,(603) 430-1260,43.097376,-70.804444,Mo-Sa 10:00-21:00; Su 11:00-18:00,,0
Logan Valley,2204219,5580 Goods Lane ,,Altoona ,PA,16602,United States,(814) 941-2633,40.4694508,-78.4089381,Mo-Sa 10:00-21:00; Su 12:00-18:00,,0
Virginia Gateway,2204601,13297 Gateway Center Drive ,,Gainesville ,VA,20155,United States,(703) 753-8105,38.7948556,-77.6060761,Mo-Sa 10:00-21:00; Su 11:00-18:00,,0
Eastview,2205777,502 Eastview Mall ,,Victor ,NY,14564,United States,(585) 223-5710,43.0298496,-77.4440847,Mo-Sa 10:00-21:30; Su 11:00-18:00,,0
Apple Blossom Mall,2205061,1850 Apple Blossom Drive ,,Winchester ,VA,22601,United States,(540) 665-2013,39.1603623,-78.1638389,Mo-Sa 10:00-21:00; Su 11:00-18:00,,0
Salmon Run,2204133,21182 Salmon Run Mall Loop ,,Wes Watertown ,NY,13601,United States,(315) 788-1428,43.978175,-75.952661,Mo-Sa 09:30-21:00; Su 11:00-18:00,,0
Market Place,2204155,241 Miracle Mile Drive ,,Rochester ,NY,14623,United States,(585) 272-9370,43.080751,-77.633313,Mo-Sa 10:00-21:30; Su 11:00-18:00,,0
Dubois Mall,2204857,5522 Shaffer Road ,,Dubois ,PA,15801,United States,(814) 372-2071,41.1200808,-78.7265742,Mo-Th 10:00-20:00; Fr-Sa 10:00-21:00; Su 12:00-17:00,,0
Spotsylvania,2205825,137 Spotsylvania Mall ,,Fredericksburg ,VA,22407,United States,(540) 548-2103,38.292661,-77.513244,Mo-Sa 10:00-21:30; Su 11:00-18:00,,0
Galleria At Johnstown,2203907,500 Galleria Dr. ,,Johnstown ,PA,15904,United States,(814) 266-1050,40.2947724,-78.8338163,Mo-Sa 10:00-21:00; Su 12:00-17:00,,0
Greece Ridge,2203877,256 Greece Ridge Center Drive ,,Rochester ,NY,14626,United States,(585) 723-6831,43.207603,-77.6910959,Mo-Sa 10:00-21:30; Su 11:00-18:00,,0
University Mall (Vt),2204045,155 Dorset St ,,South Burlington ,VT,05403,United States,(802) 859-1224,44.465249,-73.1835,Mo-Sa 10:00-21:00; Su 10:00-18:00,,0
Country Club - (Md),2205661,1262 Vocke Road ,,Lavale ,MD,21502,United States,(301) 729-0315,39.631436,-78.835113,Mo-Th 10:00-21:00; Fr-Sa 10:00-21:30; Su 12:00-18:00,,0
Settlers Green Outlet Village,2205183,2 Common Court North ,,Conway ,NH,03860,United States,(603) 356-0358,44.0234051,-71.1133371,Mo-Sa 09:00-21:00; Su 10:00-18:00,,0
Maine,2205263,364 Maine Mall Road ,,South Portland ,ME,04106,United States,(207) 828-1565,43.6342134,-70.3367879,Mo-Sa 10:00-21:00; Su 11:00-18:00,,0
Patrick Henry,2205393,12300 Jefferson Ave ,,Newport News ,VA,23602,United States,(757) 249-1523,37.112658,-76.495616,Mo-Sa 10:00-21:00; Su 12:00-18:00,,0
Quaker Crossing East,2205791,3473 Amelia Drive ,,Orchard Park ,NY,14127,United States,(716) 822-0046,42.7909443,-78.7821531,Mo-Sa 10:00-21:00; Su 11:00-18:00,,0
Short Pump Town Center,2204701,11800 W Broad St ,,Henrico ,VA,23233,United States,(804) 364-9973,37.6553251,-77.6253194,Mo-Sa 10:00-21:00; Su 11:00-18:00,,0
Walden Galleria,2204467,One Walden Galleria ,,Buffalo ,NY,14225,United States,(716) 684-3488,42.9120261,-78.7634399,Mo-Sa 10:00-21:30; Su 11:00-18:00,,0
Lynnhaven,2204565,701 Lynnhaven Parkway ,,Virginia Beach ,VA,23452,United States,(757) 340-8007,36.814369,-76.071917,Mo-Sa 10:00-21:00; Su 11:00-18:00,,0
Westmoreland,2205261,5256 Route 30 ,,Greensburg ,PA,15601,United States,(724) 837-7211,40.300982,-79.509824,Mo-Sa 10:00-21:00; Su 11:00-17:00,,0
Chautauqua,2204877,318 E Fairmount Ave ,,Lakewood ,NY,14750,United States,(716) 763-7972,42.0960292,-79.3036345,Mo-Sa 10:00-21:00; Su 11:00-18:00,,0
Macarthur,2204383,300 Monticello Ave. ,,Norfolk ,VA,23510,United States,(757) 622-6062,36.8489027,-76.2879503,Mo-Sa 10:00-21:00; Su 12:00-18:00,,0
Chesterfield,2204361,11500 Midlothian Pike ,,Richmond ,VA,23235,United States,(804) 379-0905,37.508587,-77.609372,Mo-Sa 10:00-21:00; Su 12:00-18:00,,0
Boulevard,2204221,724 Alberta Dr. ,,Amherst ,NY,14226,United States,(716) 838-1600,42.9880564,-78.8172851,Mo-Sa 10:00-21:00; Su 11:00-18:00,,0
Greenbrier,2204099,1401 Greenbrier Parkway S ,,Chesapeake ,VA,23320,United States,(757) 578-4770,36.779612,-76.227374,Mo-Sa 10:00-21:00; Su 12:00-17:30,,0
Charlottesville Fashion Square,2205275,1540 E. Rio Road ,,Charlottesville ,VA,22901,United States,(434) 973-5381,38.078239,-78.471764,Mo-Sa 10:00-21:00; Su 12:00-18:00,,0
Southpark - (Va),2205215,206 Southpark Mall ,,Colonial Heights ,VA,23834,United States,(804) 526-1381,37.253182,-77.393309,Mo-Sa 10:00-21:00; Su 12:00-18:00,,0
Valley Mall - (Va),2205339,1925 East Market Street ,,Harrisonburg ,VA,22801,United States,(540) 434-1304,38.4274842,-78.8428225,Mo-Sa 10:00-21:00; Su 12:30-17:30,,0
Miracle Mile,2204629,4101 William Penn Highway ,,Monroeville ,PA,15146,United States,(412) 373-4672,40.4372695,-79.766337,Mo-Sa 10:00-21:00; Su 11:00-17:00,,0
Pittsburgh Mills,2205579,501 Pittsburgh Mills Circle ,,Tarentum ,PA,15084,United States,(724) 274-4152,40.574715,-79.798113,Mo-Sa 10:00-21:00; Su 11:00-18:00,,0
Fashion Outlets Of Niagara Fal,2203893,1654 Military Road ,,Niagara Falls ,NY,14304,United States,(716) 297-3496,43.0955381,-78.9733061,Mo-Sa 10:00-21:00; Su 10:00-18:00,,0
Monroeville Mall,2204359,118 Monroeville Mall Blvd ,,Monroeville ,PA,15146,United States,(412) 373-5480,40.4306887,-79.7930695,Mo-Sa 10:00-21:00; Su 12:00-18:00,,0
Uniontown,2205667,1201 Mall Run Road ,,Uniontown ,PA,15401,United States,(724) 439-2490,39.9083294,-79.748269,Mo-Sa 10:00-21:00; Su 11:00-17:00,,0
Clearview Mall - (Pa),2205679,101 Clearview Circle ,,Butler ,PA,16001,United States,(724) 282-0019,40.8963484,-79.9052024,Mo-Sa 10:00-21:00; Su 12:00-17:00,,0
The Waterfront,2204671,218 W. Bridge St ,,West Homestead ,PA,15120,United States,(412) 462-7215,40.4072297,-79.9168087,Mo-Sa 10:00-21:00; Su 11:00-18:00,,0
Ross Park,2204759,1000 Ross Park Mall Drive ,,Pittsburgh ,PA,15237,United States,(412) 364-3377,40.5389691,-80.0077114,Mo-Sa 10:00-21:00; Su 11:00-18:00,,0
South Hills,2205775,301 South Hills Village ,,Pittsburgh ,PA,15241,United States,(412) 831-5144,40.3426227,-80.0561704,Mo-Sa 10:00-21:00; Su 11:00-18:00,,0
Streets Of Cranberry,2205027,20412 Route 19 ,,Cranberry Twp ,PA,16066,United States,(724) 741-6180,40.694382,-80.102461,Mo-Sa 10:00-21:00; Su 11:00-17:00,,0
Grove City Outlets,2205015,1911 Leesburg Grove City Road ,,Grove City ,PA,16127,United States,(724) 748-0167,41.1397525,-80.1573579,Mo-Th 10:00-21:00; Fr-Sa 09:00-21:00; Su 10:00-19:00,,0
The Mall At Robinson,2205813,100 Robinson Dr Suite 2210 ,,Pittsburgh ,PA,15205,United States,(412) 490-7358,40.454124,-80.161164,Mo-Th 10:00-21:00; Fr-Sa 10:00-21:30; Su 11:00-18:00,,0
Robinson Town Centre,2204619,1590 Park Manor Blvd. ,,Pittsburgh ,PA,15205,United States,(412) 787-5160,40.453373,-80.1657,Mo-Sa 10:00-21:00; Su 11:00-18:00,,0
Morgantown Mall,2204063,9609 Mall Rd ,,Morgantown ,WV,26501,United States,(304) 983-6012,39.625523,-79.991748,Mo-Sa 10:00-21:00; Su 12:00-18:00,,0
Pittsburgh Outlets,2204157,2200 Tanger Blvd. ,,Washington ,PA,15301,United States,(724) 229-3530,40.2164404,-80.2112921,Mo-Sa 09:00-21:00; Su 10:00-19:00,,0
Millcreek,2204469,5800 Peach Street ,,Erie ,PA,16565,United States,(814) 864-7756,42.072204,-80.096441,Mo-Sa 10:00-21:00; Su 11:00-18:00,,0
Beaver Valley,2205341,538 Beaver Valley Mall ,,Monaca ,PA,15061,United States,(724) 774-4317,40.67486,-80.313927,Mo-Sa 10:00-21:00; Su 11:00-18:00,,0
Meadowbrook (Wv),2203901,2399 Meadowbrook Rd. ,,Bridgeport ,WV,26330,United States,(304) 842-0164,39.3130666,-80.2729794,Mo-Sa 10:00-21:00; Su 11:00-18:00,,0
Shops At Boardman,2204823,377d Boardman-Poland Road ,,Youngstown ,OH,44512,United States,(330) 629-7289,41.023702,-80.648,Mo-Sa 10:00-21:00; Su 11:00-18:00,,0
Southern Park,2204131,7401 Market Street ,,Youngstown ,OH,44512,United States,(330) 758-0773,41.0215071,-80.6603873,Mo-Sa 10:00-21:00; Su 11:00-18:00,,0
Highlands,2205737,572 Cabela Drive ,,Triadelphia ,WV,26059,United States,(304) 547-0615,40.0520698,-80.6012348,Mo-Sa 10:00-21:00; Su 11:00-18:00,,0
Eastwood,2204917,5555 Youngstown-Warren Road ,,Niles ,OH,44446,United States,(330) 505-1074,41.2130978,-80.7463689,Mo-Sa 10:00-21:00; Su 11:00-18:00,,0
River Ridge,2205181,3405 Candlers Mountain Rd. ,,Lynchburg ,VA,24502,United States,(434) 237-0593,37.3651581,-79.1783919,Mo-Sa 10:00-21:00; Su 12:00-18:00,,0
Ohio Valley,2205347,67800 Mall Road St ,,Clairsville ,OH,43950,United States,(740) 695-1046,40.06807,-80.8669681,Mo-Sa 10:00-21:00; Su 11:00-18:00,,0
Aurora Farms,2204807,549 South Chillicothe Road ,,Aurora ,OH,44202,United States,(330) 995-1433,41.3019045,-81.3419409,Mo-Sa 10:00-21:00; Su 10:00-19:00,,0
Mentor Target Center,2204473,9627 Mentor Ave ,,Mentor ,OH,44060,United States,(440) 352-7878,41.6854088,-81.2945551,Mo-Sa 10:00-21:00; Su 11:00-18:00,,0
Stow Community Center,2204007,4266 Kent Road ,,Stow ,OH,44224,United States,(330) 688-0240,41.1572849,-81.4099802,Mo-Sa 10:00-21:00; Su 11:00-18:00,,0
Great Lakes,2204911,7850 Mentor Ave ,,Mentor ,OH,44060,United States,(440) 255-5403,41.6578505,-81.361229,Mo-Sa 10:00-21:00; Su 11:00-18:00,,0
Belden Village,2204685,4373 Belden Mall Road ,,Canton ,OH,44718,United States,(330) 966-7199,40.859198,-81.425185,Mo-Sa 10:00-21:00; Su 11:00-18:00,,0
Belden Park Crossing,2205719,5564 Dressler Road Nw ,,Canton ,OH,44718,United States,(330) 244-0736,40.861941,-81.432388,Mo-Sa 10:00-21:00; Su 11:00-18:00,,0
New Towne,2205477,400 Mill Avenue Se ,,New Philadelphia ,OH,44663,United States,(330) 308-5684,40.4805905,-81.4415437,Mo-Sa 10:00-21:00; Su 12:00-18:00,,0
Beachwood Place,2204415,26300 Cedar Rd ,,Beachwood ,OH,44122,United States,(216) 591-1365,41.498545,-81.4939648,Mo-Sa 10:00-21:00; Su 12:00-18:00,,0
Valley View,2205249,4802 Valley View Blvd. Nw. ,,Roanoke ,VA,24012,United States,(540) 366-4699,37.30403,-79.964281,Mo-Sa 10:00-21:00; Su 12:00-18:00,,0
Greenville (Nc),2205385,714 Greenville Boulevard ,,South Greenville ,NC,27858,United States,(252) 756-7419,35.586302,-77.368016,Mo-Sa 10:00-21:00; Su 12:00-18:00,,0
Summit,2204737,3265 W. Market St. ,,Akron ,OH,44333,United States,(330) 836-0628,41.133811,-81.617866,Mo-Sa 10:00-21:00; Su 11:00-18:00,,0
Danville Mall,2205513,325 Piedmont Drive ,,Danville ,VA,24540,United States,(434) 791-4560,36.5937356,-79.421509,Mo-Sa 10:00-21:00; Su 12:00-18:00,,0
Southpark,2204491,500 Southpark Center ,,Strongsville ,OH,44136,United States,(440) 238-2436,41.3084543,-81.8204263,Mo-Sa 10:00-21:00; Su 11:00-18:00,,0
Grand Central,2204535,268 Grand Central Mall Po Box ,,Vienna ,WV,26105,United States,(304) 420-9081,39.327019,-81.548458,Mo-Sa 10:00-21:00; Su 12:00-18:00,,0
Westgate,2203945,20960 Westgate ,,Fairview Park ,OH,44126,United States,(440) 356-6139,41.46186,-81.850295,Mo-Sa 10:00-21:00; Su 11:00-18:00,,0
Great Northern (Oh),2205265,4954 Great Northern Mall ,,North Olmsted ,OH,44070,United States,(440) 979-9345,41.416445,-81.905617,Mo-Sa 10:00-21:00; Su 11:00-18:00,,0
Poyner Place,2205447,5900 Poyner Anchor Ln ,,Raleigh ,NC,27616,United States,(919) 790-9784,35.8650785,-78.5674889,Mo-Sa 10:00-21:00; Su 12:00-19:00,,0
Ohio Station Outlets,2205045,9911 Avon Lake Rd. ,,Burbank ,OH,44214,United States,(330) 948-1069,41.0008976,-81.9909902,Mo-Sa 10:00-21:00; Su 10:00-18:00,,0
Crabtree Valley,2205297,4325 Glenwood Ave. ,,Raleigh ,NC,27612,United States,(919) 571-7231,35.8394667,-78.6794257,Mo-Sa 10:00-21:00; Su 12:00-19:00,,0
Colony Square,2205671,3575 Maple Avenue ,,Zanesville ,OH,43701,United States,(740) 452-2528,39.9876199,-82.0270863,Mo-Sa 10:00-21:00; Su 12:00-18:00,,0
Streets At Southpoint,2203923,6910 Fayetteville Road ,,Durham ,NC,27713,United States,(919) 484-1093,35.9034513,-78.9431065,Mo-Sa 10:00-21:00; Su 12:00-19:00,,0
Crossroads Plaza,2204641,304 Crossroads Blvd. ,,Cary ,NC,27518,United States,(919) 859-9980,35.7596701,-78.7391483,Mo-Sa 10:00-21:00; Su 12:00-18:00,,0
Carolina Premium Outlets,2205683,1025 Outlet Center Drive ,,Smithfield ,NC,27577,United States,(919) 209-0840,35.5106201,-78.3124918,Mo-Sa 10:00-21:00; Su 11:00-19:00,,0
Crossroads - (Wv),2205227,2 Crossroads Mall ,,Mount Hope ,WV,25880,United States,(304) 252-4954,37.847397,-81.197639,Mo-Sa 10:00-21:00; Su 12:00-18:00,,0
Beaver Creek,2204315,1555 Beaver Creek Cmns Dr. ,,Apex ,NC,27502,United States,(919) 387-0533,35.7447417,-78.8867977,Mo-Sa 10:00-21:00; Su 12:00-18:00,,0
Alamance Crossing,2205177,3188 Waltham Blvd. ,,Burlington ,NC,27215,United States,(336) 586-1764,36.0698744,-79.509055,Mo-Sa 10:00-21:00; Su 12:00-18:00,,0
Charleston Town Center,2204391,3000 Charleston Town Center ,,Charleston ,WV,25389,United States,(304) 347-8803,38.353762,-81.6378934,Mo-Sa 10:00-21:00; Su 12:30-18:00,,0
Shoppes At Trace Forks,2203861,75 Rhl Blvd South ,,Charleston ,WV,25309,United States,(304) 744-3092,38.3338078,-81.7129115,Mo-Sa 10:00-21:00; Su 12:00-18:00,,0
Indian Mound,2204861,771 South 30th Street ,,Heath ,OH,43056,United States,(740) 788-9095,40.0312898,-82.4439172,Mo-Sa 10:00-21:00; Su 12:00-18:00,,0
Jefferson Village,2205151,1624 Highwoods Blvd ,,Greensboro ,NC,27410,United States,(336) 299-8524,36.1132699,-79.8763339,Mo-Sa 10:00-21:00; Su 12:00-18:00,,0
Jacksonville (Nc),2205189,375 Jacksonville Mall ,,Jacksonville ,NC,28546,United States,(910) 353-0507,34.7647062,-77.3808906,Mo-Sa 10:00-21:00; Su 12:00-18:00,,0
Richland Mall,2205743,663 Richland Mall ,,Mansfield ,OH,44906,United States,(419) 528-3136,40.770766,-82.593787,Mo-Sa 10:00-21:00; Su 12:00-18:00,,0
Four Seasons,2205269,144 Four Seasons Town Center ,,Greensboro ,NC,27407,United States,(336) 299-7196,36.039467,-79.837567,Mo-Sa 10:00-21:00; Su 12:00-18:00,,0
Sandusky,2205205,4314 Milan Rd ,,Sandusky ,OH,44870,United States,(419) 621-1542,41.4189016,-82.6698386,Mo-Sa 10:00-21:00; Su 11:00-18:00,,0
Mercer Mall  (Wv),2205657,Us Hwy 460 & Rt.25 ,,Bluefield ,WV,24701,United States,(304) 324-0862,37.26984,-81.22232,Mo-Sa 10:00-21:00; Su 13:00-18:00,,0
River Valley,2205219,1635 River Valley Circle South ,,Lancaster ,OH,43130,United States,(740) 654-2053,39.73213,-82.628202,Mo-Sa 10:00-21:00; Su 12:00-18:00,,0
Birchwood,2203971,4350 24th Ave. ,,Fort Gratiot ,MI,48059,United States,(810) 385-3634,43.0361169,-82.453615,Mo-Sa 10:00-21:00; Su 11:00-18:00,,0
Taylor Square,2204843,2859 Taylor Road Extension ,,Reynoldsburg ,OH,43068,United States,(614) 866-8815,39.9390586,-82.7869353,Mo-Sa 10:00-21:00; Su 11:00-18:00,,0
Hanes,2204433,3320 Silas Creek Parkway ,,Winston-Salem ,NC,27103,United States,(336) 659-1250,36.0718123,-80.2993359,Mo-Sa 10:00-21:00; Su 12:00-18:00,,0
Huntington,2204553,500 Mall Road ,,Barboursville ,WV,25504,United States,(304) 736-0422,38.419714,-82.302929,Mo-Sa 10:00-21:00; Su 11:00-18:00,,0
Easton Town Center,2204531,4025 The Strand ,,West Columbus ,OH,43219,United States,(614) 471-7532,40.0521411,-82.9158776,Mo-Th 10:00-21:00; Fr-Sa 10:00-22:00; Su 12:00-18:00,,0
Polaris,2203937,1500 Polaris Parkway ,,Columbus ,OH,43240,United States,(614) 888-9614,40.1456984,-82.9812948,Mo-Th 10:00-21:00; Fr-Sa 10:00-21:30; Su 12:00-18:00,,0
Cross Creek,2205303,237 Crosscreek Mall ,,Fayetteville ,NC,28303,United States,(910) 864-1512,35.046404,-78.931889,Mo-Sa 10:00-21:00; Su 12:00-18:00,,0
Polaris,2203997,1235 Polaris Parkway ,,Columbus ,OH,43240,United States,(614) 985-6420,40.1401318,-82.9884046,Mo-Sa 10:00-21:00; Su 11:00-18:00,,0
Waterside Marketplce,2205467,50495 Waterside Drive ,,Chesterfield Twnshp ,MI,48051,United States,(586) 948-3275,42.6682249,-82.8308369,Mo-Sa 10:00-21:00; Su 11:00-18:00,,0
Sun Center,2204579,3656 W. Dublin-Granville Rd.. ,,Columbus ,OH,43235,United States,(614) 761-3664,40.0949018,-83.0876871,Mo-Sa 10:00-21:00; Su 11:00-18:00,,0
Lakeside,2205779,14600 Lakeside Circle ,,Sterling Heights ,MI,48313,United States,(586) 247-6866,42.622964,-82.985815,Mo-Sa 10:00-21:00; Su 12:00-18:00,,0
Tuttle Crossing,2204425,5043 Tuttle Crossing Blvd. ,,Dublin ,OH,43016,United States,(614) 336-9515,40.0732776,-83.1323201,Mo-Sa 10:00-21:00; Su 11:00-18:00,,0
Shelby Corners,2204583,13311 Hall Road ,,Utica ,MI,48315,United States,(586) 739-0778,42.6273551,-82.9963901,Mo-Sa 10:00-21:00; Su 11:00-18:00,,0
Chillicothe Mall,2204065,1075 North Bridge St. ,,Chillicothe ,OH,45601,United States,(740) 775-5844,39.3582922,-82.9741665,Mo-Sa 10:00-21:00; Su 11:00-18:00,,0
Market At Hilliard,2204599,1864 Hilliard-Rome Rd. ,,Hilliard ,OH,43026,United States,(614) 777-9064,39.9899736,-83.1498795,Mo-Sa 10:00-21:00; Su 11:00-18:00,,0
Ashland Town,2204521,500 Winchester Avenue ,,Ashland ,KY,41101,United States,(606) 327-6961,38.4838369,-82.6534111,Mo-Sa 10:00-21:00; Su 12:00-18:00,,0
Oakland Mall,2204441,428 W. 14 Mile Road ,,Troy ,MI,48083,United States,(248) 588-6973,42.5341981,-83.1128848,Mo-Sa 10:00-21:00; Su 11:00-18:00,,0
Hampton Village,2203999,2795 South Rochester Rd ,,Rochester Hills ,MI,48307,United States,(248) 852-2958,42.639534,-83.127925,Mo-Sa 10:00-21:00; Su 11:00-18:00,,0
Fairlane Town,2204239,18900 Michigan Avenue ,,Dearborn ,MI,48126,United States,(313) 240-6864,42.3167824,-83.2229202,Mo-Sa 10:00-21:00; Su 11:00-18:00,,0
Southland,2204149,23000 Eureka Road ,,Taylor ,MI,48180,United States,(734) 287-2189,42.2003192,-83.2542806,Mo-Sa 10:00-21:00; Su 12:00-18:00,,0
Somerset North,2204547,2800 West Big Beaver Road ,,Troy ,MI,48084,United States,(248) 816-3388,42.5630759,-83.184354,Mo-Sa 10:00-21:00; Su 12:00-18:00,,0
Mayfaire Town Ctr,2205029,6818 Main Street ,,Wilmington ,NC,28405,United States,(910) 509-4194,34.2423298,-77.8309037,Mo-Sa 10:00-21:00; Su 12:00-18:00,,0
Mall Of Monroe,2205381,2121 N Monroe St ,,Monroe ,MI,48162,United States,(734) 457-5392,41.9471834,-83.3877557,Mo-Sa 10:00-21:00; Su 12:00-17:00,,0
Independence,2204093,3500 Oleander Drive ,,Wilmington ,NC,28403,United States,(910) 392-1581,34.2130425,-77.9057715,Mo-Sa 10:00-21:00; Su 12:00-18:00,,0
Westland,2204895,35000 Warren Road ,,Westland ,MI,48185,United States,(734) 261-0654,42.3408466,-83.3893383,Mo-Sa 10:00-21:00; Su 11:00-18:00,,0
Great Lakes Crossing,2204979,4050 Baldwin Road ,,Auburn Hills ,MI,48326,United States,(248) 758-9503,42.7000396,-83.3064954,Mo-Sa 10:00-21:00; Su 11:00-18:00,,0
Hunters Square,2205163,31025 Orchard Lake Rd ,,Farmington Hills ,MI,48334,United States,(248) 865-2885,42.525752,-83.360021,Mo-Sa 10:00-21:00; Su 11:00-18:00,,0
Laurel Park,2205615,37540 W. Six Mile Road ,,Livonia ,MI,48152,United States,(734) 464-4291,42.411145,-83.397029,Mo-Sa 10:00-21:00; Su 12:00-18:00,,0
Findlay Village Mall,2205685,1800 Tiffin Avenue ,,Findlay ,OH,45840,United States,(419) 425-3938,41.0551807,-83.6136691,Mo-Sa 10:00-21:00; Su 12:00-18:00,,0
New Towne Plaza,2204631,44560 Ford Road ,,Canton ,MI,48187,United States,(734) 451-0254,42.3221065,-83.4812878,Mo-Sa 10:00-21:00; Su 11:00-18:00,,0
Twelve Oaks,2204945,27276 Novi Rd ,,Novi ,MI,48377,United States,(248) 465-1806,42.4910661,-83.4699359,Mo-Sa 10:00-21:00; Su 11:00-18:00,,0
Levis Commons,2205153,2150 Levis Commons Blvd ,,Perrysburg ,OH,43551,United States,(419) 874-5012,41.5272591,-83.6387956,Mo-Sa 10:00-21:00; Su 11:00-18:00,,0
West Oaks,2204005,43526 West Oaks Drive ,,Novi ,MI,48377,United States,(248) 374-8024,42.4932049,-83.4798734,Mo-Sa 10:00-21:00; Su 11:00-18:00,,0
Franklin Park,2205283,5001 Monroe Street ,,Toledo ,OH,43623,United States,(419) 475-8055,41.6947913,-83.6405727,Mo-Sa 10:00-21:00; Su 11:00-18:00,,0
Pikeville Commons,2205389,120 Justice Way ,,Pikeville ,KY,41501,United States,(606) 432-6523,37.507546,-82.542387,Mo-Sa 10:00-21:00; Su 12:00-18:00,,0
Shops@Fallen Timbers,2205253,3100 Main Street ,,Maumee ,OH,43537,United States,(419) 878-2304,41.5462064,-83.7059455,Mo-Sa 10:00-21:00; Su 12:00-18:00,,0
Jeffersonville Outle,2205733,8580 Factory Shops Blvd ,,Jeffersonville ,OH,43128,United States,(740) 948-0119,39.620179,-83.60065,Mo-Sa 09:00-21:00; Su 10:00-19:00,,0
Briarwood,2205087,632 Briarwood Circle ,,Ann Arbor ,MI,48108,United States,(734) 996-4038,42.2385067,-83.7488733,Mo-Sa 10:00-21:00; Su 11:00-18:00,,0
Concord Mills,2205563,8111 Concord Mills Boulevard ,,Concord ,NC,28027,United States,(704) 979-3140,35.3692222,-80.7221259,Mo-Sa 10:00-21:00; Su 12:00-19:00,,0
Green Oak Village,2205465,9620 Village Place Blvd ,,Brighton ,MI,48116,United States,(810) 225-0873,42.5094129,-83.7568545,Mo-Sa 10:00-21:00; Su 11:00-18:00,,0
Northlake Mall,2205423,6801 Northlake Mall Drive ,,Charlotte ,NC,28216,United States,(704) 599-8885,35.3521284,-80.8512352,Mo-Sa 10:00-21:00; Su 12:00-18:00,,0
Valley Hills,2204459,1960 Us Highway 70 Se Suite 22 ,,Hickory ,NC,28602,United States,(828) 323-1527,35.7037364,-81.3051226,Mo-Sa 10:00-21:00; Su 12:00-18:00,,0
Genesee Valley,2204953,3363 S. Linden Rd ,,Flint ,MI,48507,United States,(810) 230-7303,42.9783784,-83.7720314,Mo-Sa 10:00-21:00; Su 12:00-18:00,,0
Pinnacle (Bristol),2205853,532 Pinnacle Parkway ,,Bristol ,TN,37620,United States,(423) 764-4210,36.590986,-82.264293,Mo-Sa 10:00-21:00; Su 12:00-18:00,,0
Windsor Square,2204821,9609 E. Independence Blvd. ,,Matthews ,NC,28105,United States,(704) 814-6982,35.137799,-80.712809,Mo-Sa 10:00-21:00; Su 12:00-18:00,,0
Lima,2205059,2400 Elida Road ,,Lima ,OH,45805,United States,(419) 221-2179,40.7650037,-84.1505515,Mo-Sa 10:00-21:00; Su 12:00-18:00,,0
Birch Run,2204813,12158 South Beyer Road ,,Birch Run ,MI,48415,United States,(989) 624-5151,43.2478658,-83.7763555,Mo-Sa 10:00-21:00; Su 10:00-19:00,,0
Kensington Valley,2204797,1475 Burkhart Road ,,Howell ,MI,48843,United States,(517) 545-9340,42.622466,-83.99783,Mo-Sa 09:00-21:00; Su 10:00-19:00,,0
Fairfield Commons,2205613,2727 Fairfield Commons ,,Dayton ,OH,45431,United States,(937) 426-7241,39.766844,-84.057782,Mo-Sa 10:00-21:00; Su 12:00-18:00,,0
Northpark Center,2204485,8275 Old Troy Pike ,,Huber Heights ,OH,45424,United States,(937) 237-3054,39.8719092,-84.1375192,Mo-Sa 10:00-21:00; Su 12:00-18:00,,0
The Greene,2204341,4464 Cedar Park Drive ,,Dayton ,OH,45440,United States,(937) 429-4636,39.694436,-84.103136,Mo-Sa 10:00-21:00; Su 12:00-18:00,,0
Tanger Outlet Center Charlotte,2203897,5512 New Fashion Way ,,Charlotte ,NC,28278,United States,(704) 587-6709,35.1699041,-80.9709387,Mo-Sa 10:00-21:00; Su 10:00-19:00,,0
Blakeney,2204961,9882 Rea Road ,,Charlotte ,NC,28277,United States,(704) 544-1417,35.0350286,-80.8091731,Mo-Sa 10:00-21:00; Su 12:00-18:00,,0
Carolina Place,2204435,11025 Carolina Place Parkway ,,Pineville ,NC,28134,United States,(704) 544-2517,35.0822993,-80.8765168,Mo-Sa 10:00-21:00; Su 12:00-18:00,,0
Franklin Square,2205541,3676 East Franklin Blvd ,,Gastonia ,NC,28056,United States,(704) 824-8486,35.2575611,-81.1138088,Mo-Sa 10:00-21:00; Su 12:00-18:00,,0
Mall At Johnson City,2204307,2011 North Roan Street ,,Johnson City ,TN,37601,United States,(423) 610-0831,36.3382979,-82.3776241,Mo-Sa 10:00-21:00; Su 12:00-18:00,,0
Dayton Mall,2204551,2700 Miamisburg Centerville Rd ,,Dayton ,OH,45459,United States,(937) 435-6928,39.6339777,-84.2205722,Mo-Sa 10:00-21:00; Su 12:00-18:00,,0
Myrtle Beach Outlets,2204621,10835 Kings Road ,,Myrtle Beach ,SC,29572,United States,(843) 692-9360,33.7844058,-78.7707948,Mo-Sa 09:00-21:00; Su 10:00-19:00,,0
Fashion Sq,2204689,4677 Fashion Square Mall ,,Saginaw ,MI,48604,United States,(989) 249-0296,43.4759742,-83.9722829,Mo-Sa 10:00-21:00; Su 12:00-18:00,,0
Westwood - (Mi),2204855,1850 West Michigan Avenue ,,Jackson ,MI,49202,United States,(517) 780-4035,42.249932,-84.436145,Mo-Sa 10:00-21:00; Su 12:00-18:00,,0
Magnolia,2204121,2701 David H Mcleod Blvd. ,,Florence ,SC,29501,United States,(843) 413-0575,34.1906045,-79.8294873,Mo-Sa 10:00-21:00; Su 12:00-18:00,,0
Myrtle Beach 501,2205673,4628 Factory Stores Boulevard ,,Myrtle Beach ,SC,29579,United States,(843) 236-1058,33.7511895,-78.9583859,Mo-Sa 09:00-21:00; Su 10:00-19:00,,0
Cincinnati Premium Outlets,2203889,870 Premium Outlets Drive ,,Monroe ,OH,45050,United States,(513) 539-8588,39.4333978,-84.3381899,Mo-Th 10:00-21:00; Fr-Sa 09:00-21:00; Su 10:00-19:00,,0
Waterstone,2204597,9855 Waterstone Boulevard ,,Cincinnati ,OH,45249,United States,(513) 774-7510,39.2928423,-84.3048489,Mo-Sa 10:00-21:00; Su 12:00-18:00,,0
Coastal Grand,2204695,2000 Coastal Grand Circle ,,Myrtle Beach ,SC,29577,United States,(843) 445-6539,33.7023065,-78.9233339,Mo-Sa 10:00-21:00; Su 12:00-18:00,,0
Meridian,2204931,1982 W. Grand River ,,Okemos ,MI,48864,United States,(517) 381-9925,42.72484,-84.419662,Mo-Sa 10:00-21:00; Su 12:00-18:00,,0
Eastgate,2204241,4601 Eastgate Blvd. ,,Cincinnati ,OH,45245,United States,(513) 752-3224,39.1026323,-84.277533,Mo-Sa 10:00-21:00; Su 12:00-18:00,,0
Kenwood Towne Centre,2205089,7875 Montgomery Mall ,,Cincinnati ,OH,45236,United States,(513) 891-6914,39.202766,-84.377425,Mo-Sa 10:00-21:00; Su 12:00-18:00,,0
Eastwood Towne Center,2204673,2912 Towne Center Blvd. ,,Lansing ,MI,48912,United States,(517) 267-0225,42.762861,-84.517643,Mo-Sa 10:00-21:00; Su 11:00-18:00,,0
Bridgewater Falls,2205591,3425 Princeton Road ,,Hamilton ,OH,45011,United States,(513) 737-1690,39.3904824,-84.5015767,Mo-Sa 10:00-21:00; Su 12:00-18:00,,0
Stone Creek Tc,2205583,3693 Stone Creek Blvd ,,Cincinnati ,OH,45251,United States,(513) 245-2967,39.2511286,-84.6023556,Mo-Sa 10:00-21:00; Su 12:00-18:00,,0
Gaffney,2205011,130 Factory Shops Blvd ,,Gaffney ,SC,29341,United States,(864) 489-1300,35.0804132,-81.7136263,Mo-Sa 10:00-21:00; Su 13:30-19:00,,0
Western Hills,2205519,6024 Glenway Ave ,,Cincinnati ,OH,45211,United States,(513) 389-9254,39.1432695,-84.6181943,Mo-Sa 10:00-21:00; Su 12:00-18:00,,0
Crestview Hills Town Ctr,2204679,2858 Town Center Blvd ,,Crestview Hills ,KY,41017,United States,(859) 341-2600,39.025011,-84.5788972,Mo-Sa 10:00-21:00; Su 12:00-18:00,,0
Richmond Square,2205699,3801 National Road ,,East Richmond ,IN,47374,United States,(765) 935-2758,39.8292082,-84.8446275,Mo-Sa 10:00-21:00; Su 12:00-18:00,,0
Outlet Shoppes At Fremont,2205201,6245 N. Old 27 ,,Fremont ,IN,46737,United States,(260) 833-2683,41.734599,-85.003771,Mo-Sa 10:00-21:00; Su 10:00-19:00,,0
Florence Mall,2204413,2028 Florence Mall ,,Florence ,KY,41042,United States,(859) 282-9099,38.995916,-84.6502339,Mo-Sa 10:00-21:00; Su 12:00-18:00,,0
Florence Square,2205545,7713 Mall Road ,,Florence ,KY,41042,United States,(859) 282-7753,38.9965242,-84.6547218,Mo-Sa 10:00-21:00; Su 12:00-18:00,,0
Glenbrook Square,2205315,4201 Coldwater Road Fort ,,Wayne ,IN,46805,United States,(260) 482-5705,41.1152164,-85.1392043,Mo-Sa 10:00-21:00; Su 11:00-18:00,,0
Jefferson Pointe,2205821,4130 West Jefferson Blvd ,,Fort Wayne ,IN,46804,United States,(260) 436-9010,41.0724261,-85.1978714,Mo-Sa 10:00-21:00; Su 12:00-17:00,,0
Hamburg Village,2204207,2312 Sir Barton Way ,,Lexington ,KY,40509,United States,(859) 263-8842,38.0236484,-84.4223137,Mo-Sa 10:00-21:00; Su 12:00-18:00,,0
Asheville Outlets,2205383,800 Brevard Road ,,Asheville ,NC,28806,United States,(828) 665-4991,35.5296658,-82.6040132,Mo-Sa 10:00-21:00; Su 11:00-18:00,,0
College Square - (Tn),2205475,2550 E. Morris Blvd. ,,Morristown ,TN,37813,United States,(423) 581-3266,36.2201945,-83.2606428,Mo-Sa 10:00-21:00; Su 12:00-18:00,,0
Richmond Centre - (Ky),2203879,2115 Lantern Ridge Dr ,,Richmond ,KY,40475,United States,(859) 626-9996,37.7388267,-84.3279819,Mo-Sa 10:00-21:00; Su 12:00-18:00,,0
Village At Sandhill,2205241,487-2 Town Center Place ,,Columbia ,SC,29229,United States,(803) 865-6046,34.12828,-80.877844,Mo-Sa 10:00-21:00; Su 12:00-18:00,,0
Westgate,2204751,205 W. Blackstock Road ,,Spartanburg ,SC,29301,United States,(864) 574-4949,34.9405919,-81.994847,Mo-Sa 10:00-21:00; Su 12:00-18:00,,0
Fayette,2204427,3401 Nicholasville Rd ,,Lexington ,KY,40503,United States,(859) 245-1303,37.9879145,-84.5278735,Mo-Sa 10:00-21:00; Su 12:00-18:00,,0
Fayette Commons,2204323,3801 Mall Road ,,Lexington ,KY,40503,United States,(859) 971-2391,37.9853868,-84.5318847,Mo-Sa 10:00-21:00; Su 12:00-18:00,,0
Muncie,2204051,3501 North Granville Avenue ,,Muncie ,IN,47303,United States,(765) 287-8039,40.2219157,-85.375202,Mo-Sa 10:00-21:00; Su 12:00-18:00,,0
Columbiana Centre,2204277,100 Columbiana Circle ,,Columbia ,SC,29212,United States,(803) 781-3113,34.0788271,-81.1571172,Mo-Sa 10:00-21:00; Su 12:00-18:00,,0
Parkside Shopping Center,2205343,7800 John Davis Drive ,,Frankfort ,KY,40601,United States,(502) 234-5132,38.1758139,-84.8208617,Mo-Sa 10:00-21:00; Su 12:00-18:00,,0
Haywood,2204533,700 Haywood Road ,,Greenville ,SC,29607,United States,(864) 234-1095,34.849955,-82.3330837,Mo-Sa 10:00-21:00; Su 12:00-19:00,,0
Crossroads,2204753,6650 S. Westnedge Ave. ,,Portage ,MI,49024,United States,(269) 324-8247,42.2202087,-85.5941737,Mo-Sa 10:00-21:00; Su 12:00-18:00,,0
Woodland,2204465,3135 28th Street S.E. ,,Grand Rapids ,MI,49512,United States,(616) 957-0725,42.915772,-85.588448,Mo-Sa 10:00-21:00; Su 12:00-18:00,,0
Sevierville,2204719,1645 Parkway ,,Sevierville ,TN,37862,United States,(865) 774-2750,35.8318309,-83.5711084,Mo-Sa 09:00-21:00; Su 10:00-19:00,,0
Tanger Outlet Grand Rapids,2205505,350 84th St. Sw ,,Byron Center ,MI,49315,United States,(616) 583-0472,42.8093661,-85.6719306,Mo-Sa 09:00-21:00; Su 10:00-19:00,,0
Green Ridge Square,2204489,3410 Alpine Avenue Nw ,,Walker ,MI,49544,United States,(616) 647-0746,43.0249763,-85.6873927,Mo-Sa 10:00-21:00; Su 12:00-18:00,,0
Rivertown Crossing,2204915,3700 Rivertowne Parkway ,,Grandville ,MI,49418,United States,(616) 531-4534,42.879401,-85.756126,Mo-Sa 10:00-21:00; Su 11:00-18:00,,0
Somerset Mall,2205485,4150 South Highway 27 ,,Somerset ,KY,42501,United States,(606) 676-8906,37.035033,-84.625064,Mo-Sa 10:00-21:00; Su 13:00-17:00,,0
Outlet Shoppes Of The Bluegras,2204849,1155 Buck Creek Rd. ,,Simpsonville ,KY,40067,United States,(502) 722-8679,38.2061296,-85.351435,Mo-Sa 10:00-21:00; Su 10:00-19:00,,0
Charleston Outlet Center,2205055,4840 Tanger Outlet Blvd North ,,Charleston ,SC,29418,United States,(843) 744-0266,32.873221,-80.018178,Mo-Sa 09:00-21:00; Su 10:00-19:00,,0
Markland,2205665,1212 S 17th ,,Kokomo ,IN,46902,United States,(765) 457-8336,40.473477,-86.109904,Mo-Sa 10:00-21:00; Su 12:00-18:00,,0
West Town,2205795,7600 Kingston Pike ,,Knoxville ,TN,37919,United States,(865) 690-4667,35.9244419,-84.0390578,Mo-Sa 10:00-21:00; Su 12:00-18:00,,0
University Park,2204493,6501 N Grape Rd ,,Mishawaka ,IN,46545,United States,(574) 271-1165,41.71949,-86.191012,Mo-Sa 10:00-21:00; Su 11:00-18:00,,0
Castleton Square Mall,2204399,6020 E. 82nd St. ,,Indianapolis ,IN,46250,United States,(317) 842-3620,39.9089327,-86.0648858,Mo-Sa 10:00-21:00; Su 11:00-18:00,,0
Paddock Shops,2203929,4138 Summit Plaza Dr ,,Louisville ,KY,40241,United States,(502) 339-3570,38.3063494,-85.5774831,Mo-Sa 10:00-21:00; Su 12:00-18:00,,0
Edinburgh Outlets,2204559,11765 N.E. Executive Dr. ,,Edinburgh ,IN,46124,United States,(812) 526-5735,39.3117415,-85.9599128,Mo-Sa 10:00-21:00; Su 10:00-19:00,,0
Village Park,2204585,2009-1 East Greyhound Pass ,,Carmel ,IN,46032,United States,(317) 844-9471,40.00073,-86.124659,Mo-Sa 10:00-21:00; Su 11:00-18:00,,0
Clay Terrace,2204885,14300 Clay Terrace Blvd ,,Carmel ,IN,46032,United States,(317) 818-1376,39.996188,-86.1301987,Mo-Sa 10:00-21:00; Su 12:00-18:00,,0
Southport Commons,2205155,4850 E. Southport Road ,,Indianapolis ,IN,46237,United States,(317) 786-0962,39.6672266,-86.0867502,Mo-Sa 10:00-21:00; Su 11:00-18:00,,0
Mall St. Matthews,2204729,5000 Shelbyville Rd. ,,Louisville ,KY,40207,United States,(502) 895-8388,38.247112,-85.623725,Mo-Sa 10:00-21:00; Su 11:00-18:00,,0
Pinnacle @ Turkey Creek,2204331,11367 Parkside Drive ,,Knoxville ,TN,37934,United States,(865) 675-0590,35.9016764,-84.1597324,Mo-Sa 10:00-21:00; Su 12:30-18:00,,0
Greenwood Park,2204141,1251 Us 31 North Room G-8a ,,Greenwood ,IN,46142,United States,(317) 889-3519,39.630993,-86.123434,Mo-Sa 10:00-21:00; Su 11:00-18:00,,0
Jefferson,2204201,4801 Outer Loop ,,Louisville ,KY,40219,United States,(502) 962-7288,38.1406773,-85.6713749,Mo-Sa 10:00-21:00; Su 12:00-18:00,,0
Green Tree,2205213,757 E Lewis And Clark Parkway ,,Clarksville ,IN,47129,United States,(812) 288-5075,38.3162415,-85.764138,Mo-Sa 10:00-21:00; Su 12:00-18:00,,0
Trader'S Point,2204595,6010 W. 86th Street ,,Indianapolis ,IN,46278,United States,(317) 334-0552,39.9127996,-86.2659113,Mo-Sa 10:00-21:00; Su 11:00-18:00,,0
Grand Traverse,2204033,3200 S. Airport Road ,,West Traverse City ,MI,49684,United States,(231) 932-9730,44.725057,-85.640012,Mo-Sa 10:00-21:00; Su 12:00-18:00,,0
Plainfield Commons,2204817,2683 East Main Street ,,Plainfield ,IN,46168,United States,(317) 839-4371,39.716222,-86.3537736,Mo-Sa 10:00-21:00; Su 11:00-18:00,,0
Mullins Crossing,2205715,4217 Washington Road ,,Evans ,GA,30809,United States,(706) 210-0447,33.5261539,-82.1176,Mo-Sa 10:00-21:00; Su 12:00-18:00,,0
Towne Mall (Ky),2204839,1704 N Dixie Highway ,,Elizabethtown ,KY,42701,United States,(270) 360-1027,37.731735,-85.8886444,Mo-Sa 10:00-21:00; Su 12:30-17:30,,0
Augusta,2204297,3450 Wrightsboro Road ,,Augusta ,GA,30909,United States,(706) 667-0323,33.4654142,-82.0805568,Mo-Sa 10:00-21:00; Su 12:00-18:00,,0
College,2205063,2894 E. Third St. ,,Bloomington ,IN,47401,United States,(812) 339-5321,39.1616277,-86.4938971,Mo-Sa 10:00-21:00; Su 12:00-18:00,,0
Lighthouse Place,2204787,1309 Lighthouse Place ,,Michigan City ,IN,46360,United States,(219) 879-9689,41.7144727,-86.9045071,Mo-Sa 09:00-21:00; Su 10:00-18:00,,0
Tippecanoe,2204231,2415 Sagamore Parkway S ,,Lafayette ,IN,47905,United States,(765) 447-0780,40.3916997,-86.8499758,Mo-Sa 10:00-21:00; Su 12:00-18:00,,0
Porter'S Vale,2205735,510 Porter'S Vale Blvd. ,,Valparaiso ,IN,46383,United States,(219) 462-9406,41.4730914,-87.0136748,Mo-Sa 10:00-21:00; Su 11:00-18:00,,0
Commerce Ii,2205561,800 Steven B. Tanger Blvd. ,,Commerce ,GA,30529,United States,(706) 335-0017,34.2508551,-83.4735802,Mo-Sa 09:00-21:00; Su 10:00-19:00,,0
Crossings At Hobart,2204257,2166 East 80th Street ,,Merrillville ,IN,46410,United States,(219) 736-2550,41.4725509,-87.3101165,Mo-Sa 10:00-21:00; Su 11:00-18:00,,0
Southlake,2205603,2149 Southlake Mall ,,Merrillville ,IN,46410,United States,(219) 738-2923,41.4682473,-87.3117053,Mo-Sa 10:00-21:00; Su 11:00-18:00,,0
Hilton Head,2204715,1414 Fording Island Road ,,Bluffton ,SC,29910,United States,(843) 836-9841,32.2397004,-80.8192375,Mo-Sa 09:00-21:00; Su 10:00-19:00,,0
Bradley Square Mall,2205387,200 Paul Huff Parkway Nw ,,Cleveland ,TN,37312,United States,(423) 473-6808,35.2062743,-84.8475257,Mo-Sa 10:00-21:00; Su 12:00-18:00,,0
North Georgia Outlets,2204785,800 Highway 400 South ,,Dawsonville ,GA,30534,United States,(706) 265-1993,34.357814,-84.047863,Mo-Th 10:00-21:00; Fr-Sa 10:00-22:00; Su 11:00-19:00,,0
Mall Of Georgia,2204393,3333 Buford Dr ,,Buford ,GA,30519,United States,(678) 482-1901,34.065149,-83.984766,Mo-Sa 10:00-21:00; Su 12:00-18:00,,0
Riverpoint,2205521,1830 W. Fullerton ,,Chicago ,IL,60614,United States,(773) 472-5708,41.926634,-87.674064,Mo-Sa 10:00-20:00; Su 11:00-18:00,,0
Honey Creek,2204243,3401 S. U.S. Highway 41 ,,Suit Terre Haute ,IN,47802,United States,(812) 242-9311,39.427291,-87.420481,Mo-Sa 10:00-21:00; Su 12:00-18:00,,0
Outlet Mall Of Georgia,2205473,200 Tanger Outlet Boulevard ,,Pooler ,GA,31322,United States,(912) 450-0457,32.1343722,-81.2430105,Mo-Sa 09:00-21:00; Su 10:00-19:00,,0
Greenwood,2204889,2625 Scottsville Road ,,Bowling Green ,KY,42104,United States,(270) 781-5455,36.9482692,-86.4280724,Mo-Sa 10:00-21:00; Su 12:30-18:00,,0
Avenue At Forsyth,2204119,410 Peachtree Parkway ,,Cumming ,GA,30041,United States,(678) 455-3662,34.1540934,-84.1782583,Mo-Sa 10:00-21:00; Su 12:00-18:00,,0
Old Orchard,2204259,4999 Old ,,Orchard Center Skokie ,IL,60077,United States,(847) 677-9810,42.0595722,-87.749028,Mo-Sa 10:00-21:00; Su 11:00-18:00,,0
Oglethorpe,2204113,7804 Abercorn St. ,,Savannah ,GA,31406,United States,(912) 692-0067,32.0026394,-81.1170305,Mo-Sa 10:00-21:00; Su 12:00-18:00,,0
Chicago Ridge,2205789,160 Chicago Ridge Mall ,,Chicago Ridge ,IL,60415,United States,(708) 499-4233,41.7169894,-87.7827537,Mo-Sa 10:00-21:00; Su 11:00-18:00,,0
North Riverside Park,2205529,7501 West Cermak Road ,,Riverside ,IL,60546,United States,(708) 442-1066,41.846098,-87.80951,Mo-Sa 10:00-21:00; Su 11:00-18:00,,0
Discover Mills,2205565,5900 Sugarloaf Pkwy ,,Lawrenceville ,GA,30043,United States,(678) 847-5764,33.9807833,-84.0808711,Mo-Sa 10:00-21:00; Su 12:00-18:00,,0
Glen Town Center,2203943,1954 Tower Drive ,,Glenview ,IL,60026,United States,(847) 657-0206,42.0898995,-87.8253597,Mo-Fr 10:00-20:00; Sa 10:00-18:00; Su 11:00-17:00,,0
Orland Square,2205647,244 Orland Square Drive ,,Orland Park ,IL,60462,United States,(708) 349-6561,41.6194312,-87.8474753,Mo-Sa 10:00-21:00; Su 11:00-18:00,,0
Orland Park,2203987,150 Orland Park Place ,,Orland Park ,IL,60462,United States,(708) 364-1931,41.6121795,-87.8506594,Mo-Sa 10:00-21:00; Su 11:00-18:00,,0
The Avenue Webb Gin,2204937,1350 Scenic Highway ,,Snellville ,GA,30078,United States,(770) 979-7775,33.897408,-84.004096,Mo-Sa 10:00-21:00; Su 12:00-18:00,,0
Northgate,2205415,271 Northgate Mall ,,Chattanooga ,TN,37415,United States,(423) 877-6222,35.131747,-85.23851,Mo-Sa 10:00-21:00; Su 12:00-18:00,,0
Hamilton Place,2204941,2100 Hamilton Place Blvd. ,,Chattanooga ,TN,37421,United States,(423) 510-0744,35.0352025,-85.1582859,Mo-Sa 10:00-21:00; Su 12:00-18:00,,0
Northfield Square,2204873,1600 N St Rte 50 ,,Bourbonnais ,IL,60914,United States,(815) 929-0853,41.156142,-87.877283,Mo-Sa 10:00-21:00; Su 11:00-18:00,,0
North Point,2205637,2172 North Point Circle ,,Alpharetta ,GA,30022,United States,(770) 772-9527,34.050117,-84.2969466,Mo-Sa 10:00-21:00; Su 12:00-19:00,,0
Hawthorn,2205311,808 Hawthorn Center ,,Vernon Hills ,IL,60061,United States,(847) 367-0440,42.242959,-87.946414,Mo-Sa 10:00-21:00; Su 11:00-18:00,,0
Gurnee Mills,2205569,6170 Grand Ave ,,Gurnee ,IL,60031,United States,(847) 855-5391,42.3899294,-87.9593224,Mo-Fr 10:00-21:00; Sa 10:00-21:30; Su 11:00-19:00,,0
Pleasant Prairie,2204779,11211 120th Avenue ,,Pleasant Prairie ,WI,53158,United States,(262) 857-3983,42.5183023,-87.9466899,Mo-Sa 10:00-21:00; Su 10:00-19:00,,0
Yorktown,2204463,216 Yorktown ,,Lombard ,IL,60148,United States,(630) 629-3884,41.836824,-88.009195,Mo-Sa 10:00-21:00; Su 11:00-18:00,,0
Woodgrove Festival,2203989,1001 West 75th Street ,,Woodridge ,IL,60517,United States,(630) 427-0625,41.749826,-88.015125,Mo-Sa 10:00-21:00; Su 11:00-18:00,,0
Towne Square,2204043,5000 Frederica St. ,,Owensboro ,KY,42301,United States,(270) 689-0122,37.7202015,-87.1277709,Mo-Sa 10:00-21:00; Su 12:00-18:00,,0
Park Place,2203981,1377 North Rand Road ,,Palatine ,IL,60074,United States,(847) 705-4833,42.1378324,-88.0153161,Mo-Sa 10:00-20:00; Su 11:00-18:00,,0
Promenade At Bolingbrook,2205077,631 E. Boughton Road ,,Bolingbrook ,IL,60440,United States,(630) 972-0262,41.7187756,-88.0416748,Mo-Sa 10:00-21:00; Su 11:00-18:00,,0
Woodfield,2205085,5 Woodfield Mall ,,Schaumburg ,IL,60173,United States,(847) 619-0522,42.0462458,-88.0374012,Mo-Sa 10:00-21:00; Su 11:00-18:00,,0
Bayshore,2204379,485 W. Glen Bay Ave. ,,Milwaukee ,WI,53217,United States,(414) 961-2110,43.121728,-87.914473,Mo-Sa 10:00-21:00; Su 11:00-18:00,,0
The Mall At Stonecrest,2204693,2929 Turner Hill Rd ,,Lithonia ,GA,30038,United States,(678) 526-2598,33.6994355,-84.0959466,Mo-Sa 10:00-21:00; Su 12:00-18:00,,0
Avenue At East Cobb,2205781,4475 Roswell Road ,,Marietta ,GA,30062,United States,(678) 560-8217,33.9888564,-84.4227034,Mo-Sa 10:00-21:00; Su 12:00-18:00,,0
Calhoun Premium Outlets,2203887,455 Belwood Rd Se ,,Calhoun ,GA,30701,United States,(706) 629-3785,34.4594993,-84.9181607,Mo-Sa 10:00-21:00; Su 11:00-19:00,,0
Bloomingdale Court,2204481,348-110 W. Army Trail Road ,,Bloomingdale ,IL,60108,United States,(630) 307-8645,41.938748,-88.110293,Mo-Sa 10:00-20:00; Su 11:00-18:00,,0
Southridge - (Wi),2205691,5300 South 76 St. ,,Greendale ,WI,53129,United States,(414) 423-5689,42.948344,-88.0042188,Mo-Sa 10:00-21:00; Su 11:00-18:00,,0
Woodstock Square,2203979,128 Woodstock Square Ave. ,,Woodstock ,GA,30189,United States,(770) 517-2452,34.0837947,-84.5463959,Mo-Sa 10:00-21:00; Su 12:00-18:00,,0
Louis Joliet,2205211,3340 Mall Loop Drive ,,Joliet ,IL,60431,United States,(815) 267-3033,41.5762899,-88.1655663,Mo-Sa 10:00-21:00; Su 11:00-18:00,,0
Mayfair,2204711,2500 North Mayfair Road ,,Wauwatosa ,WI,53226,United States,(414) 476-9259,43.0638464,-88.0443984,Mo-Sa 10:00-21:00; Su 11:00-18:00,,0
Phipps,2205433,3500 Peachtree Road N.E. ,,Atlanta ,GA,30326,United States,(404) 237-8504,33.8527457,-84.3622452,Mo-Sa 10:00-21:00; Su 12:00-18:00,,0
Arboretum Of South Barrngtn,2205031,100 West Higgins South ,,Barrington ,IL,60010,United States,(847) 836-7518,42.073722,-88.183865,Mo-Sa 10:00-21:00; Su 11:00-18:00,,0
Town Center At Cobb,2205801,400 Barrett Parkway ,,Kennesaw ,GA,30144,United States,(770) 429-0773,34.018009,-84.564265,Mo-Sa 10:00-21:00; Su 12:00-18:00,,0
Westridge Court,2204369,304 S. Route 59 ,,Naperville ,IL,60540,United States,(630) 717-8553,41.767357,-88.2037979,Mo-Sa 10:00-21:00; Su 11:00-18:00,,0
Fox Valley,2205305,195 Fox Valley Center Drive ,,Aurora ,IL,60504,United States,(630) 978-0020,41.7582758,-88.2122966,Mo-Sa 10:00-21:00; Su 11:00-18:00,,0
Brookfield Sq,2204261,95 N. Moorland Rd. ,,Brookfield ,WI,53005,United States,(262) 784-9435,43.0324594,-88.1088026,Mo-Sa 10:00-21:00; Su 11:00-18:00,,0
Evansville Pavilion,2204593,6501 E. Lloyd Expressway ,,Evansville ,IN,47711,United States,(812) 401-3985,37.973437,-87.472216,Mo-Sa 10:00-21:00; Su 11:00-18:00,,0
The Streets Of Indian Lake,2205255,300 Indian Lake Blvd. ,,Hendersonville ,TN,37075,United States,(615) 822-8993,36.3229617,-86.5971315,Mo-Sa 10:00-21:00; Su 11:00-18:00,,0
Eastland,2204495,800 N. Green River Road ,,Evansville ,IN,47715,United States,(812) 477-8388,37.9839976,-87.4960356,Mo-Sa 10:00-21:00; Su 12:00-18:00,,0
Chicago Premium Outlets,2204783,1650 Premium Outlets Blvd ,,Aurora ,IL,60502,United States,(630) 585-7344,41.800643,-88.274963,Mo-Fr 10:00-21:00; Sa 09:00-21:00; Su 10:00-19:00,,0
Lakeside Marketplace,2204337,3384 Cobb Parkway Nw ,,Acworth ,GA,30101,United States,(770) 917-1071,34.0384465,-84.6857431,Mo-Sa 10:00-21:00; Su 12:00-18:00,,0
Providence Marketplace,2204963,401 S. Mt. Juliet Road ,,Mount Juliet ,TN,37122,United States,(615) 758-0663,36.1687288,-86.5102731,Mo-Sa 10:00-21:00; Su 12:00-18:00,,0
Shops At Fox River,2204367,2934 Commerce Drive ,,Johnsburg ,IL,60051,United States,(815) 344-2196,42.3693884,-88.266152,Mo-Fr 10:00-21:00; Sa 10:00-19:00; Su 12:00-18:00,,0
Gerry Centennial,2204831,1680 Douglas Road ,,Oswego ,IL,60543,United States,(630) 551-3183,41.6967353,-88.3113268,Mo-Sa 10:00-21:00; Su 11:00-18:00,,0
Avenue At West Cobb,2205295,3625 Dallas Highway ,,Marietta ,GA,30064,United States,(770) 919-1166,33.9522801,-84.6596201,Mo-Sa 10:00-21:00; Su 12:00-18:00,,0
Geneva Commons,2205445,506 Commons Drive ,,Geneva ,IL,60134,United States,(630) 208-6944,41.8911761,-88.3435509,Mo-Sa 10:00-21:00; Su 11:00-18:00,,0
Algonquin Commons,2203985,1828 South Randall Road ,,Algonquin ,IL,60102,United States,(847) 658-1910,42.1505066,-88.3398259,Mo-Sa 10:00-21:00; Su 11:00-18:00,,0
Market Place,2205159,2000 North Neil Street ,,Champaign ,IL,61820,United States,(217) 398-2733,40.1425481,-88.2427717,Mo-Sa 10:00-21:00; Su 11:00-18:00,,0
Avenue Murfreesboro,2205435,2615 Medical Center Parkway ,,Murfreesboro ,TN,37129,United States,(615) 893-0743,35.8628485,-86.4464451,Mo-Sa 10:00-21:00; Su 12:00-18:00,,0
Opry Mills,2204047,388 Opry Mills Dr. ,,Nashville ,TN,37214,United States,(615) 232-3822,36.2013569,-86.6940004,Mo-Sa 10:00-21:00; Su 11:00-19:00,,0
Tuscola Outlet Center,2205129,Suite E-300 Tuscola Blvd. ,,Tuscola ,IL,61953,United States,(217) 253-4969,39.787932,-88.268837,Mo-Sa 10:00-21:00; Su 11:00-18:00,,0
Mt. Berry,2205785,993 Mt. Berry Square Ne ,,Rome ,GA,30165,United States,(706) 802-1145,34.262816,-85.180368,Mo-Sa 10:00-21:00; Su 12:00-18:00,,0
Shoppes At River Crossing,2203881,5080 Riverside Drive ,,Macon ,GA,31210,United States,(478) 474-0056,32.9263716,-83.7142233,Mo-Sa 10:00-21:00; Su 12:00-18:00,,0
Bay Park,2204101,303 Bay Park Square Green ,,Bay ,WI,54304,United States,(920) 490-0060,44.4837804,-88.065759,Mo-Sa 10:00-21:00; Su 11:00-18:00,,0
Fayette Pavilion,2203891,110 B Pavilion Pkwy ,,Fayetteville ,GA,30214,United States,(678) 817-5860,33.478531,-84.439153,Mo-Sa 10:00-21:00; Su 12:00-18:00,,0
Arbor Place,2204373,6700 Douglas Boulevard ,,Douglasville ,GA,30135,United States,(678) 838-9475,33.7277245,-84.7460835,Mo-Sa 10:00-21:00; Su 12:00-18:00,,0
Nashville West,2205307,6722 Charlotte Pike ,,Nashville ,TN,37209,United States,(615) 353-2745,36.1379174,-86.8888412,Mo-Sa 10:00-21:00; Su 12:00-18:00,,0
Coolsprings Galleria,2204901,1800 Galleria Blvd. ,,Franklin ,TN,37067,United States,(615) 771-7230,35.9572982,-86.8139063,Mo-Sa 10:00-21:00; Su 12:00-18:00,,0
Thoroughbred Village,2205313,545 Cool Springs Blvd. ,,Franklin ,TN,37067,United States,(615) 771-0845,35.9489867,-86.8228175,Mo-Sa 10:00-21:00; Su 12:00-18:00,,0
Governor'S Square,2204929,2801 Wilma Rudolph Blvd ,,Clarksville ,TN,37040,United States,(931) 552-3051,36.5885018,-87.2876265,Mo-Sa 10:00-21:00; Su 11:00-18:00,,0
Avenue At Peachtree,2204213,206 City Circle ,,Peachtree City ,GA,30269,United States,(770) 632-3647,33.3946852,-84.5910987,Mo-Sa 10:00-21:00; Su 12:00-18:00,,0
Fox River,2204377,4301 W. Wisconsin Avenue ,,Appleton ,WI,54913,United States,(920) 738-9678,44.2692534,-88.4705139,Mo-Sa 10:00-21:00; Su 10:00-18:00,,0
Outlet Shoppes At Oshkosh,2205193,3001 South Washburn ,,Oshkosh ,WI,54904,United States,(920) 232-0270,43.983505,-88.585242,Mo-Sa 10:00-21:00; Su 10:00-18:00,,0
Cherryvale,2205147,7200 Harrison Ave ,,Rockford ,IL,61112,United States,(815) 332-4453,42.2460425,-88.9756194,Mo-Sa 10:00-21:00; Su 11:00-18:00,,0
Eastland,2205245,1615 E. Empire St. ,,Bloomington ,IL,61701,United States,(309) 664-6780,40.4859493,-88.9561306,Mo-Sa 10:00-21:00; Su 12:00-18:00,,0
Janesville Mall,2205553,2500 Milton Ave ,,Janesville ,WI,53545,United States,(608) 756-3759,42.712245,-88.9998454,Mo-Sa 10:00-21:00; Su 11:00-18:00,,0
Peru,2205349,3940 Route 251 ,,Peru ,IL,61354,United States,(815) 220-1560,41.3554608,-89.1280752,Mo-Sa 10:00-21:00; Su 11:00-18:00,,0
Hickory Point,2204845,1146 Hickory Point Mall ,,Forsyth ,IL,62535,United States,(217) 876-8821,39.9188311,-88.959266,Mo-Sa 10:00-21:00; Su 12:00-17:00,,0
Parkway City,2204225,2801 Memorial Parkway Sw ,,Huntsville ,AL,35801,United States,(256) 536-7465,34.7085276,-86.5880713,Mo-Sa 10:00-21:00; Su 12:00-18:00,,0
East Towne,2205231,89 East Towne Mall ,,Madison ,WI,53704,United States,(608) 241-4892,43.125046,-89.3062163,Mo-Sa 10:00-21:00; Su 11:00-18:00,,0
Gadsden Mall,2204077,1001 Rainbow Drive ,,Gadsden ,AL,35901,United States,(256) 546-1987,33.9953816,-86.0063971,Mo-Sa 10:00-21:00; Su 12:00-18:00,,0
Bridge Street Town Cntr,2205799,355 The Bridge Street N.W. ,,Huntsville ,AL,35806,United States,(256) 327-8505,34.717729,-86.673943,Mo-Th 10:00-21:00; Fr-Sa 10:00-22:00; Su 12:00-19:00,,0
West Towne,2204709,63 West Towne Mall ,,Madison ,WI,53719,United States,(608) 833-0661,43.0570896,-89.5092993,Mo-Sa 10:00-21:00; Su 11:00-18:00,,0
Northwoods,2205797,2200 West War Memorial Drive ,,Peoria ,IL,61613,United States,(309) 686-0135,40.7399472,-89.6285208,Mo-Sa 10:00-21:00; Su 11:00-18:00,,0
Shoppes At Grand Prairie,2204475,5201 W. War Memorial Drive ,,Peoria ,IL,61615,United States,(309) 689-0258,40.7787369,-89.673712,Mo-Sa 10:00-21:00; Su 11:00-18:00,,0
Columbus Park Crossing,2204829,5550 Whittlesey Blvd ,,Columbus ,GA,31909,United States,(706) 653-9854,32.5442219,-84.9431076,Mo-Sa 10:00-21:00; Su 12:00-18:00,,0
Kentucky Oaks,2204103,5101 Hinkleville Rd ,,Paducah ,KY,42001,United States,(270) 575-9180,37.0782727,-88.6906148,Mo-Sa 10:00-21:00; Su 11:00-18:00,,0
White Oaks,2204571,2501 W. Wabash Avenue ,,Springfield ,IL,62704,United States,(217) 793-5500,39.767122,-89.703375,Mo-Sa 10:00-21:00; Su 11:00-18:00,,0
Wisconsin Dells,2204809,120 Gasser Road ,,Baraboo ,WI,53913,United States,(608) 253-4910,43.575697,-89.782399,Mo-Sa 09:00-21:00; Su 10:00-19:00,,0
St. John'S Town Center,2205439,4712 River City Drive ,,Jacksonville ,FL,32246,United States,(904) 807-9279,30.2572981,-81.5256463,Mo-Sa 10:00-21:00; Su 11:00-18:00,,0
University (Il),2204075,1237 East Main St. ,,Carbondale ,IL,62901,United States,(618) 457-6040,37.7291144,-89.1928296,Mo-Sa 10:00-21:00; Su 12:00-17:30,,0
The Avenues,2204445,10300 Southside Blvd ,,Jacksonville ,FL,32256,United States,(904) 519-1847,30.184597,-81.5535033,Mo-Sa 10:00-21:00; Su 12:00-18:00,,0
Wausau Center,2203911,C-302 Wausau Center ,,Wausau ,WI,54403,United States,(715) 842-9632,44.957996,-89.628107,Mo-Fr 10:00-21:00; Sa 09:30-21:00; Su 11:00-18:00,,0
Riverplace,2204313,11111 San Jose Blvd ,,Jacksonville ,FL,32223,United States,(904) 288-6122,30.1735081,-81.6267427,Mo-Sa 10:00-21:00; Su 12:00-18:00,,0
Regency Square (Al),2205223,301 Cox Creek Parkway ,,Florence ,AL,35630,United States,(256) 764-3170,34.8371309,-87.6360045,Mo-Sa 10:00-21:00; Su 13:00-17:30,,0
Oakleaf Town Center,2204355,9630 Applecross Road ,,Jacksonville ,FL,32222,United States,(904) 778-3280,30.1969823,-81.827135,Mo-Sa 10:00-21:00; Su 12:00-18:00,,0
Pinnacle At Tutweiler,2204249,5030 Pinnacle Square ,,Birmingham ,AL,35235,United States,(205) 655-7795,33.622618,-86.645994,Mo-Sa 10:00-21:00; Su 12:00-18:00,,0
Shops Of Grand River,2205217,6200 Grand River Boulevard ,,Eas Leeds ,AL,35094,United States,(205) 699-2058,33.548801,-86.596128,Mo-Sa 10:00-21:00; Su 12:00-18:00,,0
Island Walk,2204975,1987 Eastwest Parkway ,,Orange Park ,FL,32003,United States,(904) 215-3424,30.099158,-81.713493,Mo-Sa 10:00-21:00; Su 12:00-18:00,,0
St. Augustine Outlets,2204791,2700 State Road 16 ,,Saint Augustine ,FL,32092,United States,(904) 819-5481,29.9250701,-81.4173769,Mo-Sa 09:00-21:00; Su 10:00-18:00,,0
Valdosta,2204057,1700 Norman Drive ,,Valdosta ,GA,31601,United States,(229) 247-4910,30.8436226,-83.3206399,Mo-Sa 10:00-21:00; Su 13:00-18:00,,0
Southpark - (Il),2205701,4500 16th Street ,,Moline ,IL,61265,United States,(309) 757-0512,41.4673759,-90.502478,Mo-Sa 10:00-21:00; Su 12:00-18:00,,0
St Clair,2204147,212 St. Clair Square ,,Fairview Heights ,IL,62208,United States,(618) 628-1529,38.5935602,-89.9823755,Mo-Sa 10:00-21:00; Su 11:00-18:00,,0
Shoppes At St. Clair Square,2204983,6520 North Illinois ,,Fairview Heights ,IL,62208,United States,(618) 624-0894,38.593583,-89.982932,Mo-Sa 10:00-20:00; Su 12:00-18:00,,0
Northpark - (Ia),2204767,320 West Kimberly Rd. ,,Davenport ,IA,52806,United States,(563) 386-7209,41.5636895,-90.5747185,Mo-Sa 10:00-21:00; Su 12:00-18:00,,0
West Park,2205517,3049 William Street Cape ,,Girardeau ,MO,63703,United States,(573) 332-0313,37.2984548,-89.5710318,Mo-Sa 10:00-21:00; Su 12:00-18:00,,0
Riverchase,2204939,2000 Riverchase ,,Galleria Birmingham ,AL,35244,United States,(205) 682-6036,33.3802311,-86.8083046,Mo-Sa 10:00-21:00; Su 12:00-18:00,,0
Kennedy,2205199,555 John F. Kennedy Rd. ,,Dubuque ,IA,52002,United States,(563) 583-9083,42.4948226,-90.7226547,Mo-Sa 10:00-21:00; Su 11:00-18:00,,0
Promenade Alabaster,2204603,300 Colonial Promenade Pkwy ,,Alabaster ,AL,35007,United States,(205) 664-3995,33.2325802,-86.8022526,Mo-Sa 10:00-21:00; Su 12:00-18:00,,0
Old Hickory,2205041,2021 N. Highland Ave. ,,Jackson ,TN,38305,United States,(731) 512-1960,35.6566672,-88.8307469,Mo-Sa 10:00-21:00; Su 12:00-18:00,,0
South County,2204209,354 South County Center Way ,,Saint Louis ,MO,63129,United States,(314) 894-7039,38.5043487,-90.3285552,Mo-Sa 10:00-21:00; Su 11:00-18:00,,0
West County,2204015,63 West County Center ,,Des Peres ,MO,63131,United States,(314) 909-1702,38.6027887,-90.4465117,Mo-Sa 10:00-21:00; Su 11:00-18:00,,0
Plaza At East Chase,2204955,2436 Berryhill Road ,,Montgomery ,AL,36117,United States,(334) 271-1332,32.3575006,-86.160908,Mo-Sa 10:00-21:00; Su 12:00-18:00,,0
Volusia,2205767,1700 W. International Spd ,,Daytona Beach ,FL,32114,United States,(386) 258-1249,29.198796,-81.042343,Mo-Sa 10:00-21:00; Su 12:00-18:00,,0
Chesterfield,2205331,38 Chesterfield Mall ,,Chesterfield ,MO,63017,United States,(636) 537-4995,38.651061,-90.567973,Mo-Sa 10:00-21:00; Su 11:00-18:00,,0
Mid Rivers,2204211,1600 Mid Rivers Mall ,,Saint Peters ,MO,63376,United States,(636) 278-2251,38.7960762,-90.6159688,Mo-Sa 10:00-21:00; Su 11:00-18:00,,0
Prestige Outlets Chesterfield,2205487,17049 North Outer 40 Road ,,Chesterfield ,MO,63005,United States,(636) 489-3846,38.669675,-90.5840352,Mo-Sa 10:00-21:00; Su 10:00-18:00,,0
O'Fallon Walk,2204627,2225 Highway K ,,Ofallon ,MO,63368,United States,(636) 272-0840,38.7788448,-90.6999146,Mo-Sa 10:00-21:00; Su 11:00-18:00,,0
Westland Mall - (Ia),2205479,550 South Gear Avenue West ,,Burlington ,IA,52655,United States,(319) 752-7761,40.8210652,-91.1671373,Mo-Fr 10:00-21:00; Sa 10:00-20:00; Su 12:00-18:00,,0
Oaks,2205803,6343 W Newberry Road ,,Gainesville ,FL,32605,United States,(352) 331-7776,29.6595464,-82.4110928,Mo-Sa 10:00-21:00; Su 12:00-18:00,,0
Midtown Village,2203873,1800 Mcfarland Blvd East ,,Tuscaloosa ,AL,35404,United States,(205) 752-5414,33.1942195,-87.5278996,Mo-Sa 10:00-21:00; Su 13:00-18:00,,0
Wiregrass Commons,2204107,900 Commons Dr. ,,Dothan ,AL,36303,United States,(334) 792-9970,31.2536055,-85.4248631,Mo-Sa 10:00-21:00; Su 12:00-18:00,,0
Governor'S Square (Fl),2205993,1500 Apalachee Pkwy ,,Tallahassee ,FL,32301,United States,(850) 688-4905,30.436058,-84.257679,Mo-Sa 10:00-21:00; Su 12:00-18:00,,0
Quincy,2205233,3267 Quincy Mall ,,Quincy ,IL,62301,United States,(217) 223-9211,39.9358,-91.3633508,Mo-Sa 10:00-21:00; Su 12:00-17:00,,0
Lindale,2204159,4444 First Ave. N.E. ,,Cedar Rapids ,IA,52402,United States,(319) 832-1318,42.0255179,-91.6272126,Mo-Sa 10:00-21:00; Su 12:00-18:00,,0
Barnes Crossing,2204503,1001 Barnes Crossing Road ,,Tupelo ,MS,38801,United States,(662) 840-0637,34.257607,-88.703386,Mo-Sa 10:00-21:00; Su 12:30-18:00,,0
Marketplace @ Seminole Town Ce,2204607,1373 Wp Ball Blvd ,,Sanford ,FL,32771,United States,(407) 330-4001,28.7984733,-81.335008,Mo-Sa 10:00-21:00; Su 11:00-18:00,,0
Paddock,2203885,3100 Sw College Rd ,,Ocala ,FL,34474,United States,(352) 854-3265,29.1586112,-82.1732255,Mo-Sa 10:00-21:00; Su 12:00-17:30,,0
Oakwood,2203867,4800 Golf Road ,,Eau Claire ,WI,54701,United States,(715) 834-1480,44.7750124,-91.4414522,Mo-Sa 10:00-21:00; Su 11:00-18:00,,0
Marketplace @ Oviedo,2204387,1310 Oviedo Marketplace B ,,Oviedo ,FL,32765,United States,(407) 971-0366,28.662804,-81.234465,Mo-Sa 10:00-21:00; Su 12:00-18:00,,0
Altamonte Mall,2205179,451 East Altamonte Drive ,,Altamonte Springs ,FL,32701,United States,(407) 332-0474,28.6665743,-81.3773794,Mo-Sa 10:00-21:00; Su 12:00-18:00,,0
Waterford Lakes Town Center,2205705,355 North Alafaya Trail ,,Orlando ,FL,32828,United States,(407) 277-5086,28.5544046,-81.2061579,Mo-Sa 10:00-21:00; Su 12:00-18:00,,0
Williamsburg,2204781,127 Tanger Drive ,,Williamsburg ,IA,52361,United States,(319) 668-1836,41.6907887,-92.0039643,Mo-Sa 09:00-21:00; Su 10:00-19:00,,0
Wolfchase Galleria,2204505,2760 N. Germantown ,,Parkwa Memphis ,TN,38133,United States,(901) 387-1615,35.20067,-89.793147,Mo-Sa 10:00-21:00; Su 12:00-18:00,,0
Countrywood Crossing,2204965,2269 North Germantown Pkwy ,,Cordova ,TN,38016,United States,(901) 372-1712,35.1871814,-89.7948049,Mo-Sa 10:00-21:00; Su 12:00-18:00,,0
Carriage Crossing,2205293,4650 Merchants Park Circle Collierville ,,,TN,38017,United States,(901) 861-8121,35.0241616,-89.7171073,Mo-Sa 10:00-21:00; Su 12:00-18:00,,0
The Avenue Viera,2204655,2281 Town Center Avenue ,,Melbourne ,FL,32940,United States,(321) 631-2400,28.2436143,-80.7279885,Mo-Sa 10:00-21:00; Su 12:00-18:00,,0
Mall At Millenia,2204223,4200 Conroy Rd ,,Orlando ,FL,32839,United States,(407) 226-3906,28.4855897,-81.4316837,Mo-Sa 10:00-21:00; Su 11:00-19:00,,0
Orlando,2205013,4973 International Drive ,,Orlando ,FL,32819,United States,(407) 363-9450,28.4762848,-81.4509933,Mo-Th 10:00-23:00; Fr-Sa 09:00-23:00; Su 10:00-21:00,,0
Winter Garden Village,2205713,3041 Daniels Road ,,Winter Garden ,FL,34787,United States,(407) 877-1541,28.5234157,-81.5849222,Mo-Sa 10:00-21:00; Su 12:00-18:00,,0
Florida,2205095,8001 S. Orange Blossom Tr. ,,Orlando ,FL,32809,United States,(407) 438-1334,28.445623,-81.395201,Mo-Fr 10:00-21:00; Sa 10:00-22:00; Su 12:00-20:00,,0
The Loop,2204591,3258 N. John Young Pkwy ,,Kissimmee ,FL,34741,United States,(407) 870-0672,28.3452882,-81.4209329,Mo-Sa 10:00-21:00; Su 11:00-18:00,,0
Lake Buena Vista Factory Store,2205689,15761 S Apopka Vineland Rd ,,Orlando ,FL,32821,United States,(407) 787-3308,28.3508429,-81.4908308,Mo-Sa 10:00-21:00; Su 10:00-19:00,,0
Crossroads - (Waterloo),2205203,2060 Crossroads Blvd ,,Waterloo ,IA,50702,United States,(319) 235-2628,42.4622282,-92.3223394,Mo-Sa 10:00-21:00; Su 12:00-18:00,,0
Southaven Towne Center,2204637,6584 Towne Center Loop ,,Southaven ,MS,38671,United States,(662) 536-4535,34.9566021,-89.9959082,Mo-Sa 10:00-21:00; Su 12:00-18:00,,0
Mall At Turtle Creek,2204295,3000 Highland Avenue ,,Jonesboro ,AR,72401,United States,(870) 336-2571,35.823294,-90.664168,Mo-Sa 10:00-21:00; Su 12:30-18:00,,0
Apache,2204023,1200 12th Street Sw ,,Rochester ,MN,55902,United States,(507) 280-6039,44.0043312,-92.4804897,Mo-Sa 10:00-21:00; Su 11:00-19:00,,0
Vero Beach Fashion Outlets,2204997,1691 94th Drive ,,Vero Beach ,FL,32966,United States,(772) 562-8971,27.6391704,-80.5229761,Mo-Sa 09:00-20:00; Su 11:00-18:00,,0
Capital (Mo),2204871,3600 Country Club Dr ,,Jefferson City ,MO,65109,United States,(573) 893-1358,38.5854716,-92.2544036,Mo-Sa 10:00-21:00; Su 11:00-18:00,,0
Columbia,2204269,2300 Bernadette Drive ,,Columbia ,MO,65203,United States,(573) 447-4730,38.9638391,-92.3755181,Mo-Sa 10:00-21:00; Su 11:00-18:00,,0
Pier Park,2204095,204 Bluefish Drive ,,Panama City Beach ,FL,32413,United States,(850) 233-7102,30.219524,-85.8709444,Mo-Sa 10:00-21:00; Su 12:00-19:00,,0
Shops At Wiregrass,2205037,28329 Paseo Dr. ,,Wesley Chapel ,FL,33543,United States,(813) 994-7340,28.1890407,-82.3472947,Mo-Sa 10:00-21:00; Su 12:00-18:00,,0
Lakeside Villlage,2205111,1531 Town Center Drive ,,Lakeland ,FL,33803,United States,(863) 682-9790,27.9998086,-81.9811409,Mo-Sa 10:00-21:00; Su 12:00-18:00,,0
Destin Commons,2204311,4323 Legendary Drive ,,Destin ,FL,32541,United States,(850) 837-0547,30.3910905,-86.4234365,Mo-Th 10:00-21:00; Fr-Sa 10:00-22:00; Su 11:00-19:00,,0
Bonita Lakes,2205675,1210 Bonita Lakes Circle ,,Meridian ,MS,39301,United States,(601) 483-9773,32.358521,-88.672028,Mo-Sa 10:00-21:00; Su 12:00-18:00,,0
Treasure Coast,2204285,3240 Nw Federal Hwy ,,Jensen Beach ,FL,34957,United States,(772) 692-0619,27.242156,-80.274645,Mo-Sa 10:00-21:00; Su 12:00-18:00,,0
Miller Hill Mall,2204907,1600 Miller Trunk Hgwy ,,Duluth ,MN,55811,United States,(218) 722-0885,46.804569,-92.159865,Mo-Sa 10:00-21:00; Su 11:00-18:00,,0
Citrus Park,2204761,8074 Citrus Park ,,Town Center Tampa ,FL,33625,United States,(813) 926-6229,28.069614,-82.575273,Mo-Sa 10:00-21:00; Su 12:00-18:00,,0
Woodbury Lakes,2205427,9140 Hudson Road ,,Woodbury ,MN,55125,United States,(651) 251-6824,44.9473889,-92.9228695,Mo-Sa 10:00-21:00; Su 11:00-18:00,,0
Brandon Town Center,2205623,420 Brandon Town Center ,,Brandon ,FL,33511,United States,(813) 684-9583,27.933836,-82.328622,Mo-Sa 10:00-21:00; Su 11:00-18:00,,0
Woodbury Village,2203965,7150 Valley Creek Plaza ,,Woodbury ,MN,55125,United States,(651) 714-3955,44.927914,-92.962792,Mo-Sa 10:00-21:00; Su 11:00-18:00,,0
Westshore - (Fl),2204061,175 Westshore Plaza Blvd ,,Tampa ,FL,33609,United States,(813) 288-2059,27.9451794,-82.5272943,Mo-Sa 10:00-21:00; Su 12:00-18:00,,0
Maplewood,2203919,3001 White Bear Avenue N ,,Maplewood ,MN,55109,United States,(651) 777-6930,45.004579,-93.025163,Mo-Sa 10:00-21:00; Su 11:00-18:00,,0
Countryside,2204443,27001 Us Highway 19 N ,,Clearwater ,FL,33761,United States,(727) 726-5214,28.0173286,-82.7336129,Mo-Sa 10:00-21:00; Su 12:00-18:00,,0
Osage Beach Outlets,2204793,4540 Hwy 54 ,,Osage Beach ,MO,65065,United States,(573) 348-4170,38.150311,-92.617962,Mo-Th 10:00-21:00; Fr-Sa 09:00-21:00; Su 10:00-19:00,,0
Medford Outlet Center,2205197,6750 West Frontage Rd. ,,Medford ,MN,55049,United States,(507) 446-8069,44.1700551,-93.2623869,Mo-Sa 10:00-20:00; Su 11:00-18:00,,0
North Branch Outlets,2203913,38500 Tanger Dr. ,,North Branch ,MN,55056,United States,(651) 674-6112,45.5068231,-92.9955513,Mo-Sa 10:00-20:00; Su 11:00-18:00,,0
Twin Cities At Eagan,2205335,3905 Eagan Outlets Parkway ,,Eagan ,MN,55122,United States,(651) 994-3995,44.8159532,-93.2152473,Mo-Sa 10:00-21:00; Su 10:00-19:00,,0
Rosedale,2205639,1595 Highway 36w ,,Roseville ,MN,55113,United States,(651) 636-8775,45.012735,-93.173241,Mo-Sa 10:00-21:00; Su 11:00-18:00,,0
Mall Of America,2205099,255 South Avenue ,,Bloomington ,MN,55425,United States,(952) 851-9557,44.853267,-93.241917,Mo-Sa 10:00-21:30; Su 11:00-19:00,,0
Burnsville,2205309,2061 Burnsville Center ,,Burnsville ,MN,55306,United States,(952) 898-2666,44.7421309,-93.2893435,Mo-Sa 10:00-21:00; Su 11:00-18:00,,0
Legacy Place,2204959,11330 Legacy Avenue ,,Palm Beach Gardens ,FL,33410,United States,(561) 799-7008,26.8432612,-80.0897107,Mo-Sa 10:00-21:00; Su 12:00-18:00,,0
North Grand Mall,2204841,2801 Grand Avenue ,,Ames ,IA,50010,United States,(515) 232-1040,42.049311,-93.6225906,Mo-Sa 10:00-21:00; Su 12:00-17:00,,0
Tyrone,2204957,6776 Tyrone Square ,,St Petersburg ,FL,33710,United States,(727) 345-3441,27.795013,-82.731897,Mo-Sa 10:00-21:00; Su 11:00-19:00,,0
Cordova,2205621,5100 N. 9th Avenue ,,Pensacola ,FL,32504,United States,(850) 479-7378,30.475326,-87.207522,Mo-Sa 10:00-21:00; Su 12:00-18:00,,0
Eden Prairie,2205419,125 Eden ,,Prairie Center Eden Prairie ,MN,55344,United States,(952) 829-7001,44.8543467,-93.425001,Mo-Sa 10:00-21:00; Su 11:00-18:00,,0
Riverdale Village,2205765,12761 Riverdale Blvd ,,Coon Rapids ,MN,55448,United States,(763) 421-0784,45.2029048,-93.3529574,Mo-Fr 10:00-21:00; Sa 10:00-20:00; Su 11:00-18:00,,0
Merle Hay,2205451,3800 Merle Hay ,,Des Moines ,IA,50310,United States,(515) 331-2526,41.631416,-93.70115,Mo-Sa 10:00-21:00; Su 12:00-17:30,,0
Palm Beach Fashion Outlets,2205333,1741 Palm Beach Lakes Blvd ,,West Palm Beach ,FL,33401,United States,(561) 687-2363,26.7251624,-80.0863786,Mo-Sa 10:00-21:00; Su 11:00-19:00,,0
Arbor Lakes,2204697,12421 Elm Creek Boulevard ,,Maple Grove ,MN,55369,United States,(763) 425-9310,45.092921,-93.437568,Mo-Sa 10:00-21:00; Su 11:00-18:00,,0
Valley West,2204203,1551 Valley West Drive West ,,Des Moines ,IA,50266,United States,(515) 222-0454,41.5995333,-93.7489766,Mo-Sa 10:00-21:00; Su 11:00-18:00,,0
Jordan Creek Town Center,2205291,101 Jordan Creek Parkway ,,West Des Moines ,IA,50266,United States,(515) 223-3095,41.5702624,-93.8070392,Mo-Sa 10:00-21:00; Su 11:00-18:00,,0
Ellenton,2204777,5525 Factory Shops Boulevard ,,Ellenton ,FL,34222,United States,(941) 729-5244,27.5341584,-82.5071169,Mo-Sa 10:00-21:00; Su 10:00-19:00,,0
Wellington Green,2203925,10300 West Forest Hill ,,Bouleva Wellington ,FL,33414,United States,(561) 791-7895,26.646401,-80.208776,Mo-Sa 10:00-21:00; Su 11:00-18:00,,0
Eastern Shore Centre,2204687,30500 State Highway 181 ,,Spanish Fort ,AL,36527,United States,(251) 626-1607,30.669982,-87.8491428,Mo-Sa 10:00-21:00; Su 12:00-18:00,,0
Albertville,2204811,6415 Labeaux Ave. Ne ,,Albertville ,MN,55301,United States,(763) 425-5504,45.2439381,-93.6617384,Mo-Sa 10:00-21:00; Su 10:00-19:00,,0
River Hills - (Mn),2205507,1850 Adams Street ,,Mankato ,MN,56001,United States,(507) 388-2329,44.1729626,-93.9535688,Mo-Sa 10:00-21:00; Su 11:00-18:00,,0
Foley,2204799,2601 S. Mckenzie Street ,,Foley ,AL,36535,United States,(251) 970-1273,30.3757462,-87.6797911,Mo-Sa 09:00-21:00; Su 10:00-19:00,,0
Sarasota Sq,2204381,8201 S. Tamiami Trail ,,Sarasota ,FL,34238,United States,(941) 926-8655,27.2341835,-82.4932558,Mo-Sa 10:00-21:00; Su 12:00-18:00,,0
Bel Air,2204927,3231 Bel Air Mall ,,Mobile ,AL,36606,United States,(251) 478-3181,30.6733992,-88.1257249,Mo-Sa 10:00-21:00; Su 12:00-17:30,,0
Town Center (Fl),2204509,6000 West Glades Rd. ,,Boca Raton ,FL,33431,United States,(561) 417-8474,26.365904,-80.134344,Mo-Sa 10:00-21:00; Su 12:00-18:00,,0
Port Charlotte Town,2205345,1441 Tamiami Trail Port ,,Charlotte ,FL,33948,United States,(941) 255-6911,27.0089337,-82.1477728,Mo-Sa 10:00-21:00; Su 12:00-18:00,,0
Promenade At Coconut Creek,2205809,4419 Lyons Road ,,Coconut Creek ,FL,33073,United States,(954) 974-7093,26.2836854,-80.1877703,Mo-Sa 10:00-21:00; Su 12:00-18:00,,0
Dogwood Festival,2203931,146 Dogwood Blvd. ,,Flowood ,MS,39232,United States,(601) 919-1205,32.3384569,-90.05986,Mo-Sa 10:00-21:00; Su 12:00-18:00,,0
Renaissance At Colony Park,2203871,1000 Highland Colony Pkwy ,,Ridgeland ,MS,39157,United States,(601) 853-4245,32.4339203,-90.147267,Mo-Sa 10:00-20:00; Su 13:00-18:00,,0
Lakeland Commons,2205729,314 Ridge Way ,,Flowood ,MS,39232,United States,(601) 992-6512,32.3411245,-90.066137,Mo-Sa 10:00-21:00; Su 12:00-18:00,,0
Coral Square,2204281,9469 W. Atlantic Blvd. ,,Coral Springs ,FL,33071,United States,(954) 752-4431,26.2414572,-80.2495518,Mo-Sa 10:00-21:00; Su 12:00-18:00,,0
Battlefield,2204139,2825 S. Glenstone ,,Springfield ,MO,65804,United States,(417) 890-6811,37.162742,-93.265674,Mo-Sa 10:00-21:00; Su 12:00-18:00,,0
Sawgrass Mills,2204669,12801 W Sunrise Boulevard ,,Sunrise ,FL,33323,United States,(954) 838-9214,26.1490011,-80.3249391,Mo-Sa 10:00-21:30; Su 11:00-20:00,,0
Crossroads,2205515,4101 West Division Street ,,Saint Cloud ,MN,56301,United States,(320) 240-7929,45.5534505,-94.2093633,Mo-Sa 10:00-21:00; Su 11:00-18:00,,0
Tower Shops,2204329,1984 S. University Drive ,,Davie ,FL,33324,United States,(954) 474-0837,26.0951632,-80.2472646,Mo-Sa 10:00-21:00; Su 11:00-18:00,,0
Branson Landing,2204589,905 Branson Landing Blvd. ,,Branson ,MO,65616,United States,(417) 334-9170,36.656061,-93.220547,Mo-Th 10:00-21:00; Fr-Sa 10:00-22:00; Su 10:00-20:00,,0
Edison,2204517,4125 Cleveland Ave. ,,Fort Myers ,FL,33901,United States,(239) 418-0180,26.6018715,-81.8684045,Mo-Sa 10:00-21:00; Su 11:30-17:30,,0
Turtle Creek,2204539,1000 Turtle Creek Drive ,,Hattiesburg ,MS,39402,United States,(601) 264-3070,31.3228759,-89.3756604,Mo-Sa 10:00-21:00; Su 12:00-18:00,,0
Branson,2204713,300 Tanger Boulevard ,,Branson ,MO,65616,United States,(417) 335-8451,36.6451868,-93.2645618,Mo-Sa 09:00-21:00; Su 10:00-19:00,,0
Pembroke Lakes Mall,2205091,11401 Pines Boulevard ,,Pembroke Pines ,FL,33026,United States,(954) 433-5101,26.0105739,-80.3046137,Mo-Sa 10:00-21:00; Su 12:00-18:00,,0
Pembroke Crossing,2204633,11856 Pines Blvd. ,,Pembroke Pines ,FL,33026,United States,(954) 447-3027,26.0076275,-80.3068636,Mo-Sa 10:00-21:00; Su 11:00-18:00,,0
Aventura,2204423,19575 Biscayne Blvd ,,Miami ,FL,33180,United States,(305) 935-1934,25.957148,-80.143608,Mo-Sa 10:00-21:30; Su 12:00-20:00,,0
Midtowne,2205149,201 North University Ave. ,,Little Rock ,AR,72205,United States,(501) 280-9709,34.7531853,-92.3407172,Mo-Fr 09:00-17:00; Su 12:00-18:00,,0
Park Plaza,2204411,6000 W Markham St. ,,Little Rock ,AR,72205,United States,(501) 663-0592,34.7535862,-92.3431438,Mo-Sa 10:00-21:00; Su 12:00-18:00,,0
Miromar Outlets,2205123,10801 Corkscrew Rd. ,,Estero ,FL,33928,United States,(239) 948-2040,26.4362393,-81.7746935,Mo-Sa 10:00-21:00; Su 11:00-18:00,,0
Independence Commons,2204659,18810 D; East 39th Street ,,Independence ,MO,64050,United States,(816) 795-5746,39.049612,-94.357658,Mo-Sa 10:00-21:00; Su 12:00-18:00,,0
Coconut Point,2204305,23141 Fashion Drive ,,Estero ,FL,33928,United States,(239) 992-4157,26.4031018,-81.8066922,Mo-Sa 10:00-21:00; Su 12:00-18:00,,0
Promenade At Chenal,2205437,17819 Chenal Parkway ,,Little Rock ,AR,72223,United States,(501) 821-5564,34.7667765,-92.4594637,Mo-Sa 10:00-21:00; Su 12:00-18:00,,0
Summit Woods Crossing,2205235,1744 Nw Chipman Rd. ,,Lees Summit ,MO,64081,United States,(816) 347-9441,38.9262878,-94.4092969,Mo-Sa 10:00-21:00; Su 11:00-18:00,,0
Dolphin,2205601,11401 Nw 12 Street ,,Miami ,FL,33172,United States,(786) 845-9310,25.7877597,-80.3807017,Mo-Sa 10:00-21:30; Su 11:00-20:00,,0
Miami International,2204271,1455 Nw 107th Avenue ,,Miami ,FL,33172,United States,(305) 513-4954,25.770194,-80.369214,Mo-Sa 10:00-21:00; Su 11:00-19:00,,0
Tiffany Springs,2204089,8992 N Skyview Avenue ,,Kansas City ,MO,64154,United States,(816) 741-3618,39.258985,-94.653314,Mo-Sa 10:00-21:00; Su 12:00-18:00,,0
Zona Rosa,2204735,7201 Nw 86th Terrace ,,Kansas City ,MO,64153,United States,(816) 746-6410,39.2507788,-94.6633472,Mo-Sa 10:00-21:00; Su 12:00-18:00,,0
East Hills - (Mo),2205687,3702 Frederick Avenue ,,Saint Joseph ,MO,64506,United States,(816) 676-1035,39.7743622,-94.7999835,Mo-Sa 10:00-21:00; Su 12:00-17:00,,0
Coastland,2204537,1788 Tamiami Trail North ,,Naples ,FL,34102,United States,(239) 434-8200,26.1673582,-81.79897,Mo-Sa 10:00-21:00; Su 12:00-18:00,,0
Kendall Village,2205741,8653 Sw 124 Avenue ,,Miami ,FL,33183,United States,(305) 596-3059,25.6877765,-80.3929511,Mo-Sa 10:00-21:00; Su 11:00-19:00,,0
Town Center,2205251,5025 West 117th St. ,,Leawood ,KS,66211,United States,(913) 327-1300,38.917032,-94.642877,Mo-Sa 10:00-21:00; Su 12:00-17:00,,0
Edgewater Mall,2204153,2600 Beach Blvd ,,Biloxi ,MS,39531,United States,(228) 385-1754,30.3922533,-88.9898269,Mo-Sa 10:00-21:00; Su 12:00-18:00,,0
The Falls,2204019,8888 Sw 136 Street ,,Miami ,FL,33176,United States,(305) 251-4904,25.6443825,-80.3394789,Mo-Sa 10:00-21:00; Su 12:00-19:00,,0
Oak Park,2204741,11431 West 95th Street ,,Overland Park ,KS,66214,United States,(913) 599-5056,38.9538818,-94.7180016,Mo-Sa 10:00-21:00; Su 11:00-18:00,,0
Olathe Pointe,2204611,14669 W. 119th St. ,,Olathe ,KS,66062,United States,(913) 782-5519,38.9097039,-94.7578565,Mo-Sa 10:00-21:00; Su 12:00-18:00,,0
Legends At Village West,2204985,1829 Village West Parkway ,,Kansas City ,KS,66111,United States,(913) 788-2004,39.1268346,-94.8239447,Mo-Sa 10:00-21:00; Su 11:00-18:00,,0
Northpark,2204691,101 N Range Line Rd. ,,Joplin ,MO,64801,United States,(417) 626-7287,37.0907431,-94.4730815,Mo-Sa 10:00-21:00; Su 12:00-18:00,,0
Pinnacle Hills,2205097,2203 S. Promenade Blvd. ,,Rogers ,AR,72758,United States,(479) 246-9338,36.3057803,-94.175734,Mo-Sa 10:00-21:00; Su 12:00-18:00,,0
Northwest - (Ar),2205001,4201 North Shiloh Dr. ,,Fayetteville ,AR,72703,United States,(479) 521-5835,36.129475,-94.1483367,Mo-Sa 10:00-21:00; Su 12:00-18:00,,0
Deerbrook Marketplace,2205459,20520 Highway 59 ,,North Humble ,TX,77338,United States,(281) 446-3684,38.319865,-95.251196,Mo-Sa 10:00-21:00; Su 12:00-18:00,,0
Deerbrook,2205267,20131 Highway 59 ,,North Humble ,TX,77338,United States,(281) 548-1341,38.319865,-95.251196,Mo-Sa 10:00-21:00; Su 12:00-18:00,,0
Shadow Lake Tc,2204325,7902 Towne Center Parkway ,,Papillion ,NE,68046,United States,(402) 592-1136,41.137342,-96.029888,Mo-Sa 10:00-21:00; Su 12:00-18:00,,0
Pecanland,2205631,4700 Millhaven Road ,,Monroe ,LA,71203,United States,(318) 323-5833,32.498433,-92.0587345,Mo-Sa 10:00-21:00; Su 12:00-18:00,,0
River Chase (Covington),2204069,69258 Hwy 21 ,,Covington ,LA,70433,United States,(985) 875-7923,30.4401208,-90.1439081,Mo-Sa 10:00-21:00; Su 12:00-18:00,,0
Westroads,2205167,10000 California Street ,,Omaha ,NE,68114,United States,(402) 390-2427,41.2666105,-96.0682933,Mo-Sa 10:00-21:00; Su 11:00-18:00,,0
Oakview,2205617,3001 S. 144th Street ,,Omaha ,NE,68144,United States,(402) 334-5515,41.2296986,-96.1348419,Mo-Sa 10:00-21:00; Su 11:00-18:00,,0
Village Pointe,2204575,17305 Davenport ,,Omaha ,NE,68118,United States,(402) 289-5462,41.26068,-96.18494,Mo-Sa 10:00-21:00; Su 12:00-18:00,,0
West Ridge,2204235,1801 Sw Wanamaker ,,Topeka ,KS,66604,United States,(785) 272-1235,39.032651,-95.766366,Mo-Sa 10:00-21:00; Su 12:00-18:00,,0
Lakeport Commons,2205755,5001 Sergeant Road ,,Sioux City ,IA,51106,United States,(712) 274-5970,42.4459521,-96.3431598,Mo-Sa 10:00-21:00; Su 11:00-18:00,,0
Nebraska Crossing Factory Shop,2205651,21351 Nebraska Crossing Dr ,,Gretna ,NE,68028,United States,(402) 332-5859,41.0992649,-96.2516925,Mo-Sa 10:00-21:00; Su 11:00-18:00,,0
Hammond Square,2205337,409 Palace Drive ,,Hammond ,LA,70403,United States,(985) 419-2701,30.504358,-90.4612,Mo-Sa 10:00-21:00; Su 12:00-18:00,,0
Central,2204897,5111 Rogers Avenue ,,Fort Smith ,AR,72903,United States,(479) 452-4718,35.366924,-94.375116,Mo-Sa 10:00-21:00; Su 12:30-18:00,,0
Lakeside,2204479,3301 Veterans Memorial Blvd. ,,Metairie ,LA,70002,United States,(504) 834-7460,30.0062985,-90.1573105,Mo-Sa 10:00-21:00; Su 12:00-18:00,,0
Empire,2204515,910 West Empire Mall ,,Sioux Falls ,SD,57106,United States,(605) 362-6065,43.513059,-96.776612,Mo-Sa 10:00-21:00; Su 12:00-18:00,,0
Gateway,2204151,61 Gateway Mall ,,Lincoln ,NE,68505,United States,(402) 466-5599,40.814012,-96.641826,Mo-Sa 10:00-21:00; Su 12:00-18:00,,0
Mall Of Louisiana,2204429,6401 Bluebonnet Boulevard ,,Baton Rouge ,LA,70836,United States,(225) 761-9404,30.385752,-91.084348,Mo-Sa 10:00-21:00; Su 12:00-18:00,,0
Tanger Outlet At Gonzales,2205751,2200 S. Tanger Blvd. ,,Gonzales ,LA,70737,United States,(225) 644-8766,30.213304,-90.953272,Mo-Sa 09:00-21:00; Su 10:00-19:00,,0
Arrowhead,2205501,501 N Main Street ,,Muskogee ,OK,74401,United States,(918) 683-1425,35.7529977,-95.369358,Mo-Sa 10:00-21:00; Su 12:00-18:00,,0
West Acres,2204299,3902 13th Avenue South ,,Fargo ,ND,58103,United States,(701) 281-1881,46.8586945,-96.8463539,Mo-Sa 10:00-21:00; Su 12:00-18:00,,0
Southland - (La),2205125,5953 West Park Ave. ,,Houma ,LA,70364,United States,(985) 876-1921,29.6347256,-90.7558829,Mo-Sa 10:00-21:00; Su 12:00-18:00,,0
Central,2205277,2400 Richmond Road ,,Texarkana ,TX,75503,United States,(903) 223-0764,33.41087,-94.095199,Mo-Sa 10:00-21:00; Su 12:30-18:00,,0
Sunset Plaza (Ne),2205483,1700 Market Lane ,,Norfolk ,NE,68701,United States,(402) 371-0137,42.0204926,-97.4314807,Mo-Fr 10:00-21:00; Sa 10:00-19:00; Su 12:00-18:00,,0
Smith Farm Marketplace,2205455,9018 N. 121st East Avenue ,,Owasso ,OK,74055,United States,(918) 376-9629,36.2904379,-95.8432803,Mo-Sa 10:00-21:00; Su 12:00-18:00,,0
Alexandria,2204523,3437 Masonic Drive ,,Alexandria ,LA,71301,United States,(318) 619-9941,31.2774645,-92.4613055,Mo-Sa 10:00-21:00; Su 12:00-18:00,,0
Woodland Hills,2204891,7021 South Memorial Drive ,,Tulsa ,OK,74133,United States,(918) 250-0779,36.0632284,-95.8818735,Mo-Sa 10:00-21:00; Su 12:00-19:00,,0
Stirling Bossier,2204977,2980 Meadow Creek Drive ,,Bossier City ,LA,71111,United States,(318) 742-3440,32.5622133,-93.7117049,Mo-Sa 10:00-21:00; Su 12:00-18:00,,0
Louisiana Boardwalk,2204037,344 Boardwalk Boulevard ,,Bossier City ,LA,71111,United States,(318) 747-6935,32.517783,-93.739745,Mo-Th 10:00-21:00; Fr-Sa 10:00-22:00; Su 11:00-19:00,,0
Tulsa Hills Shopping Center,2205543,7336 S. Olympia Avenue W. ,,Tulsa ,OK,74132,United States,(918) 447-3758,36.042488,-96.005158,Mo-Sa 10:00-21:00; Su 12:00-18:00,,0
Columbia - (Nd),2205207,2800 Columbia Road ,,Grand Forks ,ND,58201,United States,(701) 746-8308,47.892984,-97.071915,Mo-Sa 10:00-21:00; Su 12:00-18:00,,0
Acadiana,2205271,5725 Johnston Street ,,Lafayette ,LA,70503,United States,(337) 983-0245,30.1712085,-92.0758348,Mo-Sa 10:00-21:00; Su 12:00-18:00,,0
Central - Ks,2204039,2259 S 9th St ,,Salina ,KS,67401,United States,(785) 309-0206,38.8012788,-97.6090497,Mo-Sa 10:00-21:00; Su 12:00-18:00,,0
Towne East,2204137,7700 E. Kellogg ,,Wichita ,KS,67207,United States,(316) 683-2427,37.683404,-97.247099,Mo-Sa 10:00-21:00; Su 12:00-18:00,,0
New Market Square,2205717,2441 North Maize Road ,,Wichita ,KS,67205,United States,(316) 722-2279,37.7276388,-97.4648798,Mo-Sa 10:00-21:00; Su 12:00-18:00,,0
Conestoga,2204073,3404 West 13th St. ,,Grand Island ,NE,68803,United States,(308) 384-0146,40.9343494,-98.3808952,Mo-Sa 10:00-21:00; Su 12:00-18:00,,0
Longview,2204059,3500 Mccann Road ,,Longview ,TX,75605,United States,(903) 553-9907,32.5390775,-94.7518281,Mo-Sa 10:00-21:00; Su 12:00-18:00,,0
Prien Lake,2204757,496 W. Prien Lake Road Lake ,,Charles ,LA,70601,United States,(337) 477-5947,30.2002618,-93.2264904,Mo-Sa 10:00-21:00; Su 12:00-18:00,,0
Broadway Sq,2204215,4601 South Broadway Avenue ,,Tyler ,TX,75703,United States,(903) 509-3528,32.2992813,-95.3028928,Mo-Sa 10:00-21:00; Su 12:00-18:00,,0
Lufkin,2204397,4600 South Medford Dr. ,,Lufkin ,TX,75901,United States,(936) 699-3499,31.3127974,-94.7248237,Mo-Sa 10:00-21:00; Su 12:00-18:00,,0
Quail Springs,2204453,2501 W Memorial Road ,,Oklahoma City ,OK,73134,United States,(405) 749-8737,35.6123722,-97.5604403,Mo-Sa 10:00-21:00; Su 12:00-18:00,,0
Penn Sq,2204439,1901 Northwest Expy ,,Oklahoma City ,OK,73118,United States,(405) 842-7180,35.5246909,-97.5440106,Mo-Sa 10:00-21:00; Su 12:00-18:00,,0
Shops At Moore,2204471,2340 S. Service Road ,,Moore ,OK,73160,United States,(405) 799-7063,35.317146,-97.489257,Mo-Sa 10:00-21:00; Su 12:00-18:00,,0
Sooner Fashion,2204933,3301 West Main Street ,,Norman ,OK,73072,United States,(405) 579-9197,35.2198154,-97.4892751,Mo-Sa 10:00-21:00; Su 12:00-18:00,,0
Outlet Shoppes At Oklahoma Cit,2205229,7624 W. Reno Ave ,,Oklahoma City ,OK,73127,United States,(405) 495-7931,35.4614411,-97.6502659,Mo-Sa 10:00-21:00; Su 11:00-19:00,,0
Central (Port Arthur),2205489,3100 Highway 365 ,,Port Arthur ,TX,77642,United States,(409) 722-9630,29.9481237,-93.9894991,Mo-Sa 10:00-21:00; Su 12:00-18:00,,0
Parkdale,2204727,240 Parkdale Mall ,,Beaumont ,TX,77706,United States,(409) 895-0884,30.123559,-94.157341,Mo-Sa 10:00-21:00; Su 12:00-18:00,,0
Terrell Outlet Center,2205499,301 Tanger Drive ,,Terrell ,TX,75160,United States,(972) 551-0778,32.7029526,-96.2834425,Mo-Sa 09:00-21:00; Su 10:00-19:00,,0
Eldorado Plaza,2204661,2950 Craig Drive ,,Mckinney ,TX,75070,United States,(972) 548-8667,33.1738083,-96.6442573,Mo-Sa 10:00-21:00; Su 12:00-18:00,,0
Plaza At Rockwall,2203947,1019 E. I-30 ,,Rockwall ,TX,75087,United States,(972) 961-0376,32.896114,-96.471767,Mo-Sa 10:00-21:00; Su 12:00-18:00,,0
Firewheel Town Center,2205443,425 Cedar Sage Drive ,,Garland ,TX,75040,United States,(972) 675-4306,32.9528854,-96.6105991,Mo-Sa 10:00-21:00; Su 12:00-18:00,,0
Centre@Preston Ridge,2203863,3333 Preston Road ,,Frisco ,TX,75034,United States,(972) 668-6063,33.1057637,-96.8103063,Mo-Sa 10:00-21:00; Su 12:00-18:00,,0
Stonebriar,2204527,2601 Preston Rd. ,,Frisco ,TX,75034,United States,(972) 668-0650,33.0991489,-96.811384,Mo-Sa 10:00-21:00; Su 12:00-18:00,,0
Town East,2204275,2063 Town East Mall ,,Mesquite ,TX,75150,United States,(972) 613-0421,32.8086238,-96.6231621,Mo-Sa 10:00-21:00; Su 12:00-18:00,,0
Willow Bend,2204703,6121 W. Park Boulevard ,,Plano ,TX,75093,United States,(972) 202-8454,33.0311764,-96.8326773,Mo-Sa 10:00-21:00; Su 12:00-18:00,,0
Medallion,2204349,6464 E. Northwest Highway ,,Dallas ,TX,75214,United States,(214) 365-9477,32.8570196,-96.7531347,Mo-Sa 10:00-21:00; Su 12:00-18:00,,0
Galleria,2204743,13350 Dallas Parkway ,,Dallas ,TX,75240,United States,(972) 702-8786,32.9299455,-96.8198347,Mo-Sa 10:00-21:00; Su 12:00-18:00,,0
Denton Crossing,2204617,1800 South Loop 288 ,,Denton ,TX,76205,United States,(940) 382-6120,33.1937772,-97.098949,Mo-Sa 10:00-21:00; Su 12:00-18:00,,0
Vista Ridge,2203949,2401 S Stemmons Fwy ,,Lewisville ,TX,75067,United States,(214) 488-0449,33.0026243,-96.9718355,Mo-Sa 10:00-21:00; Su 12:00-18:00,,0
Robertson'S Creek,2205321,5801 Long Prairie Road ,,Flower Mound ,TX,75028,United States,(972) 874-2039,33.0646065,-97.0836555,Mo-Sa 10:00-21:00; Su 12:00-18:00,,0
Grapevine Mills,2204003,3000 Grapevine Mills Parkway ,,Grapevine ,TX,76051,United States,(972) 355-0941,32.9661607,-97.0425031,Mo-Sa 10:00-21:00; Su 11:00-19:00,,0
Gateway Plaza,2204639,2920 E. Southlake Blvd. ,,Southlake ,TX,76092,United States,(817) 749-0624,32.939642,-97.1073558,Mo-Th 10:00-20:00; Fr-Sa 10:00-21:00; Su 12:00-18:00,,0
Uptown Village At Cedar Hill,2205053,305 West Fm 1382 ,,Cedar Hill ,TX,75104,United States,(972) 293-0660,32.602324,-96.942498,Mo-Sa 10:00-21:00; Su 11:00-18:00,,0
Grand Prairie Outlets,2205659,2950 West Interstate 20 ,,Grand Prairie ,TX,75052,United States,(972) 606-6728,32.679474,-97.053647,Mo-Sa 10:00-21:00; Su 11:00-18:00,,0
North East,2204011,841 North East Mall Blvd. ,,Hurst ,TX,76053,United States,(817) 590-0511,32.825404,-97.202789,Mo-Th 10:00-20:00; Fr-Sa 10:00-21:00; Su 12:00-18:00,,0
Arlington Highlands,2204635,3900 Arlington Highlands Blvd ,,Arlington ,TX,76018,United States,(817) 557-4086,32.6812307,-97.1097948,Mo-Sa 10:00-21:00; Su 12:00-18:00,,0
Platte River Mall (Ne),2205509,1000 South Dewey St. ,,North Platte ,NE,69101,United States,(308) 532-4670,41.124648,-100.7603207,Mo-Sa 10:00-21:00; Su 12:00-18:00,,0
Alliance Town Center,2204087,9510 Sage Meadow Trail Fort ,,Worth ,TX,76177,United States,(817) 750-0772,32.9110592,-97.3141604,Mo-Sa 10:00-21:00; Su 12:00-18:00,,0
Kirkwood,2204683,655 Kirkwood ,,Bismarck ,ND,58504,United States,(701) 221-0703,46.797013,-100.784385,Mo-Fr 10:00-21:00; Sa 10:00-19:00; Su 12:00-18:00,,0
Central - Ok,2204081,100 Central Mall ,,Lawton ,OK,73501,United States,(580) 250-0978,34.6040021,-98.3917113,Mo-Sa 10:00-21:00; Su 12:00-18:00,,0
Conroe Marketplace,2204457,2924 I-45 North ,,Conroe ,TX,77303,United States,(936) 788-2560,30.346342,-95.480492,Mo-Sa 10:00-21:00; Su 12:00-18:00,,0
Portofino,2204663,19075 Interstate 45 South ,,Shenandoah ,TX,77385,United States,(936) 321-6377,30.181242,-95.451081,Mo-Sa 10:00-21:00; Su 12:00-18:00,,0
Ridgmar,2205815,2064 Green Oaks Road Fort ,,Worth ,TX,76116,United States,(817) 731-4089,32.7413009,-97.4369729,Mo-Sa 10:00-21:00; Su 12:00-18:00,,0
Gateway Station,2205109,12860 South Freeway ,,Burleson ,TX,76028,United States,(817) 426-1481,32.5703962,-97.320369,Mo-Sa 10:00-21:00; Su 12:00-18:00,,0
Hulen,2205081,4800 Hulen Mall Fort ,,Worth ,TX,76132,United States,(817) 263-4081,32.6783375,-97.3984872,Mo-Sa 10:00-21:00; Su 12:00-18:00,,0
The Woodlands,2205635,1201 Lake Woodlands Drive ,,The Woodlands ,TX,77380,United States,(281) 298-7611,30.1644128,-95.4556496,Mo-Sa 10:00-21:00; Su 12:00-18:00,,0
Baybrook Square,2203951,1231 W. Bay Area Blvd. ,,Webster ,TX,77598,United States,(281) 554-2501,29.537698,-95.141486,Mo-Sa 10:00-21:00; Su 12:00-18:00,,0
Baybrook Mall,2205287,1314 Baybrook Mall ,,Friendswood ,TX,77546,United States,(281) 286-4796,29.542812,-95.15309,Mo-Sa 10:00-21:00; Su 12:00-18:00,,0
Willowbrook - (Tx),2204865,1408 Willowbrook Mall ,,Houston ,TX,77070,United States,(281) 894-5285,29.958701,-95.538905,Mo-Sa 10:00-21:00; Su 12:00-18:00,,0
Tanger Outlets @ Texas City,2205697,5885 Gulf Freeway ,,Texas City ,TX,77591,United States,(281) 337-3603,29.4246973,-95.0583635,Mo-Sa 09:00-21:00; Su 10:00-19:00,,0
Tomball Crossings,2204833,22507 Tomball Parkway ,,Houston ,TX,77070,United States,(281) 257-9203,29.984925,-95.570138,Mo-Sa 10:00-21:00; Su 12:00-18:00,,0
Weatherford Ridge,2204055,325 Adams Dr. ,,Weatherford ,TX,76086,United States,(817) 599-0581,32.7335147,-97.7874596,Mo-Sa 10:00-21:00; Su 12:00-18:00,,0
Houston Galleria,2204569,5085 Westheimer Rd ,,Houston ,TX,77056,United States,(713) 621-6330,29.7397946,-95.4631754,Mo-Sa 10:00-21:00; Su 11:00-19:00,,0
Sikes Senter,2205047,3111 Midwestern Parkway ,,Wichita Falls ,TX,76308,United States,(940) 692-1787,33.8685885,-98.5328086,Mo-Sa 10:00-21:00; Su 12:00-18:00,,0
Memorial City,2204437,303 Memorial City Way ,,Houston ,TX,77024,United States,(713) 464-5559,29.7806697,-95.5379936,Mo-Sa 10:00-21:00; Su 11:00-19:00,,0
Copperwood,2205555,6779 Highway 6 N ,,Houston ,TX,77084,United States,(281) 859-0830,29.874769,-95.6469379,Mo-Sa 10:00-21:00; Su 12:00-18:00,,0
Houston Premium Outlets,2204205,29300 Hempstead Road ,,Cypress ,TX,77433,United States,(281) 304-0957,29.9968226,-95.7573856,Mo-Sa 10:00-21:00; Su 11:00-19:00,,0
Post Oak,2204309,1500 Harvey Rd. ,,College Station ,TX,77840,United States,(979) 696-5442,30.6241831,-96.303395,Mo-Sa 10:00-21:00; Su 12:00-18:00,,0
Crossing At 288,2204343,2730 Smith Ranch Road ,,Pearland ,TX,77584,United States,(713) 436-6189,29.5577619,-95.3851561,Mo-Sa 10:00-21:00; Su 12:00-18:00,,0
Dakota Square,2205185,2400 10th St. Sw ,,Minot ,ND,58701,United States,(701) 852-7315,48.2057959,-101.311694,Mo-Fr 10:00-21:00; Sa 10:00-19:00; Su 12:00-18:00,,0
Central Texas Marketplace,2205711,2440 West Loop 340 ,,Waco ,TX,76711,United States,(254) 662-9659,31.4980913,-97.1580339,Mo-Sa 10:00-20:00; Su 12:00-18:00,,0
Market At Town Center,2204317,2585 N. Town Center Blvd. ,,Sugar Land ,TX,77479,United States,(281) 565-1285,29.595497,-95.620187,Mo-Sa 10:00-21:00; Su 12:00-18:00,,0
First Colony,2204545,16535 S.W. Freeway Sugar Land ,,,TX,77479,United States,(281) 565-0880,29.5919535,-95.6245512,Mo-Sa 10:00-21:00; Su 12:00-18:00,,0
La Centerra,2205033,23501 Cinco Ranch Blvd ,,Katy ,TX,77494,United States,(281) 574-4129,29.7430021,-95.7769571,Mo-Sa 10:00-21:00; Su 12:00-18:00,,0
Katy Mills,2205577,5000 Katy Mills Circle ,,Katy ,TX,77494,United States,(281) 644-2816,29.7758308,-95.8093358,Mo-Sa 10:00-21:00; Su 11:00-18:00,,0
Lake Jackson Brazos Mall,2205707,100 Highway 332 ,,West Lake Jackson ,TX,77566,United States,(979) 480-0952,29.050041,-95.459285,Mo-Sa 10:00-21:00; Su 12:00-18:00,,0
Killeen Mall,2203969,2100 South Ws Young Drive ,,Killeen ,TX,76543,United States,(254) 699-2050,31.0932841,-97.7172786,Mo-Sa 10:00-21:00; Su 12:00-18:00,,0
Wolf Ranch Town Center,2204623,1019 W. University Avenue ,,Georgetown ,TX,78628,United States,(512) 869-7787,30.628709,-97.6950953,Mo-Sa 10:00-21:00; Su 12:00-18:00,,0
Round Rock Premium Outlets,2205681,4401 N Interstate 35 ,,Round Rock ,TX,78664,United States,(512) 864-2460,30.564653,-97.689901,Mo-Sa 10:00-21:00; Su 11:00-19:00,,0
Rushmore Crossing,2205043,1629 Eglin ,,St. Rapid City ,SD,57701,United States,(605) 348-2228,44.098809,-103.185682,Mo-Sa 10:00-20:00; Su 12:00-18:00,,0
La Frontera Village,2205727,200 Sundance Parkway ,,Round Rock ,TX,78681,United States,(512) 244-4969,30.4845309,-97.6836641,Mo-Sa 10:00-20:00; Su 12:00-18:00,,0
Lakeline Plaza,2205457,11066 Pecan Park Blvd. ,,Cedar Park ,TX,78613,United States,(512) 506-8024,30.4699103,-97.7989415,Mo-Sa 10:00-20:00; Su 12:00-18:00,,0
Sunset Valley Village,2205119,5207 Brodie Lane ,,Sunset Valley ,TX,78745,United States,(512) 899-2789,30.2303627,-97.8168255,Mo-Sa 10:00-20:00; Su 12:00-18:00,,0
Southpark Meadows,2205723,9600 Ih-35 Service Rd. ,,Austin ,TX,78748,United States,(512) 280-3574,30.168207,-97.81776,Mo-Sa 10:00-20:00; Su 12:00-18:00,,0
Hill Country Galleria,2204455,12801 Hill Country Blvd. ,,Bee Cave ,TX,78738,United States,(512) 263-8470,30.3087904,-97.9405299,Mo-Sa 10:00-21:00; Su 12:00-18:00,,0
Victoria,2204053,7800 North Navarro ,,Victoria ,TX,77904,United States,(361) 574-9875,28.867668,-96.994332,Mo-Sa 10:00-21:00; Su 12:00-18:00,,0
Mall Of Abilene,2205547,4310 Buffalo Gap Road ,,Abilene ,TX,79606,United States,(325) 691-9049,32.4008496,-99.7619004,Mo-Sa 10:00-21:00; Su 12:00-18:00,,0
San Marcos I,2204587,4015 I-35 S ,,San Marcos ,TX,78666,United States,(512) 754-0905,29.824951,-97.984547,Mo-Sa 09:00-21:00; Su 10:00-19:00,,0
Tanger Factory Outlet Center,2205731,4015 Interstate 35 ,,South San Marcos ,TX,78666,United States,(512) 805-8663,29.824951,-97.984547,Mo-Sa 09:00-21:00; Su 10:00-19:00,,0
Westgate,2204217,7701 I 40 West ,,Amarillo ,TX,79121,United States,(806) 468-7205,35.185246,-101.928125,Mo-Sa 10:00-21:30; Su 12:00-18:00,,0
Forum At Soncy,2204989,3350 S. Soncy Road ,,Amarillo ,TX,79124,United States,(806) 356-8587,35.177101,-101.940237,Mo-Sa 10:00-21:00; Su 12:00-18:00,,0
Forum @ Olympia Parkway,2204665,8274 Agora Pkwy ,,Selma ,TX,78154,United States,(210) 659-7557,29.5703346,-98.3244356,Mo-Sa 10:00-21:00; Su 12:00-18:00,,0
Village At Stone Oak,2204563,22610 Highway 281 ,,North San Antonio ,TX,78258,United States,(210) 497-3067,29.651195,-98.447318,Mo-Sa 10:00-21:00; Su 12:00-18:00,,0
North Star,2204273,7400 San Pedro Ave. ,,San Antonio ,TX,78216,United States,(210) 349-8479,29.5188582,-98.495606,Mo-Sa 10:00-21:00; Su 12:00-18:00,,0
The Rim,2205585,17414 La Cantera Pkwy ,,San Antonio ,TX,78257,United States,(210) 694-2735,29.6057221,-98.5987053,Mo-Th 10:00-20:00; Fr-Sa 10:00-21:00; Su 12:00-18:00,,0
Shops At La Cantera,2205425,15900 La Cantera Parkway ,,Bl San Antonio ,TX,78256,United States,(210) 694-5650,29.594415,-98.6152042,Mo-Sa 10:00-21:00; Su 12:00-18:00,,0
Bandera Pointe,2205463,11645 Bandera Road ,,San Antonio ,TX,78250,United States,(210) 521-9627,29.5509327,-98.664419,Mo-Sa 10:00-20:00; Su 12:00-18:00,,0
Frontier Mall,2203883,1400 Dell Range Boulevard ,,Cheyenne ,WY,82009,United States,(307) 634-2365,41.161994,-104.807352,Mo-Sa 10:00-21:00; Su 11:00-18:00,,0
Moore Plaza,2205121,5425 South Padre Island Drive ,,Corpus Christi ,TX,78411,United States,(361) 980-3685,27.7079019,-97.3746835,Mo-Sa 10:00-20:00; Su 12:00-18:00,,0
South Plains,2204705,6002 Slide Rd ,,Lubbock ,TX,79414,United States,(806) 797-0968,33.5392193,-101.9256185,Mo-Sa 10:00-21:00; Su 12:00-18:00,,0
Canyon West,2205239,6076 Marsha Sharp Freeway ,,Lubbock ,TX,79407,United States,(806) 799-3125,33.5472546,-101.9532353,Mo-Sa 10:00-21:00; Su 12:00-18:00,,0
Southlands,2205429,6235 South Main Street ,,Aurora ,CO,80016,United States,(303) 928-7556,39.6032975,-104.7093949,Mo-Sa 10:00-21:00; Su 11:00-18:00,,0
Prom Shops@Centerra,2205023,5943 Sky Pond Drive ,,Loveland ,CO,80538,United States,(970) 667-1983,40.4133289,-104.9897334,Mo-Sa 10:00-21:00; Su 11:00-18:00,,0
Northfield Stapleton,2204969,8270 E. 49th Avenue ,,Denver ,CO,80238,United States,(303) 576-6880,39.785586,-104.890475,Mo-Sa 10:00-21:00; Su 11:00-18:00,,0
Park Meadows,2204497,8405 Park Meadows Center Drive ,,Lone Tree ,CO,80124,United States,(303) 706-1383,39.561471,-104.875326,Mo-Sa 10:00-21:00; Su 11:00-18:00,,0
Orchard Town Center,2205025,14697 Delaware Street ,,Westminster ,CO,80023,United States,(303) 920-5147,39.9624712,-104.9917447,Mo-Th 10:00-20:00; Fr-Sa 10:00-21:00; Su 11:00-18:00,,0
Outlets At Castle Rock,2205395,5050 Factory Shops Blvd ,,Castle Rock ,CO,80108,United States,(303) 663-3764,39.4154663,-104.8735711,Mo-Sa 10:00-20:00; Su 11:00-18:00,,0
Citadel,2204403,750 Citadel Dr. East Colorado Springs ,,,CO,80909,United States,(719) 550-3307,38.8433755,-104.7629537,Mo-Sa 10:00-21:00; Su 11:00-18:00,,0
Pueblo Mall,2204847,3283 Dillon Drive ,,Pueblo ,CO,81008,United States,(719) 543-7522,38.3037552,-104.6066458,Mo-Fr 10:00-21:00; Sa 10:00-19:00; Su 11:00-18:00,,0
Flatiron Crossing,2204127,1 West Flatiron Circle ,,Broomfield ,CO,80021,United States,(720) 887-0308,39.933218,-105.13298,Mo-Sa 10:00-21:00; Su 11:00-18:00,,0
Southwest Plaza Mall,2205397,8501 West Bowles Ave ,,Littleton ,CO,80123,United States,(303) 948-8867,39.6121223,-105.0957755,Mo-Sa 10:00-21:00; Su 11:00-18:00,,0
Colorado Mills,2205571,14500 W. Colfax Ave. ,,Lakewood ,CO,80401,United States,(303) 384-0029,39.7326433,-105.1589151,,,0
Midland Park,2204525,4511 North Midkiff Space E-0 ,,Midland ,TX,79705,United States,(432) 689-6741,32.029982,-102.131879,Mo-Sa 10:00-21:00; Su 12:00-18:00,,0
Sunrise,2204935,2370 N Expressway ,,Brownsville ,TX,78521,United States,(956) 541-1119,25.984272,-97.487031,Mo-Sa 10:00-21:00; Su 12:00-19:00,,0
Rio Grande Valley,2204723,5001 East Us Expy 83 ,,Mercedes ,TX,78570,United States,(956) 565-0145,26.156543,-97.91459,Mo-Th 10:00-21:00; Fr-Sa 10:00-22:00; Su 11:00-19:00,,0
Mall Del Norte,2205817,5300 San ,,Dario Laredo ,TX,78041,United States,(956) 717-3930,27.551237,-99.49953,Mo-Sa 10:00-21:00; Su 11:00-19:00,,0
La Plaza,2204541,2200 South Tenth Street ,,Mcallen ,TX,78503,United States,(956) 686-5560,26.1876592,-98.2358307,Mo-Sa 10:00-21:00; Su 11:00-19:00,,0
Coronado,2203933,6600 Menaul Ne Space J-6b ,,Albuquerque ,NM,87110,United States,(505) 830-2488,35.107107,-106.572767,Mo-Sa 10:00-21:00; Su 12:00-18:00,,0
Mesa Mall,2204853,2424 Us Highway 6 & 50 ,,Grand Junction ,CO,81505,United States,(970) 245-0186,39.095173,-108.60348,Mo-Sa 10:00-21:00; Su 11:00-18:00,,0
Las Palmas,2205107,11917 Gateway West ,,El Paso ,TX,79936,United States,(915) 594-4665,31.724407,-106.3062,Mo-Sa 10:00-20:00; Su 12:00-18:00,,0
Cielo Vista,2205793,8401 Gateway Blvd W ,,El Paso ,TX,79925,United States,(915) 772-5963,31.7754938,-106.3793949,Mo-Sa 10:00-21:00; Su 12:00-18:00,,0
The Outlet Shoppes At El Paso,2205007,7051 S. Desert Blvd ,,Canutillo ,TX,79835,United States,(915) 877-3971,31.9125796,-106.5864651,Mo-Sa 10:00-21:00; Su 10:00-19:00,,0
Grand Teton,2205527,2300 East 17th Street ,,Idaho Falls ,ID,83404,United States,(208) 522-1492,43.4798083,-111.987959,Mo-Sa 10:00-21:00; Su 12:00-18:00,,0
Tanger Outlets,2204801,6699 N Landmark Drive ,,Park City ,UT,84098,United States,(435) 647-3910,40.7304593,-111.551152,Mo-Sa 09:00-21:00; Su 10:00-19:00,,0
Station Park,2205497,255 N West ,,Promontory Farmington ,UT,84025,United States,(801) 451-8986,40.98424,-111.906547,Mo-Sa 10:00-21:00; Su 12:00-18:00,,0
Riverdale,2204449,4205 Riverdale Road ,,Ogden ,UT,84405,United States,(801) 621-4227,41.186527,-111.987889,Mo-Sa 10:00-20:00; Su 12:00-17:00,,0
Fashion Place,2205075,6191 S State ,,Murray ,UT,84107,United States,(801) 268-2694,40.638166,-111.888805,Mo-Sa 10:00-21:00; Su 12:00-18:00,,0
Alpine Valley Center,2205323,656 W. Main American Fork ,,,UT,84003,United States,(801) 756-4084,40.376888,-111.819652,Mo-Sa 10:00-20:00,,0
Draper Peaks,2204345,131 East 12300 South ,,Draper ,UT,84020,United States,(801) 352-4280,40.5268342,-111.8855604,Mo-Sa 10:00-20:00; Su 12:00-17:00,,0
The District,2204333,11560 S. Parkway Plaza Drive South ,,Jordan ,UT,84095,United States,(801) 495-4985,40.5412781,-111.978022,Mo-Sa 10:00-20:00; Su 12:00-17:00,,0
Southgate,2205187,2901 Brooks Street ,,Missoula ,MT,59801,United States,(406) 728-1156,46.845241,-114.0281755,Mo-Sa 10:00-21:00; Su 11:00-18:00,,0
Park Place,2204529,5870 East Broadway Blvd ,,Tucson ,AZ,85711,United States,(520) 584-0346,32.2192056,-110.8655909,Mo-Sa 10:00-21:00; Su 11:00-18:00,,0
Tucson,2205079,4500 N. Oracle Road ,,Tucson ,AZ,85705,United States,(520) 293-6611,32.2891242,-110.9741657,Mo-Sa 10:00-21:00; Su 12:00-18:00,,0
Superstition Springs,2205319,6555 E. Southern Ave ,,Mesa ,AZ,85206,United States,(480) 924-0435,33.3905976,-111.6896749,Mo-Sa 10:00-21:00; Su 11:00-18:00,,0
Outlets At Zion,2203903,250 North Red Cliffs Drive ,,Saint George ,UT,84790,United States,(435) 652-4349,37.112031,-113.553359,Mo-Sa 10:00-21:00; Su 11:00-18:00,,0
Queen Creek Marketplace,2204699,21506 S. Ellsworth Loop Rd ,,Queen Creek ,AZ,85142,United States,(480) 987-9397,33.2529264,-111.6408722,Mo-Fr 09:30-20:30; Sa 09:30-20:00; Su 11:00-18:00,,0
Promenade,2205597,16451 North Scottsdale Road ,,Scottsdale ,AZ,85254,United States,(480) 659-7281,33.6352471,-111.922986,Mo-Sa 10:00-20:00; Su 11:00-18:00,,0
Desert Ridge,2204143,21001 N. Tatum Blvd ,,Phoenix ,AZ,85050,United States,(480) 419-8088,33.6765123,-111.9736464,Mo-Sa 10:00-21:00; Su 11:00-18:00,,0
Shoppes @ Gilbert Commons,2204605,1073 E Baseline Rd. ,,Gilbert ,AZ,85233,United States,(480) 539-6464,33.377419,-111.8100869,Mo-Fr 10:00-21:00; Sa 10:00-20:00; Su 11:00-18:00,,0
Paradise Valley,2204287,4550 E Cactus Road ,,Phoenix ,AZ,85032,United States,(602) 971-9310,33.6021872,-111.9836094,Mo-Sa 10:00-21:00; Su 11:00-18:00,,0
Happy Valley Town Center,2205243,2501 W. Happy Valley Rd ,,Phoenix ,AZ,85085,United States,(623) 434-2247,33.7107656,-112.1096011,Mo-Fr 10:00-21:00; Sa 10:00-20:00; Su 11:00-18:00,,0
Chandler Fashion,2204677,3111 West Chandler Blvd ,,Chandler ,AZ,85226,United States,(480) 899-9490,33.3017106,-111.8985267,Mo-Sa 10:00-21:00; Su 11:00-18:00,,0
Arizona Mills,2205695,5000 South Arizona Mills Circl ,,Tempe ,AZ,85282,United States,(480) 838-1651,33.383147,-111.964725,Mo-Sa 10:00-21:00; Su 11:00-18:00,,0
Desert Glen,2204245,5350 West Bell Road ,,Glendale ,AZ,85308,United States,(602) 548-5639,33.6396181,-112.1742826,Mo-Fr 10:00-21:00; Sa 10:00-20:00; Su 10:00-18:00,,0
Lake Pleasant Town Center,2203959,25546 N. Lake Pleasant Pkwy ,,Peoria ,AZ,85383,United States,(623) 376-2831,33.7157182,-112.2748372,Mo-Fr 10:00-21:00; Sa 10:00-20:00; Su 11:00-18:00,,0
Tanger Outlets Westgate,2203895,6800 N 95 Avenue ,,Glendale ,AZ,85305,United States,(623) 877-2685,33.5347482,-112.2667391,Mo-Sa 09:00-21:00; Su 10:00-19:00,,0
Gateway Crossing,2205587,9945 W. Mcdowell Road ,,Avondale ,AZ,85392,United States,(623) 474-7139,33.4637864,-112.2736193,Mo-Fr 10:00-21:00; Sa 10:00-20:00; Su 11:00-18:00,,0
Boise (Mall),2204405,350 North Milwaukee Ave. ,,Boise ,ID,83704,United States,(208) 321-2707,43.60862,-116.278105,Mo-Sa 10:00-21:00; Su 11:00-19:00,,0
Spokane Valley Mall,2205749,14700 E. Indiana Ave. ,,Spokane Valley ,WA,99216,United States,(509) 892-6765,47.6735329,-117.2068987,Mo-Sa 10:00-21:00; Su 11:00-18:00,,0
Northtown,2204129,4750 N. Division ,,Spokane ,WA,99207,United States,(509) 483-8111,47.702412,-117.408854,Mo-Sa 10:00-21:00; Su 11:00-18:00,,0
Galleria At Sunset,2203983,1300 W Sunset Road ,,Henderson ,NV,89014,United States,(702) 878-7880,36.0673487,-115.0421293,Mo-Sa 10:00-21:00; Su 11:00-18:00,,0
Fashion Show,2204035,3200 Las Vegas Blvd. South ,,Las Vegas ,NV,89109,United States,(702) 735-5328,36.1272241,-115.1715512,Mo-Sa 10:00-21:00; Su 11:00-19:00,,0
Town Square,2204725,6605 Las Vegas Blvd South ,,Las Vegas ,NV,89119,United States,(702) 263-3860,36.0671511,-115.1757889,Mo-Th 10:00-21:00; Fr-Sa 10:00-22:00; Su 11:00-20:00,,0
Monticeto Crossing,2205609,6720 N. Durango Drive ,,Las Vegas ,NV,89149,United States,(702) 395-0471,36.2835417,-115.2861316,Mo-Sa 10:00-20:00; Su 11:00-18:00,,0
Boca Park,2205117,8740 W. Charleston Blvd. ,,Las Vegas ,NV,89117,United States,(702) 688-7887,36.1609742,-115.2858148,Mo-Sa 10:00-20:00; Su 11:00-18:00,,0
Columbia,2205021,1321 N. Columbia Center Blvd. ,,Kennewick ,WA,99336,United States,(509) 736-0527,46.226354,-119.2279546,Mo-Sa 10:00-21:00; Su 11:00-19:00,,0
Imperial Valley,2205421,3451 S. Dogwood Avenue ,,El Centro ,CA,92243,United States,(760) 336-0428,32.762862,-115.530362,Mo-Sa 10:00-21:00; Su 11:00-19:00,,0
Palm Desert Town,2204115,72-840 Highway 111 ,,Palm Desert ,CA,92260,United States,(760) 776-5179,33.727156,-116.40235,Mo-Th 10:00-20:00; Fr-Sa 10:00-21:00; Su 11:00-19:00,,0
Commons At Issaquah,2204645,755 Nw Gilman Blvd ,,Issaquah ,WA,98027,United States,(425) 369-6057,47.5415103,-122.0483161,Mo-Sa 10:00-20:00; Su 11:00-18:00,,0
Mountain Grove At Citrus Plaza,2205391,27461 San Bernardino Ave. ,,Redlands ,CA,92374,United States,(909) 793-5246,34.0756651,-117.2049649,Mo-Sa 10:00-21:00; Su 11:00-18:00,,0
Seattle Outlets,2204879,10600 Quil Ceda Blvd ,,Tulalip ,WA,98271,United States,(360) 653-3297,48.0934009,-122.1876843,Mo-Th 10:00-21:00; Fr-Sa 09:00-21:00; Su 10:00-19:00,,0
Meadowood,2205273,5450 Meadowood Mall Circle ,,Reno ,NV,89502,United States,(775) 826-9211,39.4714976,-119.7828038,Mo-Sa 10:00-21:00; Su 11:00-19:00,,0
Outlet Shoppes At Burlington,2204049,452 Fashion Way ,,Burlington ,WA,98233,United States,(360) 707-2664,48.4550567,-122.3390806,Mo-Sa 09:30-20:30; Su 10:00-19:00,,0
Alderwood,2204027,3000 184th Street Sw ,,Lynnwood ,WA,98037,United States,(425) 744-5668,47.8299542,-122.2725709,Mo-Sa 10:00-21:00; Su 11:00-19:00,,0
Canyon Springs Marketplace,2205379,2640 Canyon Springs Parkway ,,Riverside ,CA,92507,United States,(951) 656-4539,33.9425786,-117.2840517,Mo-Sa 10:00-21:00; Su 11:00-19:00,,0
Southcenter,2204755,947 Southcenter Mall ,,Seattle ,WA,98188,United States,(206) 242-1508,47.458141,-122.261121,Mo-Sa 10:00-21:00; Su 11:00-19:00,,0
Countryside Marketplace (Ca),2205491,30052 Haun Road ,,Menifee ,CA,92584,United States,(951) 301-5872,33.684241,-117.1754623,Mo-Fr 10:00-21:00; Sa 10:00-20:00; Su 11:00-18:00,,0
Galleria At Tyler,2204771,1259 Galleria At ,,Tyler Riverside ,CA,92503,United States,(951) 509-0247,33.773445,-117.229523,Mo-Sa 10:00-21:00; Su 11:00-19:00,,0
Outlet Collection At Auburn,2205171,1101 Outlet Collection Way ,,Auburn ,WA,98001,United States,(253) 735-6039,47.2995264,-122.243885,Mo-Sa 10:00-21:00; Su 11:00-18:00,,0
Bellis Fair,2205019,One Bellis Fair Parkway ,,Bellingham ,WA,98226,United States,(360) 647-3347,48.7860408,-122.4906565,Mo-Sa 10:00-21:00; Su 11:00-18:00,,0
Promenade @ Temecula,2204227,40820 Winchester Rd. ,,Temecula ,CA,92591,United States,(951) 296-0747,33.5245692,-117.1546001,Mo-Sa 10:00-21:00; Su 11:00-19:00,,0
South Hill,2205175,3500 S. Meridian Street ,,Puyallup ,WA,98373,United States,(253) 841-5697,47.1581386,-122.2958604,Mo-Sa 10:00-21:00; Su 11:00-18:00,,0
Victoria Gardens,2204117,12549 North Main Street ,,Rancho Cucamonga ,CA,91739,United States,(909) 646-7468,34.1119829,-117.53151,Mo-Th 10:00-21:00; Fr-Sa 10:00-22:00; Su 11:00-19:00,,0
Ontario Mills,2205567,One Mills Circle ,,Ontario ,CA,91764,United States,(909) 484-6555,34.0736912,-117.5503915,Mo-Sa 10:00-21:00; Su 11:00-20:00,,0
North County Fair,2204265,200 East Via Rancho Parkway ,,Escondido ,CA,92025,United States,(760) 233-5958,33.070471,-117.0649122,Mo-Sa 10:00-21:00; Su 11:00-19:00,,0
Crossings At Corona,2204347,2541 Tuscany St. ,,Corona ,CA,92881,United States,(951) 372-9045,33.8260083,-117.5177117,Mo-Fr 10:00-21:00; Sa 10:00-20:00; Su 11:00-18:00,,0
Parkway,2204513,306 Parkway Plaza ,,El Cajon ,CA,92020,United States,(619) 447-5021,32.8056663,-116.9657063,Mo-Sa 10:00-21:00; Su 11:00-19:00,,0
Montclair Place,2204763,5048 Montclair Plaza ,,Montclair ,CA,91763,United States,(909) 621-1595,34.089783,-117.692654,Mo-Sa 10:00-20:30; Su 11:00-19:00,,0
Shoppes@Chino Hills,2205039,13850 City Center Drive ,,Chino Hills ,CA,91709,United States,(909) 591-2751,34.0016017,-117.7307086,Mo-Th 10:00-20:00; Fr-Sa 10:00-21:00; Su 11:00-19:00,,0
Otay Ranch Town Center,2205649,2015 Birch Road ,,Chula Vista ,CA,91915,United States,(619) 656-7792,32.6216453,-116.9655195,Mo-Sa 10:00-21:00; Su 10:30-18:00,,0
Plaza Bonita,2203905,3030 Plaza Bonita Road ,,National City ,CA,91950,United States,(619) 472-5105,32.656186,-117.065741,Mo-Sa 10:00-21:00; Su 11:00-19:00,,0
Anaheim Hills Festival,2205191,8126 E. Santa Ana Canyon Rd. ,,Anaheim Hills ,CA,92808,United States,(714) 685-0304,33.865448,-117.7488966,Mo-Fr 10:00-21:00; Sa 10:00-20:00; Su 11:00-18:00,,0
University Town Center,2204263,4545 La Jolla Village Dr. ,,San Diego ,CA,92122,United States,(858) 587-2650,32.8706894,-117.2110084,Mo-Sa 10:00-21:00; Su 11:00-19:00,,0
Outlets At The Border,2205351,4459 Camino De La Plaza ,,San Diego ,CA,92173,United States,(619) 746-6573,32.5438187,-117.0358225,Mo-Sa 10:00-21:00; Su 10:00-19:00,,0
Mercantile East,2205761,27582 Antonio Parkway ,,Ladera Ranch ,CA,92694,United States,(949) 347-0249,33.5649371,-117.6287936,Mo-Fr 10:00-20:00; Sa 10:00-19:00; Su 11:00-18:00,,0
Mission Viejo,2204293,331 The Shops At Mission ,,Viejo Mission Viejo ,CA,92691,United States,(949) 365-8736,33.560271,-117.669692,Mo-Fr 10:00-21:00; Sa 10:00-20:00; Su 11:00-18:00,,0
Brea Mall,2204389,1027 Brea Mall ,,Brea ,CA,92821,United States,(714) 671-0276,33.913877,-117.889236,Mo-Sa 10:00-21:00; Su 11:00-19:00,,0
Marketplace Tustin,2205449,2823 El ,,Camino Real Tustin ,CA,92782,United States,(714) 665-4392,33.7262861,-117.7927886,Mo-Fr 10:00-21:00; Sa 10:00-20:00; Su 11:00-18:00,,0
Vancouver Mall,2205057,8700 N.E. Vancouver Mall Dr. ,,Vancouver ,WA,98662,United States,(360) 260-6913,45.6582689,-122.5836597,Mo-Sa 10:00-21:00; Su 11:00-18:00,,0
Santa Anita,2205629,400 S. Baldwin Ave. ,,Arcadia ,CA,91007,United States,(626) 446-0890,34.1349204,-118.0509968,Mo-Sa 10:00-21:00; Su 11:00-19:00,,0
Main Place,2205783,2800 North Main Street ,,Santa Ana ,CA,92705,United States,(714) 973-8201,33.7737649,-117.8674374,Mo-Fr 10:00-21:00; Sa 10:00-20:00; Su 11:00-19:00,,0
La Habra Westridge Plaza,2205141,1326 South Beach Blvd. ,,La Habra ,CA,90631,United States,(562) 694-3582,33.9157363,-117.9660247,Mo-Fr 10:00-21:00; Sa 10:00-20:00; Su 11:00-18:00,,0
Capital (Wa),2205051,625 Black Lake Blvd. ,,Olympia ,WA,98502,United States,(360) 352-0758,47.041874,-122.933836,Mo-Sa 10:00-21:00; Su 11:00-18:00,,0
Clackamas,2204371,12000 Se 82nd Avenue ,,Happy Valley ,OR,97086,United States,(503) 353-6813,45.4357354,-122.5713485,Mo-Sa 10:00-21:00; Su 11:00-19:00,,0
Metro Pointe At South Coast,2205885,901 S Coast Dr. ,,Costa Mesa ,CA,92626,United States,(714) 708-2217,33.6888711,-117.8947535,Mo-Sa 10:00-21:00; Su 11:00-19:00,,0
Bella Terra,2204321,7777 Edinger Avenue ,,Huntington Beach ,CA,92647,United States,(714) 890-4802,33.7320575,-117.9939673,Mo-Sa 10:00-21:00; Su 11:00-18:00,,0
Citadel Outlets,2204409,100 Citadel Drive ,,Commerce ,CA,90040,United States,(323) 728-3460,34.0059476,-118.1528343,Mo-Su 09:30-21:30,,0
Westminster,2205161,1009a Westminster Mall ,,Westminster ,CA,92683,United States,(714) 373-4779,33.747247,-118.013064,Mo-Sa 10:00-21:00; Su 11:00-18:00,,0
Los Cerritos,2205169,171 Los ,,Cerritos Center Space Cerritos ,CA,90703,United States,(562) 402-6076,33.862529,-118.095112,Mo-Fr 10:00-21:00; Sa 10:00-20:00; Su 11:00-19:00,,0
Glendale Galleria,2205787,2186 Glendale ,,Galleria Glendale ,CA,91210,United States,(818) 956-0336,34.145679,-118.258414,Mo-Sa 10:00-21:00; Su 11:00-19:00,,0
Long Beach Tc,2204649,7364 Carson Blvd. ,,Long Beach ,CA,90808,United States,(562) 497-9010,33.82753,-118.0874711,Mo-Fr 10:00-21:00; Sa 10:00-20:00; Su 11:00-18:00,,0
Tulare Outlet Center,2205195,1481 Retherford St. ,,Tulare ,CA,93274,United States,(559) 686-1182,36.2279789,-119.3344584,Mo-Sa 10:00-21:00; Su 10:00-19:00,,0
Nyberg Woods,2204825,7097 S.W. Nyberg St. ,,Tualatin ,OR,97062,United States,(503) 691-1843,45.3842814,-122.7506114,Mo-Sa 10:00-21:00; Su 10:00-18:00,,0
Sts Of Tanasbourne,2204123,2175 Nw Allie Avenue ,,Hillsboro ,OR,97124,United States,(503) 645-8125,45.536903,-122.878146,Mo-Sa 10:00-21:00; Su 11:00-18:00,,0
Valley Plaza,2204739,2701 Ming Avenue ,,Bakersfield ,CA,93304,United States,(661) 831-3787,35.338236,-119.034423,Mo-Sa 10:00-21:00; Su 11:00-19:00,,0
Valencia,2205771,24201 W Valencia Blvd ,,Valencia ,CA,91355,United States,(661) 290-2626,34.415742,-118.557776,Mo-Sa 10:00-21:00; Su 11:00-18:00,,0
Shops At River Park,2204881,80 Via Del ,,Oro Fresno ,CA,93720,United States,(559) 436-0350,36.850433,-119.789332,Mo-Sa 10:00-21:00; Su 11:00-18:00,,0
Sherman Oaks Fashion Sq,2205139,14006 Riverside Drive ,,Sherman Oaks ,CA,91423,United States,(818) 501-2951,34.1575934,-118.4353236,Mo-Sa 10:00-21:00; Su 11:00-19:00,,0
Fashion Fair,2203927,701 E. Shaw Avenue ,,Fresno ,CA,93710,United States,(559) 222-9218,36.8084789,-119.7750307,Mo-Sa 10:00-21:00; Su 11:00-19:00,,0
Woodburn Company Stores,2204041,1001 Arney Road ,,Woodburn ,OR,97071,United States,(503) 982-3341,45.15625,-122.878588,Mo-Th 10:00-21:00; Fr-Sa 09:00-21:00; Su 10:00-19:00,,0
Westside Pavilion,2205633,10800 W. Pico Blvd ,,Los Angeles ,CA,90064,United States,(310) 446-9914,34.0401391,-118.4274689,Mo-Fr 10:00-21:00; Sa 10:00-20:00; Su 11:00-18:00,,0
Outlets At Tejon Ranch,2205353,5701 Outlets At Tejon Parkway ,,Arvin ,CA,93203,United States,(661) 858-2497,34.9851078,-118.9417191,Mo-Sa 10:00-21:00; Su 10:00-20:00,,0
Galleria At South Bay,2203957,1815 Hawthorne Blvd ,,Redondo Beach ,CA,90278,United States,(310) 542-7175,33.8717488,-118.3545844,Mo-Fr 10:00-21:00; Sa 10:00-20:00; Su 11:00-19:00,,0
Northridge Fashion,2204943,9301 Tampa Avenue ,,Northridge ,CA,91324,United States,(818) 885-6650,34.2393118,-118.556196,Mo-Sa 10:00-21:00; Su 11:00-19:00,,0
Del Amo Fashion,2205135,21540 Hawthorne Blvd ,,Torrance ,CA,90503,United States,(310) 214-9774,33.8328248,-118.3507255,Mo-Fr 10:00-21:00; Sa 10:00-20:00; Su 11:00-19:00,,0
Fallbrook,2205593,6755 Fallbrook Avenue ,,West Hills ,CA,91307,United States,(818) 932-0384,34.1929041,-118.6255883,Mo-Sa 10:00-21:00; Su 11:00-19:00,,0
Salem - (Or),2204869,401 Center St Ne ,,Salem ,OR,97301,United States,(503) 581-8394,44.9437038,-123.0362215,Mo-Sa 10:00-20:00; Su 11:00-18:00,,0
Oaks,2204135,578 W. Hillcrest Drive ,,Thousand Oaks ,CA,91360,United States,(805) 381-1055,34.187508,-118.8899526,Mo-Sa 10:00-21:00; Su 11:00-19:00,,0
Valley River,2204745,274 Valley River Center ,,Eugene ,OR,97401,United States,(541) 344-6510,44.0693758,-123.1081188,Mo-Sa 10:00-21:00; Su 11:00-19:00,,0
Folsom Premium Outlets,2204789,13000 Folsom Blvd. ,,Folsom ,CA,95630,United States,(916) 985-3520,38.643849,-121.188752,Mo-Sa 10:00-21:00; Su 10:00-19:00,,0
Creekside Town Center,2204253,1232 Galleria Blvd ,,Roseville ,CA,95678,United States,(916) 780-1007,38.7732705,-121.261169,Mo-Sa 10:00-21:00; Su 11:00-19:00,,0
Galleria At Roseville,2204731,1151 Galleria Blvd. ,,Roseville ,CA,95678,United States,(916) 784-9147,38.7734416,-121.2692829,Mo-Sa 10:00-21:00; Su 11:00-19:00,,0
Chico Mall,2205669,1950 East 20th Street ,,Chico ,CA,95928,United States,(530) 895-1042,39.7288776,-121.803219,Mo-Sa 10:00-21:00; Su 11:00-18:00,,0
Crossroads At Riverbank,2205551,2417 Claribel Rd ,,Riverbank ,CA,95367,United States,(209) 863-9138,37.7135801,-120.9536591,Mo-Sa 10:00-21:00; Su 11:00-18:00,,0
Pacific View,2204289,3301 Main Street ,,Ventura ,CA,93003,United States,(805) 642-7060,34.268718,-119.248771,Mo-Sa 10:00-21:00; Su 11:00-19:00,,0
Monte Vista Crossing,2205481,2727 Countryside Dr ,,Turlock ,CA,95380,United States,(209) 664-9219,37.5162378,-120.8814134,Mo-Sa 10:00-21:00; Su 11:00-18:00,,0
Rogue Valley,2204819,1600 N. Riverside Ave. ,,Medford ,OR,97501,United States,(541) 779-4862,42.3433769,-122.876795,Mo-Sa 10:00-21:00; Su 11:00-19:00,,0
Elk Grove Commons,2203865,9684 Bruceville Road ,,Elk Grove ,CA,95757,United States,(916) 685-6847,38.405564,-121.4195481,Mo-Th 10:00-20:00; Fr-Sa 10:00-21:00; Su 11:00-18:00,,0
Mt. Shasta,2203915,900 Dana Dr. ,,Redding ,CA,96003,United States,(530) 223-5951,40.588409,-122.355616,Mo-Sa 10:00-21:00; Su 11:00-18:00,,0
Park West Place,2205725,10742-A Trinity Parkway ,,Stockton ,CA,95219,United States,(209) 951-2718,38.053944,-121.372792,Mo-Th 10:00-20:00; Fr-Sa 10:00-21:00; Su 11:00-18:00,,0
Stadium Center,2204255,2238 Daniels Street ,,Manteca ,CA,95337,United States,(209) 239-7644,37.7856234,-121.256071,Mo-Th 10:00-20:00; Fr-Sa 10:00-21:00; Su 11:00-18:00,,0
Lincoln City Outlets,2205757,1500 S.E. E. Devils Lake Road ,,Lincoln City ,OR,97367,United States,(541) 994-2369,44.9587207,-124.0105628,Mo-Sa 10:00-20:00; Su 10:00-18:00,,0
Streets Of Brentwood,2204883,2505 Sand Creek Road ,,Brentwood ,CA,94513,United States,(925) 516-9367,37.94522,-121.7391571,Mo-Sa 10:00-21:00; Su 11:00-18:00,,0
Nut Tree Village,2203961,1639 East Monte Vista Avenue ,,Vacaville ,CA,95688,United States,(707) 452-0629,38.3682945,-121.9629619,Mo-Sa 10:00-21:00; Su 11:00-18:00,,0
Santa Maria Town Center,2205893,126 Town Center East ,,Santa Maria ,CA,93454,United States,(805) 345-3324,34.9520387,-120.4341473,Mo-Sa 10:00-20:00; Su 11:00-19:00,,0
Gilroy Premium Outlets,2205677,8300 Arroyo Circle ,,Gilroy ,CA,95020,United States,(408) 842-0276,37.0214439,-121.5606134,Mo-Sa 10:00-21:00; Su 10:00-19:00,,0
Stoneridge,2204451,1620 Stoneridge Mall Road ,,Pleasanton ,CA,94588,United States,(925) 460-5048,37.6978601,-121.9302727,Mo-Sa 10:00-21:00; Su 11:00-19:00,,0
Sunvalley,2204303,254 Sunvalley Mall ,,Concord ,CA,94520,United States,(925) 681-3275,37.9671559,-122.0617194,Mo-Sa 10:00-21:00; Su 11:00-19:00,,0
Great Mall Of The Bay,2204721,447 Great Mall Dr ,,Milpitas ,CA,95035,United States,(408) 934-0980,37.4163855,-121.897841,Mo-Sa 10:00-21:00; Su 11:00-20:00,,0
Oakridge,2204681,925 Blossom Hill Road ,,San Jose ,CA,95123,United States,(408) 281-1032,37.2525161,-121.8630003,Mo-Th 10:00-21:00; Fr-Sa 10:00-22:00; Su 11:00-19:30,,0
Valley Fair - (Ca),2204267,2855 Stevens Creek Blvd ,,Santa Clara ,CA,95050,United States,(408) 985-4808,37.3253266,-121.9453801,Mo-Fr 10:00-21:30; Sa 10:00-21:00; Su 11:00-19:00,,0
Capitola,2204909,1855 41st Street ,,Capitola ,CA,95010,United States,(831) 477-7505,36.975835,-121.967739,Mo-Fr 10:00-21:00; Sa 10:00-20:00; Su 11:00-18:00,,0
Hillsdale,2204029,361 Hillsdale Mall ,,San Mateo ,CA,94403,United States,(650) 356-0173,37.5367565,-122.299649,Mo-Sa 10:00-21:00; Su 11:00-19:00,,0
Santa Rosa,2204765,2005b Santa Rosa Plaza ,,Santa Rosa ,CA,95401,United States,(707) 569-7525,38.441011,-122.717162,Mo-Fr 10:00-21:00; Sa 10:00-20:00; Su 11:00-18:00,,0
