store_name,store_number,address,address2,city,state,zip_code,country,phone_number,latitude,longitude,store_hours,other_fields,coming_soon
The Athlete's Foot,,364 Al Waab Street,Hyatt Plaza,Doha,Al Rayyan,,Qatar,9744165133,25.25681,51.43743,,,0
The Athlete's Foot,,129 Riccarton Road,Westfield Shopping Centre,Riccarton,NI,8041,New Zealand,6433431629,-43.53114,172.5985,,,0
The Athlete's Foot,,WCTC Shopping Center,Main Street,Koror,PW,96940,Palau,16804881484,7.3423,134.4779,,,0
The Athlete's Foot,,55 Main North Road,Northlands Shopping Centre,Christchurch,SI,8051,New Zealand,6433540328,-43.49237,172.6101,,,0
The Athlete's Foot,,Centro Comercial Mega Plaza,Avenida Alfredo Mendiola 3698,Lima ,,15311,Peru,51998314788,-11.99394,-77.06153,,,0
The Athlete's Foot,,286 Mount Wellington Highway,Sylvia Park Shopping Centre,Mount Wellington,NI,1060,New Zealand,6495736185,-36.91422,174.8412,,,0
The Athlete's Foot,,Centro Comercial Plaza Norte,Avenida Alfredo Mendiola 1400,Lima ,,15311,Peru,51987508061,-12.00643,-77.05981,,,0
The Athlete's Foot,,80 St Lukes Road,Westfield Shopping Centre,St Lukes,NI,1025,New Zealand,6498460044,-36.88281,174.7336,,,0
The Athlete's Foot,,Mall Aventura Plaza,Avenida Carretera Central 111,Lima ,,15008,Peru,51998374307,-12.0564,-76.97033,,,0
The Athlete's Foot,,84 The Square,The Plaza Shopping Centre,Palmerston North,NI,4410,New Zealand,6463555553,-40.35726,175.6147,,,0
The Athlete's Foot,,267 George Street,The Meridan Mall,Dunedin,SI,9016,New Zealand,6434772673,-45.87011,170.5055,,,0
The Athlete's Foot,,Akbati Mall,Sanayi Mahallesi 1655,Istanbul,,34535,Turkey,902128091587,41.05609,28.66769,,,0
The Athlete's Foot,,219 Don McKinnon Drive,Westfield Shopping Centre,Albany,NI,632,New Zealand,6494471626,-36.72816,174.7079,,,0
The Athlete's Foot,,Dubai Mall,Financial Center Road,Dubai,Dubai,,United Arab Emirates,97143398674,25.1975,55.2792,,,0
The Athlete's Foot,,Westfield Shopping Centre Queensgate,Cnr. Queen Drive and Bunny Street,Lower Hutt,NI,6011,New Zealand,6445862548,-41.20989,174.907,,,0
The Athlete's Foot,,Dubai Festival City Mall,Dubai Festival City,Dubai,Dubai,,United Arab Emirates,97142325973,25.22218,55.35284,,,0
The Athlete's Foot,,588 Chapel Road,Botany Town Centre,East Tamaki,NI,2016,New Zealand,6492711593,-36.93317,174.9151,,,0
The Athlete's Foot,,Dubai Outlet Mall,Al Ain Road,Dubai,Dubai,,United Arab Emirates,97144255919,25.07244,55.4007,,,0
The Athlete's Foot,,501 Victoria Street,Centre Place Shopping Centre,Hamilton,NI,3204,New Zealand,6479744522,-37.7858124,175.280212,,,0
The Athlete's Foot,,1016 Shoppes at Midway Drive,,Knightdale,North Carolina,27545,United States,19192668020,35.79801,-78.50673,,,0
The Athlete's Foot,,Joeten Susupe Shopping Center,Insatto Street,Susupe,MP,96950,Northern Mariana Islands,16702346445 / 2291,15.15685,145.7038,,,0
The Athlete's Foot,,4215 University Drive,Parkway Plaza,Durham,North Carolina,27707,United States,19194039668,35.96311,-78.958,,,0
The Athlete's Foot,,Joeten Hafa Adai Shopping Center,Beach Road,Garapan,MP,96950,Northern Mariana Islands,16702341236,15.21056,145.7169,,,0
The Athlete's Foot,,6451 Plantation Center Drive,Plantation Point Shopping Center,Raleigh,North Carolina,27616,United States,19198503200,35.87372,-78.58093,,,0
The Athlete's Foot,,Alexandrium Shopping Center,Poolsterstraat 162,Rotterdam,,3067 LX,The Netherlands,31107670006,51.95028,4.55349,,,0
The Athlete's Foot,,6910 Fayetteville Road,The Streets at Southpoint,Durham,North Carolina,27713,United States,19193616572,35.90447,-78.9416,,,0
The Athlete's Foot,,Breedstraat 14,,Purmerend,,1441 CC,The Netherlands,31299435499,52.50938,4.94721,,,0
The Athlete's Foot,,3240 NC Highway 87 S,,Sanford,North Carolina,27332,United States,19197743366,35.44504,-79.13102,,,0
The Athlete's Foot,,Heuvel 25B,,Oss,,5341 CV,The Netherlands,31412767278,51.76942,5.52563,,,0
The Athlete's Foot,,3029 Doctor Martin Luther King Junior Boulevard,Rivertowne Square,New Bern ,North Carolina,28560,United States,12526377770,35.10151,-77.0858,,,0
The Athlete's Foot,,Limbrichterstraat 63,,Sittard,,6131 EB,The Netherlands,31464200402,50.99837,5.86739,,,0
The Athlete's Foot,,1447 Garner Station Boulevard,Garner Station,Raleigh,North Carolina,27603,United States,19196620806,35.72284,-78.65498,,,0
The Athlete's Foot,,Nieuwe Passage 41,,Schiedam,,3111 EG,The Netherlands,31102460093,51.91529,4.40026,,,0
The Athlete's Foot,,1231 Silas Creek Parkway,Parkway Plaza Shopping Center,Winston-Salem ,North Carolina,27127,United States,13367228220,36.06746,-80.25532,,,0
The Athlete's Foot,,Oude Binnenweg 38,,Rotterdam,,3012 JE,The Netherlands,31107200972,51.91755,4.4752,,,0
The Athlete's Foot,,1030 Freeland Drive,Salisbury Shopping Center,Salisbury,North Carolina,28144,United States,17046380608,35.65767,-80.46359,,,0
The Athlete's Foot,,Dorpsstraat 42-44,,Nunspeet,,8071 BZ,The Netherlands,31341253507,52.37625,5.78316,,,0
The Athlete's Foot,,265 Premier Boulevard,Premier Landing Shopping Center,Roanoke Rapids,North Carolina,27870,United States,12525351874,36.42703,-77.63433,,,0
The Athlete's Foot,,Wolfstraat 4,,Maastricht,,6211 GN,The Netherlands,31433500470,50.84889,5.69251,,,0
The Athlete's Foot,,1355 Scotland Crossing Drive,Scotland Crossing Shopping Center,Laurinburg,North Carolina,28352,United States,19102769009,34.75594,-79.48379,,,0
The Athlete's Foot,,Haarlemmerstraat 40,,Leiden,,2312 GB,The Netherlands,31715661310,52.16137,4.48711,,,0
The Athlete's Foot,,3210 Wilkinson Boulevard,Wilkinson Crossings,Charlotte,North Carolina,28208,United States,17043939113,35.22469,-80.89341,,,0
The Athlete's Foot,,Plein 1944-17,,Nijmegen,,6511 JC,The Netherlands,31243606099,51.84556,5.86242,,,0
The Athlete's Foot,,Markt 22,,Nieuwegein,,3431 LB,The Netherlands,31307210802,52.02873,5.08217,,,0
The Athlete's Foot,,14341 Warwick Boulevard,Denbigh Village,Newport News,Virginia,23601,United States,17578770326,37.12853,-76.53302,,,0
The Athlete's Foot,,Lange Delft 109,,Middelburg,,4331 am,The Netherlands,31118650755,51.49903,3.61559,,,0
The Athlete's Foot,,4020 Victory Boulevard,Victory Crossing Shopping Center,Portsmouth,Virginia,23701,United States,17574886808,36.81008,-76.35599,,,0
The Athlete's Foot,,Oosterdijk 46,,Sneek,,8601 BV,The Netherlands,31515431594,53.03344,5.66427,,,0
The Athlete's Foot,,934 N Main Street,Suffolk Plaza,Suffolk,Virginia,23434,United States,17575393396,36.7439,-76.58168,,,0
The Athlete's Foot,,Winkelcentrum Roselaar,Roselaar 49,Roosendaal,,4701 BA,The Netherlands,31165745615,51.53087,4.45439,,,0
The Athlete's Foot,,330 N Cooper Drive,Henderson Square Shopping Center,Henderson,North Carolina,27536,United States,12524620870,36.33301,-78.44445,,,0
The Athlete's Foot,,Marktplein 36-38,,Hoofddorp,,2132 DB,The Netherlands,31232014070,52.30358,4.69429,,,0
The Athlete's Foot,,7525 Tidewater Drive,Southern Shopping Center,Norfolk,Virginia,23505,United States,17575838340,36.91551,-76.25632,,,0
The Athlete's Foot,,Diezerstraat 56 ,,Zwolle,,8011 RH,The Netherlands,31384230245,52.51253,6.09555,,,0
The Athlete's Foot,,35 Main Street ,,Kalispell,Montana,59901,United States,14062578989,48.19807,-114.3132,,,0
The Athlete's Foot,,Winkelcentrum Zuidplein,Zuiderterras 124,Rotterdam,,3083 BZ,The Netherlands,31107640806,51.88676,4.49033,,,0
The Athlete's Foot,,230 18th Street,Atlantic Station,Atlanta,Georgia,30363,United States,14048727111,33.79202,-84.39601,,,0
The Athlete's Foot,,Grote Noord 98,,Hoorn,,1621 KH,The Netherlands,31229724954,52.64157,5.05603,,,0
The Athlete's Foot,,1354 Cumberland Mall,Cumberland Mall,Atlanta,Georgia,30339,United States,17708059686,33.88047,-84.46931,,,0
The Athlete's Foot,,It Baken 6/7,,Heerenveen,,8442 PB,The Netherlands,31513622167,52.95887,5.92511,,,0
The Athlete's Foot,,2800 Old Dawson Road ,Cross Station Shopping Center,Albany,Georgia,31707,United States,12294366051,31.61276,-84.21701,,,0
The Athlete's Foot,,Beukerstraat 59,,Zutphen,,7201 LB,The Netherlands,31575766015,52.1413,6.19779,,,0
The Athlete's Foot,,1248 Fox Valley Center Drive,Fox Valley Center ,Aurora,Illinois,60504,United States,16308980778,41.75842,-88.21242,,,0
The Athlete's Foot,,Liesveld 110,,Vlaardingen,,3131 CM,The Netherlands,31104351440,51.90994,4.34173,,,0
The Athlete's Foot,,6170 West Grand Avenue,Gurnee Mills,Gurnee,Illinois,60031,United States,18478558001,42.39039,-87.96011,,,0
The Athlete's Foot,,Markt 7A,,Venlo,,5911 HD,The Netherlands,31774678989,51.37038,6.16936,,,0
The Athlete's Foot,,5550 McFarland Boulevard,,Northport,Alabama,35476,United States,12053331313,33.23686,-87.61183,,,0
The Athlete's Foot,,564 Lee Street,,Atlanta,Georgia,30310,United States,14047553722,33.73957,-84.41365,,,0
The Athlete's Foot,,Promenade 199,,Zoetermeer,,2711 AP,The Netherlands,31797200879,52.06124,4.49091,,,0
The Athlete's Foot,,3340 Mall Loop Drive,Louis Joliet Mall,Joliet,Illinois,60435,United States,18154393818,41.57726,-88.16622,,,0
The Athlete's Foot,,Gedempte Gracht 54,,Zaandam,,1506 CH,The Netherlands,31757676297,52.43927,4.81966,,,0
The Athlete's Foot,,Nieuwe Markt 2A,,Weert,,6001 EL,The Netherlands,31495744010,51.2529,5.70552,,,0
The Athlete's Foot,,Hoofdstraat 104,,Hoogeveen,,7901 JT,The Netherlands,31232014070,52.7253,6.47729,,,0
The Athlete's Foot,,2505 Williams Boulevard,,Kenner,Louisiana,70062,United States,15044661111,30.00168,-90.24115,,,0
The Athlete's Foot,,Bastiaansplein 7,,Delft,,2611 DC,The Netherlands,31157200815,52.00874,4.36426,,,0
The Athlete's Foot,,520 Orland Square Drive,Orland Square Mall,Orland Park,Illinois,60462,United States,17084609380,41.62033,-87.84947,,,0
The Athlete's Foot,,Lange Brugstraat 7,,Breda,,4811 WP,The Netherlands,31765309449,51.58811,4.77492,,,0
The Athlete's Foot,,301 Chicago Ridge Mall,Chicago Ridge Mall,Chicago Ridge,Illinois,60415,United States,17084247442,41.71734,-87.78295,,,0
The Athlete's Foot,,Keizerstraat 32,,Den Helder,,1781 GG,The Netherlands,31223683022,52.95843,4.76285,,,0
The Athlete's Foot,,623 E Boughton Road,The Promenade Bolingbrook,Bolingbrook,Illinois,60440,United States,16307392559,41.71755,-88.0419,,,0
The Athlete's Foot,,Vlamingstraat 13,,Den Haag,,2511 AZ,The Netherlands,31704492896,52.07664,4.30979,,,0
The Athlete's Foot,,3600 Holland Road,Chimney Hill Shopping Center,Virginia Beach,Virginia,23452,United States,17574630350,36.81268,-76.10196,,,0
The Athlete's Foot,,Hinthamerstraat 30,,Den Bosch,,5211 MP,The Netherlands,31737440041,51.68907,5.30605,,,0
The Athlete's Foot,,15 Clock Tower Plaza,,Elgin,Illinois,60120,United States,18477174163,42.03019,-88.2767944,,,0
The Athlete's Foot,,Oudestraat 26,,Assen,,9401 EK,The Netherlands,31592330791,52.99599,6.56227,,,0
The Athlete's Foot,,2113 Bemiss Road,,Valdosta,Georgia,31602,United States,12294696261,30.8590775,-83.28097,,,0
The Athlete's Foot,,Pieter Doelmanstraat 9,,Alphen aan den Rijn,,2405 CE,The Netherlands,31172601731,52.12898,4.66203,,,0
The Athlete's Foot,,Columbus Mall,Kirovogradskaya Street 13-A,Moscow,,117519,Russia,74959671629,55.61261,37.60605,,,0
The Athlete's Foot,,Grote Straat 18,,Almelo,,7607 CM,The Netherlands,31546455380,52.35861,6.66511,,,0
taf,,Plaza Mayor,Boulevard Juan Alonso de Torres 2002,Leon,Guanajuato,C.P. 37150,Mexico,524777183307,21.15703,-101.6947,,,0
The Athlete's Foot,,Langestraat 15,,Alkmaar,,1811 JA,The Netherlands,31725123903,52.63074,4.74891,,,0
taf,,Gran Patio,Carretera Poza Rica - Cazones KM 50,Poza Rica,Veracruz,C.P. 93306,Mexico,527821115941,20.56979,-97.43507,,,0
The Athlete's Foot,,Hoofdstraat 125A,,Apeldoorn,,7311 AT,The Netherlands,31555766082,52.21536,5.96114,,,0
taf,,Galerias Pachuca,Camino Real de La Plata 100,Pachuca,Hidalgo,C.P. 42083,Mexico,527717159904,20.09778,-98.76936,,,0
The Athlete's Foot,,Bijlmerplein 154,,Amsterdam,,1102 DB,The Netherlands,31207882609,52.31389,4.95242,,,0
taf,,Plaza Las Américas,Dialogo Norte Sur S/N,Cancún,Quintana Roo,C.P. 77500,Mexico,529988872233,21.14689,-86.82263,,,0
The Athlete's Foot,,Osdorpplein 665,,Amsterdam,,1068 TC,The Netherlands,31204100538,52.35919,4.8058,,,0
taf,,Plaza Las Américas,Avenida Lic. Enrique Ramírez Miguel 1000,Morelia,Michoacan,C.P. 58270,Mexico,524433246887,19.6892,-101.1583,,,0
The Athlete's Foot,,Catherinastraat 16,,Doetinchem,,7001 BZ,The Netherlands,31314744010,51.96659,6.28868,,,0
taf,,La Gran Plaza Cuernavaca,Calle Vicente Guerrero 110,Cuernavaca,Morelos,C.P. 62270,Mexico,527773125896,18.93449,-99.22876,,,0
The Athlete's Foot,,Grote Houtstraat 90,,Haarlem,,2011 SR,The Netherlands,31235513474,52.37882,4.63273,,,0
taf,,La Cúspide Sky Mall,Avenida Lomas Verdes 1200,Naucalpan de Juárez,Estado de México,C.P. 53126,Mexico,525553493285,19.51478,-99.26683,,,0
The Athlete's Foot,,Herestraat 89,,Groningen,,9711 LD,The Netherlands,31503600617,53.21492,6.56866,,,0
taf,,Pabellón Polanco,Avenida Ejercito Nacional 980,Ciudad de México,D.F.,C.P. 11510,Mexico,525555806241,19.4383,-99.20702,,,0
The Athlete's Foot,,Kleiweg 50,,Gouda,,2801 GH,The Netherlands,31182599495,52.0144,4.70988,,,0
taf,,Plaza del Parque,Corregidora Norte 691,Santiago de Querétaro,Queretaro,C.P. 76160,Mexico,524422207387,20.61454,-100.3912,,,0
The Athlete's Foot,,Markt 3,,Helmond,,5701 RH,The Netherlands,31528233107,51.47879,5.65564,,,0
taf,,Galerias Toluca,Avenida Primero de Mayo 1700,Toluca,Estado de México,C.P. 50160,Mexico,527221801638,19.28973,-99.62163,,,0
The Athlete's Foot,,Promenade 49,,Heerlen,,6411 JB,The Netherlands,31455211712,50.88731,5.97681,,,0
taf,,Galerias Mall,Boulevard Cultura 55 Oriente,Hermosillo,Sonora,C.P. 83280,Mexico,526622122613,29.06562,-110.9496,,,0
The Athlete's Foot,,Markt 10,,Harderwijk,,3841 CE,The Netherlands,31341431790,52.34976,5.61847,,,0
taf,,Plaza Cumbres,Avenida Hacienda Peñuelas 6771,Monterrey,Nuevo León,C.P. 64619,Mexico,528110950211,25.7317,-100.3955,,,0
The Athlete's Foot,,Gasthuisstraat 56,,Gorinchem,,4201 JR,The Netherlands,31183789000,51.83053,4.97304,,,0
taf,,Plaza Aragón,Avenida Carlos Hank Gonzalez 120,Ecatepec,Estado de México,C.P. 55140,Mexico,525557750369,19.53102,-99.02795,,,0
The Athlete's Foot,,Marktstraat 4A,,Eindhoven,,5611 EA,The Netherlands,31402364014,51.43955,5.47777,,,0
taf,,Gran Sur,Avenida Del Imán 151,Ciudad de México,D.F.,C.P. 04700,Mexico,525551717467,19.30595,-99.16574,,,0
The Athlete's Foot,,Noorderbuurt 30,,Drachten,,9203 am,The Netherlands,31512789001,53.10802,6.09801,,,0
taf,,Centro Comercial Ciudad Jardin,Avenida Bordo de Xochiaca 3,Nezahualcoyotl,Estado de México,C.P. 57205,Mexico,525515584233,19.425,-99.02379,,,0
The Athlete's Foot,,Kolfstraat 2,,Dordrecht,,3311 XL,The Netherlands,31786399043,51.81491,4.66802,,,0
taf,,Andares,Boulevard Puerta de Hierro 4965,Zapopan,Jalisco,C.P. 45116,Mexico,523336112834,20.71049,-103.4117,,,0
The Athlete's Foot,,Raadhuisstraat 11A,,Enschede,,7511 HJ,The Netherlands,31534302635,52.21852,6.89664,,,0
taf,,Plaza Fiesta Anáhuac,Avenida Manuel L. Barragán Norte 325,San Nicolás de los Garza,Nuevo León,C.P. 66457,Mexico,528183760465,25.74271,-100.3135,,,0
The Athlete's Foot,,Hoofdstraat 55,,Emmen,,7811 ED,The Netherlands,31591618181,52.78637,6.89435,,,0
taf,,Fashion Mall,Periferico De La Juventud 3501,Chihuahua,Chihuahua,C.P. 31236,Mexico,526144303463,28.62314,-106.1152,,,0
The Athlete's Foot,,Demer 18 B/C,,Eindhoven,,5611 AR,The Netherlands,31407200950,51.4403343,5.476925,,,0
taf,,Plaza Universidad,Avenida Universidad 1000,Ciudad de México,D.F.,C.P. 03310,Mexico,525556049049,19.36735,-99.16642,,,0
The Athlete's Foot,,Het Plein 90,,Hengelo,,7559 SR,The Netherlands,31742670913,52.2877464,6.766818,,,0
taf,,Plaza Cibeles,Boulevard Villas de Irapuato 1443,Irapuato,Guanajuato,C.P. 36643,Mexico,524626932533,20.68098,-101.383,,,0
The Athlete's Foot,,Wirdumerdijk 24,,Leeuwarden,,8911 CE,The Netherlands,31582131782,53.1998444,5.796729,,,0
taf,,Plaza Patria,Avenida de la Patria S/N,Zapopan,Jalisco,C.P. 44680,Mexico,523331110130,20.71259,-103.3784,,,0
The Athlete's Foot,,Mall at Marathon,Marathon Road,Nassau,New Providence,,Bahamas,12423946905,25.0508,-77.32795,,,0
taf,,Luna Parc,Avenida 1 de Mayo S/N,Cuautitlan Izcalli,Estado de México,C.P. 54730,Mexico,525558681806,19.65741,-99.21028,,,0
The Athlete's Foot,,Park and Shop Building,Downtown,Freeport,Grand Bahama,,Bahamas,12423521591,26.51284,-78.64232,,,0
taf,,Plaza Central,Avenida Río Churubusco 1635,Ciudad de México,D.F.,C.P. 09040,Mexico,525556003560,19.37745,-99.09547,,,0
The Athlete's Foot,,Breedestraat 29,Punda,Willemstad,,,Curaçao,59994612700,12.10853,-68.93634,,,0
taf,,Galerias Atizapán,Avenida Ruiz Cortinez 255,Atizapán de Zaragoza,Estado de México,C.P. 52977,Mexico,525516689039,19.54959,-99.27335,,,0
The Athlete's Foot,,Frederiksberg Centret,Falkoner Allé 21-23,Frederiksberg,,2000,Denmark,4572185599,55.68175,12.53298,,,0
taf,,Galerias Saltillo,Boulevard Nazario Ortíz Garza 2345,Saltillo,Coahuila,C.P. 25279 ,Mexico,528444853574,25.45724,-100.9804,,,0
The Athlete's Foot,,Vestergade 71,,Odense C,,5000,Denmark,4572185595,55.39464,10.38234,,,0
taf,,Galerias Chilpancingo,Boulevard René Juárez Cisneros 130,Chilpancingo,Guerrero,C.P. 39095,Mexico,527474949854,17.51487,-99.48504,,,0
The Athlete's Foot,,Kolding Storcenter,Skovvangen 42,Kolding,,6000,Denmark,4572148900,55.51391,9.46006,,,0
taf,,Galerias Serdán,Boulevard Hermanos Serdán 270,Puebla,Puebla,C.P. 72062,Mexico,522222242672,19.07178,-98.22443,,,0
The Athlete's Foot,,Vimmelskaftet 47,,København K,,1161,Denmark,4533329900,55.67859,12.57453,,,0
taf,,Plaza Galerias Zacatecas,Boulevard El Bote 202,Zacatecas,Zacatecas,C.P. 98040,Mexico,524921563781,22.77733,-102.5984,,,0
The Athlete's Foot,,Lyngby Storcenter,Klampenborgvej 232,Kongens Lyngby,,2800,Denmark,4540333298,55.77241,12.50553,,,0
taf,,Plaza Tres Arcos,Avenida Regiomontana S/N,Tampico,Tamaulipas,C.P. 89349,Mexico,528332176338,22.26284,-97.87413,,,0
The Athlete's Foot,,Rosengaårdcentret,Lilla Gade,Odense SØ,,5220,Denmark,4572185588,55.3837,10.42635,,,0
taf,,Galerias Celaya,Avenida Eje Nor-Oriente 200,Celaya,Guanajuato,C.P. 38080,Mexico,524611593133,20.53174,-100.778,,,0
The Athlete's Foot,,33 Rue Didouche Mourad,Sidi Mohamed,Algiers,,16014,Algeria,213560971535,36.76713,3.0533,,,0
taf,,Centro Comercial Paseo Interlomas,Avenida Vialidad de La Barranca 6,Huixquilucan,Estado de México,C.P. 52772,Mexico,525552917689,19.39742,-99.28125,,,0
The Athlete's Foot,,10 Rue Arbi Tebessi ,,Annaba,,23000,Algeria,213555065672,36.90071,7.75884,,,0
taf,,Plaza Altabrisa,Periferico Carlos Pellicer Cámara 129,Villahermosa,Tabasco,C.P. 86190,Mexico,529932535017,17.9651,-92.93961,,,0
The Athlete's Foot,,26 Rue Didouche Mourad,Sidi Mohamed,Algiers,,16047,Algeria,213 560 453664,36.76936,3.05484,,,0
taf,,Plaza San Luis,Boulevard Antonio Rocha Cordero 700,San Luis Potosi,San Luis Potosi,C.P. 78215,Mexico,524448111171,22.12636,-101.0298,,,0
taf,,Centro Comercial Altacia,Boulevard Aeropuerto 104,Leon,Guanajuato,C.P. 37530,Mexico,524771675950,21.09233,-101.6259,,,0
The Athlete's Foot,,Ardis Centre Commercial,Pins Maritimes,Algiers,,16000,Algeria,213560957080,36.73879,3.14316,,,0
taf,,"Plaza Antea ""Lifestyle Center""",Carretera Querétaro - San Luis Potosí 12401,Juriquilla,Queretaro,C.P. 76127,Mexico,524426881583,20.67398,-100.4356,,,0
The Athlete's Foot,,49 Rue 1er Novembre ,,Rouiba,,16012,Algeria,213561758262,36.73637,3.28188,,,0
taf,,Centro Comercial Patio Santa Fe,Avenida Paseo de la Reforma 400,Ciudad de México,D.F.,C.P. 01210,Mexico,525552928999,19.37691,-99.25463,,,0
The Athlete's Foot,,Bab Ezzouar Centre Commercial,Bab Ezzouar Business District,Algiers,Algeria,16311,,213561623724,36.7118874,3.196823,,,0
taf,,Centro Comercial El Dorado,Avenida Nereo Rodriguez Barragan 450,San Luis Potosí,San Luis Potosi,C.P. 78200,Mexico,524448112848,22.15618,-101.0034,,,0
The Athlete's Foot,,5 Boulevard Basta,Bab El-Oued,Algiers,,16000,Algeria,213560590265,36.7922935,3.053405,,,0
taf,,Galerias San Juan del Rio,Carretera Panamericana 200,San Juan del Río,Queretaro,C.P. 76807,Mexico,524272721510,20.38484,-100.0125,,,0
The Athlete's Foot,,Ardis Centre Commercial,Bir El Djir Cité,Oran,,31130,Algeria,213560 183324,35.7076225,-0.566851,,,0
taf,,Galerias Campeche,Avenida Pedro Sainz de Baranda 103,Campeche,Campeche,C.P. 24014,Mexico,529816881337,19.85708,-90.52208,,,0
The Athlete's Foot,,Centre Commercial City Center,Rue du Carrefour,Algiers,,16000,Algeria,213560183323,36.72969,3.17875,,,0
taf,,Galerias Mazatlán,Avenida La Marina 6204,Mazatlán,Sinaloa,C.P. 82103,Mexico,526696880531,23.27925,-106.449,,,0
The Athlete's Foot,,Caya G. F. Croes 38,,Oranjestad,,,Aruba,2975886116,12.5197,-70.03537,,,0
taf,,Plaza Tlalnepantla,Avenida Sor Juana Inés de La Cruz 232,Tlalnepantla,Estado de México,C.P. 54033,Mexico,525591557417,19.5384,-99.20613,,,0
The Athlete's Foot,,Paseo Herencia Mall,J.E. Irausquin Boulevard 382A,Noord,,,Aruba,2975885990,12.5748,-70.04345,,,0
taf,,Centro Comercial Cosmopol,Avenida José López Portillo 1,San Francisco Coacalco,Estado de México,C.P. 55712,Mexico,525596887028,19.63173,-99.12477,,,0
The Athlete's Foot,,33 Commercial Street,,Mount Gambier,SA,5290,Australia,61887255292,-37.8281,140.7791,,,0
taf,,La Gran Plaza,Calle 50 Diagonal 460,Mérida,Yucatan,C.P. 97118,Mexico,529999445455,21.03024,-89.62465,,,0
The Athlete's Foot,,854 Military Road,,Mosman,NSW,2088,Australia,61299694115,-33.82906,151.2444,,,0
taf,,Galerias Tabasco 2000,Avenida Paseo Tabasco 1404,Villahermosa,Tabasco,C.P. 86035,Mexico,529933167506,17.99818,-92.94171,,,0
The Athlete's Foot,,Garden City Shopping Centre,Cnr. Logan Road and Kessels Road,Upper Mount Gravatt,QLD,4122,Australia,61733497822,-27.56217,153.0821,,,0
taf,,Plaza Las Américas,Avenida Las Américas S/N,Boca del Río,Veracruz,C.P. 94298,Mexico,522291950046,19.13953,-96.1054,,,0
The Athlete's Foot,,171 Dandenong Road,Mount Ommaney Shopping Centre,Mount Ommaney,QLD,4074,Australia,61737158622,-27.5493,152.9389,,,0
taf,,Parque Toreo Central,Boulevard Manuel Ávila Camacho 5,Naucalpan de Juárez,Estado de México,C.P. 53390,Mexico,525553951393,19.45375,-99.21881,,,0
The Athlete's Foot,,600 Kings Way,Westfield Shoppingtown,Miranda,NSW,2228,Australia,61295405567,-34.03506,151.0997,,,0
taf,,La Gran Plaza,Avenida Vallarta 3959,Zapopan,Jalisco,C.P. 44540,Mexico,523336210178,20.67333,-103.4045,,,0
The Athlete's Foot,,415 McDonalds Road,Westfield Shopping Centre Plenty Valley,Mill Park,VIC,3082,Australia,61394071441,-37.65138,145.0719,,,0
taf,,Centro Comercial Plaza Valle,Avenida Circunvalación 1430A,Orizaba,Veracruz,C.P. 94330,Mexico,522727219646,18.86307,-97.09739,,,0
The Athlete's Foot,,Galleria Shopping Centre,Cnr. Collier Road and Walter Road,Morley,WA,6062,Australia,61892759454,-31.8973,115.8995,,,0
taf,,Plaza Forum Tlaquepaque,Boulevard General Marcelino García Barragán 2077,Guadalajara,Jalisco,C.P. 44840,Mexico,523336598655,20.64813,-103.3205,,,0
The Athlete's Foot,,976 North East Road,Westfield Shopping Centre Tea Tree Plaza,Modbury,SA,5092,Australia,61882630344,-34.83179,138.6913,,,0
taf,,Plaza Forum Buenavista,Eje 1 Norte Mosqueta 259,Ciudad de México,D.F.,C.P. 06350,Mexico,525555419000,19.44745,-99.15203,,,0
The Athlete's Foot,,28 Eenie Creek Road,Noosa Civic Mall,Noosaville,QLD,4566,Australia,61754555996,-26.41591,153.0486,,,0
taf,,Plaza Los Atrios,Camino Real De Tetelcingo Calderón 23,Cuautla,Morelos,C.P. 62757,Mexico,527351312078,18.86828,-98.94922,,,0
The Athlete's Foot,,199 Summer Street,,Orange,NSW,2800,Australia,61263618727,-33.2832,149.0992,,,0
taf,,Multiplaza Las Palmas,Boulevard de las Naciones 802,Acapulco,Guerrero,C.P. 39890,Mexico,527444430815,16.79729,-99.81039,,,0
The Athlete's Foot,,297 Diagonal Road,Westfield Shoppingtown,Marion,SA,5043,Australia,61882987680,-35.01714,138.5447,,,0
taf,,Plaza Ágora Uruapan,Boulevard Industrial 1241,Uruapan,Michoacan,C.P. 60120,Mexico,524525285022,19.42383,-102.038,,,0
The Athlete's Foot,,159-175 Church Street,Westfield Shoppingtown,Parramatta,NSW,2150,Australia,61296351483,-33.81776,151.0027,,,0
taf,,Forum Tepic,Boulevard Luis Donaldo Colosio 680,Tepic,Nayarit,C.P. 63175,Mexico,523111290086,21.49171,-104.8663,,,0
The Athlete's Foot,,152 Bunnerong Road,Westfield Shoppingtown,Eastgardens,NSW,2036,Australia,61293497769,-33.94508,151.2258,,,0
taf,,Zentralia Cd. del Carmen,Avenida Corregidora 26,Cd. Del Carmen,Campeche,C.P. 24199,Mexico,529386881188,18.65422,-91.80855,,,0
The Athlete's Foot,,Macquarie Shopping Centre,Waterloo Road,North Ryde,NSW,2113,Australia,61298873975,-33.77709,151.1192,,,0
taf,,Calle Hamburgo No. 108,Cuauhtémoc,Ciudad de México,D.F.,C.P. 06050,Mexico,525555332113,19.42627,-99.16409,,,0
The Athlete's Foot,,Westfield Shopping Centre,North Lakes Drive,North Lakes,QLD,4509,Australia,61734823467,-27.24113,153.0168,,,0
taf,,Avenida Eje Central Lázaro Cárdenas No. 2,Cuauhtémoc,Ciudad de México,D.F.,C.P. 06007,Mexico,525555212473,19.43398,-99.14049,,,0
The Athlete's Foot,,89 Junction Street,,Nowra,NSW,2541,Australia,61244230400,-34.8743,150.6014,,,0
taf,,Paseo San Pedro,Avenida Gómez Morín 402,San Pedro Garza García,Nuevo León,C.P. 66230,Mexico,528181009343,25.6509,-100.3596,,,0
The Athlete's Foot,,2-50 Murray Road,Northland Shopping Centre,Preston,VIC,3072,Australia,61394712200,-37.73916,145.0302,,,0
The Athlete's Foot,,Westfield Shoppingtown,Cnr. Park Avenue and Northcott Drive,Kotara,NSW,2289,Australia,61249562477,-32.94208,151.7112,,,0
taf,,Galerias Cuernavaca,Autopista México - Acapulco KM 87.5,Cuernavaca,Morelos,C.P. 62370,Mexico,527773228812,18.93645,-99.19266,,,0
The Athlete's Foot,,Willows Shoppingtown,Cnr. Thuringowa Drive and Hervey Range Road,Kirwan,QLD,4817,Australia,61747233633,-19.31542,146.7267,,,0
taf,,Las Plazas Outlet Lerma,Carretera México - Toluca KM 50,Toluca,Estado de México,C.P. 52000,Mexico,527282845125,19.28253,-99.49988,,,0
The Athlete's Foot,,Westfield Shoppingtown,Macquarie Street,Liverpool,NSW,2170,Australia,61296021391,-33.91876,150.9236,,,0
taf,,Avenida 16 de Septiembre No. 43,Cuauhtémoc,Ciudad de México,D.F.,C.P. 06000,Mexico,525555108570,19.43233,-99.13788,,,0
taf,,Centro Comercial Gran Patio Tlaxcala,Carretera Apizaco - Puebla S/N,Apetatitlán,Tlaxcala,C.P. 90610,Mexico,522464582351,19.33943,-98.20109,,,0
The Athlete's Foot,,40 Brewster Street,Lismore Shopping Square,Lismore,NSW,2480,Australia,61266222088,-28.81044,153.2865,,,0
taf,,Centro Comercial El Paseo,Avenida Adolfo López Mateos No. 3800,Tehuacán,Puebla,C.P. 75750,Mexico,522383825031,18.4687,-97.41709,,,0
The Athlete's Foot,,Karratha City Shopping Centre,Welcome Road,Karratha,WA,6714,Australia,61891855524,-20.73555,116.8459,,,0
The Athlete's Foot,,420 Joondalup Drive,Lakeside Shopping City,Joondalup,WA,6027,Australia,61893012226,-31.74333,115.7656,,,0
taf,,Avenida Reforma No. 309,Colonia Centro Histórico,Puebla,Puebla,C.P. 72000,Mexico,522226032234,19.04537,-98.20052,,,0
The Athlete's Foot,,119 Point Cartwright Drive,Kawana Shoppingworld,Buddina,QLD,4575,Australia,61754443069,-26.70276,153.1308,,,0
taf,,Plaza Tepeyac,Avenida Calzada de Guadalupe No. 431,Ciudad de México,D.F.,C.P. 07841,Mexico,525555178356,19.47161,-99.11975,,,0
taf,,Sendero Toluca,Boulevard Miguel Alemán Aeropuerto No. 55,Lerma,Estado de México,C.P. 52000,Mexico,527223173059,19.28994,-99.55426,,,0
The Athlete's Foot,,200 Karrinyup Road,Karrinyup Shopping Centre,Karrinyup,WA,6018,Australia,61892045510,-31.87643,115.7794,,,0
The Athlete's Foot,,Hyperdome Shopping Centre,Bryants Road,Loganholme,QLD,4129,Australia,61738064113,-27.65917,153.1715,,,0
taf,,Plaza Gran Patio Texcoco,Avenida Hidalgo No. 300,Texcoco de Mora,Estado de México,C.P. 56120,Mexico,525959550486,19.51567,-98.86768,,,0
taf,,Galerias Laguna,Periferico Raúl Lopez Sánchez 6000,Torreon,Coahuila,C.P. 27018,Mexico,528717508067,25.58125,-103.4037,,,0
The Athlete's Foot,,Stockland Shopping Centre,McFarlane Street,Merrylands,NSW,2160,Australia,61296378155,-33.83473,150.9896,,,0
taf,,Outlet Morelos,Morelos 207 Oriente,Monterrey,Nuevo León,C.P. 64000,Mexico,528183441300,25.66767,-100.3152,,,0
The Athlete's Foot,,154-164 Horton Parade,Sunshine Plaza Shopping Centre,Maroochydore,QLD,4558,Australia,61754793600,-26.65448,153.0879,,,0
taf,,Galerias Querétaro,Avenida 5 De Febrero 99,Santiago de Querétaro,Querétaro,C.P. 76175,Mexico,524422422400,20.57807,-100.4043,,,0
The Athlete's Foot,,Mildura Central Shopping Centre,Cnr. Fifteenth Street and Deakin Avenue,Mildura,VIC,3500,Australia,61350221888,-34.20756,142.1396,,,0
taf,,Centro Santa Fe,Avenida Vasco De Quiroga 3800,Ciudad de México,D.F.,C.P. 05109,Mexico,525552598881,19.36241,-99.27217,,,0
The Athlete's Foot,,25 Brockman Avenue,Midland Gate Shopping Centre,Midland,WA,6056,Australia,61892501033,-31.88942,116.0085,,,0
taf,,Galerias Monterrey,Avenida Insurgentes 2500,Monterrey,Nuevo León,C.P. 64620,Mexico,528183486198,25.68171,-100.3544,,,0
The Athlete's Foot,,110-122 Wattletree Road,Malvern Central Shopping Centre,Malvern,VIC,3144,Australia,61395002444,-37.86256,145.0273,,,0
taf,,Galerias Valle Oriente,Avenida Lázaro Cárdenas 1000,Monterrey,Nuevo León,C.P. 64750,Mexico,528184860401,25.63795,-100.3138,,,0
The Athlete's Foot,,Caneland Central Shopping Centre,Mangrove Road,Mackay,QLD,4740,Australia,61749534001,-21.13822,149.1783,,,0
taf,,Plaza Perisur,Anillo Periférico Sur 4690,Coyoacán,D.F.,C.P. 04500,Mexico,525554244141,19.30424,-99.18995,,,0
The Athlete's Foot,,120-200 Rosamond Road,Highpoint Shopping Centre,Maribyrnong,VIC,3032,Australia,61393185586,-37.7733,144.8888,,,0
taf,,Galerias Insurgentes,Avenida de los Insurgentes Sur 1352,Benito Juárez,D.F.,C.P. 03100,Mexico,525556278307,19.37114,-99.17944,,,0
taf,,Galerias Metepec,Boulevard Toluca Ixtapan Norte 126,Metepec,Estado de México,C.P. 52140,Mexico,527222326739,19.25864,-99.62044,,,0
The Athlete's Foot,,50 Wyong Road,Westfield Shoppingtown,Tuggerah,NSW,2259,Australia,61243534447,-33.30854,151.4121,,,0
taf,,Plaza Mundo E,Boulevard Manuel Avila Camacho 108,Tlalnepantla,Estado de México,C.P. 54025,Mexico,525553669572,19.52451,-99.22699,,,0
The Athlete's Foot,,49 Franklin Street,,Traralgon,VIC,3844,Australia,61351740933,-38.19702,146.5375,,,0
taf,,Plaza Satélite,Circuito Centro Comercial 2251,Naucalpan de Juárez,Estado de México,C.P. 53100,Mexico,525553938920,19.50952,-99.23366,,,0
The Athlete's Foot,,54 Minjungbal Drive,Tweed City Shopping Centre,Tweed Heads South,NSW,2486,Australia,61755230066,-28.20047,153.5459,,,0
The Athlete's Foot,,Hyperdome Lifestyle Centre,Ankatell Street,Tuggeranong,ACT,2900,Australia,61262931137,-35.41661,149.0666,,,0
taf,,Galerias Guadalajara,Avenida Rafael Sanzio 150,Zapopan,Jalisco,C.P. 45020,Mexico,523336735047,20.67699,-103.4317,,,0
taf,,Plaza Fiesta San Agustin,Batallón de San Patricio 1000,San Pedro Garza García,Nuevo León,C.P. 66260,Mexico,528183631560,25.64867,-100.3373,,,0
The Athlete's Foot,,Grand Central Shopping Centre,Margaret Street,Toowoomba,QLD,4350,Australia,61746392431,-27.56139,151.949,,,0
The Athlete's Foot,,500 George Street,The Galeries Victoria,Sydney,NSW,2000,Australia,61292830313,-33.87219,151.2079,,,0
The Athlete's Foot,,CastleTown Shoppingworld,Cnr. Woolcock Street and Kings Road,Townsville,QLD,4812,Australia,61747213668,-19.27193,146.791,,,0
taf,,Centro Coyoacán,Avenida Coyoacán 2000,Ciudad de México,D.F.,C.P. 03330,Mexico,525556050146,19.35972,-99.17037,,,0
The Athlete's Foot,,109-129 Blaxland Road,Top Ryde City Shopping Centre,Ryde,NSW,2112,Australia,61298086556,-33.8118,151.1064,,,0
taf,,Centro Comercial Angelopolis,Boulevard del Niño Poblano 2510,Heroica Puebla de Zaragoza,Puebla,C.P. 72450,Mexico,522224315123,19.0313,-98.23411,,,0
taf,,Plaza Sendero,Boulevard Jesús Valdez Sánchez 365,Saltillo,Coahuila,C.P. 25203 ,Mexico,528444316475,25.44384,-100.9608,,,0
The Athlete's Foot,,79 Baylis Street,,Wagga Wagga,NSW,2650,Australia,61269218222,-35.1158,147.3697,,,0
taf,,Royal Village Cozumel,Carretera A Chankanaab KM 3.5,Cozumel,Quintana Roo,C.P. 77675,Mexico,529878570778,20.48099,-86.97167,,,0
The Athlete's Foot,,111 West Lakes Boulevard,Westfield Shoppingtown,West Lakes,SA,5021,Australia,61883535499,-34.87994,138.4915,,,0
taf,,Plaza Las Américas,Carretera Federal Chetumal - Cancun KM 291,Playa Del Carmen,Quintana Roo,C.P. 77710,Mexico,529841091481,20.64868,-87.08228,,,0
The Athlete's Foot,,Werribee Plaza Shopping Centre,Heaths Road,Werribee,VIC,3030,Australia,61399743668,-37.88564,144.6814,,,0
taf,,La Gran Plaza Acapulco,Avenida Costera Miguel Alemán 1632,Acapulco,Guerrero,C.P. 39670,Mexico,527444866200,16.86125,-99.882,,,0
The Athlete's Foot,,201 Crown Street,Crown Street Mall,Wollongong,NSW,2500,Australia,61242296990,-34.4252,150.8937,,,0
taf,,Parque Tezontle,Avenida Canal de Tezontle 1512,Ciudad de México,D.F.,C.P. 09020,Mexico,525591290187,19.38456,-99.09453,,,0
The Athlete's Foot,,Westfield Shopping Centre,Keltie Street,Woden,ACT,2606,Australia,61262821178,-35.34616,149.0862,,,0
taf,,Plaza Citadel,Avenida Rómulo Garza 410,San Nicolás de los Garza,Nuevo León,C.P. 66477,Mexico,528182408857,25.72612,-100.2163,,,0
The Athlete's Foot,,425 Burwood Highway,Westfield Knox Shopping Centre,Wantirna South,VIC,3152,Australia,61398019594,-37.8689,145.2406,,,0
taf,,Galerias Mérida,Calle 60 299 ,Mérida,Yucatan,C.P. 97110,Mexico,529999415895,21.03976,-89.63025,,,0
The Athlete's Foot,,20 Murphy Street,,Wangaratta,VIC,3677,Australia,61357224666,-36.35648,146.3253,,,0
taf,,Plaza Altabrisa,Calle 7 451,Mérida,Yucatan,C.P. 97133,Mexico,529991679621,21.01745,-89.58451,,,0
The Athlete's Foot,,108 Liebig Street,,Warrnambool,VIC,3280,Australia,61355624110,-38.38352,142.4841,,,0
taf,,Galerias Coapa,Calzada del Hueso 519,Ciudad de México,D.F.,C.P. 14300,Mexico,525556278030,19.30272,-99.12303,,,0
The Athlete's Foot,,12-67 Jackson Road,Warriewood Square Shopping Centre,Warriewood,NSW,2102,Australia,61299708964,-33.6958,151.2956,,,0
taf,,Centro Comercial Altaria,Boulevard A Zacatecas Norte 849,Aguascalientes,Aguascalientes,C.P. 20116,Mexico,524499730071,21.9241,-102.2899,,,0
The Athlete's Foot,,331 Yaamba Road,Stockland Shopping Centre,Rockhampton,QLD,4701,Australia,61749214100,-23.35449,150.5228,,,0
taf,,Galerias Vallarta,Francisco Medina Ascencio 2920,Puerto Vallarta,Jalisco,C.P. 48338,Mexico,523222090805,20.65797,-105.2396,,,0
The Athlete's Foot,,Robina Town Centre,Robina Town Centre Drive,Robina,QLD,4226,Australia,61755932161,-28.07615,153.3867,,,0
taf,,Esfera City Center,Carretera Nacional KM 268 S/N,Monterrey,Nuevo Léon,C.P. 64984,Mexico,528113062618,25.5757,-100.2437,,,0
The Athlete's Foot,,1007 Point Nepean Road,,Rosebud,VIC,3939,Australia,61359867888,-38.35553,144.9065,,,0
taf,,Plaza Sendero,Avenida Circuito Colonias 70 & Calle 20,Merida,Yucatan,C.P. 97158 ,Mexico,529991881528,20.97551,-89.59667,,,0
The Athlete's Foot,,1 Council Avenue,Rockingham City Shopping Centre,Rockingham,WA,6168,Australia,61895272288,-32.28946,115.7458,,,0
taf,,Centro Comercial Power Town,Camino A Mancera No. 214,Salamanca,Guanajuato,C.P. 36773,Mexico,524772111595,20.58244,-101.2288,,,0
The Athlete's Foot,,207 Murray Street,Carillon City Shopping Centre,Perth,WA,6000,Australia,61894810200,-31.95359,115.8588,,,0
The Athlete's Foot,,585 High Street,Westfield Shoppingtown,Penrith,NSW,2750,Australia,61247218419,-33.75118,150.693,,,0
taf,,Plaza Las Américas,Calle 21 No. 327,Mérida,Yucatan,C.P. 97220,Mexico,529999875334,20.99184,-89.64912,,,0
The Athlete's Foot,,171-175 Maroodah Highway,Eastland Shopping Centre,Ringwood,VIC,3134,Australia,61398798444,-37.81243,145.2292,,,0
taf,,Avenida Juárez No. 519,Colonia Mexicaltzingo,Guadalajara,Jalisco,C.P. 44100,Mexico,523336133119,20.67497,-103.3509,,,0
taf,,Gran Terraza Oblatos,Avenida Circunvalacion Oblatos No. 2700,Guadalajara,Jalisco,C.P. 44700,Mexico,523336535366,20.68762,-103.2961,,,0
The Athlete's Foot,,84-86 Horton Street,,Port Macquarie,NSW,2444,Australia,61265837177,-31.4308,152.9085,,,0
taf,,Multi Plaza Arboledas,Autopista Mexico - Queretaro,Tlalnepantla,Estado de México,C.P. 54030,Mexico,525553904589,19.54591,-99.20923,,,0
The Athlete's Foot,,Rouse Hill Town Centre,Market Lane,Rouse Hill,NSW,2155,Australia,61288829107,-33.69076,150.9256,,,0
taf,,Forum Coatzacoalcos,Avenida Universidad Veracruzana KM 8,Coatzacoalcos,Veracruz,C.P. 96536,Mexico,529212105414,18.14005,-94.48775,,,0
The Athlete's Foot,,149 Rokeby Road,,Subiaco,WA,6008,Australia,61893811368,-31.94932,115.8239,,,0
taf,,Parque Lindavista,Calle Colector 13 280,Ciudad de México,D.F.,C.P. 07760,Mexico,525551199957,19.48611,-99.13077,,,0
The Athlete's Foot,,166 Mona Vale Road,St Ives Shopping Village,St Ives,NSW,2075,Australia,61294405614,-33.73,151.1591,,,0
taf,,Centro Comercial Zentralia,Tercer Anillo Periférico 301,Colima,Colima,C.P. 28219,Mexico,523123236134,19.26699,-103.6973,,,0
The Athlete's Foot,,399 Melton Highway,Watergardens Town Centre,Taylors Lakes,VIC,3038,Australia,61394497200,-37.69889,144.7759,,,0
The Athlete's Foot,,398 Peel Street,,Tamworth,NSW,2340,Australia,61267668219,-31.0912,150.9307,,,0
taf,,Centro Las américas,Avenida Carlos Hank Gonzalez Manzana 4,Ecatepec De Morelos,Estado de México,C.P. 55040,Mexico,525524864320,19.58496,-99.02397,,,0
The Athlete's Foot,,211 Lake Entrance Road,Stockland Shopping Centre,Shellharbour,NSW,2529,Australia,61242965800,-34.56383,150.8399,,,0
taf,,Forum Culiacán,Boulevard Jose Diego Valadéz 1676,Culiacán,Sinaloa,C.P. 80020,Mexico,526677154830,24.8141,-107.4009,,,0
The Athlete's Foot,,2 Town Centre Circuit,Salamander Bay Shopping Centre,Salamander Bay,NSW,2317,Australia,61249827877,-32.73498,152.1069,,,0
taf,,Centro Comercial Las américas,Carretera Federal Xalapa KM 2,Xalapa,Veracruz,C.P. 91193,Mexico,522288127937,19.5128,-96.87721,,,0
The Athlete's Foot,,1 Main Street,Orion Shopping Centre,Springfield,QLD,4300,Australia,61734700895,-27.6765,152.9031,,,0
taf,,Centro Comercial Malecón Américas,"Lote 1, Manzana 1, Supermanzana 6",Cancún,Quintana Roo,C.P. 77500,Mexico,529988844986,21.1286831,-86.81835,,,0
The Athlete's Foot,,Centrefair Plaza Shopping Centre,Maude Street Mall,Shepparton,VIC,3630,Australia,61358315551,-36.38013,145.401,,,0
taf,,Paseo La Fe,Avenida Miguel Alemán 200,San Nicolás de Los Garza,Nuevo Léon,C.P. 66473,Mexico,5288804400 / 88493,25.7190189,-100.217941,,,0
The Athlete's Foot,,1-21 McLeod Street,Cairns Central Shopping Centre,Cairns,QLD,4870,Australia,61740316898,-16.92473,145.7719,,,0
taf,,Parque Via Vallejo,Calzada Vallejo 1090,Ciudad de México,D.F.,C.P. 02340,Mexico,525591307295,19.4877853,-99.152,,,0
The Athlete's Foot,,100 Burwood Road,Westfield Shoppingtown,Burwood,NSW,2134,Australia,61297152580,-33.87493,151.1057,,,0
taf,,Paseo Acoxpa,Avenida Acoxpa 430,Ciudad de México,D.F.,C.P. 14300,Mexico,52556770206,19.29939,-99.13676,,,0
The Athlete's Foot,,813 Burke Road,,Camberwell,VIC,3124,Australia,61398133091,-37.82877,145.057,,,0
taf,,10 Avenida Sur 8,Paseo del Carmen,Playa del Carmen,Quintana Roo,C.P. 77710,Mexico,529848031102,20.6219368,-87.0768051,,,0
The Athlete's Foot,,44 Bulcock Street,,Caloundra,QLD,4551,Australia,61754381102,-26.80503,153.1328,,,0
taf,,Plaza México,Prolongacion José María Morelos 359,Monterrey,Nuevo Léon,C.P. 64000,Mexico,528183405291,25.66787,-100.31308,,,0
The Athlete's Foot,,Westfield Warringah Shopping Centre,Cnr. Old Pittwater Road and Condamine Street,Brookvale,NSW,2100,Australia,61299398926,-33.76811,151.266,,,0
taf,,Plaza Cetram Cuatro Caminos,Calz. Transmisiones Militares 30,Naucalpan de Juárez,Estado de México,C.P. 53489,Mexico,525550872350,19.45714,-99.21573,,,0
The Athlete's Foot,,1 Bay Street,Broadway Shopping Centre,Broadway,NSW,2007,Australia,61292112225,-33.88347,151.1944,,,0
taf,,Altama City Center,Avenida Ejército Mexicano 706,Tampico,Tamaulipas,C.P. 89130,Mexico,528336883725,22.2501221,-97.86494,,,0
The Athlete's Foot,,16 Maryborough Street,Hinkler Central Shopping Centre,Bundaberg,QLD,4670,Australia,61741536367,-24.87178,152.3497,,,0
taf,,Centro Comercial Sentura Zamora,Carretera Zamora - La Barca KM 4.2,Zamora de Hidalgo,Michoacan,C.P. 59725,Mexico,523516880135,20.0283318,-102.277107,,,0
The Athlete's Foot,,Forum Shopping Centre,Sandridge Road,Bunbury,WA,6230,Australia,61897215844,-33.33659,115.6603,,,0
The Athlete's Foot,,120 Oliver Plunkett Street,,Cork,,,Ireland,353214248748,51.89831,-8.46912,,,0
The Athlete's Foot,,Macarthur Square Shopping Centre,Gilchrist Drive,Campbelltown,NSW,2560,Australia,61246278503,-34.07539,150.7978,,,0
The Athlete's Foot,,7 O'Connell Stree,Johnston Court Shopping Centre,Sligo,,,Ireland,353719301209,54.2709274,-8.475332,,,0
The Athlete's Foot,,247 Trower Road,Casuarina Square Shopping Centre,Casuarina,NT,810,Australia,61889453833,-12.37588,130.8814,,,0
The Athlete's Foot,,Centro Commerciale Belvedere,Viale Palmiro Togliatti 2,Città di Castello,PG,06012,Italy,390758550027,43.46406,12.25279,,,0
The Athlete's Foot,,6-14 Old Castle Hill Road,Castle Towers Shopping Centre,Castle Hill,NSW,2154,Australia,61298997193,-33.73109,151.0067,,,0
The Athlete's Foot,,Piazza Marina 18,,"Casamicciola Terme, Ischia",NA,80074,Italy,39081995480,40.74866,13.90632,,,0
The Athlete's Foot,,Charlestown Square Shopping Centre,Pearson Street,Charlestown,NSW,2290,Australia,61249421848,-32.96471,151.6939,,,0
The Athlete's Foot,,1341 Dandenong Road,Chadstone Shopping Centre,Chadstone,VIC,3148,Australia,61395630844,-37.88611,145.0829,,,0
The Athlete's Foot,,Via Campo di Marte 14,,Gubbio,PG,06024,Italy,390759284803,43.349144,12.579793,,,0
The Athlete's Foot,,1382 Albany Highway,Westfield Carousel Shopping Centre,Cannington,WA,6107,Australia,61892589904,-32.01985,115.9386,,,0
The Athlete's Foot,,Via Milano 76,,Avola,,96012,Italy,39093183424,36.9094772,15.1340857,,,0
The Athlete's Foot,,Canberra Centre,Bunda Street,Canberra,ACT,2601,Australia,61262628344,-35.27987,149.1343,,,0
The Athlete's Foot,,Via Brescia 3,,Clusone,BG,24023,Italy,39034625164,45.88373,9.95642,,,0
The Athlete's Foot,,1151 Creek Road,Westfield Shoppingtown,Carindale,QLD,4152,Australia,61738434211,-27.50358,153.1017,,,0
The Athlete's Foot,,Viale Cappuccini 1,,San Giovanni Rotondo,FG,71013,Italy,390882451868,41.7068863,15.7208672,,,0
The Athlete's Foot,,38-62 Moreton Bay Road,Capalaba Central Shopping Centre,Capalaba,QLD,4157,Australia,61733903436,-27.52319,153.1947,,,0
The Athlete's Foot,,Centro Commerciale Marema',Via Ecuador,Grosseto,GR,58100,Italy,390564462379,42.7475,11.1229,,,0
The Athlete's Foot,,Bridge Mall,Bridge Street,Ballarat,VIC,3350,Australia,61353334110,-37.56246,143.8635,,,0
The Athlete's Foot,,Sulaibikhat Mall,Al-Jahra Road,Sulaibikhat,,,Kuwait,96522216089,29.31195,47.86346,,,0
The Athlete's Foot,,133 Main Street,,Bairnsdale,VIC,3875,Australia,61351531444,-37.82572,147.6315,,,0
The Athlete's Foot,,The Avenues Mall,Fifth Ring Road,Al Rai,,,Kuwait,96522597411,29.30263,47.93355,,,0
The Athlete's Foot,,Centro Shopping Centre,North Terrace Street,Bankstown,NSW,2200,Australia,61297085929,-33.91539,151.0381,,,0
The Athlete's Foot,,The Promenade,Abdulla Abdullataif Al Othman Street,Hawalli,,,Kuwait,96522254246,29.34654,48.01204,,,0
The Athlete's Foot,,44 Bangalow Road,Ballina Central Shopping Centre,Ballina,NSW,2478,Australia,61266863890,-28.85843,153.5613,,,0
The Athlete's Foot,,The Gate Mall,Block 5,Eqaila,,,Kuwait,96522056271,29.17493,48.09819,,,0
The Athlete's Foot,,29-35 Louis Street,Westfield Shopping Centre,Airport West,VIC,3042,Australia,61393380788,-37.71417,144.8861,,,0
The Athlete's Foot,,Discovery Mall,First Ring Road,Kuwait City,,,Kuwait,96522913615,29.36055,47.98221,,,0
The Athlete's Foot,,44-47 Rundle Mall Street,Rundle Mall,Adelaide,SA,5000,Australia,61882120409,-34.92269,138.6018,,,0
The Athlete's Foot,,Kuwait International Airport,Airport Arrival,Farwaniyah,,,Kuwait,96524341483,29.24011,47.97119,,,0
The Athlete's Foot,,Plaza Shopping Centre,Beardy Street,Armidale,NSW,2350,Australia,61267727288,-30.51228,151.665,,,0
The Athlete's Foot,,519-525 Dean Street,City Walk,Albury,NSW,2640,Australia,61260411311,-36.08101,146.9174,,,0
The Athlete's Foot,,Al Fanar Complex,Salem Al Mubarak Street,Salmiya,,,Kuwait,96525718853,29.34125,48.07381,,,0
The Athlete's Foot,,39 William Street,Metro Plaza Shopping Centre,Bathurst,NSW,2795,Australia,61263312345,-33.41651,149.5826,,,0
The Athlete's Foot,,Marina Mall,Arabian Gulf Street,Salmiya,,,Kuwait,96522244800,29.33998,48.06522,,,0
The Athlete's Foot,,50 Church Street,,Brighton,VIC,3186,Australia,61395926200,-37.91356,144.994,,,0
The Athlete's Foot,,Mishref Co-op,Road 50,Mishref,,,Kuwait,96525395849,29.28073,48.0694,,,0
The Athlete's Foot,,125 Riseley Street,Garden City Shopping Centre,Booragoon,WA,6154,Australia,61893159799,-32.0334,115.8376,,,0
The Athlete's Foot,,Al Kout Mall,Salem Sabah Al Salem Al Sabah Street,Fahaheel,,,Kuwait,96523930840,29.0812,48.14192,,,0
The Athlete's Foot,,Pacific Fair Shopping Centre,Hooker Boulevard,Broadbeach,QLD,4218,Australia,61755727844,-28.03536,153.4281,,,0
The Athlete's Foot,,Centro Comercial El Condado,Avenida Mariscal Sucre & Avenida John F. Kennedy,Quito,Pichincha,,Ecuador,59323802232,-0.10354,-78.49069,,,0
The Athlete's Foot,,171-209 Queen Street,Wintergarden Shopping Centre,Brisbane,QLD,4000,Australia,61730127365,-27.46903,153.0266,,,0
The Athlete's Foot,,Centro Comercial El Bosque,Avenida Del Parque & Alonso De Torres,Quito,Pichincha,,Ecuador,59322267604,-0.16194,-78.49772,,,0
The Athlete's Foot,,293-295 Hargreaves Street,Hargreaves Mall,Bendigo,VIC,3550,Australia,61354418064,-36.7595,144.2805,,,0
The Athlete's Foot,,Centro Comercial El Jardin,Avenida Río amazonas N6-114 & Avendia de la Republica,Quito,Pichincha,,Ecuador,59322980276,-0.18945,-78.48747,,,0
The Athlete's Foot,,Westfield Shoppingtown,Benjamin Way,Belconnen,ACT,2617,Australia,61262516993,-35.23701,149.0662,,,0
The Athlete's Foot,,Centro Comercial Inaquito,Avenida Río amazonas,Quito,Pichincha,,Ecuador,59322456945,-0.17809,-78.48535,,,0
The Athlete's Foot,,500 Oxford Street,Westfield Shoppingtown,Bondi Junction,NSW,2022,Australia,61293895513,-33.89156,151.2502,,,0
The Athlete's Foot,,Centro Comercial Quicentro Sur,Avenida Morán Valverde S/N,Quito,Pichincha,,Ecuador,59324000172,-0.28468,-78.54383,,,0
The Athlete's Foot,,17 Patrick Street,Westpoint Shopping Centre,Blacktown,NSW,2148,Australia,61296222869,-33.77,150.9046,,,0
The Athlete's Foot,,Centro Comercial Mall del Sol,Joaquín José Orrantia González S/N,Guayaquil,Guayas,,Ecuador,59342082089,-2.15518,-79.89262,,,0
The Athlete's Foot,,447 Portrush Road,Burnside Village Shopping Centre,Glenside,SA,5065,Australia,61883382625,-34.93995,138.6415,,,0
The Athlete's Foot,,Centro Comercial Scala Shopping,Avenida Interoceánica KM 12.5,Quito,Pichincha,,Ecuador,59322928285,-0.20703,-78.42579,,,0
The Athlete's Foot,,69 Jetty Road,,Glenelg,SA,5045,Australia,61882946870,-34.98001,138.5157,,,0
The Athlete's Foot,,Centro Comercial City Mall,Avenida Benjamín Carrión Mora S/N,Guayaquil,Guayas,,Ecuador,59343068020,-2.14106,-79.90967,,,0
The Athlete's Foot,,52-72 Fitzroy Street,Grafton Shoppingworld,Grafton,NSW,2460,Australia,61266428812,-29.69158,152.9366,,,0
The Athlete's Foot,,Glyfada,Aggelou Metaxa 30A,Athens,,16674,Greece,302161001100,37.86107,23.75348,,,0
The Athlete's Foot,,201 Auburn Street,,Goulburn,NSW,2580,Australia,61248235912,-34.75328,149.7198,,,0
The Athlete's Foot,,The Mall Athens,Andrea Papandreou 35,Athens,,15122,Greece,302106105939,38.04454,23.79063,,,0
The Athlete's Foot,,54 Sanford Street,Stirlings Central Shopping Centre,Geraldton,WA,6530,Australia,61899500375,-28.77483,114.612,,,0
The Athlete's Foot,,2 Panagitsas Street,Kifisia,Athens,,14562,Greece,302108086322,38.07335,23.81299,,,0
The Athlete's Foot,,Market Square Shopping Centre,Moorabool Street,Geelong,VIC,3220,Australia,61352290334,-38.14772,144.3607,,,0
The Athlete's Foot,,26 Iroon Polytechniou Street,Peiraias,Athens,,18531,Greece,302104227074,37.94391,23.64771,,,0
The Athlete's Foot,,235 Springvale Road,The Glen Shopping Centre,Glen Waverley,VIC,3150,Australia,61398879600,-37.87584,145.165,,,0
The Athlete's Foot,,Larisa,Panagouli 19,Larisa,,41223,Greece,302416008000,39.63725,22.4191513,,,0
The Athlete's Foot,,429 Mesogeion Avenue,Agia Paraskevi,Athens,,15343,Greece,302169006001,38.0135574,23.8194866,,,0
The Athlete's Foot,,25 Main Street,Greensborough Plaza Shopping Centre,Greensborough,VIC,3088,Australia,61394329955,-37.70255,145.1031,,,0
The Athlete's Foot,,Sogo Department Store,Big Mall,Samarinda,,75126,Indonesia,625414112555,-0.5256,117.1159,,,0
The Athlete's Foot,,86 Firebrace Street,,Horsham,VIC,3400,Australia,61353827270,-36.71464,142.1995,,,0
The Athlete's Foot,,Sogo Department Store,Paris Van Java Mall Resort,Bandung,,40162,Indonesia,622282063475 / 109,-6.88949,107.5964,,,0
The Athlete's Foot,,236 Pacific Highway,,Hornsby,NSW,2077,Australia,61294777752,-33.7052,151.0993,,,0
The Athlete's Foot,,Sogo Department Store,Tunjungan Plaza 4,Surabaya,,60261,Indonesia,62315323746,-7.26165,112.739,,,0
The Athlete's Foot,,322 Moggill Road,Indooroopilly Shopping Centre,Indooroopilly,QLD,4068,Australia,61733780015,-27.4994,152.9728,,,0
The Athlete's Foot,,Mal Taman Anggrek,Jalan Letjen S. Parma Kav. 21,Jakarta,,11470,Indonesia,62215639310,-6.17895,106.7922,,,0
The Athlete's Foot,,Westfield Shopping Centre,Cnr. Cross Street and Park Road,Hurstville,NSW,2220,Australia,61295796600,-33.96528,151.1058,,,0
The Athlete's Foot,,Galeries Lafayette,Pacific Place,Jakarta,,12190,Indonesia,622157973470 / 409,-6.22485,106.8098,,,0
The Athlete's Foot,,1-29 Millaroo Drive,Westfield Shopping Centre,Helensvale,QLD,4212,Australia,61755193900,-27.9262,153.3362,,,0
The Athlete's Foot,,Sogo Department Store,Central Park,Jakarta,,11470,Indonesia,622156985741,-6.17835,106.7902,,,0
The Athlete's Foot,,380 Banna Avenue,,Griffith,NSW,2680,Australia,61269642231,-34.2878,146.0432,,,0
The Athlete's Foot,,Hartono Mall,Jalan Raya Ringroad Utara,Yogyakarta,,55283,Indonesia,622742924143,-7.75999,110.4056,,,0
The Athlete's Foot,,60 Elizabeth Street,Cat & Fiddle Arcade Shopping Centre,Hobart,TAS,7000,Australia,61362311844,-42.88128,147.3275,,,0
The Athlete's Foot,,Komplek Mall Lembuswana,Matahari Department Store,Samarinda,,75123,Indonesia,62541745520,-0.47532,117.1477,,,0
The Athlete's Foot,,Westfield Shopping Centre Whitford City,Marmion Avenue,Hillarys,WA,6025,Australia,61893074662,-31.79715,115.7495,,,0
The Athlete's Foot,,Sogo Department Store,Lippo Mall Puri Indah St. Moritz,Jakarta,,11610,Indonesia,622122582800 / 204,-6.18765,106.7394,,,0
The Athlete's Foot,,Centro Colonnades,Beach Road,Noarlunga,SA,5168,Australia,61883267861,-35.14116,138.4951,,,0
The Athlete's Foot,,Sogo Department Store,Central Park,Jakarta,,11470,Indonesia,622156985741,-6.17835,106.7902,,,0
The Athlete's Foot,,253 Pacific Highway,Park Beach Plaza Shopping Centre,Coffs Harbour,NSW,2450,Australia,61266511802,-30.28248,153.1314,,,0
The Athlete's Foot,,Tunjungan Plaza,Jalan Basuki Rahmat 8-12,Surabaya,,60261,Indonesia,62315459589,-7.26293,112.7404,,,0
The Athlete's Foot,,176 Macquarie Street,,Dubbo,NSW,2830,Australia,61268818400,-32.24848,148.6014,,,0
The Athlete's Foot,,Komplek Pertokoan,Kuta Square,Kuta Bali,,80361,Indonesia,62361754912,-8.72398,115.1715,,,0
The Athlete's Foot,,619 Doncaster Road,Westfield Shoppingtown,Doncaster,VIC,3108,Australia,61398481378,-37.78508,145.1263,,,0
The Athlete's Foot,,Mal Bali Galeria,Matahari Department Store,Kuta Bali,,80361,Indonesia,62361758564,-8.72222,115.185,,,0
The Athlete's Foot,,1239 Nepean Highway,Westfield Shoppingtown,Cheltenham,VIC,3192,Australia,61395831565,-37.95844,145.055,,,0
The Athlete's Foot,,Mal Malioboro,Jalan Malioboro 52-58 ,Yogyakarta,,55271,Indonesia,62274520351,-7.79312,110.3661,,,0
The Athlete's Foot,,1 Anderson Street,Westfield Shoppingtown,Chatswood,NSW,2067,Australia,61298849855,-33.79692,151.1842,,,0
The Athlete's Foot,,Ciputra Mall,Jalan Simpang Lima 1 ,Semarang,,50134,Indonesia,62248415457,-6.98869,110.4239,,,0
The Athlete's Foot,,23 St Quentin Avenue,Claremont Quarter Shopping Centre,Claremont,WA,6010,Australia,61893847980,-31.98208,115.7796,,,0
The Athlete's Foot,,Bandung Indah Plaza,Jalan Merdeka 56,Bandung,,40115,Indonesia,62224234257,-6.90869,107.6112,,,0
The Athlete's Foot,,Westfield Shoppingtown,Hamilton Road,Chermside,QLD,4032,Australia,61733504610,-27.38354,153.0324,,,0
The Athlete's Foot,,Matahari Department Store,Jalan Dewi Sartika,Denpasar Bali,,80114,Indonesia,62361247442,-8.67004,115.2173,,,0
The Athlete's Foot,,235 Forest Lake Boulevard,Forest Lake Village Shopping Centre,Forest Lake,QLD,4078,Australia,61737149444,-27.62482,152.9684,,,0
The Athlete's Foot,,Mal Ciputra,Jalan Arteri S. Parman,Jakarta,,11470,Indonesia,62215681503,-6.16832,106.7864,,,0
The Athlete's Foot,,270 Canterbury Road,Forest Hill Chase Shopping Centre,Forest Hill,VIC,3131,Australia,61398948944,-37.83507,145.1645,,,0
The Athlete's Foot,,Mal Metropolitan,Jalan Kalimalang Ujung,Bekasi,,17148,Indonesia,62218848556,-6.2485,106.9907,,,0
The Athlete's Foot,,28 Beach Street,Bayside Shopping Centre,Frankston,VIC,3199,Australia,61397815557,-38.14095,145.1249,,,0
The Athlete's Foot,,352 Princes Highway,Westfield Shoppingtown,Fountain Gate,VIC,3805,Australia,61397056633,-38.01739,145.3036,,,0
The Athlete's Foot,,Galeria Mall,Jalan Jendral Sudirman 99-101 ,Yogyakarta,,55223,Indonesia,62274584681,-7.78266,110.379,,,0
The Athlete's Foot,,50 Elizabeth Way,Elizabeth Shopping Centre,Elizabeth,SA,5112,Australia,61882876650,-34.71774,138.6687,,,0
The Athlete's Foot,,Galaxy Mall,Jalan Dharmahusada Indah Timur 35-37 ,Surabaya,,60115,Indonesia,62315937323,-7.27463,112.7822,,,0
The Athlete's Foot,,177 Hare Street,,Echuca,VIC,3564,Australia,61354807100,-36.12673,144.7492,,,0
The Athlete's Foot,,Arion Mall,Matahari Department Store,Jakarta,,13220,Indonesia,622147864348,-6.1941,106.8906,,,0
The Athlete's Foot,,Erina Fair Shopping Centre,Terrigal Drive,Erina,NSW,2250,Australia,61243654616,-33.43704,151.3929,,,0
The Athlete's Foot,,Matahari Kuta Square,Jalan Bakung Sari 1,Kuta Bali,,80361,Indonesia,62361757597,-8.72402,115.1717,,,0
The Athlete's Foot,,115 Elizabeth Street,VM Romano Building,Melbourne,VIC,3000,Australia,61396000455,-37.8155,144.9635,,,0
The Athlete's Foot,,Plaza Atrium,Jalan Segitiga Senen,Jakarta,,10410,Indonesia,62212314605,-6.17665,106.8412,,,0
The Athlete's Foot,,Abreeza Ayala Mall,J.P. Laurel Avenue,Davao City,Davao,8000,Philippines,63823219431,7.09116,125.6111,,,0
The Athlete's Foot,,Sogo Department Store,Discovery Shopping Mall,Kuta Bali,,80361,Indonesia,62361769592,-8.728544,115.168533,,,0
The Athlete's Foot,,Robinsons Place,Calasiao - Urdaneta Road,Calasiao,Pangasinan,2418,Philippines,63756320191,16.02242,120.3587,,,0
The Athlete's Foot,,Sogo Department Store,Sun Plaza,Medan,,20152,Indonesia,62614501109,3.582139,98.6719,,,0
The Athlete's Foot,,Marquee Mall,Aniceto Gueco Street,Angeles,Pampanga,2009,Philippines,63453040544,15.16298,120.6098,,,0
The Athlete's Foot,,Mal SKA,Jalan Soekarno Hatta,Pekanbaru,,28294,Indonesia,62761864011 ,0.499383,101.417725,,,0
The Athlete's Foot,,Robinsons Place,Business District,Dumaguete City,Iloilo,6200,Philippines,63354210593,9.29837,123.3035,,,0
The Athlete's Foot,,111 Rue du Jules Aubert,Saint Denis La Réunion - Rue Jules Aubert,Saint-Denis,Réunion,97400,France,262949920,-20.8793259,55.4531555,,,0
The Athlete's Foot,,Robinsons Magnolia,Cnr. Aurora Boulevard and Doña M. Hemady Avenue,Manila,Metro Manila,1016,Philippines,6329615274,14.61461,121.0381,,,0
The Athlete's Foot,,Two Parkade Building,Cnr. 30th Street and 7th Avenue,Taguig City,Metro Manila,1631,Philippines,6328150476,14.55182,121.0503,,,0
The Athlete's Foot,,Centre Commercial Camp’Us,Parc de L’Estuaire,Gonfreville-l'Orcher,,76700,France,33235131340,49.5085449,0.219489,,,0
The Athlete's Foot,,Robinsons Place,Puerto Princesa North Road,Puerto Princesa,Palawan,5300,Philippines,639294413070,9.76749,118.749,,,0
The Athlete's Foot,,Robinsons Mall,Tabuan National Highway,Tacloban City,Leyte,6500,Philippines,63535230203,11.20761,125.0081,,,0
The Athlete's Foot,,Jumbo Shopping Center,Vantaanportinkatu 7,Vantaa,,01510,Finland,358503242162,60.2920647,24.9655418,,,0
The Athlete's Foot,,Iso Omena,Piispansilta 11,Espoo,,02230,Finland,358503243504,60.16149,24.7383175,,,0
The Athlete's Foot,,Alabang Town Center,Twin Cinema Arcade,Alabang,Muntinlupa,1780,Philippines,6328420203,14.42384,121.0311,,,0
The Athlete's Foot,,Valkea Shopping Center,Isokatu 23,Oulu,,90100,Finland,358503280038,65.01129,25.4727573,,,0
The Athlete's Foot,,Glorietta Mall,Ayala Glorietta 3,Makati,Metro Manila,1224,Philippines,6327527097,14.55174,121.0244,,,0
The Athlete's Foot,,Forum Shopping Center,Mannerheimintie 20,Helsinki,,00100,Finland,358505242634,60.1690521,24.938364,,,0
The Athlete's Foot,,Ayala Center,Cebu Business Park,Cebu City,Cebu,6000,Philippines,63324164811,10.31787,123.9047,,,0
The Athlete's Foot,,Robinsons Place,Cnr. Pedro Gil Street and Adriatico Street,Manila,Metro Manila,1000,Philippines,6325363342,14.57588,120.9839,,,0
The Athlete's Foot,,Robinsons Place,Cnr. Lacson Street and Montelibano Drive,Bacolod,Bacolod,6100,Philippines,63347096120,10.69142,122.9584,,,0
The Athlete's Foot,,2200 St Claude Avenue,,New Orleans,Louisiana,70117,United States,15049425086,29.96842,-90.05638,,,0
The Athlete's Foot,,4490 Chef Menteur Highway,,New Orleans,Louisiana,70126,United States,15049488833,30.00498,-90.03639,,,0
The Athlete's Foot,,600 Canal Street,,New Orleans,Louisiana,70130,United States,15046053995,29.9524345,-90.06853,,,0
The Athlete's Foot,,50 Mitropoleos Street,,,,54623,Thessaloniki,302316014440,40.6315422,22.9432774,,,0
The Athlete's Foot,,6901 Security Boulevard,Security Square,Baltimore,Maryland,21244,United States,14433485876,39.3091545,-76.74967,,,0
The Athlete's Foot,,103 Tanglewood Parkway,,Elizabeth City,North Carolina,27909,United States,12523312234,36.2954979,-76.3005142,,,0
The Athlete's Foot,,Via Lazio 46,,Marano di Napoli,NA,80016,Italy,390815762935,40.9016838,14.1904287,,,0
The Athlete's Foot,,Heuvelstraat 7,,Tilburg,,5038 AA,The Netherlands,31135810202,51.5572853,5.089307,,,0
The Athlete's Foot,,Varkensmarkt 13,,Roermond,,6041 ET,The Netherlands,31475227221,51.19508,5.986483,,,0
The Athlete's Foot,,115 Avenue Mustapha Ali Khodja,El Biar,Algiers,,16000,Algeria,,36.7696037,3.028967,,,0
The Athlete's Foot,,Kountourioti 158,,Rethymno,Crete,74100,Greece,302831307770,35.3652573,24.4810123,,,0
The Athlete's Foot,,83 Avenue de Bastia,Centre Commercial Les 4 Portes,Porto-Vecchio,Corse,20137,France,33964467216,41.5994759,9.275387,,,0
The Athlete's Foot,,Centre Commercial BAB2,Avenue Jean-Léon Laporte,Anglet,,64600,,33559590153,43.4879227,-1.498688,,,0
The Athlete's Foot,,Fashion Drive,Avenida Batallón de San Patricio 1000,San Pedro Garza García,Nuevo León,C.P. 66260,Mexico,528113067283,25.6512051,-100.335045,,,0
The Athlete's Foot,,Centro Comercial Andares,Boulevard Puerta de Hierro 4965,Zapopan,Jalisco,C.P. 45116,Mexico,523331132145,20.7103825,-103.412125,,,0
The Athlete's Foot,,3642 Highway 138 SE,,Stockbridge,Georgia,30281,United States,17703898977,33.5509262,-84.2710342,,,0
The Athlete's Foot,,5015 Floyd Road,,Mableton,Georgia,30126,United States,16783247995,33.83285,-84.57437,,,0
The Athlete's Foot,,420 Avenue François Pignier,Centre Commercial Cap Emeraude,Bourg-en-Bresse,,01000,France,33474303430,46.2204056,5.246232,,,0
The Athlete's Foot,,1 Avenue du Premier Consul,,Ajaccio ,Corse,20000,France,33495500202,41.9186172,8.7377,,,0
The Athlete's Foot,,Place de la Libération ,,Auch,,32000,France,33562668960,43.6468353,0.584215,,,0
The Athlete's Foot,,4 Place du Square,,Aurillac,,15000,France,33471492748,44.9285736,2.444334,,,0
The Athlete's Foot,,520 Avenue de la Libération ,,Manosque,,04100,France,33492742886,43.81885,5.795453,,,0
The Athlete's Foot,,Bridge Street,,Castlebar,,,Ireland,353949038629,53.7998352,-9.522166,,,0
The Athlete's Foot,,Binnenhof 36-37,,Amstelveen,,1181 ZH,The Netherlands,31135810202,52.3023834,4.862119,,,0
The Athlete's Foot,,Centro Comercial Portal San Angel,Avenida Revolución 1267,Ciudad de México,D.F.,C.P. 01010,Mexico,525521556269,19.36128,-99.19098,,,0
The Athlete's Foot,,165 W Clayton Street,,Athens,Georgia,30601,United States,17068508111,33.95784,-83.37814,,,0
