store_name,store_number,address,address2,city,state,zip_code,country,phone_number,latitude,longitude,store_hours,other_fields,coming_soon
VIP Auburn Maine Store,,128 Center St.,,Auburn,ME,04210,United States,(207) 783-8561,,,Monday-Friday 7:30 AM - 6:00 PM; Saturday 7:30 AM - 6:00 PM; Sunday 9:00 AM - 4:00 PM,,0
VIP Augusta Maine Store,,61 Western Ave,,Augusta,ME,04330,United States,(207) 622-5841,,,Monday-Friday 7:30 AM - 6:00 PM; Saturday 7:30 AM - 6:00 PM; Sunday 9:00 AM - 4:00 PM,,0
VIP Belfast Maine Store,,35 Starrett Dr,,Belfast,ME,04915,United States,(207) 338-6160,,,Monday-Friday 7:30 AM - 6:00 PM; Saturday 7:30 AM - 6:00 PM; Sunday 9:00 AM to 4:00 PM,,0
VIP Brewer Maine Store,,500 Wilson St.,,Brewer,ME,04412,United States,(207) 989-1280,,,Monday-Friday 7:30 AM - 6:00 PM; Saturday 7:30 AM - 6:00 PM; Sunday 9:00 AM - 4:00 PM,,0
VIP Calais Maine Store,,102 North St.,,Calais,ME,04619,United States,(207) 454-0246,,,Monday-Friday 7:30 AM - 6:00 PM; Saturday 7:30 AM - 6:00 PM; Sunday 9:00 AM - 4:00 PM,,0
VIP Claremont NH Store,,323 Washington St,,Claremont,NH,03743,United States,(603) 543-3521,,,Monday-Friday 7:30 AM - 6:00 PM; Saturday 7:30 AM - 6:00 PM; Sunday 9:00 AM to 4:00 PM,,0
VIP Concord NH Store,,162 Manchester St.,,Concord,NH,03301,United States,(603) 224-4844,,,Monday-Friday 7:30 AM - 6:00 PM; Saturday 7:30 AM - 6:00 PM; Sunday 9:00 AM - 4:00 PM,,0
VIP Ellsworth Maine Store,,24 Downeast Highway,,Ellsworth,ME,04605,United States,(207) 667-1088,,,Monday-Friday 7:30 AM - 6:00 PM; Saturday 7:30 AM - 6:00 PM; Sunday 9:00 AM to 4:00 PM,,0
VIP Farmington Maine Store,,464 Wilton Rd.,,Farmington,ME,04938,United States,(207) 778-3470,,,Monday-Friday 7:30 AM - 6:00 PM; Saturday 7:30 AM - 6:00 PM; Sunday 9:00 AM - 4:00 PM,,0
VIP Farmingdale Maine Store,,597 Maine Ave,,Farmingdale,ME,04344,United States,(207) 582-2858,,,Monday-Friday 7:30 AM - 6:00 PM; Saturday 7:30 AM - 6:00 PM; Sunday 9:00 AM to 4:00 PM,,0
VIP Gorham NH Store,,418 Main St.,,Gorham,NH,03581,United States,(603) 466-5922,,,Monday-Friday 7:30 AM - 6:00 PM; Saturday 7:30 AM - 6:00 PM; Sunday 9:00 AM to 4:00 PM,,0
VIP Laconia NH Store,,1033 Union Ave,,Laconia,NH,03246,United States,(603) 528-4390,,,Monday-Friday 7:30 AM - 6:00 PM; Saturday 7:30 AM - 6:00 PM; Sunday 9:00 AM to 4:00 PM,,0
VIP Houlton Maine Store,,125 North St.,,Houlton,ME,04730,United States,(207) 532-2326,,,Monday-Friday 7:30 AM - 6:00 PM; Saturday 7:30 AM - 6:00 PM; Sunday 9:00 AM - 4:00 PM,,0
VIP Lewiston Maine Store - Lisbon Street,,520 Lisbon St.,,Lewiston,ME,04240,United States,(207) 784-0131,,,Monday-Friday 7:30 AM - 6:00 PM; Saturday 7:30 AM - 6:00 PM; Sunday 9:00 AM to 4:00 PM,,0
VIP Lewiston Maine Store - Sabattus Street,,485 Sabattus St.,,Lewiston,ME,04240,United States,(207) 784-5464,,,Monday-Friday 7:30 AM - 6:00 PM; Saturday 7:30 AM - 6:00 PM; Sunday 9:00 AM - 4:00 PM,,0
VIP Littleton NH Store,,862 Meadow St,,Littleton,NH,03561,United States,(603) 444-4497,,,Monday-Friday 7:30 AM - 6:00 PM; Saturday 7:30 AM - 6:00 PM; Sunday 9:00 AM to 4:00 PM,,0
VIP Londonderry NH Store,,3 Garden Lane,,Londonderry,NH,03053,United States,(603) 537-0064,,,Monday-Friday 7:30 AM - 6:00 PM; Saturday 7:30 AM - 6:00 PM; Sunday 9:00 AM to 4:00 PM,,0
VIP Madawaska Maine Store,,40 Maine St.,,Madawaska,ME,04756,United States,(207) 728-6847,,,Monday-Friday 7:30 AM - 6:00 PM; Saturday 7:30 AM - 6:00 PM; Sunday 9:00 AM to 4:00 PM,,0
VIP Manchester NH Store,,445 Hooksett Rd.,,Manchester,NH,03104,United States,(603) 629-9760,,,Monday-Friday 7:30 AM - 6:00 PM; Saturday 7:30 AM - 6:00 PM; Sunday 9:00 AM - 4:00 PM,,0
VIP Merrimack NH Store,,714 Milford Rd,,Merrimack,NH,03054,United States,(603) 883-8477,,,Monday-Friday 7:30 AM - 6:00 PM; Saturday 7:30 AM - 6:00 PM; Sunday 9:00 AM to 4:00 PM,,0
VIP Milford NH Store,,48 Jones Rd,,Milford,NH,03055,United States,(603) 672-7520,,,Monday-Friday 7:30 AM - 6:00 PM; Saturday 7:30 AM - 6:00 PM; Sunday 9:00 AM to 4:00 PM,,0
VIP Norway Maine Store,,85 Main St.,,Norway,ME,04268,United States,(207) 743-5192,,,Monday-Friday 7:30 AM - 6:00 PM; Saturday 7:30 AM - 6:00 PM; Sunday 9:00 AM - 4:00 PM,,0
VIP Old Town Maine Store,,947 Stillwater Ave,,Old Town,ME,04468,United States,(207) 827-7012,,,Monday-Friday 7:30 AM - 6:00 PM; Saturday 7:30 AM - 6:00 PM; Sunday 9:00 AM to 4:00 PM,,0
VIP Portsmouth NH Store,,2179 Lafayette Rd.,,Portsmouth,NH,03801,United States,(603) 431-1125,,,Monday-Friday 7:30 AM - 6:00 PM; Saturday 7:30 AM - 6:00 PM; Sunday 9:00 AM - 4:00 PM,,0
VIP Presque Isle Maine Store,,"Aroostook Centre Mall, 755 Main St.",,Presque Isle,ME,04769,United States,(207) 764-3181,,,Monday-Friday 7:30 AM - 6:00 PM; Saturday 7:30 AM - 6:00 PM; Sunday 9:00 AM - 4:00 PM,,0
VIP Rockland Maine Store,,137 Camden St,,Rockland,ME,04841,United States,(207) 596-0889,,,Monday-Friday 7:30 AM - 6:00 PM; Saturday 7:30 AM - 6:00 PM; Sunday 9:00 AM to 4:00 PM,,0
VIP Sanford Maine Store,,1238 Main St.,,Sanford,ME,04073,United States,(207) 324-1117,,,Monday-Friday 7:30 AM - 6:00 PM; Saturday 7:30 AM - 6:00 PM; Sunday 9:00 AM - 4:00 PM,,0
VIP Skowhegan Maine Store,,9 East Madison Rd,,Skowhegan,ME,04976,United States,(207) 474-9159,,,Monday-Friday 7:30 AM - 6:00 PM; Saturday 7:30 AM - 6:00 PM; Sunday 9:00 AM to 4:00 PM,,0
VIP Somersworth NH Store,,6 Waltons Way,,Somersworth,NH,03878,United States,(603) 692-5550,,,Monday-Friday 7:30 AM - 6:00 PM; Saturday 7:30 AM - 6:00 PM; Sunday 9:00 AM - 4:00 PM,,0
VIP South Portland Maine Store,,207 Waterman Dr.,,South Portland,ME,04106,United States,(207) 767-8133,,,Monday 7:30 AM to 6:00 PM; Saturday 7:30 AM to 6:00 PM; Sunday 9:00 AM to 4:00 PM,,0
VIP Tilton NH Store,,117 Laconia Road,,Tilton,NH,03276,United States,(603) 286-7557,,,Monday-Friday 7:30 AM - 6:00 PM; Saturday 7:30 AM - 6:00 PM; Sunday 9:00 AM to 4:00 PM,,0
VIP Watertown MA Store,,275 Arsenal St,,Watertown,MA,02472,United States,(617) 924-8700,,,Monday-Friday 7:30 AM - 6:00 PM; Saturday 7:30 AM - 4:00 PM; Sunday - Closed,,0
