store_name,store_number,address,address2,city,state,zip_code,country,phone_number,latitude,longitude,store_hours,other_fields,coming_soon
Volkswagen of Naples,405024,601 Airport Rd S,,Naples,FL,34104,USA,8449210822,26.1481,-81.7665,Fri:08:30-19:30; Mon:08:30-19:30; Sat:08:30-18:00; Thu:08:30-19:30; Tue:08:30-19:30; Wed:08:30-19:30; Sun:closed; ,,0
Volkswagen of Fort Myers,405089,14060 S Tamiami Trl,,Fort Myers,FL,33912,USA,8007893570,26.5381,-81.8724,Fri:08:00-20:00; Mon:08:00-20:00; Sat:09:00-19:00; Sun:12:00-16:00; Thu:08:00-20:00; Tue:08:00-20:00; Wed:08:00-20:00; ,,0
Port Charlotte Volkswagen,405069,1252 Tamiami Trl,,Port Charlotte,FL,33953,USA,8444301473,27.0151,-82.1474,Fri:09:00-20:00; Mon:09:00-20:00; Sat:09:00-20:00; Sun:11:00-17:00; Thu:09:00-20:00; Tue:09:00-20:00; Wed:09:00-20:00; ,,0
Sunset Volkswagen of Sarasota,405244,5005 S Tamiami Trl,,Sarasota,FL,34231,USA,9419231700,27.2798,-82.5299,Fri:09:00-18:00; Mon:09:00-19:00; Sat:09:00-17:00; Thu:09:00-19:00; Tue:09:00-19:00; Wed:09:00-19:00; Sun:closed; ,,0
South Motors Volkswagen,405041,17930 S Dixie Hwy,,Miami,FL,33157,USA,8444189390,25.6031,-80.3517,Fri:09:00-21:00; Mon:09:00-21:00; Sat:09:00-20:00; Sun:11:00-19:00; Thu:09:00-21:00; Tue:09:00-21:00; Wed:09:00-21:00; ,,0
Esserman International Volkswagen,405029,10455 Nw 12th St,,Doral,FL,33172,USA,3053306014,25.7832,-80.3649,Fri:09:00-17:00; Mon:09:00-17:00; Thu:09:00-17:00; Tue:09:00-17:00; Wed:09:00-17:00; Sun:closed; Sat:closed; ,,0
Bob Boast Volkswagen,405234,4827 14th St W,,Bradenton,FL,34207,USA,8442204383,27.4558,-82.5749,Fri:09:00-17:00; Mon:09:00-17:00; Thu:09:00-17:00; Tue:09:00-17:00; Wed:09:00-17:00; Sun:closed; Sat:closed; ,,0
Deel Volkswagen,405224,3601 Bird Road,,Miami,FL,33133,USA,8553831319,25.7353,-80.2534,Fri:09:00-19:30; Mon:09:00-20:00; Sat:09:00-18:00; Sun:12:00-18:00; Thu:09:00-20:00; Tue:09:00-20:00; Wed:09:00-20:00; ,,0
Palmetto57 Volkswagen,405068,16825 Nw 57th Ave,,Miami Gardens,FL,33055,USA,8447113403,25.9270,-80.2925,Fri:09:00-21:00; Mon:09:00-21:00; Sat:09:00-20:00; Sun:11:00-19:00; Thu:09:00-21:00; Tue:09:00-21:00; Wed:09:00-21:00; ,,0
Rick Case Volkswagen Weston,405240,3520 Weston Rd,,Davie,FL,33331,USA,8552545314,26.0777,-80.3619,Fri:09:00-21:00; Mon:09:00-21:00; Sat:09:00-21:00; Sun:11:00-19:00; Thu:09:00-21:00; Tue:09:00-21:00; Wed:09:00-21:00; ,,0
Gunther Volkswagen,405073,1660 S State Road 7,,Davie,FL,33317,USA,9547971660,26.0992,-80.2008,Fri:09:00-17:00; Mon:09:00-17:00; Thu:09:00-17:00; Tue:09:00-17:00; Wed:09:00-17:00; Sun:closed; Sat:closed; ,,0
Bert Smith International,405231,3335 38th Ave N,,Saint Petersburg,FL,33713,USA,7275271111,27.8074,-82.6788,Fri:07:30-18:00; Mon:07:30-18:00; Sat:08:00-17:00; Thu:07:30-18:00; Tue:07:30-18:00; Wed:07:30-18:00; Sun:closed; ,,0
Gunther Volkswagen of Coconut Creek,405074,4300 N State Road 7,,Coconut Creek,FL,33073,USA,9545903750,26.2828,-80.2008,Fri:09:00-17:00; Mon:09:00-17:00; Thu:09:00-17:00; Tue:09:00-17:00; Wed:09:00-17:00; Sun:closed; Sat:closed; ,,0
Vista Volkswagen,405012,700 N Federal Hwy,,Pompano Beach,FL,33062,USA,8445671343,26.2379,-80.1021,Fri:09:00-20:00; Mon:09:00-20:00; Sat:09:00-19:00; Sun:12:00-19:00; Thu:09:00-20:00; Tue:09:00-20:00; Wed:09:00-20:00; ,,0
Kuhn Volkswagen,405052,3900 W Kennedy Blvd,,Tampa,FL,33609,USA,8556382388,27.9445,-82.5083,Fri:08:30-20:00; Mon:08:30-20:00; Sat:08:30-20:00; Sun:11:00-18:00; Thu:08:30-20:00; Tue:08:30-20:00; Wed:08:30-20:00; ,,0
Lokey Volkswagen,405232,27850 Us Highway 19 N,,Clearwater,FL,33761,USA,7277992151,28.0253,-82.7392,Fri:09:00-20:00; Mon:09:00-20:00; Sat:09:00-20:00; Sun:12:00-17:00; Thu:09:00-20:00; Tue:09:00-20:00; Wed:09:00-20:00; ,,0
Brandon Volkswagen,405053,9816 E Adamo Dr,,Tampa,FL,33619,USA,8668010314,27.9492,-82.3439,Fri:08:30-20:00; Mon:08:30-20:00; Sat:08:30-20:00; Sun:11:00-17:00; Thu:08:30-20:00; Tue:08:30-20:00; Wed:08:30-20:00; ,,0
Gunther Volkswagen of Delray Beach,405013,2401 North Federal Highway,,Delray Beach,FL,33483,USA,5618081853,26.4871,-80.0643,Fri:09:00-17:00; Mon:09:00-17:00; Sat:09:00-17:00; Sun:09:00-17:00; Thu:09:00-17:00; Tue:09:00-17:00; Wed:09:00-17:00; ,,0
"Reeves Import Motorcars, Inc.",405051,11333 N Florida Ave,,Tampa,FL,33612,USA,8133753660,28.0535,-82.4590,Fri:08:30-20:00; Mon:08:30-20:00; Sat:09:00-18:00; Thu:08:30-20:00; Tue:08:30-20:00; Wed:08:30-20:00; Sun:closed; ,,0
"Schumacher Volkswagen, Inc.",405245,3001 Okeechobee Blvd,,West Palm Beach,FL,33409,USA,8448076811,26.7075,-80.1007,Fri:07:30-18:00; Mon:07:30-18:00; Sat:08:00-15:00; Thu:07:30-18:00; Tue:07:30-18:00; Wed:07:30-18:00; Sun:closed; ,,0
"Schumacher Automotive, Inc.",405242,3720 Northlake Blvd,,Lake Park,FL,33403,USA,8447833509,26.8080,-80.0936,Fri:08:30-21:00; Mon:08:30-21:00; Sat:08:30-18:00; Sun:12:00-17:00; Thu:08:30-21:00; Tue:08:30-21:00; Wed:08:30-21:00; ,,0
Volkswagen of New Port Richey,405022,4727 Us Highway 19,,New Port Richey,FL,34652,USA,7272191328,28.2279,-82.7332,Fri:09:00-17:00; Mon:09:00-17:00; Sat:09:00-17:00; Sun:09:00-17:00; Thu:09:00-17:00; Tue:09:00-17:00; Wed:09:00-17:00; ,,0
Lakeland Volkswagen,405248,209 S Lake Parker Ave,,Lakeland,FL,33801,USA,8669171660,28.0425,-81.9413,Fri:08:30-18:30; Mon:08:30-20:00; Sat:08:30-18:00; Sun:12:00-17:00; Thu:08:30-20:00; Tue:08:30-20:00; Wed:08:30-20:00; ,,0
Wallace Volkswagen,405079,2805 Se Federal Hwy,,Stuart,FL,34994,USA,8665784340,27.1706,-80.2294,Fri:09:00-19:00; Mon:09:00-20:00; Sat:09:00-18:00; Thu:09:00-20:00; Tue:09:00-20:00; Wed:09:00-20:00; Sun:closed; ,,0
David Maus Volkswagen,405014,5474 S. Orange Blossom Trail,,Orlando,FL,32839,USA,8663187865,28.4817,-81.3972,Fri:08:30-20:00; Mon:08:30-20:00; Sat:08:30-20:00; Sun:12:00-18:00; Thu:08:30-20:00; Tue:08:30-20:00; Wed:08:30-20:00; ,,0
Prestige Volkswagen,405080,1416 S Harbor City Blvd,,Melbourne,FL,32901,USA,8449214597,28.0867,-80.6075,Fri:08:30-18:00; Mon:08:30-20:00; Sat:08:30-18:00; Sun:11:30-17:00; Thu:08:30-20:00; Tue:08:30-20:00; Wed:08:30-20:00; ,,0
David Maus Volkswagen North,405250,1050 Lee Road,,Orlando,FL,32810,USA,8448799584,28.6055,-81.3972,Fri:08:30-20:00; Mon:08:30-20:00; Sat:08:30-19:00; Sun:11:00-19:00; Thu:08:30-20:00; Tue:08:30-20:00; Wed:08:30-20:00; ,,0
Napleton's Volkswagen of Orlando,405021,12700 E Colonial Dr,,Orlando,FL,32826,USA,8556349221,28.5637,-81.1896,Fri:09:00-21:00; Mon:09:00-21:00; Sat:09:00-20:00; Sun:11:00-19:00; Thu:09:00-21:00; Tue:09:00-21:00; Wed:09:00-21:00; ,,0
Leesburg Volkswagen,405075,9105 Us Highway 441,,Leesburg,FL,34788,USA,8556639164,28.8296,-81.8054,Fri:07:00-19:00; Mon:07:00-19:00; Sat:07:00-16:00; Thu:07:00-19:00; Tue:07:00-19:00; Wed:07:00-19:00; Sun:closed; ,,0
Napleton's Volkswagen of Sanford,405249,4175 S Orlando Dr,,Sanford,FL,32773,USA,8557437423,28.7481,-81.2922,Fri:09:00-21:00; Mon:09:00-21:00; Sat:09:00-20:00; Sun:11:00-18:00; Thu:09:00-21:00; Tue:09:00-21:00; Wed:09:00-21:00; ,,0
Volkswagen of Ocala,405064,5135 Sw College Road,,Ocala,FL,34474,USA,3525711030,29.1304,-82.2053,Fri:09:00-19:00; Mon:09:00-19:00; Sat:09:00-18:00; Thu:09:00-19:00; Tue:09:00-19:00; Wed:09:00-19:00; Sun:closed; ,,0
Fields Volkswagen,405063,1270 N Tomoka Farms Rd,,Daytona Beach,FL,32124,USA,3865230500,29.2079,-81.1007,Fri:09:00-17:00; Mon:09:00-17:00; Thu:09:00-17:00; Tue:09:00-17:00; Wed:09:00-17:00; Sun:closed; Sat:closed; ,,0
Volkswagen of Gainesville,405015,3737 North Main Street,,Gainesville,FL,32609,USA,8558688731,29.6871,-82.3186,Fri:09:00-19:00; Mon:09:00-19:00; Sat:09:00-18:00; Thu:09:00-19:00; Tue:09:00-19:00; Wed:09:00-19:00; Sun:closed; ,,0
Volkswagen of Saint Augustine,405028,3235 Us Highway 1 S,,Saint Augustine,FL,32086,USA,8883658406,29.8348,-81.3231,Fri:09:00-20:00; Mon:09:00-20:00; Sat:09:00-19:00; Sun:12:00-17:00; Thu:09:00-20:00; Tue:09:00-20:00; Wed:09:00-20:00; ,,0
O'Steen Volkswagen,405036,11401 Philips Hwy,,Jacksonville,FL,32256,USA,8442016749,30.1633,-81.5353,Fri:07:00-18:00; Mon:07:00-18:00; Sat:08:00-17:00; Thu:07:00-18:00; Tue:07:00-18:00; Wed:07:00-18:00; Sun:closed; ,,0
Volkswagen of Orange Park,405071,7220 Blanding Blvd,,Jacksonville,FL,32244,USA,9044258528,30.2157,-81.7381,Fri:09:00-21:00; Mon:09:00-21:00; Sat:09:00-21:00; Thu:09:00-21:00; Tue:09:00-21:00; Wed:09:00-21:00; Sun:closed; ,,0
Volkswagen of Panama City,405065,3605 E 15th St,,Panama City,FL,32404,USA,8502572890,30.1757,-85.6042,Fri:08:30-20:00; Mon:08:30-20:00; Sat:08:30-19:00; Thu:08:30-20:00; Tue:08:30-20:00; Wed:08:30-20:00; Sun:closed; ,,0
Capital Volkswagen,405038,3963 W Tennessee St,,Tallahassee,FL,32304,USA,1844203142,30.4585,-84.3581,Fri:09:00-19:00; Mon:09:00-19:00; Sat:09:00-18:00; Thu:09:00-19:00; Tue:09:00-19:00; Wed:09:00-19:00; Sun:closed; ,,0
Tom Bush Regency Motors,405072,9850 Atlantic Blvd,,Jacksonville,FL,32225,USA,9047250911,30.3219,-81.5430,Fri:09:00-20:00; Mon:09:00-20:00; Sat:09:00-19:00; Thu:09:00-20:00; Tue:09:00-20:00; Wed:09:00-20:00; Sun:closed; ,,0
O'Steen Volkswagen of Valdosta,405119,4140 North Valdosta Road,,Valdosta,GA,31602,USA,2292429920,30.8980,-83.3281,Fri:07:30-18:00; Mon:07:30-18:00; Thu:07:30-18:00; Tue:07:30-18:00; Wed:07:30-18:00; Sun:closed; Sat:closed; ,,0
Lee Volkswagen,405040,130 Hollywood Blvd Sw,,Fort Walton Beach,FL,32548,USA,8503593038,30.4124,-86.6229,Fri:08:30-19:00; Mon:08:30-19:00; Sat:08:30-18:00; Thu:08:30-19:00; Tue:08:30-19:00; Wed:08:30-19:00; Sun:closed; ,,0
Pete Moore Imports,405219,106 N New Warrington Rd,,Pensacola,FL,32506,USA,8663148218,30.4094,-87.2759,Fri:08:30-20:00; Mon:20:30-20:00; Sat:08:30-18:00; Thu:08:30-20:00; Tue:08:30-20:00; Wed:08:30-20:00; Sun:closed; ,,0
Dothan Volkswagen,405420,2730 Ross Clark Circle,,Dothan,AL,36301,USA,8775548896,31.2105,-85.4257,Fri:08:00-19:30; Mon:08:00-19:30; Sat:08:00-18:00; Thu:08:00-19:30; Tue:08:00-19:30; Wed:08:00-19:30; Sun:closed; ,,0
Team Gunther Volkswagen of Daphne,405421,29816 Frederick Blvd,,Daphne,AL,36526,USA,8556608226,30.6608,-87.8600,Fri:09:00-20:00; Mon:09:00-20:00; Sat:09:00-19:00; Thu:09:00-20:00; Tue:09:00-20:00; Wed:09:00-20:00; Sun:closed; ,,0
Dean McCrary Imports,405419,1501 So. Beltline Hwy.,,Mobile,AL,36606,USA,2512721895,30.6591,-88.1245,Fri:09:00-18:30; Mon:09:00-18:30; Sat:09:00-17:30; Thu:09:00-18:30; Tue:09:00-18:30; Wed:09:00-18:30; Sun:closed; ,,0
Volkswagen of South Mississippi,425216,11689 Bobby Eleutrius Blvd,,Diberville,MS,39540,USA,8556307323,30.4524,-88.9028,Fri:08:30-19:00; Mon:08:30-19:00; Sat:09:00-19:00; Thu:08:30-19:00; Tue:08:30-19:00; Wed:08:30-19:00; Sun:closed; ,,0
Savannah Volkswagen,405111,50 Eisenhower Drive,,Savannah,GA,31406,USA,8553432189,32.0109,-81.1154,Fri:09:00-20:00; Mon:09:00-20:00; Sat:09:00-20:00; Sun:13:00-17:00; Thu:09:00-20:00; Tue:09:00-20:00; Wed:09:00-20:00; ,,0
Ray Brandt Volkswagen Westbank,425647,4050 Lapalco Blvd,,Harvey,LA,70058,USA,8555230707,29.8747,-90.0889,Fri:09:00-21:00; Mon:09:00-21:00; Sat:09:00-21:00; Thu:09:00-21:00; Tue:09:00-21:00; Wed:09:00-21:00; Sun:closed; ,,0
Jeff Smith VW of Warner Robins,407215,741 Russell Pkwy,,Warner Robins,GA,31088,USA,4782931701,32.5931,-83.6357,Fri:09:00-17:00; Mon:09:00-17:00; Thu:09:00-17:00; Tue:09:00-17:00; Wed:09:00-17:00; Sun:closed; Sat:closed; ,,0
Hilton Head Volkswagen,407350,137 Auto Mall Blvd,,Hardeeville,SC,29927,USA,8558083820,32.3133,-80.9857,Fri:09:00-20:00; Mon:09:00-20:00; Sat:09:00-20:00; Sun:13:00-17:00; Thu:09:00-20:00; Tue:09:00-20:00; Wed:09:00-20:00; ,,0
Walker Volkswagen,425642,8933 Veterans Memorial Blvd,,Metairie,LA,70003,USA,8555422856,30.0063,-90.2285,Fri:09:00-20:00; Mon:09:00-20:00; Sat:09:00-19:00; Thu:09:00-20:00; Tue:09:00-20:00; Wed:09:00-20:00; Sun:closed; ,,0
AutoNation Volkswagen Columbus,405137,"3000 N Lake Pkwy, Bldg 300",,Columbus,GA,31909,USA,7065222148,32.5520,-84.9407,Fri:07:00-19:00; Mon:07:00-19:00; Sat:07:00-17:00; Thu:07:00-19:00; Tue:07:00-19:00; Wed:07:00-19:00; Sun:closed; ,,0
"Jack Ingram Motors, Inc.",405418,255 Eastern Blvd # 240309,,Montgomery,AL,36117,USA,8554364349,32.3755,-86.2084,Fri:07:00-17:00; Mon:07:00-17:00; Sat:08:00-14:00; Thu:07:00-17:00; Tue:07:00-17:00; Wed:07:00-17:00; Sun:closed; ,,0
Volkswagen of Mandeville,425649,1700 N Causeway Blvd,,Mandeville,LA,70471,USA,9856261067,30.3904,-90.0899,Fri:07:30-18:00; Mon:07:30-18:00; Sat:08:00-14:00; Thu:07:30-18:00; Tue:07:30-18:00; Wed:07:30-18:00; Sun:closed; ,,0
Volkswagen of Macon,407240,2110 Eisenhower Pkwy,,Macon,GA,31206,USA,4787817701,32.8143,-83.6857,Fri:08:00-17:30; Mon:08:00-17:30; Sat:08:30-14:30; Thu:08:00-17:30; Tue:08:00-17:30; Wed:08:00-17:30; Sun:closed; ,,0
Southpoint Volkswagen,425646,13940 Airline Hwy,,Baton Rouge,LA,70817,USA,8448592225,30.3668,-91.0279,Fri:09:00-19:00; Mon:09:00-19:00; Sat:09:00-18:00; Thu:09:00-19:00; Tue:09:00-19:00; Wed:09:00-19:00; Sun:closed; ,,0
"Low Country Volkswagen, LLC",407320,1001 Johnnie Dodds Blvd,,Mount Pleasant,SC,29464,USA,8438818555,32.8104,-79.8670,Fri:07:30-18:00; Mon:07:30-18:00; Sat:08:00-17:00; Thu:07:30-18:00; Tue:07:30-18:00; Wed:07:30-18:00; Sun:closed; ,,0
Stokes Volkswagen,407325,3491 Ashley Phosphate Rd,,North Charleston,SC,29418,USA,8555497323,32.9273,-80.0760,Fri:07:30-21:00; Mon:07:30-21:00; Sat:08:00-17:00; Thu:07:30-21:00; Tue:07:30-21:00; Wed:07:30-21:00; Sun:closed; ,,0
Gerald Jones Volkswagen,407212,4022 Washington Rd,,Martinez,GA,30907,USA,7064264994,33.5093,-82.1062,Fri:09:00-20:00; Mon:09:00-20:00; Sat:09:00-18:00; Thu:09:00-20:00; Tue:09:00-20:00; Wed:09:00-20:00; Sun:closed; ,,0
"Heritage Volkswagen, Inc.",407207,4305 Jonesboro Rd,,Union City,GA,30291,USA,8442439268,33.5682,-84.5298,Fri:09:00-20:00; Mon:09:00-20:00; Sat:09:00-20:00; Thu:09:00-20:00; Tue:09:00-20:00; Wed:09:00-20:00; Sun:closed; ,,0
Heritage Volkswagen,407201,1981 Thornton Rd,,Lithia Springs,GA,30122,USA,7707451470,33.7857,-84.6134,Fri:07:00-19:00; Mon:07:00-19:00; Sat:09:00-16:00; Thu:07:00-19:00; Tue:07:00-19:00; Wed:07:00-19:00; Sun:closed; ,,0
Stone Mountain Volkswagen,407239,3500 Stone Mountain Hwy,,Snellville,GA,30078,USA,8448601053,33.8449,-84.0533,Fri:09:00-20:00; Mon:09:00-20:00; Sat:09:00-20:00; Thu:09:00-20:00; Tue:09:00-20:00; Wed:09:00-20:00; Sun:closed; ,,0
Royal Volkswagen,407134,3010 Columbiana Rd,,Vestavia Hills,AL,35216,USA,8664724838,33.4150,-86.8069,Fri:09:00-19:00; Mon:09:00-19:00; Sat:09:00-18:00; Thu:09:00-19:00; Tue:09:00-19:00; Wed:09:00-19:00; Sun:closed; ,,0
Jim Ellis Volkswagen of Chamblee,407218,5901 Peachtree Industrial Blvd,,Atlanta,GA,30341,USA,7704586811,33.9078,-84.2916,Fri:09:00-17:00; Mon:09:00-17:00; Thu:09:00-17:00; Tue:09:00-17:00; Wed:09:00-17:00; Sun:closed; Sat:closed; ,,0
Volkswagen of Athens,407221,4735 Atlanta Hwy,,Athens,GA,30606,USA,8449210835,33.9403,-83.4992,Fri:09:00-20:00; Mon:09:00-20:00; Sat:09:00-19:00; Thu:09:00-20:00; Tue:09:00-20:00; Wed:09:00-20:00; Sun:closed; ,,0
Kuhn Volkswagen of Marietta,405147,1860 Cobb Pkwy S,,Marietta,GA,30060,USA,7702821316,33.9076,-84.4924,Fri:09:00-20:00; Mon:09:00-20:00; Sat:09:00-19:00; Thu:09:00-20:00; Tue:09:00-20:00; Wed:09:00-20:00; Sun:closed; ,,0
Southwest Volkswagen,425650,6184 Johnston St,,Lafayette,LA,70503,USA,3372462336,30.1616,-92.0858,Fri:08:30-19:00; Mon:08:30-19:00; Sat:08:30-17:00; Thu:08:30-19:00; Tue:08:30-19:00; Wed:08:30-19:00; Sun:closed; ,,0
Serra Volkswagen,407129,1490 Center Point Pkwy,,Birmingham,AL,35215,USA,2052869924,33.6239,-86.6862,Fri:09:00-20:00; Mon:09:00-20:00; Sat:09:00-20:00; Thu:09:00-20:00; Tue:09:00-20:00; Wed:09:00-20:00; Sun:closed; ,,0
Jim Ellis Volkswagen of Kennesaw,407229,950 Barrett Parkway,,Kennesaw,GA,30144,USA,7703704900,34.0046,-84.5786,Fri:09:00-21:00; Mon:09:00-21:00; Sat:09:00-19:00; Thu:09:00-21:00; Tue:09:00-21:00; Wed:09:00-21:30; Sun:closed; ,,0
Nalley Volkswagen of Alpharetta,407211,1550 Mansell Rd,,Alpharetta,GA,30009,USA,8882186217,34.0410,-84.3226,Fri:09:00-20:00; Mon:09:00-20:00; Sat:09:00-19:00; Sun:12:00-17:00; Thu:09:00-20:00; Tue:09:00-20:00; Wed:09:00-20:00; ,,0
AutoNation VW Mall of Georgia,405146,3711 Buford Dr,,Buford,GA,30519,USA,6788074171,34.0829,-83.9866,Fri:07:00-19:00; Mon:07:00-19:00; Sat:07:00-19:00; Thu:07:00-19:00; Tue:07:00-19:00; Wed:07:00-19:00; Sun:closed; ,,0
Midlands Volkswagen of Columbia,407321,655 Broad River Rd,,Columbia,SC,29210,USA,8033050220,34.0250,-81.0725,Fri:09:00-20:00; Mon:09:00-20:00; Sat:09:00-18:30; Thu:09:00-20:00; Tue:09:00-20:00; Wed:09:00-18:30; Sun:closed; ,,0
Volkswagen Jackson,425205,5320 I55 North,,Jackson,MS,39211,USA,8665783403,32.3713,-90.1484,Fri:09:00-20:00; Mon:09:00-20:00; Sat:09:00-20:00; Thu:09:00-20:00; Tue:09:00-20:00; Wed:09:00-20:00; Sun:closed; ,,0
Volkswagen of Sumter,407313,2700 Broad St Extension,,Sumter,SC,29150,USA,8776877134,33.9624,-80.4029,Fri:07:30-17:30; Mon:07:30-17:30; Sat:08:00-15:00; Thu:07:30-17:30; Tue:07:30-17:30; Wed:07:30-17:30; Sun:closed; ,,0
McDaniels Volkswagen,407346,440 Killian Rd,,Columbia,SC,29203,USA,8037866408,34.1383,-80.9535,Fri:09:00-20:00; Mon:09:00-20:00; Sat:09:00-18:00; Thu:09:00-20:00; Tue:09:00-20:00; Wed:09:00-20:00; Sun:closed; ,,0
East Coast VW of Myrtle Beach,407343,8756 Highway 17 Byp S Unit C,PO Box 30669,Myrtle Beach,SC,29588,USA,8432156500,33.6373,-78.9928,Fri:09:00-17:00; Mon:09:00-17:00; Thu:09:00-17:00; Tue:09:00-17:00; Wed:09:00-17:00; Sun:closed; Sat:closed; ,,0
Volkswagen of Florence,407317,611 N Coit Street,,Florence,SC,29501,USA,8432924200,34.2047,-79.7715,Fri:08:30-19:00; Mon:08:30-19:00; Sat:08:30-16:00; Thu:08:30-19:00; Tue:08:30-19:00; Wed:08:30-19:00; Sun:closed; ,,0
Volkswagen of Lake Charles,425651,3850 Gerstner Memorial Dr.,,Lake Charles,LA,70607,USA,3374191818,30.1875,-93.1803,Fri:07:30-17:30; Mon:07:30-17:30; Thu:07:30-17:30; Tue:07:30-17:30; Wed:07:30-17:30; Sun:closed; Sat:closed; ,,0
Steve White Volkswagen,407322,100 Duvall Dr,,Greenville,SC,29607,USA,8883200272,34.8137,-82.3410,Fri:09:00-20:00; Mon:09:00-20:00; Sat:09:00-19:00; Thu:09:00-20:00; Tue:09:00-20:00; Wed:09:00-20:00; Sun:closed; ,,0
Vic Bailey Volkswagen,407341,2671 Reidville Rd,,Spartanburg,SC,29301,USA,8554919016,34.9175,-82.0007,Fri:09:00-19:00; Mon:09:00-19:00; Sat:09:00-18:00; Thu:09:00-19:00; Tue:09:00-19:00; Wed:09:00-19:00; Sun:closed; ,,0
Hiley Volkswagen of Huntsville,407111,6561 University Drive,,Huntsville,AL,35806,USA,2568811881,34.7474,-86.6929,Fri:09:00-19:00; Mon:09:00-19:00; Sat:09:00-18:00; Thu:09:00-19:00; Tue:09:00-19:00; Wed:09:00-19:00; Sun:closed; ,,0
Village Volkswagen of Chattanooga,407459,6001 International Drive,,Chattanooga,TN,37421,USA,8448816522,35.0636,-85.1934,Fri:07:30-18:00; Mon:07:30-18:00; Sat:08:00-14:00; Thu:07:30-18:00; Tue:07:30-18:00; Wed:07:30-18:00; Sun:closed; ,,0
Barnes Crossing Volkswagen,425209,3973 North Gloster Street,,Tupelo,MS,38804,USA,6623405017,34.3125,-88.7075,Fri:09:00-17:00; Mon:09:00-17:00; Sat:09:00-17:00; Sun:09:00-17:00; Thu:09:00-17:00; Tue:09:00-17:00; Wed:09:00-17:00; ,,0
Volkswagen of South Charlotte,409258,9900 South Boulevard,,Charlotte,NC,28273,USA,8887394151,35.1039,-80.8815,Fri:09:00-20:00; Mon:09:00-20:00; Sat:09:00-19:00; Sun:12:00-18:00; Thu:09:00-20:00; Tue:09:00-20:00; Wed:09:00-20:00; ,,0
Flow Volkswagen of Wilmington,409261,5011 New Centre Drive,,Wilmington,NC,28403,USA,9103923889,34.2406,-77.8760,Fri:07:00-18:00; Mon:07:00-18:00; Thu:07:00-18:00; Tue:07:00-18:00; Wed:07:00-18:00; Sun:closed; Sat:closed; ,,0
Carolina Volkswagen,409250,7800 East Independence Boulevard,,Charlotte,NC,28227,USA,7045372336,35.1561,-80.7344,Fri:07:30-18:00; Mon:07:30-18:00; Sat:08:00-17:00; Thu:07:30-18:00; Tue:07:30-18:00; Wed:07:30-18:00; Sun:closed; ,,0
Volkswagen of Beaumont,425023,1515 Interstate 10 S,,Beaumont,TX,77701,USA,4098403536,30.0628,-94.1335,Fri:07:30-17:30; Mon:07:30-17:30; Sat:09:00-16:00; Thu:07:30-17:30; Tue:07:30-17:30; Wed:07:30-17:30; Sun:closed; ,,0
Long-Lewis Volkswagen of the Shoals,407113,1602 Florence Blvd,,Florence,AL,35630,USA,8776536685,34.8205,-87.6525,Fri:09:00-17:00; Mon:09:00-17:00; Thu:09:00-17:00; Tue:09:00-17:00; Wed:09:00-17:00; Sun:closed; Sat:closed; ,,0
Volkswagen of Asheville,409259,621 Brevard Road,,Asheville,NC,28806,USA,8282292978,35.5499,-82.6006,Fri:09:00-19:00; Mon:09:00-19:00; Sat:09:00-17:00; Thu:09:00-19:00; Tue:09:00-19:00; Wed:09:00-19:00; Sun:closed; ,,0
Hendrick Volkswagen of Concord,409260,7500 Hendrick Auto Plaza Nw,,Concord,NC,28027,USA,8884456083,35.3617,-80.7000,Fri:09:00-21:00; Mon:09:00-21:00; Sat:09:00-21:00; Sun:13:00-19:00; Thu:09:00-21:00; Tue:09:00-21:00; Wed:09:00-21:00; ,,0
Keffer Volkswagen,409216,13651 Statesville Road,,Huntersville,NC,28078,USA,7042554893,35.4034,-80.8536,Fri:09:00-20:00; Mon:09:00-20:00; Sat:09:00-19:00; Sun:13:00-18:00; Thu:09:00-20:00; Tue:09:00-20:00; Wed:09:00-20:00; ,,0
"Valley Auto World, Inc.",409217,3810 Sycamore Dairy Rd: Pob 35717,,Fayetteville,NC,28303,USA,9102164361,35.0801,-78.9461,Fri:08:30-20:00; Mon:08:30-20:00; Sat:09:00-18:00; Thu:08:30-20:00; Tue:08:30-20:00; Wed:08:30-20:00; Sun:closed; ,,0
Paramount Automotive Group,409210,1205 S. Center St.,,Hickory,NC,28602,USA,8284756696,35.7140,-81.3355,Fri:07:30-18:00; Mon:07:30-18:00; Sat:08:00-16:00; Thu:07:30-18:00; Tue:07:30-18:00; Wed:07:30-18:00; Sun:closed; ,,0
"Harper Volkswagen, Inc.",407437,9901 Kingston Pike,,Knoxville,TN,37922,USA,8656910393,35.9059,-84.1117,Fri:08:00-18:00; Mon:08:00-18:00; Sat:08:00-14:00; Thu:08:00-18:00; Tue:08:00-18:00; Wed:08:00-18:00; Sun:closed; ,,0
National Volkswagen,409225,2406 North Marine Blvd.,,Jacksonville,NC,28546,USA,9109381417,34.7849,-77.3808,Fri:09:00-20:00; Mon:09:00-20:00; Sat:09:00-20:00; Thu:09:00-20:00; Tue:09:00-20:00; Wed:09:00-20:00; Sun:closed; ,,0
Momentum Volkswagen of Clear Lake,425021,15100 Gulf Fwy,,Houston,TX,77034,USA,8008775819,29.5883,-95.1875,Fri:09:00-20:00; Mon:09:00-20:00; Sat:09:00-20:00; Thu:09:00-20:00; Tue:09:00-20:00; Wed:09:00-20:00; Sun:closed; ,,0
Murfreesboro Volkswagen,407432,2203 Nw Broad Street,,Murfreesboro,TN,37129,USA,8663085679,35.8823,-86.4315,Fri:09:00-20:00; Mon:09:00-20:00; Sat:09:00-20:00; Thu:09:00-20:00; Tue:09:00-20:00; Wed:09:00-20:00; Sun:closed; ,,0
Momentum Volkswagen,425038,2405 Richmond Ave,,Houston,TX,77098,USA,8556025091,29.7341,-95.4170,Fri:09:00-20:00; Mon:09:00-20:00; Sat:09:00-19:00; Thu:09:00-20:00; Tue:09:00-20:00; Wed:09:00-20:00; Sun:closed; ,,0
Hallmark Volkswagen at Cool Springs,407458,620 Bakers Bridge Rd.,,Franklin,TN,37067,USA,8556571645,35.9588,-86.8036,Fri:08:30-20:30; Mon:08:30-20:30; Sat:08:30-19:00; Thu:08:30-20:30; Tue:08:30-20:30; Wed:08:30-20:30; Sun:closed; ,,0
Archer Volkswagen,425152,10400 Southwest Fwy,,Houston,TX,77074,USA,7132721700,29.6653,-95.5545,Fri:07:00-18:30; Mon:07:00-18:30; Sat:09:00-14:00; Thu:07:00-18:30; Tue:07:00-18:30; Wed:07:00-18:30; Sun:closed; ,,0
"Frema Motors, Inc.",409226,1112 Sunburst Drive,,Goldsboro,NC,27530,USA,8663082641,35.3827,-77.9400,Fri:09:00-17:00; Mon:09:00-17:00; Sat:09:00-17:00; Sun:09:00-17:00; Thu:09:00-17:00; Tue:09:00-17:00; Wed:09:00-17:00; ,,0
DeMontrond Automotive Group Inc.,425129,14101 North Fwy # (I-45,,Houston,TX,77090,USA,2818727200,29.9711,-95.4215,Fri:07:30-18:00; Mon:07:30-18:00; Sat:08:00-15:00; Thu:07:30-18:00; Tue:07:30-18:00; Wed:07:30-18:00; Sun:closed; ,,0
Gossett Volkswagen of Germantown,407460,7420 Winchester Rd,,Memphis,TN,38125,USA,9013288176,35.0514,-89.8162,Fri:09:00-17:00; Mon:09:00-17:00; Sat:09:00-17:00; Thu:09:00-17:00; Tue:09:00-17:00; Wed:09:00-17:00; Sun:closed; ,,0
"Flow Motors of Winston-Salem, LLC",409218,425 Silas Creek Parkway,,Winston Salem,NC,27127,USA,3367233524,36.0661,-80.2465,Fri:09:00-20:00; Mon:09:00-20:00; Sat:09:00-18:00; Thu:09:00-20:00; Tue:09:00-20:00; Wed:09:00-20:00; Sun:closed; ,,0
Wallace Volkswagen of Johnson City,407430,3101 East Oakland Ave.,,Johnson City,TN,37601,USA,4239520888,36.3594,-82.3852,Fri:09:00-17:00; Mon:09:00-17:00; Thu:09:00-17:00; Tue:09:00-17:00; Wed:09:00-17:00; Sun:closed; Sat:closed; ,,0
Leith Volkswagen,409220,2300 Auto Park Boulevard,,Cary,NC,27511,USA,9192055825,35.7373,-78.8131,Fri:09:00-20:00; Mon:09:00-20:00; Sat:09:00-18:00; Sun:12:00-17:00; Thu:09:00-20:00; Tue:09:00-20:00; Wed:09:00-20:00; ,,0
Flow Volkswagen of Greensboro,409257,4100 W. Wendover Ave.,,Greensboro,NC,27407,USA,3368569050,36.0595,-79.8853,Fri:09:00-19:00; Mon:09:00-19:00; Sat:09:00-18:00; Thu:09:00-19:00; Tue:09:00-19:00; Wed:09:00-19:00; Sun:closed; ,,0
"Moffitt Volkswagen, Inc.",425612,1960 Old Minden Rd,Po Box 5855,Bossier City,LA,71111,USA,3187462175,32.5163,-93.7135,Fri:08:00-19:30; Mon:08:00-19:30; Sat:08:00-18:00; Thu:08:00-19:30; Tue:08:00-19:30; Wed:08:00-19:30; Sun:closed; ,,0
Momentum Volkswagen Jersey Village,425053,19550 Northwest Fwy,,Jersey Village,TX,77065,USA,8772050150,29.9109,-95.6110,Fri:09:00-21:00; Mon:09:00-21:00; Sat:09:00-21:00; Thu:09:00-21:00; Tue:09:00-21:00; Wed:09:00-21:00; Sun:closed; ,,0
West Houston Volkswagen,425047,17113 Katy Fwy,,Houston,TX,77094,USA,2819420186,29.7845,-95.6815,Fri:09:00-20:00; Mon:09:00-20:00; Sat:09:00-19:00; Thu:09:00-20:00; Tue:09:00-20:00; Wed:09:00-20:00; Sun:closed; ,,0
Volkswagen of The Woodlands,425054,16785 Interstate 45 S,,The Woodlands,TX,77385,USA,8554360113,30.2121,-95.4555,Fri:09:00-21:00; Mon:09:00-21:00; Sat:09:00-21:00; Thu:09:00-21:00; Tue:09:00-21:00; Wed:09:00-21:00; Sun:closed; ,,0
Gossett Volkswagen,407439,1875 Covington Pike,,Memphis,TN,38128,USA,9013288171,35.1764,-89.8973,Fri:09:00-17:00; Mon:09:00-17:00; Sat:09:00-17:00; Thu:09:00-17:00; Tue:09:00-17:00; Wed:09:00-17:00; Sun:closed; ,,0
"Flow Companies of Burlington, LLC",409232,660 Huffman Mill Rd,,Burlington,NC,27215,USA,3362907878,36.0724,-79.4914,Fri:09:00-17:00; Mon:09:00-17:00; Thu:09:00-17:00; Tue:09:00-17:00; Wed:09:00-17:00; Sun:closed; Sat:closed; ,,0
Fairway Volkswagen,407434,2301 E. Stone Drive,,Kingsport,TN,37660,USA,4233781800,36.5445,-82.5044,,,0
Durham Volkswagen,409256,3823 Durham Chapel Hill Blvd.,,Durham,NC,27707,USA,8667463140,35.9693,-78.9545,Fri:09:00-20:00; Mon:09:00-20:00; Sat:09:00-18:00; Thu:09:00-20:00; Tue:09:00-20:00; Wed:09:00-20:00; Sun:closed; ,,0
Hallmark Volkswagen,407455,2431 Gallatin Road No.,,Madison,TN,37115,USA,8558549082,36.3090,-86.6750,Fri:09:00-19:30; Mon:09:00-19:30; Sat:09:00-19:00; Thu:09:00-19:30; Tue:09:00-19:30; Wed:09:00-19:30; Sun:closed; ,,0
Leith Volkswagen of Raleigh,409221,4005 Capital Hills Drive,,Raleigh,NC,27616,USA,9192054011,35.8879,-78.5676,Fri:09:00-20:00; Mon:09:00-20:00; Sat:09:00-18:00; Thu:09:00-20:00; Tue:09:00-20:00; Wed:09:00-20:00; Sun:closed; ,,0
Wallace Volkswagen of Bristol,407403,830 Windsor Avenue,,Bristol,TN,37620,USA,4234053146,36.5915,-82.1881,Fri:08:00-17:00; Mon:09:00-17:00; Sat:08:00-13:00; Thu:08:00-17:00; Tue:08:00-17:00; Wed:08:00-17:00; Sun:closed; ,,0
"Joe Pecheles Volkswagen, Inc.",409228,203 Southeast Greenville Ave,,Greenville,NC,27858,USA,8446605294,35.5797,-77.3795,Fri:09:00-19:30; Mon:09:00-20:00; Sat:09:00-18:00; Thu:09:00-20:00; Tue:09:00-20:00; Wed:09:00-20:00; Sun:closed; ,,0
Wyatt Johnson VW of Clarksville,407418,505 North Riverside Drive,,Clarksville,TN,37040,USA,9312451120,36.5321,-87.3647,Fri:09:00-20:00; Mon:09:00-20:00; Sat:09:00-18:00; Thu:09:00-20:00; Tue:09:00-20:00; Wed:09:00-20:00; Sun:closed; ,,0
Payne Volkswagen,425085,4017 N Expressway,,Brownsville,TX,78520,USA,8559022161,25.9618,-97.5107,Fri:07:30-20:00; Mon:07:30-20:00; Sat:09:00-17:00; Thu:07:30-20:00; Tue:07:30-20:00; Wed:07:30-20:00; Sun:closed; ,,0
Gorman-McCracken Volkswagen,425049,800 Highway 31 East,,Longview,TX,75604,USA,8442134980,32.4892,-94.7579,Fri:07:30-18:00; Mon:07:30-18:00; Sat:08:00-14:00; Thu:07:30-18:00; Tue:07:30-18:00; Wed:07:30-18:00; Sun:closed; ,,0
McLarty VW of North Little Rock,425373,6030 Landers Rd,,North Little Rock,AR,72117,USA,5019455353,34.8085,-92.2070,Fri:07:30-18:00; Mon:07:30-18:00; Sat:08:00-17:00; Thu:07:30-18:00; Tue:07:30-18:00; Wed:07:30-18:00; Sun:closed; ,,0
Volkswagen of Corpus Christi,425089,6902 S Padre Island Dr,,Corpus Christi,TX,78412,USA,3619045071,27.6964,-97.3466,Fri:07:30-18:00; Mon:07:30-18:00; Sat:08:00-16:00; Thu:07:30-18:00; Tue:07:30-18:00; Wed:07:30-18:00; Sun:closed; ,,0
Owens-Murphy Volkswagen,425355,25 Colonel Glenn Plaza Dr,,Little Rock,AR,72210,USA,8777340311,34.7066,-92.4039,Fri:07:30-18:00; Mon:07:30-18:00; Sat:08:00-17:00; Thu:07:30-18:00; Tue:07:30-18:00; Wed:07:30-18:00; Sun:closed; ,,0
Orr Volkswagen of Texarkana,425093,4545 N State Line Ave,,Texarkana,TX,75503,USA,8777946936,33.4626,-94.0435,Fri:08:30-19:00; Mon:08:30-19:00; Sat:08:30-18:00; Thu:08:30-19:00; Tue:08:30-19:00; Wed:08:30-19:00; Sun:closed; ,,0
Brazos Valley Volkswagen,425172,3100 Briarcrest Dr,,Bryan,TX,77802,USA,9797767600,30.6639,-96.3253,Fri:07:30-18:00; Mon:07:30-18:00; Sat:07:30-13:00; Thu:07:30-18:00; Tue:07:30-18:00; Wed:07:30-18:00; Sun:closed; ,,0
Patterson Volkswagen of Tyler,425173,3800 Highway 31 West,,Tyler,TX,75702,USA,9032047850,32.3445,-95.3425,Fri:08:30-18:00; Mon:08:30-18:00; Sat:08:30-17:00; Thu:08:30-18:00; Tue:08:30-18:00; Wed:08:30-18:00; Sun:closed; ,,0
First Team Volkswagen,409455,6900 Peters Creek Road,,Roanoke,VA,24019,USA,5403624800,37.3466,-79.9577,Fri:09:00-17:00; Mon:09:00-17:00; Thu:09:00-17:00; Tue:09:00-17:00; Wed:09:00-17:00; Sun:closed; Sat:closed; ,,0
Terry Volkswagen,409427,19134 Forest Rd,,Lynchburg,VA,24502,USA,4342392601,37.3914,-79.2377,Fri:09:00-20:00; Mon:09:00-20:00; Sat:09:00-17:00; Thu:09:00-20:00; Tue:09:00-20:00; Wed:09:00-20:00; Sun:closed; ,,0
Payne Mission,425161,2003 E Expressway 83,,Mission,TX,78572,USA,8559022151,26.1974,-98.2950,Fri:09:00-20:00; Mon:09:00-20:00; Sat:09:00-19:00; Thu:09:00-20:00; Tue:09:00-20:00; Wed:09:00-20:00; Sun:closed; ,,0
Don Jacobs Volkswagen,403230,2689 Nicholasville Rd,,Lexington,KY,40503,USA,8778817241,37.9983,-84.5230,Fri:09:00-20:00; Mon:09:00-20:00; Sat:09:00-19:00; Thu:09:00-20:00; Tue:09:00-20:00; Wed:09:00-20:00; Sun:closed; ,,0
Southern Volkswagen Greenbrier,409449,1248 S Military Hwy,,Chesapeake,VA,23320,USA,8886593962,36.8022,-76.2263,Fri:09:00-17:00; Mon:09:00-17:00; Thu:09:00-17:00; Tue:09:00-17:00; Wed:09:00-17:00; Sun:closed; Sat:closed; ,,0
Priority Volkswagen,409434,16300 Priority Way,,South Chesterfield,VA,23831,USA,8448969918,37.3059,-77.3931,Fri:09:00-21:00; Mon:09:00-21:00; Sat:09:00-19:00; Sun:12:00-17:00; Thu:09:00-21:00; Tue:09:00-21:00; Wed:09:00-21:00; ,,0
"Neil Huffman Volkswagen, Inc.",403213,4926 Dixie Hwy,,Louisville,KY,40216,USA,5024486666,38.1703,-85.8279,Fri:09:00-20:00; Mon:09:00-20:00; Sat:09:00-19:00; Thu:09:00-20:00; Tue:09:00-20:00; Wed:09:00-20:00; Sun:closed; ,,0
Bachman Volkswagen,403234,9652 Bluegrass Pkwy,,Louisville,KY,40299,USA,5024932920,38.2207,-85.5787,,,0
Onion Creek Volkswagen,425158,10812 I-35 South,,Austin,TX,78748,USA,8667660023,30.1447,-97.7957,Fri:07:00-19:00; Mon:07:00-19:00; Sat:07:00-17:00; Thu:07:00-19:00; Tue:07:00-19:00; Wed:07:00-19:00; Sun:closed; ,,0
Checkered Flag Volkswagen,409412,3025 Virginia Beach Blvd,,Virginia Beach,VA,23452,USA,8669695878,36.8431,-76.0765,Fri:09:00-21:00; Mon:09:00-21:00; Sat:09:00-19:00; Sun:12:00-18:00; Thu:09:00-21:00; Tue:09:00-21:00; Wed:09:00-21:00; ,,0
Maund Automotive Group,425155,6900 Burnet Rd,,Austin,TX,78757,USA,5124581111,30.3466,-97.7373,Fri:07:30-18:00; Mon:07:30-18:00; Sat:08:00-15:00; Thu:07:30-18:00; Tue:07:30-18:00; Wed:07:30-18:00; Sun:closed; ,,0
Garlyn Shelton Volkswagen,425163,5700 SW HK Dodgen Loop,,Temple,TX,76502,USA,8665406307,31.1075,-97.3896,Fri:08:30-19:00; Mon:08:30-19:00; Sat:09:00-18:00; Thu:08:30-19:00; Tue:08:30-19:00; Wed:08:30-19:00; Sun:closed; ,,0
"D-Patrick, Inc.",403300,200 N Green River Rd,,Evansville,IN,47715,USA,8122138144,37.9782,-87.4934,Fri:09:00-20:00; Mon:09:00-20:00; Thu:09:00-20:00; Tue:09:00-20:00; Wed:09:00-20:00; Sun:closed; Sat:closed; ,,0
"Casey Imports, Inc.",409422,777 J Clyde Morris Blvd,,Newport News,VA,23601,USA,7579881200,37.0822,-76.4606,Fri:09:00-20:00; Mon:09:00-20:00; Sat:09:00-20:00; Sun:12:00-18:00; Thu:09:00-20:00; Tue:09:00-20:00; Wed:09:00-20:00; ,,0
Hewlett Volkswagen,425016,7951 Hewlett Loop Rd.,,Georgetown,TX,78626,USA,8662886129,30.5772,-97.6913,Fri:09:00-19:00; Mon:09:00-19:00; Sat:09:00-18:00; Thu:09:00-19:00; Tue:09:00-19:00; Wed:09:00-19:00; Sun:closed; ,,0
Brown's Volkswagen,409451,10501 Midlothian Tpke,,North Chesterfield,VA,23235,USA,8554244317,37.5065,-77.5915,Fri:09:00-17:00; Mon:09:00-17:00; Sat:09:00-17:00; Sun:12:00-18:00; Thu:09:00-17:00; Tue:09:00-17:00; Wed:09:00-17:00; ,,0
Moses Volkswagen of Huntington,409514,5210 U.S. Route 60 East,,Huntington,WV,25705,USA,8448273727,38.4131,-82.3402,Fri:09:00-20:00; Mon:09:00-20:00; Sat:09:00-17:00; Sun:13:00-17:00; Thu:09:00-20:00; Tue:09:00-20:00; Wed:09:00-20:00; ,,0
Joe Holland Volkswagen,409519,210 Maccorkle Ave Sw,,South Charleston,WV,25303,USA,3043068061,38.3680,-81.6993,Fri:09:00-20:00; Mon:09:00-20:00; Sat:09:00-18:00; Thu:09:00-20:00; Tue:09:00-20:00; Wed:09:00-20:00; Sun:closed; ,,0
Volkswagen of Clarksville,403326,406 E. Lewis And Clark Pkwy,,Clarksville,IN,47129,USA,8779763804,38.3102,-85.7676,Fri:09:00-20:00; Mon:09:00-20:00; Sat:09:00-20:00; Thu:09:00-20:00; Tue:09:00-20:00; Wed:09:00-20:00; Sun:closed; ,,0
Volkswagen of Marion,402200,4403 W Deyoung St,,Marion,IL,62959,USA,6185515100,37.7440,-88.9995,Fri:07:30-17:30; Mon:07:30-17:30; Sat:08:00-12:00; Thu:07:30-17:30; Tue:07:30-17:30; Wed:07:30-17:30; Sun:closed; ,,0
West Broad Volkswagen,409417,9001 W Broad St,,Richmond,VA,23294,USA,8042420380,37.6343,-77.5475,Fri:09:00-17:00; Mon:09:00-17:00; Thu:09:00-17:00; Tue:09:00-17:00; Wed:09:00-17:00; Sun:closed; Sat:closed; ,,0
Valley Volkswagen,409429,314 Lee Jackson Hwy,,Staunton,VA,24401,USA,5402136800,38.1173,-79.0679,Fri:08:00-20:00; Mon:08:00-20:00; Sat:09:00-17:00; Thu:08:00-20:00; Tue:08:00-20:00; Wed:08:00-20:00; Sun:closed; ,,0
Automax Volkswagen,425117,3301 E Central Texas Expy,,Killeen,TX,76543,USA,8004304607,31.0860,-97.7068,Fri:07:30-18:00; Mon:07:30-18:00; Sat:07:30-18:00; Thu:07:30-18:00; Tue:07:30-18:00; Wed:07:30-18:00; Sun:closed; ,,0
Volkswagen of Alamo Heights,425073,1402 Ne Loop 410,,San Antonio,TX,78209,USA,2108281201,29.5153,-98.4457,Fri:09:00-20:00; Mon:09:00-20:00; Sat:09:00-20:00; Thu:09:00-20:00; Tue:09:00-20:00; Wed:09:00-20:00; Sun:closed; ,,0
Flow Volkswagen,409432,1313 Richmond Rd,,Charlottesville,VA,22911,USA,4342964147,38.0333,-78.4505,Fri:09:00-19:00; Mon:09:00-19:00; Sat:09:00-17:30; Thu:09:00-19:00; Tue:09:00-19:00; Wed:09:00-19:00; Sun:closed; ,,0
Rusty Wallis Volkswagen,425156,12635 Lbj Freeway,,Garland,TX,75041,USA,8449209865,32.8667,-96.6631,Fri:09:00-20:00; Mon:09:00-21:00; Sat:09:00-20:00; Thu:09:00-21:00; Tue:09:00-21:00; Wed:09:00-21:00; Sun:closed; ,,0
Ancira Volkswagen,425159,6125 Bandera Rd,,San Antonio,TX,78238,USA,2108761454,29.4864,-98.6062,Fri:08:30-21:00; Mon:08:30-21:00; Sun:11:00-19:00; Thu:08:30-21:00; Tue:08:30-21:00; Wed:08:30-21:00; Sat:closed; ,,0
Clay Cooley VW of Park Cities,425083,5555 Lemmon Ave,,Dallas,TX,75209,USA,8448936796,32.8283,-96.8250,Fri:07:00-19:00; Mon:07:00-19:00; Sat:08:00-18:00; Thu:07:00-19:00; Tue:07:00-19:00; Wed:07:00-19:00; Sun:closed; ,,0
Clay Cooley VW of Richardson,425030,300 N Central Expy,,Richardson,TX,75080,USA,8552097900,32.9545,-96.7314,Fri:07:00-19:30; Mon:07:00-19:30; Sat:08:00-18:00; Thu:07:00-19:30; Tue:07:00-19:30; Wed:07:00-19:30; Sun:closed; ,,0
Bill White Imports,425371,3510 South Zero Street,,Fort Smith,AR,72908,USA,8665784196,35.3270,-94.3967,Fri:08:00-18:00; Mon:08:00-18:00; Sat:08:00-18:00; Thu:08:00-18:00; Tue:08:00-18:00; Wed:08:00-18:00; Sun:closed; ,,0
North Park Volkswagen,425164,21315 W Interstate 10,,San Antonio,TX,78257,USA,8006110176,29.6403,-98.6186,Fri:08:30-20:30; Mon:08:30-20:30; Sat:08:30-20:00; Thu:08:30-20:30; Tue:08:30-20:30; Wed:08:30-20:30; Sun:closed; ,,0
Bobby Beck's McKinney Volkswagen,425168,3600 S Central Expy,,Mckinney,TX,75070,USA,8552455130,33.1635,-96.6449,Fri:09:00-20:00; Mon:09:00-20:00; Sat:09:00-20:00; Thu:09:00-20:00; Tue:09:00-20:00; Wed:09:00-20:00; Sun:closed; ,,0
Randy Hiley Volkswagen of Arlington,425145,1461 E Interstate 20,,Arlington,TX,76018,USA,8175756000,32.6785,-97.0888,Fri:08:30-20:00; Mon:08:30-20:00; Sat:08:30-20:00; Thu:08:30-20:00; Tue:08:30-20:00; Wed:08:30-20:00; Sun:closed; ,,0
Metro Volkswagen,425106,2035 W Airport Fwy,,Irving,TX,75062,USA,9726599999,32.8379,-96.9723,Fri:09:00-20:00; Mon:09:00-20:00; Sat:09:00-20:00; Thu:09:00-20:00; Tue:09:00-20:00; Wed:09:00-20:00; Sun:closed; ,,0
Hendrick Volkswagen Frisco,425169,5010 State Highway 121,,Frisco,TX,75034,USA,4698506500,33.0863,-96.8451,Fri:09:00-20:00; Mon:09:00-20:00; Sat:09:00-20:00; Thu:09:00-20:00; Tue:09:00-20:00; Wed:09:00-20:00; Sun:closed; ,,0
Kerry Volkswagen,403235,1020 Burlington Pike,,Florence,KY,41042,USA,8593718191,39.0076,-84.6594,Fri:07:30-18:00; Mon:07:30-18:00; Sat:08:00-17:00; Thu:07:30-18:00; Tue:07:30-18:00; Wed:07:30-18:00; Sun:closed; ,,0
Bobby Beck's Lewisville Volkswagen,425018,893 S Stemmons Fwy,,Lewisville,TX,75067,USA,8553154505,33.0354,-97.0004,Fri:09:00-20:00; Mon:09:00-20:00; Sat:09:00-20:00; Thu:09:00-20:00; Tue:09:00-20:00; Wed:09:00-20:00; Sun:closed; ,,0
Beechmont Volkswagen,403120,8057 Beechmont Ave,,Cincinnati,OH,45255,USA,5134744777,39.0725,-84.3321,Fri:09:00-18:00; Mon:09:00-21:00; Sat:10:00-18:00; Sun:12:00-17:00; Thu:09:00-21:00; Tue:09:00-21:00; Wed:09:00-21:00; ,,0
Ancira Volkswagen of Laredo,425165,2701 N.E. Bob Bullock Loop,,Laredo,TX,78045,USA,9562328298,27.6107,-99.4604,Fri:08:30-21:00; Mon:08:30-21:00; Sun:11:00-19:00; Thu:08:30-21:00; Tue:08:30-21:00; Wed:08:30-21:00; Sat:closed; ,,0
Volkswagen of Fredericksburg,409461,5208 Jefferson Davis Hwy,,Fredericksburg,VA,22408,USA,5408981600,38.2524,-77.4973,Fri:07:00-18:00; Mon:07:00-18:00; Sat:08:00-17:00; Thu:07:00-18:00; Tue:07:00-18:00; Wed:07:00-18:00; Sun:closed; ,,0
Autobahn Motorcar Group,425157,2824 White Settlement Rd,,Fort Worth,TX,76107,USA,8173360885,32.7598,-97.3569,Fri:08:30-20:00; Mon:08:30-20:00; Sat:08:30-18:00; Thu:08:30-20:00; Tue:08:30-20:00; Wed:08:30-20:00; Sun:closed; ,,0
Joseph Volkswagen of Cincinnati,403139,3813 Montgomery Rd,,Cincinnati,OH,45212,USA,8665780390,39.1490,-84.4659,Fri:09:00-17:00; Mon:09:00-17:00; Thu:09:00-17:00; Tue:09:00-17:00; Wed:09:00-17:00; Sun:closed; Sat:closed; ,,0
Crain Volkswagen of Fayetteville,425372,2011 West Foxglove Drive,,Fayetteville,AR,72704,USA,8552369020,36.1007,-94.1874,Fri:09:00-20:00; Mon:09:00-20:00; Sat:09:00-20:00; Thu:09:00-20:00; Tue:09:00-20:00; Wed:09:00-20:00; Sun:closed; ,,0
Kings Volkswagen,403150,9570 Kings Auto Mall Rd,,Cincinnati,OH,45249,USA,5136772710,39.2965,-84.3086,Fri:08:00-18:00; Mon:08:00-20:00; Sat:08:30-14:30; Thu:08:00-18:00; Tue:08:00-18:00; Wed:08:00-18:00; Sun:closed; ,,0
Fairfield Volkswagen,403207,6065 Dixie Hwy,,Fairfield,OH,45014,USA,5138746980,39.3261,-84.5119,Fri:07:30-18:00; Mon:07:30-20:00; Sat:08:00-14:00; Thu:07:30-20:00; Tue:07:30-20:00; Wed:07:30-20:00; Sun:closed; ,,0
"Larry Simmons, Inc.",409520,1710 14th Street,,Parkersburg,WV,26101,USA,8663083390,39.2667,-81.5367,Fri:09:00-20:00; Mon:09:00-20:00; Sat:08:00-17:00; Thu:09:00-17:30; Tue:09:00-17:30; Wed:09:00-20:00; Sun:closed; ,,0
Royal Volkswagen of Bloomington,403332,3333 E 3rd St,,Bloomington,IN,47401,USA,8442422047,39.1647,-86.4910,Fri:09:00-19:00; Mon:09:00-19:00; Thu:09:00-19:00; Tue:09:00-19:00; Wed:09:00-19:00; Sun:closed; Sat:closed; ,,0
Southwest Volkswagen of Weatherford,425171,2951 Fort Worth Hwy,,Weatherford,TX,76087,USA,8559789733,32.7579,-97.7094,Fri:07:00-18:00; Mon:07:00-18:00; Sat:07:00-14:00; Thu:07:00-18:00; Tue:07:00-18:00; Wed:07:00-18:00; Sun:closed; ,,0
Volkswagen Clarksburg,409517,Us Route 19 South,,Clarksburg,WV,26301,USA,8886039782,39.2720,-80.3698,Fri:09:00-17:00; Mon:09:00-17:00; Thu:09:00-17:00; Tue:09:00-17:00; Wed:09:00-17:00; Sun:closed; Sat:closed; ,,0
Karen Radley Volkswagen,409453,14700 Jefferson Davis Hwy,,Woodbridge,VA,22191,USA,8554507323,38.6341,-77.2735,Fri:09:00-21:00; Mon:09:00-21:00; Sat:09:00-18:00; Thu:09:00-21:00; Tue:09:00-21:00; Wed:09:00-21:00; Sun:closed; ,,0
Auffenberg Volkswagen,402131,1708 New Car Dr,,O Fallon,IL,62269,USA,6186224517,38.5964,-89.9572,Fri:09:00-20:00; Mon:09:00-15:00; Sat:08:30-18:00; Thu:09:00-20:00; Tue:09:00-20:00; Wed:09:00-20:00; Sun:closed; ,,0
White-Allen European Auto Group,403163,648 North Springboro Pike,,Dayton,OH,45449,USA,8663086703,39.6503,-84.2232,Fri:09:00-17:00; Mon:09:00-17:00; Thu:09:00-17:00; Tue:09:00-17:00; Wed:09:00-17:00; Sun:closed; Sat:closed; ,,0
Volkswagen of Springfield,424172,3145 S Campbell Ave,,Springfield,MO,65807,USA,4174504040,37.1578,-93.2972,Fri:08:30-20:00; Mon:08:30-20:00; Sat:08:30-20:00; Thu:08:30-20:00; Tue:08:30-20:00; Wed:08:30-20:00; Sun:closed; ,,0
Suntrup Volkswagen,424125,6000 S Lindbergh Blvd,,Saint Louis,MO,63123,USA,3148928200,38.5209,-90.3439,Fri:09:00-21:00; Mon:09:00-21:00; Sat:09:00-18:00; Thu:09:00-18:00; Tue:09:00-18:00; Wed:09:00-21:00; Sun:closed; ,,0
Waldorf Volkswagen,409130,2282 Crain Hwy,,Waldorf,MD,20601,USA,3018431234,38.6483,-76.8859,Fri:09:00-17:00; Mon:09:00-17:00; Thu:09:00-17:00; Tue:09:00-17:00; Wed:09:00-17:00; Sun:closed; Sat:closed; ,,0
Sheehy Volkswagen of Springfield,409459,6601 Backlick Road,,Springfield,VA,22150,USA,7034512380,38.7756,-77.1834,Fri:09:00-21:00; Mon:09:00-21:00; Sat:09:00-19:00; Sun:12:00-17:00; Thu:09:00-21:00; Tue:09:00-21:00; Wed:09:00-21:00; ,,0
"Fairfax Imports, Inc.",409446,11050 Main Street,,Fairfax,VA,22030,USA,7032736700,38.8545,-77.3268,Fri:09:00-17:00; Mon:09:00-17:00; Thu:09:00-17:00; Tue:09:00-17:00; Wed:09:00-17:00; Sun:closed; Sat:closed; ,,0
Dreyer & Reinbold of Greenwood,403313,1301 U.S. 31 South,,Greenwood,IN,46143,USA,8009419208,39.5978,-86.1034,Fri:09:00-18:00; Mon:09:00-19:30; Sat:10:00-17:00; Thu:09:00-19:30; Tue:09:00-18:00; Wed:09:00-18:00; Sun:closed; ,,0
The Dean Team of Kirkwood,424122,10205 Manchester Rd,,Kirkwood,MO,63122,USA,3149660303,38.6013,-90.3944,Fri:09:00-21:00; Mon:09:00-21:00; Sat:09:00-18:00; Thu:09:00-18:00; Tue:09:00-18:00; Wed:09:00-21:00; Sun:closed; ,,0
Beyer Volkswagen,409436,4015 Valley Pike,,Winchester,VA,22602,USA,5408683000,39.1165,-78.1987,Fri:09:00-19:00; Mon:09:00-19:00; Sat:09:00-19:00; Thu:09:00-19:00; Tue:09:00-19:00; Wed:09:00-19:00; Sun:closed; ,,0
The Dean Team of Ballwin,424140,15121 Manchester Rd,,Ballwin,MO,63011,USA,8558780927,38.5932,-90.5522,Fri:09:00-21:00; Mon:09:00-21:00; Sat:09:00-18:00; Thu:09:00-18:00; Tue:09:00-18:00; Wed:09:00-21:00; Sun:closed; ,,0
Alexandria Volkswagen,409416,107 W Glebe Rd,,Alexandria,VA,22305,USA,8667471436,38.8366,-77.0598,Fri:09:00-21:00; Mon:09:00-21:00; Sat:09:00-18:00; Sun:12:00-17:00; Thu:09:00-21:00; Tue:09:00-21:00; Wed:09:00-21:00; ,,0
"Stohlman Volkswagen, Inc.",409415,8433 Leesburg Pike,,Vienna,VA,22182,USA,8663085831,38.9237,-77.2378,Fri:09:00-20:00; Mon:09:00-21:00; Sat:09:00-18:00; Thu:09:00-21:00; Tue:09:00-21:00; Wed:09:00-21:00; Sun:closed; ,,0
Lindsay Volkswagen of Dulles,409460,22455 Lindsay Cars Court,,Sterling,VA,20166,USA,7038808000,38.9978,-77.4335,Fri:07:30-18:00; Mon:07:00-19:00; Sat:08:00-16:00; Thu:07:00-19:00; Tue:07:00-19:00; Wed:07:00-19:00; Sun:closed; ,,0
Evans Volkswagen,403147,7124 Poe Ave,,Dayton,OH,45414,USA,9378906200,39.8504,-84.1879,Fri:08:30-20:00; Mon:08:30-20:00; Sat:10:00-17:00; Thu:08:30-20:00; Tue:08:30-20:00; Wed:08:30-20:00; Sun:closed; ,,0
Pohanka Volkswagen of Salisbury,409135,2007 N Salisbury Blvd,,Salisbury,MD,21801,USA,4433890408,38.3904,-75.5763,Fri:09:00-20:00; Mon:09:00-20:00; Sat:09:00-18:00; Thu:09:00-20:00; Tue:09:00-20:00; Wed:09:00-20:00; Sun:closed; ,,0
Pohanka Volkswagen ofRitchieStation,409138,1720 Ritchie Station Ct,,Capitol Heights,MD,20743,USA,2407884530,38.8666,-76.8481,Fri:07:00-21:00; Mon:07:00-21:00; Sat:07:00-19:00; Thu:07:00-21:00; Tue:07:00-21:00; Wed:07:00-21:00; Sun:closed; ,,0
Freedom Volkswagen of Morgantown,409508,1351 Earl Core Road,,Morgantown,WV,26505,USA,3046587800,39.6288,-79.9319,Fri:07:30-17:30; Mon:07:30-17:30; Sat:07:30-12:00; Thu:07:30-17:30; Tue:07:30-17:30; Wed:07:30-17:30; Sun:closed; ,,0
Bommarito Volkswagen of Hazelwood,424171,400 Brookes Dr,,Hazelwood,MO,63042,USA,8552545273,38.7787,-90.3663,Fri:07:00-18:00; Sat:07:00-15:30; Thu:07:00-18:00; Tue:07:00-18:00; Wed:07:00-18:00; Sun:closed; Mon:closed; ,,0
Hatfield Volkswagen,403203,1495 Auto Mall Dr,,Columbus,OH,43228,USA,8009011578,39.9219,-83.1252,Fri:09:00-20:00; Mon:09:00-20:00; Sat:09:00-19:00; Sun:12:00-17:00; Thu:09:00-20:00; Tue:09:00-20:00; Wed:09:00-20:00; ,,0
"Bill Marine Auto Center, Inc.",403195,415 E North St,,Springfield,OH,45503,USA,9372104257,39.9261,-83.8028,Fri:08:30-18:00; Mon:08:30-20:00; Sat:08:30-17:00; Thu:08:30-20:00; Tue:08:30-20:00; Wed:08:30-20:00; Sun:closed; ,,0
Ourisman Volkswagen of Bethesda,409106,7001 Arlington Road,,Bethesda,MD,20814,USA,3017506100,38.9797,-77.0980,Fri:07:00-19:00; Mon:07:00-19:00; Sat:08:00-16:00; Thu:07:00-19:00; Tue:07:00-19:00; Wed:07:00-19:00; Sun:closed; ,,0
Andy Mohr Volkswagen of Avon,403324,8791 E Us Highway 36,,Avon,IN,46123,USA,3179780292,39.7627,-86.3651,,,0
Falcone Volkswagen,403302,1930 W 16th St,,Indianapolis,IN,46202,USA,3172630002,39.7896,-86.1948,Fri:07:00-17:00; Mon:07:00-17:00; Sat:08:00-14:00; Thu:07:00-17:00; Tue:07:00-17:00; Wed:07:00-17:00; Sun:closed; ,,0
"Byers Imports, LLC",403200,401 N Hamilton Rd,,Columbus,OH,43213,USA,8884775262,39.9839,-82.8705,Fri:09:00-18:00; Mon:09:00-17:00; Sat:09:00-17:00; Thu:09:00-20:00; Tue:09:00-20:00; Wed:09:00-20:00; Sun:closed; ,,0
Bommarito Volkswagen of St. Peters,424168,4190 N Service Rd,,Saint Peters,MO,63376,USA,6369282300,38.7976,-90.5760,Fri:07:30-17:00; Mon:07:30-17:00; Sat:07:00-15:00; Thu:07:30-17:00; Tue:07:30-17:00; Wed:07:30-17:00; Sun:closed; ,,0
Ourisman Volkswagen of Rockville,409152,801 Rockville Pike,,Rockville,MD,20852,USA,8662717452,39.0764,-77.1390,Fri:09:00-21:00; Mon:09:00-21:00; Sat:09:00-20:00; Sun:12:00-17:00; Thu:09:00-21:00; Tue:09:00-21:00; Wed:09:00-21:00; ,,0
DARCARS Volkswagen,409141,12511 Prosperity Dr,,Silver Spring,MD,20904,USA,3016227000,39.0604,-76.9623,Fri:07:00-19:00; Mon:07:00-19:00; Sat:08:00-16:00; Thu:07:00-19:00; Tue:07:00-19:00; Wed:07:00-19:00; Sun:closed; ,,0
King Volkswagen,409151,979 N Frederick Ave,,Gaithersburg,MD,20879,USA,3012008496,39.1592,-77.2180,Fri:09:00-21:00; Mon:09:00-21:00; Sat:09:00-18:00; Thu:09:00-21:00; Tue:09:00-21:00; Wed:09:00-21:00; Sun:closed; ,,0
Tom Wood Volkswagen,403325,4545 E 96th St,,Indianapolis,IN,46240,USA,3177057000,39.9262,-86.0927,Fri:09:00-18:00; Mon:09:00-20:00; Sat:09:00-18:00; Thu:09:00-20:00; Tue:09:00-18:00; Wed:09:00-20:00; Sun:closed; ,,0
Midwestern Auto Group,403164,6335 Perimeter Loop Road,,Dublin,OH,43017,USA,6148892571,40.1009,-83.1515,Fri:07:30-18:00; Mon:07:30-18:00; Sat:07:30-18:00; Thu:07:30-18:00; Tue:07:30-18:00; Wed:07:30-18:00; Sun:closed; ,,0
Fitzgerald Automall,409102,34 Hudson St,,Annapolis,MD,21401,USA,4104426920,38.9865,-76.5314,Fri:09:00-20:00; Mon:09:00-20:00; Sat:09:00-17:00; Thu:09:00-20:00; Tue:09:00-20:00; Wed:09:00-20:00; Sun:closed; ,,0
Ourisman Volkswagen of Laurel,409150,3371 Ft. Meade Road,,Laurel,MD,20724,USA,8777980313,39.0949,-76.7962,Fri:09:00-21:00; Mon:09:00-21:00; Sat:09:00-20:00; Thu:09:00-21:00; Tue:09:00-21:00; Wed:09:00-21:00; Sun:closed; ,,0
Tom Wood Volkswagen of Noblesville,403322,14701 Tom Wood Way,,Noblesville,IN,46060,USA,3178534553,40.0016,-85.9984,Fri:07:30-18:00; Mon:07:30-18:00; Sat:07:30-16:00; Thu:07:30-18:00; Tue:07:30-18:00; Wed:07:30-18:00; Sun:closed; ,,0
Wheeling Automotive Group,409521,1 National Road,,Wheeling,WV,26003,USA,3042427313,40.0490,-80.6421,Fri:09:00-18:00; Mon:09:00-19:00; Sat:09:00-16:00; Thu:09:00-19:00; Tue:09:00-19:00; Wed:09:00-18:00; Sun:closed; ,,0
Antwerpen Volkswagen,409149,8065 Ritchie Hwy,,Pasadena,MD,21122,USA,4432011213,39.1276,-76.5901,Fri:09:00-21:00; Mon:09:00-21:00; Sat:09:00-18:00; Thu:09:00-21:00; Tue:09:00-21:00; Wed:09:00-21:00; Sun:closed; ,,0
Don Thornton Volkswagen of Tulsa,425435,4240 S Memorial Dr,,Tulsa,OK,74145,USA,9187128989,36.0997,-95.8871,Fri:07:00-18:00; Mon:07:00-18:00; Sat:08:00-14:00; Thu:07:00-18:00; Tue:07:00-18:00; Wed:07:00-18:00; Sun:closed; ,,0
Fitzgerald Volkswagen,409146,114 Baughman'S Lane,,Frederick,MD,21702,USA,3012009920,39.4189,-77.4360,Fri:09:00-21:00; Mon:09:00-21:00; Sat:09:00-19:00; Thu:09:00-21:00; Tue:09:00-21:00; Wed:09:00-21:00; Sun:closed; ,,0
Volkswagen of Muncie,403319,6732 W. Hometown Blvd.,,Muncie,IN,47303,USA,8662859562,40.2180,-85.4646,Fri:09:00-18:00; Mon:09:00-19:00; Sat:09:00-18:00; Thu:09:00-19:00; Tue:09:00-19:00; Wed:09:00-19:00; Sun:closed; ,,0
Heritage Volkswagen Catonsville,409113,6624 Baltimore National Pike,,Baltimore,MD,21228,USA,8444161170,39.2886,-76.7682,Fri:09:00-17:00; Mon:09:00-17:00; Thu:09:00-17:00; Tue:09:00-17:00; Wed:09:00-17:00; Sun:closed; Sat:closed; ,,0
Sharrett Volkswagen,409110,10310 Auto Pl,,Hagerstown,MD,21740,USA,3017397700,39.5985,-77.6791,Fri:09:00-17:00; Mon:09:00-17:00; Thu:09:00-17:00; Tue:09:00-17:00; Wed:09:00-18:00; Sun:closed; Sat:closed; ,,0
Heritage Volkswagen,409145,9808 Reisterstown Rd,,Owings Mills,MD,21117,USA,8884111564,39.4084,-76.7657,Fri:09:00-21:00; Mon:09:00-21:00; Sat:09:00-18:00; Thu:09:00-21:00; Tue:09:00-21:00; Wed:09:00-21:00; Sun:closed; ,,0
Heritage Volkswagen Parkville,409103,9215 Harford Rd,,Baltimore,MD,21234,USA,8554576693,39.3902,-76.5283,Fri:09:00-21:00; Mon:09:00-21:00; Sat:09:00-18:00; Thu:09:00-21:00; Tue:09:00-21:00; Wed:09:00-21:00; Sun:closed; ,,0
Three Rivers Volkswagen,406479,3694 Washington Rd,,Mcmurray,PA,15317,USA,8554599652,40.2763,-80.1261,Fri:09:00-18:00; Mon:09:00-20:00; Sat:09:00-16:00; Thu:09:00-20:00; Tue:09:00-20:00; Wed:09:00-18:00; Sun:closed; ,,0
Sunset Motors Incorp,403115,2218 Sunset Boulevard,,Steubenville,OH,43952,USA,8663086228,40.3688,-80.6421,Fri:08:00-17:00; Mon:08:00-20:00; Sat:09:00-16:00; Thu:08:00-20:00; Tue:08:00-17:00; Wed:08:00-17:00; Sun:closed; ,,0
"Herb Easley Motors, Inc.",425141,1125 Central Fwy,,Wichita Falls,TX,76306,USA,9407236631,33.9341,-98.5163,Fri:07:30-18:00; Mon:07:30-18:00; Thu:07:30-18:00; Tue:07:30-18:00; Wed:07:30-18:00; Sun:closed; Sat:closed; ,,0
"Cook Volkswagen, LLC.",409117,2110 Bel Air Rd,,Fallston,MD,21047,USA,8777131356,39.4958,-76.3909,Fri:09:00-21:00; Mon:09:00-21:00; Sat:09:00-18:00; Thu:09:00-21:00; Tue:09:00-21:00; Wed:09:00-21:00; Sun:closed; ,,0
Winner Volkswagen of Dover,406106,1387 N Dupont Hwy,,Dover,DE,19901,USA,8888611714,39.1922,-75.5436,Fri:09:00-20:00; Mon:09:00-20:00; Thu:09:00-20:00; Tue:09:00-20:00; Wed:09:00-20:00; Sun:closed; Sat:closed; ,,0
Napleton's Volkswagen of Urbana,402170,1111 O'Brien Drive,,Urbana,IL,61802,USA,2173671222,40.1371,-88.1970,Fri:07:30-17:30; Mon:07:30-17:30; Sat:07:30-15:00; Thu:07:30-17:30; Tue:07:30-17:30; Wed:07:30-17:30; Sun:closed; ,,0
Green Volkswagen of Springfield,402197,3901 W. Wabash Ave,,Springfield,IL,62711,USA,2176983100,39.7571,-89.7279,Fri:09:00-19:00; Mon:09:00-19:00; Sat:09:00-18:00; Thu:09:00-19:00; Tue:09:00-19:00; Wed:09:00-19:00; Sun:closed; ,,0
Sendell Volkswagen,406520,5079 State Route 30,,Greensburg,PA,15601,USA,7249720890,40.3015,-79.4911,Fri:08:00-17:00; Mon:08:00-17:00; Sat:09:00-15:00; Thu:08:00-17:00; Tue:08:00-17:00; Wed:08:00-17:00; Sun:closed; ,,0
Fowler Volkswagen of Norman,425420,617 North Interstate Drive,,Norman,OK,73069,USA,4052171800,35.2271,-97.4840,Fri:08:30-21:00; Mon:08:30-21:00; Sat:08:30-21:00; Thu:08:30-21:00; Tue:08:30-21:00; Wed:08:30-21:00; Sun:closed; ,,0
Mike Raisor Volkswagen of Lafayette,403301,1701 Sagamore Parkway South,,Lafayette,IN,47905,USA,7654461948,40.3991,-86.8564,Fri:07:00-18:00; Mon:07:00-18:00; Sat:08:00-12:00; Thu:07:00-18:00; Tue:07:00-18:00; Wed:07:00-18:00; Sun:closed; ,,0
Cochran Volkswagen,406475,2755 W Liberty Ave,,Pittsburgh,PA,15216,USA,8775278826,40.3966,-80.0305,Fri:07:30-18:00; Mon:07:30-18:00; Sat:08:00-14:00; Thu:07:30-18:00; Tue:07:30-18:00; Wed:07:30-18:00; Sun:closed; ,,0
Day Volkswagen,406442,1580 Golden Mile Hwy,,Monroeville,PA,15146,USA,7243274900,40.4309,-79.7171,Fri:09:00-18:00; Mon:09:00-21:00; Sat:09:00-18:00; Thu:09:00-21:00; Tue:09:00-21:00; Wed:09:00-21:00; Sun:closed; ,,0
Day Apollo Volkswagen,406438,5252 University Blvd,,Coraopolis,PA,15108,USA,4122622495,40.5271,-80.2094,Fri:08:00-17:00; Mon:08:00-19:00; Sat:08:00-14:00; Thu:08:00-19:00; Tue:08:00-17:00; Wed:08:00-17:00; Sun:closed; ,,0
Joe Machens Volkswagen of Columbia,424165,1200 Vandiver Drive,,Columbia,MO,65202,USA,8554614061,38.9704,-92.3216,Fri:07:30-17:30; Mon:07:30-17:30; Sat:07:30-15:30; Thu:07:30-17:30; Tue:07:30-17:30; Wed:07:30-17:30; Sun:closed; ,,0
Burke Volkswagen of Cape May County,408265,519 Stone Harbor Blvd,,Cape May Court House,NJ,08210,USA,8885869678,39.0835,-74.8133,Fri:08:00-16:30; Mon:08:00-16:30; Sat:08:00-16:00; Thu:08:00-16:30; Tue:08:00-16:30; Wed:08:00-16:30; Sun:closed; ,,0
Volkswagen of Abilene,425006,1350 S Clack St,,Abilene,TX,79605,USA,3256734663,32.4343,-99.7882,Fri:07:30-18:00; Mon:07:30-18:00; Sat:08:00-14:00; Thu:07:30-18:00; Tue:07:30-18:00; Wed:07:30-18:00; Sun:closed; ,,0
Volkswagen of Wooster,403146,1363 W Old Lincoln Way,,Wooster,OH,44691,USA,8663085081,40.7998,-81.9595,Fri:09:00-17:00; Mon:09:00-17:00; Sat:09:00-15:00; Thu:09:00-17:00; Tue:09:00-17:00; Wed:09:00-17:00; Sun:closed; ,,0
Cochran Volkswagen of Wexford,406420,11750 U.S. Route 19,,Wexford,PA,15090,USA,8666352992,40.6284,-80.0552,Fri:07:00-17:00; Mon:07:00-18:00; Sat:08:00-14:00; Thu:07:00-18:00; Tue:07:00-18:00; Wed:07:00-18:00; Sun:closed; ,,0
Volkswagen of Edmond,425424,14220 Broadway Ext,,Edmond,OK,73013,USA,8667895630,35.6150,-97.4906,Fri:08:30-20:00; Mon:08:30-20:00; Sat:08:30-19:00; Thu:08:30-20:00; Tue:08:30-20:00; Wed:08:30-20:00; Sun:closed; ,,0
"Hillcrest Volkswagen, Inc.",406483,3451 Leechburg Rd,,New Kensington,PA,15068,USA,8556516069,40.5927,-79.6938,Fri:08:30-17:00; Mon:08:30-17:00; Thu:08:30-17:00; Tue:08:30-17:00; Wed:08:30-17:00; Sun:closed; Sat:closed; ,,0
Oklahoma City Volkswagen,425436,4710 Nw 39th St,,Oklahoma City,OK,73122,USA,4052131162,35.5107,-97.6067,Fri:08:30-20:30; Mon:08:30-20:30; Sat:08:30-18:30; Thu:08:30-20:30; Tue:08:30-20:30; Wed:08:30-20:30; Sun:closed; ,,0
Kempthorn Volkswagen,403192,1449 Cleveland Ave Nw,,Canton,OH,44703,USA,8448595841,40.8139,-81.3790,Fri:08:30-18:00; Mon:08:30-20:00; Sat:08:30-16:00; Thu:08:30-20:00; Tue:08:30-18:00; Wed:08:30-18:00; Sun:closed; ,,0
"York Volkswagen, Inc.",406461,3475 E Market St,,York,PA,17402,USA,8555526356,39.9819,-76.6535,Fri:07:30-17:30; Mon:07:30-17:30; Sat:08:00-15:00; Thu:07:30-17:30; Tue:07:30-17:30; Wed:07:30-17:30; Sun:closed; ,,0
Fiore Volkswagen,406521,1000 S Logan Blvd,,Hollidaysburg,PA,16648,USA,8448592981,40.4507,-78.3944,Fri:09:00-20:00; Mon:09:00-20:00; Sat:09:00-16:00; Thu:09:00-20:00; Tue:09:00-20:00; Wed:09:00-18:00; Sun:closed; ,,0
Smith Volkswagen,406103,4304 Kirkwood Hwy,,Wilmington,DE,19808,USA,8664656222,39.7272,-75.6503,Fri:09:00-21:00; Mon:09:00-21:00; Sat:09:00-17:00; Thu:09:00-21:00; Tue:09:00-21:00; Wed:09:00-21:00; Sun:closed; ,,0
Diehl Volkswagen of Butler,406537,258 Pittsburgh Road,,Butler,PA,16002,USA,7242828898,40.8136,-79.9281,Fri:08:00-17:00; Mon:08:00-17:00; Sat:08:00-12:00; Thu:08:00-17:00; Tue:08:00-17:00; Wed:08:00-17:00; Sun:closed; ,,0
Taylor Volkswagen of Findlay,403141,3785 Speedway Dr,,Findlay,OH,45840,USA,5672509813,41.0870,-83.6566,Fri:08:00-17:00; Mon:08:00-17:00; Sat:08:00-12:00; Thu:08:00-17:00; Tue:08:00-17:00; Wed:08:00-17:00; Sun:closed; ,,0
Volkswagen of Salem County,408217,815 Route 40,,Monroeville,NJ,08343,USA,8777124317,39.6207,-75.2413,Fri:09:00-18:00; Mon:09:00-20:00; Sat:09:00-17:00; Thu:09:00-20:00; Tue:09:00-20:00; Wed:09:00-20:00; Sun:closed; ,,0
Faulkner Volkswagen  Mechanicsburg,406532,6631 Carlisle Pike,,Mechanicsburg,PA,17050,USA,7175905230,40.2422,-77.0416,Fri:09:00-20:00; Mon:09:00-20:00; Sat:09:00-17:00; Thu:09:00-20:00; Tue:09:00-20:00; Wed:09:00-20:00; Sun:closed; ,,0
Dave Walter Volkswagen,403103,447 W Exchange St,,Akron,OH,44302,USA,3307521773,41.0844,-81.5352,Fri:09:00-18:00; Mon:09:00-20:00; Sat:09:00-17:00; Thu:09:00-20:00; Tue:09:00-17:00; Wed:09:00-18:00; Sun:closed; ,,0
Atlantic Volkswagen,408283,6820 Tilton Rd,,Pleasantville,NJ,08234,USA,8444763280,39.3910,-74.5578,Fri:09:00-18:00; Mon:09:00-21:00; Sat:09:00-18:00; Thu:09:00-21:00; Tue:09:00-21:00; Wed:09:00-21:00; Sun:closed; ,,0
Volkswagen Bloomington Normal,402162,1430 Fort Jesse Rd,,Normal,IL,61761,USA,8555231515,40.5185,-88.9617,Fri:07:00-19:00; Mon:07:00-19:00; Sat:08:00-17:00; Thu:07:00-19:00; Tue:07:00-19:00; Wed:07:00-19:00; Sun:closed; ,,0
"Autohaus Lancaster, Inc.",406449,1373 Manheim Pike,,Lancaster,PA,17601,USA,7172992801,40.0697,-76.3297,,,0
Volkswagen of Boardman,403145,7850 Market St,,Boardman,OH,44512,USA,8443618314,41.0108,-80.6624,Fri:09:00-18:00; Mon:09:00-21:00; Sat:09:00-16:00; Thu:09:00-21:00; Tue:09:00-18:00; Wed:09:00-18:00; Sun:closed; ,,0
Vorderman Volkswagen,403340,5811 Cross Creek Blvd,,Fort Wayne,IN,46818,USA,2602134181,41.1300,-85.1648,Fri:09:00-20:00; Mon:09:00-20:00; Sat:09:00-17:00; Thu:09:00-20:00; Tue:09:00-20:00; Wed:09:00-20:00; Sun:closed; ,,0
Sutliff Volkswagen,406418,1301 Paxton St,,Harrisburg,PA,17104,USA,7172348888,40.2553,-76.8642,,,0
Garnet Volkswagen,406527,1620 Wilmington Pike,,West Chester,PA,19382,USA,8554162988,39.8848,-75.5507,Fri:07:30-17:30; Mon:07:30-17:30; Sat:08:00-16:00; Thu:07:30-17:30; Tue:07:30-17:30; Wed:07:30-17:30; Sun:closed; ,,0
Prestige Volkswagen,408281,4271 Black Horse Pike,,Turnersville,NJ,08012,USA,8884790750,39.7395,-75.0434,Fri:09:00-21:00; Mon:09:00-21:00; Sat:09:00-17:00; Thu:09:00-21:00; Tue:09:00-21:00; Wed:09:00-21:00; Sun:closed; ,,0
Brunswick Volkswagen,403143,1420 Industrial Parkway South,,Brunswick,OH,44212,USA,8556468229,41.2392,-81.7950,Fri:07:30-18:00; Mon:07:30-20:00; Sat:08:00-16:00; Thu:07:30-18:00; Tue:07:30-18:00; Wed:07:30-18:00; Sun:closed; ,,0
Jeff D'Ambrosio Volkswagen,406497,1221 East Lancaster Avenue,,Downingtown,PA,19335,USA,4845935001,40.0214,-75.6688,Fri:09:00-21:00; Mon:09:00-21:00; Sat:09:00-18:00; Thu:09:00-21:00; Tue:09:00-21:00; Wed:09:00-21:00; Sun:closed; ,,0
Volkswagen of Streetsboro,403106,855 Classic Dr,,Streetsboro,OH,44241,USA,2349016103,41.2480,-81.3643,Fri:09:00-18:00; Mon:08:00-20:00; Sat:09:00-18:00; Thu:09:00-20:00; Tue:09:00-19:00; Wed:09:00-19:00; Sun:closed; ,,0
Colonial Volkswagen Newtown Square,406423,4940 W Chester Pike,,Edgemont,PA,19028,USA,8774580085,39.9743,-75.4477,Fri:09:00-18:00; Mon:09:00-20:00; Sat:09:00-17:00; Thu:09:00-20:00; Tue:09:00-20:00; Wed:09:00-20:00; Sun:closed; ,,0
"H.A. Boyd, Inc.",406404,1250 Chestnut St,,Lebanon,PA,17042,USA,7172593873,40.3371,-76.4321,Fri:09:00-17:00; Mon:09:00-20:00; Sat:09:00-15:00; Thu:09:00-20:00; Tue:09:00-20:00; Wed:09:00-20:00; Sun:closed; ,,0
Volkswagen State College,406450,3220 W College Ave,,State College,PA,16801,USA,8142060902,40.7597,-77.8771,Fri:08:30-20:00; Mon:08:30-20:00; Sat:09:00-17:00; Thu:08:30-20:00; Tue:08:30-20:00; Wed:08:30-20:00; Sun:closed; ,,0
Fred Beans Volkswagen,406496,315 W Lancaster Ave,,Devon,PA,19333,USA,8883643717,40.0454,-75.4304,Fri:09:00-17:00; Mon:09:00-17:00; Thu:09:00-17:00; Tue:09:00-17:00; Wed:09:00-17:00; Sun:closed; Sat:closed; ,,0
Spitzer Volkswagen,403170,160 N Leavitt Rd,,Amherst,OH,44001,USA,8552491723,41.4068,-82.2100,Fri:08:00-17:30; Mon:08:00-17:30; Sat:08:00-13:00; Thu:08:00-17:30; Tue:08:00-17:30; Wed:08:00-17:30; Sun:closed; ,,0
Piazza Volkswagen of Ardmore,406506,150 W Lancaster Ave,,Ardmore,PA,19003,USA,6107261527,40.0094,-75.2950,Fri:09:00-21:00; Mon:09:00-21:00; Sat:09:00-19:00; Thu:09:00-21:00; Tue:09:00-21:00; Wed:09:00-21:00; Sun:closed; ,,0
Cherry Hill Volkswagen,408278,2261 Marlton Pike W,,Cherry Hill,NJ,08002,USA,8563246042,39.9237,-75.0459,Fri:09:00-18:00; Mon:09:00-21:00; Sat:09:00-17:00; Thu:09:00-21:00; Tue:09:00-21:00; Wed:09:00-21:00; Sun:closed; ,,0
Ganley Westside Volkswagen,403112,25580 Lorain Rd,,North Olmsted,OH,44070,USA,4407342000,41.4231,-81.9048,Fri:09:00-21:00; Mon:09:00-21:00; Sat:09:00-18:00; Sun:12:00-17:00; Thu:09:00-21:00; Tue:09:00-21:00; Wed:09:00-21:00; ,,0
Ganley Volkswagen of Bedford,403128,250 Broadway Ave,,Bedford,OH,44146,USA,4404393444,41.4005,-81.5484,Fri:09:00-18:00; Mon:09:00-21:00; Sat:09:00-18:00; Thu:09:00-21:00; Tue:09:00-18:00; Wed:09:00-18:00; Sun:closed; ,,0
Flagship Volkswagen,404201,Hwy #2 Km 14.7 Hato Tejas,,Bayamon,PR,00959,USA,7875229300,18.4060,-66.1832,Fri:08:30-18:00; Mon:08:30-18:00; Sat:08:30-18:00; Sun:11:00-17:00; Thu:08:30-18:00; Tue:08:30-18:00; Wed:08:30-18:00; ,,0
Wynn Volkswagen,406482,2021 W Main St,,Norristown,PA,19403,USA,4846853835,40.1337,-75.3787,Fri:09:00-18:00; Mon:09:00-21:00; Sat:09:00-17:00; Thu:09:00-21:00; Tue:09:00-21:00; Wed:09:00-21:00; Sun:closed; ,,0
Volkswagen of Perrysburg,403196,26875 Dixie Hwy,,Perrysburg,OH,43551,USA,8665780507,41.5434,-83.6359,Fri:09:00-18:00; Mon:09:00-21:00; Sat:09:00-17:00; Thu:09:00-21:00; Tue:09:00-18:00; Wed:09:00-18:00; Sun:closed; ,,0
Volkswagen Reading,406419,2746 Bernville Rd,,Leesport,PA,19533,USA,6107776500,40.3885,-75.9941,Fri:09:00-18:00; Mon:09:00-20:00; Sat:09:00-17:00; Thu:09:00-20:00; Tue:09:00-20:00; Wed:09:00-20:00; Sun:closed; ,,0
Volkswagen Kennedy,404200,"Marginal Ave. Kennedy, Km. 3.5",,San Juan,PR,00922,USA,7877824039,18.4233,-66.0967,Fri:09:00-17:00; Mon:09:00-17:00; Sat:09:00-17:00; Sun:09:00-17:00; Thu:09:00-17:00; Tue:09:00-17:00; Wed:09:00-17:00; ,,0
Volkswagen of Peoria,402154,2322 Van Winkle Way,,Peoria,IL,61615,USA,3097402367,40.8030,-89.6295,Fri:09:00-18:00; Mon:09:00-20:00; Sat:09:00-17:00; Thu:09:00-20:00; Tue:09:00-18:00; Wed:09:00-20:00; Sun:closed; ,,0
Chapman Volkswagen,406529,9371 Roosevelt Blvd,,Philadelphia,PA,19114,USA,8558684025,40.0778,-75.0296,Fri:09:00-21:00; Mon:09:00-21:00; Sat:09:00-18:00; Thu:09:00-21:00; Tue:09:00-21:00; Wed:09:00-21:00; Sun:closed; ,,0
Volkswagen of Lee's Summit,424102,2225 Ne Independence Ave.,,Lees Summit,MO,64064,USA,8168417252,38.9529,-94.3626,Fri:09:00-21:00; Mon:09:00-21:00; Sat:09:00-21:00; Thu:09:00-21:00; Tue:09:00-21:00; Wed:09:00-21:00; Sun:closed; ,,0
"Burlington Volkswagen, Inc.",408212,4500 Route 130 S,,Burlington,NJ,08016,USA,6093860084,40.0651,-74.8739,Fri:09:00-21:00; Mon:09:00-21:00; Sat:09:00-17:00; Thu:09:00-21:00; Tue:09:00-21:00; Wed:09:00-17:00; Sun:closed; ,,0
Eastside Volkswagen,403152,28400 Chardon Rd,,Willoughby Hills,OH,44092,USA,4409448700,41.5828,-81.4814,Fri:08:00-18:00; Mon:08:00-18:00; Sat:08:00-14:00; Thu:08:00-18:00; Tue:08:00-18:00; Wed:08:00-18:00; Sun:closed; ,,0
"Colonial Volkswagen, Inc.",406530,200 W Street Rd,,Feasterville Trevose,PA,19053,USA,8774562689,40.1546,-75.0102,Fri:09:00-21:00; Mon:09:00-21:00; Sat:09:00-18:00; Thu:09:00-21:00; Tue:09:00-21:00; Wed:09:00-21:00; Sun:closed; ,,0
North Penn Volkswagen,406485,165 Bethlehem Pike,,Colmar,PA,18915,USA,8663503837,40.2711,-75.2560,Fri:09:00-18:00; Mon:09:00-20:00; Sat:09:00-17:00; Thu:09:00-20:00; Tue:09:00-20:00; Wed:09:00-20:00; Sun:closed; ,,0
Molle Volkswagen,424166,808 W 103rd St,,Kansas City,MO,64114,USA,8169412400,38.9420,-94.6017,Fri:07:30-18:00; Mon:07:30-18:00; Sat:08:00-17:00; Thu:07:30-18:00; Tue:07:30-18:00; Wed:07:30-18:00; Sun:closed; ,,0
Piazza Volkswagen of Langhorne,406444,1862 E Lincoln Hwy,,Langhorne,PA,19047,USA,2157414100,40.1759,-74.8868,Fri:07:30-17:00; Mon:07:30-17:00; Sat:08:00-15:00; Thu:07:30-17:00; Tue:07:30-17:00; Wed:07:30-17:00; Sun:closed; ,,0
"J. Bertolet, Inc.",406445,555 Route 61,,Orwigsburg,PA,17961,USA,8554265539,40.6426,-76.1144,Fri:09:00-18:00; Mon:09:00-18:00; Thu:09:00-18:00; Tue:09:00-18:00; Wed:09:00-18:00; Sun:closed; Sat:closed; ,,0
Team Volkswagen,402902,3990 E Lincoln Hwy,,Merrillville,IN,46410,USA,2199471581,41.4717,-87.2887,Fri:09:00-18:00; Mon:09:00-20:00; Sat:09:00-18:00; Thu:09:00-20:00; Tue:09:00-20:00; Wed:09:00-20:00; Sun:closed; ,,0
Classic Volkswagen,403155,8465 Tyler Blvd,,Mentor,OH,44060,USA,8775445862,41.6833,-81.3382,Fri:09:00-18:00; Mon:09:00-20:00; Sat:09:00-18:00; Thu:09:00-20:00; Tue:09:00-20:00; Wed:09:00-20:00; Sun:closed; ,,0
Bud Brown Volkswagen,424313,925 N Rawhide Dr,,Olathe,KS,66061,USA,8444202562,38.8937,-94.7889,Fri:08:30-18:00; Mon:08:30-20:00; Sat:08:30-18:00; Thu:08:30-20:00; Tue:08:30-20:00; Wed:08:30-20:00; Sun:closed; ,,0
Fred Beans Volkswagen of Doylestown,406422,3709 North Easton Road,,Doylestown,PA,18902,USA,8556382408,40.3314,-75.1289,Fri:09:00-21:00; Mon:09:00-21:00; Sat:09:00-17:00; Thu:09:00-21:00; Tue:09:00-21:00; Wed:09:00-21:00; Sun:closed; ,,0
Toms River Volkswagen,408227,256 Route 37 East,,Toms River,NJ,08753,USA,8555588437,39.9619,-74.1792,Fri:07:00-19:00; Mon:07:00-19:00; Sat:07:00-17:00; Thu:07:00-19:00; Tue:07:00-19:00; Wed:07:00-19:00; Sun:closed; ,,0
Gurley-Leep Volkswagen,403311,4004 Grape Rd,,Mishawaka,IN,46545,USA,5742547130,41.6965,-86.1864,Fri:09:00-18:00; Mon:09:00-20:00; Sat:09:00-18:00; Thu:09:00-20:00; Tue:09:00-20:00; Wed:09:00-18:00; Sun:closed; ,,0
Highland Volkswagen,403328,9601 Indianapolis Blvd,,Highland,IN,46322,USA,8555977567,41.5398,-87.4705,Fri:07:00-18:00; Mon:07:00-18:00; Sat:08:00-16:00; Thu:07:00-18:00; Tue:07:00-18:00; Wed:07:00-18:00; Sun:closed; ,,0
Hamilton Volkswagen,408258,2200 Route 33,,Hamilton Square,NJ,08690,USA,8448584565,40.2229,-74.6440,Fri:09:00-18:00; Mon:09:00-20:30; Sat:09:00-17:00; Thu:09:00-20:30; Tue:09:00-20:30; Wed:09:00-20:30; Sun:closed; ,,0
Ciocca Volkswagen of Allentown,406434,1346 Lehigh St,,Allentown,PA,18103,USA,6107976330,40.5828,-75.4775,Fri:09:00-18:00; Mon:09:00-20:00; Sat:09:00-18:00; Thu:09:00-20:00; Tue:09:00-20:00; Wed:09:00-20:00; Sun:closed; ,,0
Jack Metzer Volkswagen,406528,1231 Montour Blvd,,Danville,PA,17821,USA,5702752212,40.9636,-76.5665,Fri:09:00-19:00; Mon:09:00-19:00; Sat:09:00-15:00; Thu:09:00-19:00; Tue:09:00-19:00; Wed:09:00-18:00; Sun:closed; ,,0
Northtowne Volkswagen,424154,6750 N Oak Trfy,,Gladstone,MO,64118,USA,8556325248,39.2164,-94.5763,Fri:08:30-18:00; Mon:08:30-20:00; Sat:08:30-18:00; Thu:08:30-20:00; Tue:08:30-20:00; Wed:08:30-20:00; Sun:closed; ,,0
"Sierra Volkswagen, Inc.",402104,510 E Norris Dr,,Ottawa,IL,61350,USA,8154331666,41.3568,-88.8353,Fri:09:00-17:00; Mon:09:00-17:00; Thu:09:00-17:00; Tue:09:00-17:00; Wed:09:00-17:00; Sun:closed; Sat:closed; ,,0
Hawk Volkswagen of Joliet,402163,2861 W Jefferson Street,,Joliet,IL,60435,USA,8157411100,41.5227,-88.1528,,,0
Volkswagen of Orland Park,402184,8920 W 159th St,,Orland Park,IL,60462,USA,8773544074,41.6024,-87.8370,Fri:09:00-21:00; Mon:09:00-21:00; Sat:09:00-18:00; Thu:09:00-21:00; Tue:09:00-21:00; Wed:09:00-21:00; Sun:closed; ,,0
Volkswagen Princeton,408295,902 State Rd. 206,,Princeton,NJ,08540,USA,6094232760,40.3912,-74.6543,Fri:08:00-17:00; Mon:08:00-17:00; Sat:08:00-16:00; Thu:08:00-17:00; Tue:08:00-17:00; Wed:08:00-17:00; Sun:closed; ,,0
Crown Volkswagen,424329,3400 Iowa St,,Lawrence,KS,66046,USA,7859144295,38.9223,-95.2593,Fri:09:00-18:00; Mon:09:00-20:00; Sat:09:00-18:00; Thu:09:00-20:00; Tue:09:00-20:00; Wed:09:00-18:00; Sun:closed; ,,0
Flemington Volkswagen,408287,213 Route 202 - 31,,Flemington,NJ,08822,USA,8889645007,40.4868,-74.8636,Fri:09:00-20:00; Mon:09:00-20:00; Sat:09:00-18:00; Thu:09:00-20:00; Tue:09:00-20:00; Wed:09:00-20:00; Sun:closed; ,,0
DCH Volkswagen of Freehold,408290,4360 Route 9,,Freehold,NJ,07728,USA,8883064797,40.2823,-74.2955,Fri:08:00-17:00; Mon:08:00-17:00; Sat:08:00-17:00; Thu:08:00-17:00; Tue:08:00-17:00; Wed:08:00-17:00; Sun:closed; ,,0
World Volkswagen,408282,4075 State Route 33,,Neptune,NJ,07753,USA,7326431434,40.2184,-74.1074,Fri:09:00-18:00; Mon:09:00-20:00; Sat:09:00-18:00; Thu:09:00-20:00; Tue:09:00-20:00; Wed:09:00-20:00; Sun:closed; ,,0
"Young Volkswagen, Inc.",406401,191 Commerce Park Dr,,Easton,PA,18045,USA,8663086717,40.6944,-75.2874,Fri:09:00-17:00; Mon:09:00-17:00; Thu:09:00-17:00; Tue:09:00-17:00; Wed:09:00-17:00; Sun:closed; Sat:closed; ,,0
"Mike Haggerty Volkswagen, Inc.",402105,8920 S Cicero Ave,,Oak Lawn,IL,60453,USA,8663083773,41.7301,-87.7416,Fri:09:00-20:00; Mon:09:00-21:00; Sat:09:00-18:00; Thu:09:00-21:00; Tue:09:00-21:00; Wed:09:00-21:00; Sun:closed; ,,0
Steven Volkswagen,424339,11211 E Kellogg Dr,,Wichita,KS,67207,USA,8772867126,37.6808,-97.2073,Fri:09:00-20:00; Mon:09:00-20:00; Sat:09:00-19:00; Thu:09:00-20:00; Tue:09:00-20:00; Wed:09:00-20:00; Sun:closed; ,,0
Fairfield Volkswagen,406502,5071 Lycoming Mall Dr.,,Montoursville,PA,17754,USA,5703688121,41.2447,-76.8936,Fri:08:00-17:00; Mon:08:00-20:00; Sat:08:00-12:00; Thu:08:00-17:00; Tue:08:00-17:00; Wed:08:00-17:00; Sun:closed; ,,0
Shrewsbury Volkswagen,408261,702 Shrewsbury Ave,,Shrewsbury,NJ,07701,USA,7322015967,40.3253,-74.0738,Fri:09:00-18:00; Mon:09:00-20:00; Sat:09:00-18:00; Thu:09:00-20:00; Tue:09:00-20:00; Wed:09:00-20:00; Sun:closed; ,,0
Autobarn Volkswagen Countryside,402146,6161 Joliet Rd,,Countryside,IL,60525,USA,7083546600,41.7785,-87.8700,,,0
Open Road Volkswagen of Bridgewater,408221,1051 U.S. Route 22,,Bridgewater,NJ,08807,USA,9086851033,40.5812,-74.6001,Fri:09:00-19:00; Mon:09:00-20:00; Sat:09:00-18:00; Thu:09:00-20:00; Tue:09:00-20:00; Wed:09:00-20:00; Sun:closed; ,,0
Bill Jacobs Volkswagen,402147,2211 Aurora Ave,,Naperville,IL,60540,USA,6303267872,41.7646,-88.1907,Fri:09:00-21:00; Mon:09:00-21:00; Sat:09:00-18:00; Thu:09:00-21:00; Tue:09:00-21:00; Wed:09:00-21:00; Sun:closed; ,,0
Pugi Volkswagen,402130,2020 Ogden Ave,,Downers Grove,IL,60515,USA,6309649500,41.8080,-88.0349,Fri:09:00-21:00; Mon:09:00-21:00; Sat:09:00-17:00; Thu:09:00-21:00; Tue:09:00-21:00; Wed:09:00-21:00; Sun:closed; ,,0
"Reydel Volkswagen, Inc.",408209,2034 Highway 27,,Edison,NJ,08817,USA,7322267354,40.5230,-74.3905,Fri:09:00-21:00; Mon:09:00-21:00; Sat:09:00-18:00; Thu:09:00-21:00; Tue:09:00-21:00; Wed:09:00-21:00; Sun:closed; ,,0
Fletcher Jones Volkswagen,402134,1111 N Clark St,,Chicago,IL,60610,USA,3126284800,41.9027,-87.6312,Fri:09:00-17:00; Mon:09:00-17:00; Thu:09:00-17:00; Tue:09:00-17:00; Wed:09:00-17:00; Sun:closed; Sat:closed; ,,0
Volkswagen of Ann Arbor,402805,2575 S State St,,Ann Arbor,MI,48104,USA,7348234128,42.2493,-83.7386,Fri:08:30-18:00; Mon:08:30-21:00; Sat:10:00-16:00; Thu:08:30-21:00; Tue:08:30-18:00; Wed:08:30-18:00; Sun:closed; ,,0
New Motors Inc.,406531,8670 Peach St.,,Erie,PA,16509,USA,8148685516,42.0356,-80.0666,Fri:09:00-18:00; Mon:09:00-20:00; Sat:09:00-17:00; Thu:09:00-20:00; Tue:09:00-20:00; Wed:09:00-18:00; Sun:closed; ,,0
Volkswagen of Topeka,424326,3030 S. Kansas Ave.,,Topeka,KS,66611,USA,7857272122,39.0130,-95.6814,Fri:07:30-18:00; Mon:07:30-18:00; Thu:07:30-18:00; Tue:07:30-18:00; Wed:07:30-18:00; Sun:closed; Sat:closed; ,,0
LaFontaine Volkswagen of Dearborn,402806,2200 S Telegraph Rd,,Dearborn,MI,48124,USA,3139966000,42.2954,-83.2727,Fri:09:00-17:00; Mon:09:00-17:00; Thu:09:00-17:00; Tue:09:00-17:00; Wed:09:00-17:00; Sun:closed; Sat:closed; ,,0
The Autobarn City Volkswagen,402157,5330 W Irving Park Rd,,Chicago,IL,60641,USA,7737947800,41.9535,-87.7610,Fri:07:00-19:00; Mon:07:00-19:00; Sat:08:00-17:00; Thu:07:00-19:00; Tue:07:00-19:00; Wed:07:00-19:00; Sun:closed; ,,0
Larry Roesch VW of Bensenville,402181,313 W Grand Ave,,Bensenville,IL,60106,USA,8554740568,41.9316,-87.9518,Fri:07:30-18:00; Mon:07:30-18:00; Sat:08:00-16:00; Thu:07:30-18:00; Tue:07:30-18:00; Wed:07:30-18:00; Sun:closed; ,,0
Paul Miller VW of Bernardsville,408216,118 Morristown Rd,,Bernardsville,NJ,07924,USA,8556039595,40.7204,-74.5599,Fri:09:00-20:00; Mon:09:00-20:00; Sat:09:00-17:00; Thu:09:00-20:00; Tue:09:00-20:00; Wed:09:00-20:00; Sun:closed; ,,0
Ralph Thayer Livonia Volkswagen,403091,34501 Plymouth Rd,,Livonia,MI,48150,USA,8663085129,42.3676,-83.3832,Fri:09:00-17:00; Mon:09:00-17:00; Thu:09:00-17:00; Tue:09:00-17:00; Wed:09:00-17:00; Sun:closed; Sat:closed; ,,0
Fox Valley Volkswagen,402149,4050 East Main Street,,St. Charles,IL,60175,USA,6302319900,41.9226,-88.2569,Fri:09:00-21:00; Mon:09:00-21:00; Sat:09:00-18:00; Thu:09:00-21:00; Tue:09:00-21:00; Wed:09:00-21:00; Sun:closed; ,,0
Linden Volkswagen,408272,401 St. Georges Avenue,,Roselle,NJ,07203,USA,8448719073,40.6416,-74.2612,Fri:09:00-20:00; Mon:09:00-21:00; Sat:09:00-18:00; Thu:09:00-21:00; Tue:09:00-21:00; Wed:09:00-21:00; Sun:closed; ,,0
Wyoming Valley Motors,406436,126 Narrows Rd Route 11,,Kingston,PA,18704,USA,5702887411,41.2488,-75.9195,Fri:09:00-18:00; Mon:09:00-19:00; Sat:09:00-17:00; Thu:09:00-19:00; Tue:09:00-19:00; Wed:09:00-19:00; Sun:closed; ,,0
The Autobarn Ltd. - Volkswagen,402132,1033 Chicago Ave,,Evanston,IL,60202,USA,8478667604,42.0370,-87.6797,Fri:07:00-19:00; Mon:07:00-19:00; Sat:07:00-17:00; Thu:07:00-19:00; Tue:07:00-19:00; Wed:07:00-19:00; Sun:closed; ,,0
Island Volkswagen,408317,1632 Hylan Blvd,,Staten Island,NY,10305,USA,8556020808,40.5886,-74.0896,Fri:09:00-20:00; Mon:09:00-20:00; Sat:09:00-18:00; Sun:11:00-17:00; Thu:09:00-20:00; Tue:09:00-20:00; Wed:09:00-20:00; ,,0
Maple Hill Volkswagen,403076,5622 W Main St,,Kalamazoo,MI,49009,USA,2693426600,42.2973,-85.6585,Fri:07:30-17:30; Mon:07:30-17:30; Thu:07:30-17:30; Tue:07:30-17:30; Wed:07:30-19:00; Sun:closed; Sat:closed; ,,0
Douglas Motors Corp.,408213,491 Morris Ave,,Summit,NJ,07901,USA,8554537323,40.7248,-74.3711,Fri:09:00-18:00; Mon:09:00-21:00; Sat:09:00-18:00; Thu:09:00-21:00; Tue:09:00-21:00; Wed:09:00-21:00; Sun:closed; ,,0
Volkswagen of Union,408223,2155 Route 22 West,,Union,NJ,07083,USA,9735401480,40.6922,-74.2856,Fri:09:00-21:00; Mon:09:00-21:00; Sat:09:00-19:00; Thu:09:00-21:00; Tue:09:00-21:00; Wed:09:00-21:00; Sun:closed; ,,0
"Jennings Volkswagen, Inc.",402107,201 Waukegan Rd,,Glenview,IL,60025,USA,8554478593,42.0592,-87.7987,Fri:08:30-18:00; Mon:08:30-21:00; Sat:09:00-18:00; Thu:08:30-21:00; Tue:08:30-21:00; Wed:08:30-21:00; Sun:closed; ,,0
Volkswagen of Brooklyn,408383,100 Neptune Ave,,Brooklyn,NY,11235,USA,8557350424,40.5823,-73.9572,Fri:08:00-17:00; Mon:08:00-17:00; Sat:09:00-15:00; Thu:08:00-17:00; Tue:08:00-17:00; Wed:08:00-17:00; Sun:closed; ,,0
Bay Ridge Volkswagen,408381,8910 4th Avenue,,Brooklyn,NY,11209,USA,7183517000,40.6202,-74.0297,Fri:07:30-00:00; Mon:07:30-00:00; Sat:09:00-15:00; Thu:07:30-00:00; Tue:07:30-00:00; Wed:07:30-00:00; Sun:closed; ,,0
Fox Valley Volkswagen Schaumburg,402133,1000 E Golf Rd,,Schaumburg,IL,60173,USA,8775446524,42.0505,-88.0546,Fri:07:00-18:00; Mon:07:00-18:00; Sat:08:00-16:00; Thu:07:00-18:00; Tue:07:00-18:00; Wed:07:00-18:00; Sun:closed; ,,0
Suburban VW of Farmington Hills,403055,37911 Grand River Ave,,Farmington Hills,MI,48335,USA,2484710800,42.4677,-83.4206,Fri:09:00-18:00; Mon:09:00-21:00; Sat:10:00-17:00; Thu:09:00-21:00; Tue:09:00-18:00; Wed:09:00-18:00; Sun:closed; ,,0
The Autobarn VW of Mt. Prospect,402172,333 W Rand Rd,,Mount Prospect,IL,60056,USA,8473926300,42.0845,-87.9416,,,0
Volkswagen of Midland-Odessa,425014,5021 W. Loop 250 North,,Midland,TX,79707,USA,8777911664,32.0203,-102.1520,Fri:09:00-19:00; Mon:09:00-19:00; Sat:09:00-19:00; Thu:09:00-19:00; Tue:09:00-19:00; Wed:09:00-19:00; Sun:closed; ,,0
"Trend Motors, Ltd.",408230,221 Us Highway 46,,Rockaway,NJ,07866,USA,9736250100,40.8922,-74.5193,Fri:09:00-18:00; Mon:09:00-21:00; Sat:09:00-18:00; Thu:09:00-21:00; Tue:09:00-21:00; Wed:09:00-21:00; Sun:closed; ,,0
Elgin Volkswagen,402175,2630 Auto Mall Drive,,Elgin,IL,60124,USA,8474282000,42.0862,-88.3371,Fri:09:00-21:00; Mon:09:00-21:00; Sat:09:00-19:00; Thu:09:00-21:00; Tue:09:00-21:00; Wed:09:00-21:00; Sun:closed; ,,0
Dixon Volkswagen,402152,489 Illinois Route 2,,Dixon,IL,61021,USA,8663081567,41.8310,-89.5362,Fri:09:00-17:00; Mon:09:00-17:00; Thu:09:00-17:00; Tue:09:00-17:00; Wed:09:00-17:00; Sun:closed; Sat:closed; ,,0
Volkswagen of Quad Cities,402315,3602 Harrison St.,,Davenport,IA,52806,USA,5634454305,41.5567,-90.5785,Fri:08:30-18:30; Mon:08:30-20:00; Sat:08:30-18:30; Thu:08:30-20:00; Tue:08:30-20:00; Wed:08:30-20:00; Sun:closed; ,,0
Volkswagen of Highland Park,402160,1340 Park Ave W,,Highland Park,IL,60035,USA,8474337900,42.1883,-87.8240,Fri:09:00-20:00; Mon:09:00-20:00; Sat:09:00-18:00; Thu:09:00-20:00; Tue:09:00-20:00; Wed:09:00-20:00; Sun:closed; ,,0
"Suburban Volkswagen, Inc.",403054,1804 Maplelawn Dr,,Troy,MI,48084,USA,8885405601,42.5527,-83.1761,Fri:09:00-18:00; Mon:09:00-21:00; Sat:10:00-17:00; Thu:09:00-21:00; Tue:09:00-18:00; Wed:09:00-18:00; Sun:closed; ,,0
Three County Volkswagen Corp.,408228,701 Riverside Ave,,Lyndhurst,NJ,07071,USA,2019338383,40.8078,-74.1370,Fri:07:00-17:00; Mon:07:00-17:00; Sat:07:00-16:00; Thu:07:00-17:00; Tue:07:00-17:00; Wed:07:00-17:00; Sun:closed; ,,0
Open Road Volkswagen Manhattan,408310,802 11th Avenue,,New York,NY,10019,USA,6463588100,40.7693,-73.9917,Fri:09:00-19:00; Mon:09:00-19:00; Sat:10:00-16:30; Thu:09:00-19:00; Tue:09:00-19:00; Wed:09:00-19:00; Sun:closed; ,,0
Kelly Volkswagen,406416,736 S Main Ave,,Scranton,PA,18504,USA,5703475656,41.4044,-75.6866,Fri:08:00-17:00; Mon:08:00-17:00; Thu:08:00-17:00; Tue:08:00-17:00; Wed:08:00-17:00; Sun:closed; Sat:closed; ,,0
"Sunrise Volkswagen, Inc.",408156,931 Sunrise Hwy,,Lynbrook,NY,11563,USA,8662467520,40.6571,-73.6882,Fri:09:00-17:00; Mon:09:00-17:00; Sat:09:00-17:00; Sun:09:00-17:00; Thu:09:00-17:00; Tue:09:00-17:00; Wed:09:00-17:00; ,,0
"Vyletel Volkswagen, Inc.",403060,40555 Van Dyke Ave,,Sterling Heights,MI,48313,USA,8665768935,42.5919,-83.0315,Fri:09:00-17:00; Mon:09:00-17:00; Sat:10:00-15:00; Thu:09:00-17:00; Tue:09:00-17:00; Wed:09:00-17:00; Sun:closed; ,,0
Long Island City Volkswagen,408308,56-15 Northern Blvd,,Woodside,NY,11377,USA,8004675209,40.7538,-73.9043,Fri:09:00-17:00; Mon:09:00-17:00; Sat:09:00-17:00; Sun:09:00-17:00; Thu:09:00-17:00; Tue:09:00-17:00; Wed:09:00-17:00; ,,0
"Gensinger Motors, Inc.",408203,Rt 46 - 842 Valley Road,,Clifton,NJ,07013,USA,9732213964,40.8723,-74.1895,Fri:09:00-18:30; Mon:09:00-21:00; Sat:09:00-17:00; Thu:09:00-21:00; Tue:09:00-21:00; Wed:09:00-21:00; Sun:closed; ,,0
Bayside Volkswagen,408112,20812 Northern Blvd,,Bayside,NY,11361,USA,7184236389,40.7586,-73.7750,Fri:07:30-17:00; Mon:07:30-17:00; Sat:07:30-13:00; Thu:07:30-17:00; Tue:07:30-17:00; Wed:07:30-17:00; Sun:closed; ,,0
Liberty Import Center,402120,920 S Milwaukee Ave,,Libertyville,IL,60048,USA,8445766243,42.2712,-87.9495,Fri:09:00-21:00; Mon:09:00-21:00; Sat:09:00-18:00; Thu:09:00-21:00; Tue:09:00-21:00; Wed:09:00-21:00; Sun:closed; ,,0
Crestmont Volkswagen,408245,730 State Route 23 North,,Pompton Plains,NJ,07444,USA,8776008995,40.9755,-74.2895,Fri:09:00-20:00; Mon:09:00-21:00; Sat:09:00-18:00; Thu:09:00-21:00; Tue:09:00-21:00; Wed:09:00-21:00; Sun:closed; ,,0
Volkswagen of Crystal Lake,402125,5213 Northwest Hwy,,Crystal Lake,IL,60014,USA,8152010740,42.2257,-88.3007,Fri:09:00-19:00; Mon:09:00-21:00; Sat:09:00-18:00; Thu:09:00-21:00; Tue:09:00-21:00; Wed:09:00-21:00; Sun:closed; ,,0
Fox Volkswagen,403100,773 S Rochester Rd,,Rochester Hills,MI,48307,USA,2486560400,42.6697,-83.1327,Fri:07:00-18:00; Mon:07:00-20:00; Sat:08:00-13:00; Thu:07:00-20:00; Tue:07:00-18:00; Wed:07:00-18:00; Sun:closed; ,,0
Jack Daniels Volkswagen,408252,40-18 Broadway,,Fair Lawn,NJ,07410,USA,8558019805,40.9261,-74.0941,Fri:07:30-18:00; Mon:07:30-19:30; Sat:07:30-16:00; Thu:07:30-19:30; Tue:07:30-19:30; Wed:07:30-19:30; Sun:closed; ,,0
"Legend Autorama, Ltd.",408126,158 Merrick Rd,,Amityville,NY,11701,USA,8665976948,40.6711,-73.4160,Fri:09:00-17:00; Mon:09:00-17:00; Thu:09:00-17:00; Tue:09:00-17:00; Wed:09:00-17:00; Sun:closed; Sat:closed; ,,0
Teddy Volkswagen of the Bronx,408356,3743 Boston Rd,,Bronx,NY,10466,USA,8442030402,40.8810,-73.8401,Fri:09:00-19:00; Mon:09:00-21:00; Sat:09:00-19:00; Sun:11:00-17:00; Thu:09:00-21:00; Tue:09:00-21:00; Wed:09:00-21:00; ,,0
Platinum Volkswagen,408160,340 W Old Country Rd,,Hicksville,NY,11801,USA,5169427300,40.7597,-73.5376,Fri:09:00-18:00; Mon:09:00-20:00; Sat:09:00-18:00; Sun:12:00-16:00; Thu:09:00-20:00; Tue:09:00-20:00; Wed:09:00-20:00; ,,0
"Williams Volkswagen, Inc.",403058,2845 E Saginaw St,,Lansing,MI,48912,USA,5174841341,42.7412,-84.5114,Fri:09:00-18:00; Mon:09:00-20:00; Sat:10:00-15:00; Thu:09:00-18:00; Tue:09:00-18:00; Wed:09:00-18:00; Sun:closed; ,,0
Gurnee Volkswagen,402156,6301 West Grand Avenue,,Gurnee,IL,60031,USA,8556427827,42.3832,-87.9579,Fri:09:00-21:00; Mon:09:00-21:00; Sat:09:00-18:00; Thu:09:00-21:00; Tue:09:00-21:00; Wed:09:00-21:00; Sun:closed; ,,0
"Joe Heidt Motors, Corp.",408269,515 Route 17,,Ramsey,NJ,07446,USA,8559832457,41.0562,-74.1216,Fri:09:00-20:00; Mon:09:00-21:00; Sat:09:00-18:00; Thu:09:00-21:00; Tue:09:00-21:00; Wed:09:00-21:00; Sun:closed; ,,0
Atlantic Volkswagen,408330,555 Sunrise Hwy,,West Islip,NY,11795,USA,6319832518,40.7254,-73.2909,Fri:09:00-21:00; Mon:09:00-21:00; Sat:09:00-18:00; Sun:11:00-17:00; Thu:09:00-21:00; Tue:09:00-21:00; Wed:09:00-21:00; ,,0
Lou Bachrodt Volkswagen,402126,7070 Cherryvale North Blvd,,Rockford,IL,61112,USA,8152008314,42.2506,-88.9784,Fri:08:00-18:00; Mon:08:00-20:00; Sat:08:00-18:00; Thu:08:00-20:00; Tue:08:00-20:00; Wed:08:00-20:00; Sun:closed; ,,0
Gene Messer Volkswagen,425162,7007 University Ave,,Lubbock,TX,79413,USA,8067938844,33.5304,-101.8690,Fri:09:00-17:00; Mon:09:00-17:00; Thu:09:00-17:00; Tue:09:00-17:00; Wed:09:00-17:00; Sun:closed; Sat:closed; ,,0
Volkswagen of Huntington,408382,838 E Jericho Tpke,,Huntington Station,NY,11746,USA,6315335222,40.8341,-73.3806,Fri:09:00-20:00; Mon:09:00-20:00; Sat:09:00-19:00; Sun:11:00-18:00; Thu:09:00-20:00; Tue:09:00-20:00; Wed:09:00-20:00; ,,0
Lash Volkswagen of White Plains,408340,376 Tarrytown Rd,,White Plains,NY,10607,USA,8443012632,41.0430,-73.7962,Fri:07:00-17:30; Mon:07:00-17:30; Sat:08:30-16:30; Thu:07:00-17:30; Tue:07:00-17:30; Wed:07:00-17:30; Sun:closed; ,,0
Carousel Motors,402326,809 Highway 1 W,,Iowa City,IA,52246,USA,3192143742,41.6462,-91.5509,Fri:08:30-18:00; Mon:08:30-20:00; Sat:09:00-17:00; Thu:08:30-20:00; Tue:08:30-18:00; Wed:08:30-18:00; Sun:closed; ,,0
"Donaldson's, Inc.",408123,5700 Sunrise Hwy,,Sayville,NY,11782,USA,8554180236,40.7672,-73.0691,Fri:07:00-18:00; Mon:07:00-18:00; Sat:07:00-15:30; Thu:07:00-18:00; Tue:07:00-18:00; Wed:07:00-18:00; Sun:closed; ,,0
Crown Volkswagen,403082,11260 Chicago Dr,,Holland,MI,49423,USA,8449209948,42.8027,-86.0598,Fri:09:00-17:30; Mon:09:00-20:00; Sat:10:00-15:00; Thu:09:00-20:00; Tue:09:00-17:30; Wed:09:00-17:30; Sun:closed; ,,0
Volkswagen of Grand Blanc,402803,6201 S Saginaw Rd,,Grand Blanc,MI,48439,USA,8447129123,42.9394,-83.6429,Fri:08:00-19:00; Mon:08:00-20:00; Sat:08:00-16:00; Thu:08:00-20:00; Tue:08:00-20:00; Wed:08:00-20:00; Sun:closed; ,,0
Smithtown Volkswagen,408353,530 E.Jericho Turnpike,,St. James,NY,11780,USA,6312048546,40.8584,-73.1615,Fri:09:00-21:00; Mon:09:00-21:00; Sat:09:00-18:00; Sun:11:00-16:00; Thu:09:00-21:00; Tue:09:00-21:00; Wed:09:00-21:00; ,,0
Prestige Imports,408335,44 Pleasantville Rd,,Pleasantville,NY,10570,USA,8663085116,41.1328,-73.7950,Fri:09:00-17:00; Mon:09:00-17:00; Thu:09:00-17:00; Tue:09:00-17:00; Wed:09:00-17:00; Sun:closed; Sat:closed; ,,0
Prestige Volkswagen of Stamford,408062,42 W Broad St,,Stamford,CT,06902,USA,8775599867,41.0554,-73.5464,Fri:09:00-17:00; Mon:09:00-17:00; Thu:09:00-17:00; Tue:09:00-17:00; Wed:09:00-17:00; Sun:closed; Sat:closed; ,,0
"Betten Imports, Inc.",403068,5901 28th St Se,,Grand Rapids,MI,49546,USA,6163012100,42.9139,-85.5243,Fri:09:00-18:00; Mon:09:00-20:00; Sat:10:00-16:00; Thu:09:00-18:00; Tue:09:00-17:00; Wed:09:00-20:00; Sun:closed; ,,0
Compass Volkswagen,408157,200 Dolson Avenue,,Middletown,NY,10940,USA,8775448813,41.4271,-74.4280,Fri:09:00-18:00; Mon:09:00-20:00; Sat:09:00-18:00; Sun:08:00-16:00; Thu:09:00-20:00; Tue:09:00-20:00; Wed:09:00-20:00; ,,0
Frank Boucher Volkswagen,402648,9601 Washington Ave,,Racine,WI,53406,USA,2628862886,42.7190,-87.9040,,,0
"Mohegan Lake Motors, Inc.",408376,1744 E. Main St.,,Mohegan Lake,NY,10547,USA,9145288076,41.3243,-73.8521,Fri:08:00-17:00; Mon:08:00-17:00; Sat:08:00-14:00; Thu:08:00-17:00; Tue:08:00-17:00; Wed:08:00-17:00; Sun:closed; ,,0
Gezon Volkswagen,403088,3985 Plainfield Ave Ne,,Grand Rapids,MI,49525,USA,6163617361,43.0358,-85.6190,Fri:08:30-18:00; Mon:08:30-20:00; Sat:09:00-16:00; Thu:08:30-18:00; Tue:08:30-18:00; Wed:08:30-20:00; Sun:closed; ,,0
Matthews Volkswagen of Vestal,408315,2100 Vestal Parkway E,,Vestal,NY,13850,USA,6075845354,42.0929,-76.0197,Fri:09:00-18:00; Mon:09:00-20:00; Sat:09:00-17:00; Thu:09:00-20:00; Tue:09:00-20:00; Wed:09:00-18:00; Sun:closed; ,,0
Volkswagen of Orchard Park,408145,3524 Southwestern Blvd,,Orchard Park,NY,14127,USA,7162160256,42.7880,-78.7625,Fri:09:00-18:00; Mon:09:00-21:00; Sat:09:00-17:00; Thu:09:00-21:00; Tue:09:00-21:00; Wed:09:00-18:00; Sun:closed; ,,0
Riverhead Bay Volkswagen,408150,1521 Old Country Rd,,Riverhead,NY,11901,USA,6315910150,40.9253,-72.6924,Fri:09:00-18:00; Mon:09:00-20:00; Sat:09:00-18:00; Sun:11:00-16:00; Thu:09:00-20:00; Tue:09:00-20:00; Wed:09:00-20:00; ,,0
"Curran Volkswagen, Inc.",408083,2785 Main St,,Stratford,CT,06615,USA,8554500044,41.1984,-73.1325,Fri:08:00-17:00; Mon:08:00-18:00; Sat:09:00-14:00; Thu:08:00-18:00; Tue:08:00-18:00; Wed:08:00-18:00; Sun:closed; ,,0
McGrath Volkswagen of Marion,402301,675 Blairs Ferry Road,,Marion,IA,52302,USA,3197745690,42.0314,-91.6132,Fri:08:30-17:00; Mon:08:30-21:00; Sat:08:30-17:00; Thu:08:30-21:00; Tue:08:30-21:00; Wed:08:30-18:00; Sun:closed; ,,0
Volkswagen of Muskegon,403078,1860 E Sternberg Rd,,Muskegon,MI,49441,USA,2317992886,43.1551,-86.1990,Fri:07:30-18:00; Mon:07:30-20:00; Sat:09:00-16:00; Thu:07:30-20:00; Tue:07:30-20:00; Wed:07:30-20:00; Sun:closed; ,,0
Frank Boucher VW of Janesville,402635,4211 Milton Ave,,Janesville,WI,53546,USA,8558902062,42.7325,-88.9897,Fri:07:00-17:30; Mon:07:00-17:30; Sat:07:30-13:00; Thu:07:00-17:30; Tue:07:00-17:30; Wed:07:00-17:30; Sun:closed; ,,0
Danbury Volkswagen,408091,29 Sugar Hollow Rd,,Danbury,CT,06810,USA,2037445201,41.3740,-73.4747,Fri:09:00-17:00; Mon:09:00-17:00; Thu:09:00-17:00; Tue:09:00-17:00; Wed:09:00-17:00; Sun:closed; Sat:closed; ,,0
Boucher Volkswagen,402616,6420 S 108th St,,Franklin,WI,53132,USA,4145251100,42.9280,-88.0477,Fri:07:00-18:00; Mon:07:00-18:00; Sat:08:00-13:00; Thu:07:00-18:00; Tue:07:00-18:00; Wed:07:00-18:00; Sun:closed; ,,0
Hudson Valley Volkswagen,408151,1148 Route 9,,Wappingers Falls,NY,12590,USA,8883088274,41.5667,-73.9061,Fri:08:00-17:00; Mon:08:00-17:00; Sat:08:00-16:00; Thu:08:00-17:00; Tue:08:00-17:00; Wed:08:00-17:00; Sun:closed; ,,0
Maguire Volkswagen,408158,370 Elmira Rd,,Ithaca,NY,14850,USA,6072571515,42.4228,-76.5179,Fri:08:00-18:00; Mon:08:00-20:00; Sat:08:00-18:00; Thu:08:00-20:00; Tue:08:00-20:00; Wed:08:00-20:00; Sun:closed; ,,0
Schmitt's Volkswagen,408144,5255 Genesee St,,Bowmansville,NY,14026,USA,7166833343,42.9396,-78.6875,Fri:09:00-18:00; Mon:09:00-21:00; Sat:09:00-16:00; Thu:09:00-21:00; Tue:09:00-21:00; Wed:09:00-18:00; Sun:closed; ,,0
Northtown Volkswagen,408152,1135 Millersport Hwy,,Amherst,NY,14226,USA,8666507406,42.9819,-78.7960,Fri:07:30-21:00; Mon:07:30-21:00; Sat:07:30-21:00; Thu:07:30-21:00; Tue:07:30-21:00; Wed:07:30-21:00; Sun:closed; ,,0
Hall Volkswagen,402645,19809 W Bluemound Rd,,Brookfield,WI,53045,USA,8666332901,43.0356,-88.1595,Fri:09:00-18:00; Mon:09:00-21:00; Sat:09:00-17:00; Thu:09:00-21:00; Tue:09:00-21:00; Wed:09:00-21:00; Sun:closed; ,,0
Volkswagen of Milwaukee North,402617,1400 W Silver Spring Dr,,Milwaukee,WI,53209,USA,8446156330,43.1196,-87.9282,Fri:07:30-17:30; Mon:07:30-17:30; Thu:07:30-17:30; Tue:07:30-17:30; Wed:07:30-17:30; Sun:closed; Sat:closed; ,,0
McGrath Volkswagen of Dubuque,402308,2075 Holliday Dr,,Dubuque,IA,52002,USA,8775068833,42.5112,-90.7434,Fri:07:00-17:30; Sat:08:00-12:00; Thu:07:00-17:30; Tue:07:00-17:30; Wed:07:00-17:30; Sun:closed; Mon:closed; ,,0
Executive Volkswagen of North Haven,408084,444 State St,,North Haven,CT,06473,USA,8442821115,41.3628,-72.8881,Fri:07:30-17:30; Mon:07:30-17:30; Sat:07:00-16:00; Thu:07:30-19:00; Tue:07:30-17:30; Wed:07:30-17:30; Sun:closed; ,,0
Basil Volkswagen of Lockport,408303,6179 S Transit Rd,,Lockport,NY,14094,USA,7166254444,43.1225,-78.6958,Fri:07:30-18:00; Mon:07:30-18:00; Sat:07:30-17:00; Sun:09:00-16:00; Thu:07:30-20:00; Tue:07:30-20:00; Wed:07:30-18:00; ,,0
Ernie Von Schledorn Volkswagen,402615,N88 W14167 Main Street,,Menomonee Falls,WI,53051,USA,2622579652,43.1762,-88.0844,Fri:07:00-18:00; Mon:07:00-18:00; Sat:08:00-12:00; Thu:07:00-18:00; Tue:07:00-18:00; Wed:07:00-18:00; Sun:closed; ,,0
"Valenti Motors, Inc.",408087,600 Straits Tpke,,Watertown,CT,06795,USA,8602153158,41.5749,-73.1005,Fri:09:00-19:00; Mon:09:00-20:00; Sat:09:00-18:00; Thu:09:00-20:00; Tue:09:00-20:00; Wed:09:00-20:00; Sun:closed; ,,0
Thelen  Volkswagen,403083,1112 North Euclid Avenue,,Bay City,MI,48706,USA,9892468982,43.6165,-83.9140,Fri:08:30-18:00; Mon:08:30-20:00; Sat:10:00-16:00; Thu:08:30-18:00; Tue:08:30-18:00; Wed:08:30-18:00; Sun:closed; ,,0
Lithia Volkswagen of Des Moines,402320,5200 Merle Hay Rd,,Johnston,IA,50131,USA,8663083521,41.6552,-93.6986,Fri:08:00-19:00; Mon:08:00-20:00; Sat:08:00-18:00; Thu:08:00-20:00; Tue:08:00-20:00; Wed:08:00-20:00; Sun:closed; ,,0
Volkswagen of Kingston,408103,1249 Ulster Ave,,Kingston,NY,12401,USA,8772181607,41.9673,-73.9893,Fri:07:30-17:30; Mon:07:30-17:30; Sat:08:00-13:00; Thu:07:30-17:30; Tue:07:30-17:30; Wed:07:30-17:30; Sun:closed; ,,0
Street Volkswagen of Amarillo,425170,8707 Pilgrim Drive,,Amarillo,TX,79119,USA,8063508999,35.1576,-101.9390,Fri:07:00-19:00; Mon:07:00-19:00; Sat:07:00-18:00; Thu:07:00-19:00; Tue:07:00-19:00; Wed:07:00-19:00; Sun:closed; ,,0
Volkswagen of Old Saybrook,408080,319 Middlesex Tpke,,Old Saybrook,CT,06475,USA,8603883400,41.3101,-72.3825,Fri:09:00-18:00; Mon:09:00-17:00; Sat:09:00-17:00; Thu:09:00-20:00; Tue:09:00-20:00; Wed:09:00-20:00; Sun:closed; ,,0
"Langan Volkswagen Meriden, LLC",408055,375 S Broad St,,Meriden,CT,06450,USA,8555324935,41.5124,-72.8060,Fri:07:00-17:30; Mon:07:00-17:30; Sat:08:00-13:30; Thu:07:00-17:30; Tue:07:00-17:30; Wed:07:00-17:30; Sun:closed; ,,0
Dorschel Volkswagen,408149,3817 W Henrietta Rd,,Rochester,NY,14623,USA,8007686026,43.0778,-77.6430,Fri:09:00-18:00; Mon:09:00-20:00; Thu:09:00-20:00; Tue:09:00-20:00; Wed:09:00-20:00; Sun:closed; Sat:closed; ,,0
Zimbrick Volkswagen of Madison,402607,1430 N Stoughton Rd,,Madison,WI,53714,USA,6082707799,43.1150,-89.3237,Fri:08:30-18:00; Mon:08:30-20:00; Sat:08:30-16:00; Thu:08:30-20:00; Tue:08:30-18:00; Wed:08:30-18:00; Sun:closed; ,,0
Volkswagen Oneonta,408302,7517 State Highway 23,,Oneonta,NY,13820,USA,8777910965,42.4387,-74.9912,Fri:08:00-18:00; Mon:08:00-18:00; Thu:08:00-18:00; Tue:08:00-18:00; Wed:08:00-18:00; Sun:closed; Sat:closed; ,,0
Ide Volkswagen of East Rochester,408104,333 N Washington St,,East Rochester,NY,14445,USA,5855862225,43.1208,-77.4859,Fri:09:00-18:00; Mon:09:00-20:00; Sat:09:00-18:00; Thu:09:00-20:00; Tue:09:00-20:00; Wed:09:00-20:00; Sun:closed; ,,0
Zimbrick Volkswagen,402629,7505 Century Ave,,Middleton,WI,53562,USA,8559982817,43.1109,-89.5103,Fri:08:30-18:00; Mon:08:30-20:00; Sat:08:30-16:00; Thu:08:30-20:00; Tue:08:30-18:00; Wed:08:30-18:00; Sun:closed; ,,0
"Crowley Volkswagen, Inc.",408088,245 New Britain Ave,,Plainville,CT,06062,USA,8662975402,41.6769,-72.8412,Fri:09:00-18:00; Mon:09:00-20:00; Sat:09:00-18:00; Sun:11:00-16:00; Thu:09:00-20:00; Tue:09:00-20:00; Wed:09:00-20:00; ,,0
Mystic Volkswagen Satellite,408098,72 Jerry Brown Road,,Mystic,CT,06355,USA,8602452718,41.376216,-71.952781,Mon:08:00-20:00; Tue:08:00-20:00; Wed:08:00-20:00; Thu:08:00-20:00; Fri:08:00-17:00; Sat:08:00-17:00; Sun:closed; ,,0
Mitchell Volkswagen,408092,51 Albany Tpke,,Canton,CT,06019,USA,8606937668,41.8232,-72.8762,Fri:08:30-18:00; Mon:08:30-19:30; Sat:08:30-17:00; Thu:08:30-19:30; Tue:08:30-19:30; Wed:08:30-19:30; Sun:closed; ,,0
"Gene Langan Volkswagen, Inc.",408076,816 New London Turnpike,,Glastonbury,CT,06033,USA,8606330261,41.7044,-72.5930,Fri:08:30-18:00; Mon:08:30-19:30; Sat:08:30-17:00; Thu:08:30-19:30; Tue:08:30-19:30; Wed:08:30-19:30; Sun:closed; ,,0
Volkswagen of Hartford,408060,133-149 Leibert Rd,,Hartford,CT,06120,USA,8602152496,41.7864,-72.6564,Fri:09:00-18:00; Mon:09:00-20:00; Sat:09:00-17:00; Thu:09:00-20:00; Tue:09:00-20:00; Wed:09:00-20:00; Sun:closed; ,,0
Witham Volkswagen of Cedar Falls,402338,2728 S Main St,,Cedar Falls,IA,50613,USA,3192778123,42.5121,-92.4449,Fri:09:00-17:00; Mon:09:00-17:00; Sat:09:00-17:00; Thu:09:00-17:00; Tue:09:00-17:00; Wed:09:00-17:00; Sun:closed; ,,0
Russ Darrow VW of Sheboygan,402621,5515 Racetrack Rd,,Sheboygan,WI,53081,USA,9204578844,43.6932,-87.7578,Fri:07:30-17:00; Mon:07:30-17:00; Sat:08:00-12:00; Thu:07:30-17:00; Tue:07:30-17:00; Wed:07:30-17:00; Sun:closed; ,,0
Romano Volkswagen of Fayetteville,408139,5431 N Burdick St,,Fayetteville,NY,13066,USA,3156374491,43.0378,-76.0186,Fri:08:30-18:00; Mon:08:30-20:00; Sat:09:00-17:00; Thu:08:30-20:00; Tue:08:30-20:00; Wed:08:30-20:00; Sun:closed; ,,0
"Langan Volkswagen Of Vernon, LLC",408099,167 Hartford Turnpike,,Vernon,CT,06066,USA,8555307323,41.8210,-72.5018,Fri:09:00-18:00; Mon:09:00-20:00; Sat:09:00-17:00; Thu:09:00-20:00; Tue:09:00-20:00; Wed:09:00-20:00; Sun:closed; ,,0
Burdick Volkswagen,408148,5885 E Circle Dr,,Cicero,NY,13039,USA,3156992661,43.1502,-76.1151,Fri:09:00-18:00; Mon:09:00-20:00; Sat:09:00-18:00; Thu:09:00-20:00; Tue:09:00-20:00; Wed:09:00-20:00; Sun:closed; ,,0
Speedcraft Volkswagen,401207,104 Old Tower Hill Rd,,Wakefield,RI,02879,USA,8552164638,41.4425,-71.4846,Fri:08:30-18:00; Mon:08:30-20:00; Sat:08:30-17:00; Sun:12:00-17:00; Thu:08:30-20:00; Tue:08:30-20:00; Wed:08:30-20:00; ,,0
Central Volkswagen of Plainfield,408082,98 Lathrop Rd,,Plainfield,CT,06374,USA,8605644014,41.6630,-71.9119,Fri:07:30-17:00; Mon:07:30-17:00; Sat:07:30-13:00; Thu:07:30-17:00; Tue:07:30-17:00; Wed:07:30-17:00; Sun:closed; ,,0
Lia Volkswagen,401081,140 Elm St,,Enfield,CT,06082,USA,8602654003,41.9980,-72.5755,Fri:09:00-18:00; Mon:09:00-20:00; Sat:09:00-18:00; Sun:12:00-16:00; Thu:09:00-20:00; Tue:09:00-20:00; Wed:09:00-20:00; ,,0
Schworer Volkswagen,424223,3301 Schworer Dr,,Lincoln,NE,68504,USA,8448810479,40.8592,-96.6700,Fri:08:00-18:00; Mon:08:00-20:00; Sat:08:00-18:00; Thu:08:00-20:00; Tue:08:00-20:00; Wed:08:00-20:00; Sun:closed; ,,0
Baxter Volkswagen of La Vista,424224,7108 S 124th Cir,,La Vista,NE,68128,USA,8559849129,41.1884,-96.1088,Fri:06:30-18:00; Mon:06:30-18:00; Sat:07:00-16:30; Thu:06:30-18:00; Tue:06:30-18:00; Wed:06:30-18:00; Sun:closed; ,,0
"Fathers & Sons, Inc.",401078,434 Memorial Avenue,,West Springfield,MA,01089,USA,4137851631,42.0960,-72.6041,Fri:09:00-18:00; Mon:09:00-20:00; Sat:09:00-17:00; Thu:09:00-20:00; Tue:09:00-20:00; Wed:09:00-20:00; Sun:closed; ,,0
Baxter Volkswagen of Omaha,424218,808 N. 102nd Street,,Omaha,NE,68114,USA,8556097055,41.2672,-96.0734,Fri:07:00-18:00; Mon:07:00-18:00; Sat:08:00-12:00; Thu:07:00-18:00; Tue:07:00-18:00; Wed:07:00-18:00; Sun:closed; ,,0
Steet Ponte Volkswagen,408155,5046 Commercial Dr,,Yorkville,NY,13495,USA,3157368291,43.1081,-75.2945,Fri:08:00-17:00; Mon:08:00-17:00; Sat:08:00-13:00; Thu:08:00-17:00; Tue:08:00-17:00; Wed:08:00-17:00; Sun:closed; ,,0
Balise Volkswagen,401214,525 Quaker Ln,,West Warwick,RI,02893,USA,4013525912,41.6795,-71.5012,Fri:09:00-17:00; Mon:09:00-17:00; Thu:09:00-17:00; Tue:09:00-17:00; Wed:09:00-17:00; Sun:closed; Sat:closed; ,,0
Nye Volkswagen of Rome,408307,5865 Rome-Taberg Rd,,Rome,NY,13440,USA,8554599654,43.2328,-75.4980,Fri:08:00-17:30; Mon:08:00-20:00; Sat:09:00-17:00; Thu:08:00-20:00; Tue:08:00-20:00; Wed:08:00-20:00; Sun:closed; ,,0
Flynn Volkswagen,401041,600 Merrill Rd,,Pittsfield,MA,01201,USA,8556284250,42.4643,-73.2056,Fri:07:30-17:30; Mon:07:30-17:30; Thu:07:30-17:30; Tue:07:30-17:30; Wed:07:30-17:30; Sun:closed; Sat:closed; ,,0
Cooley Motors Corp.,408366,401 N Greenbush Rd,,Rensselaer,NY,12144,USA,5182832902,42.6661,-73.6910,Fri:08:00-17:00; Mon:08:00-17:00; Thu:08:00-19:00; Tue:08:00-17:00; Wed:08:00-17:00; Sun:closed; Sat:closed; ,,0
Fuccillo Volkswagen of Schenectady,408358,2240 Central Ave,,Schenectady,NY,12304,USA,5183749161,42.7639,-73.8862,Fri:08:00-19:00; Mon:08:00-19:00; Sat:08:00-18:00; Thu:08:00-19:00; Tue:08:00-19:00; Wed:08:00-19:00; Sun:closed; ,,0
Nemer Volkswagen,408396,550 Troy Schenectady Rd,,Latham,NY,12110,USA,8557348330,42.7505,-73.7652,Fri:07:30-17:30; Mon:07:30-17:30; Sat:08:00-16:00; Thu:07:30-17:30; Tue:07:30-17:30; Wed:07:30-17:30; Sun:closed; ,,0
Volkswagen of Oshkosh,402612,3139 S Washburn St,,Oshkosh,WI,54904,USA,9204710770,43.9803,-88.5848,Fri:09:00-17:00; Mon:09:00-17:00; Sat:09:00-17:00; Sun:09:00-17:00; Thu:09:00-17:00; Tue:09:00-17:00; Wed:09:00-17:00; ,,0
Northampton Volkswagen,401033,361 King St.,,Northampton,MA,01060,USA,4135667161,42.3369,-72.6361,Fri:09:00-18:00; Mon:09:00-20:00; Sat:09:00-17:00; Sun:12:00-16:00; Thu:09:00-20:00; Tue:09:00-20:00; Wed:09:00-20:00; ,,0
"Mattie Imports, Inc.",401059,80 William S Canning Blvd,,Fall River,MA,02721,USA,8665760049,41.6765,-71.1615,Fri:09:00-19:00; Mon:09:00-20:00; Sat:09:00-17:00; Thu:09:00-20:00; Tue:09:00-20:00; Wed:09:00-20:00; Sun:closed; ,,0
Scott Volkswagen,401206,777 Taunton Ave,,East Providence,RI,02914,USA,8556117323,41.8220,-71.3519,Fri:09:00-17:00; Mon:09:00-19:00; Sat:09:00-17:00; Sun:12:00-16:00; Thu:09:00-19:00; Tue:09:00-19:00; Wed:09:00-19:00; ,,0
Patrick Motors,401015,519 Washington St,,Auburn,MA,01501,USA,5088328883,42.1857,-71.8377,Fri:07:30-17:30; Mon:07:30-17:30; Sat:08:00-16:00; Thu:07:30-19:00; Tue:07:30-17:30; Wed:07:30-17:30; Sun:closed; ,,0
"Volkswagen of North Attleboro, Inc.",401067,563 Kelley Blvd,,North Attleboro,MA,02760,USA,8665760069,42.0072,-71.3014,Fri:09:00-18:00; Mon:09:00-20:00; Sat:09:00-17:00; Sun:12:00-16:00; Thu:09:00-20:00; Tue:09:00-20:00; Wed:09:00-20:00; ,,0
Volkswagen Appleton,402611,3023 N Victory Ln,,Appleton,WI,54913,USA,9205749052,44.2911,-88.4719,Fri:08:30-18:00; Mon:08:30-20:00; Sat:08:30-17:00; Thu:08:30-20:00; Tue:08:30-20:00; Wed:08:30-20:00; Sun:closed; ,,0
Mastria Volkswagen of Raynham,401042,1619 New State Hwy,,Raynham,MA,02767,USA,8554811278,41.9031,-71.0054,Fri:07:30-18:00; Mon:07:30-19:30; Sat:07:30-17:00; Sun:11:00-16:00; Thu:07:30-19:30; Tue:07:30-19:30; Wed:07:30-19:30; ,,0
Schukei Volkswagen,402334,721 South Monroe,,Mason City,IA,50401,USA,8557410933,43.1443,-93.2084,Fri:07:30-17:00; Mon:07:30-17:00; Thu:07:30-17:00; Tue:07:30-17:00; Wed:07:30-17:00; Sun:closed; Sat:closed; ,,0
Colonial Volkswagen,401017,89 Turnpike Rd,,Westborough,MA,01581,USA,8555931762,42.2881,-71.5926,Fri:07:30-17:30; Mon:07:30-17:30; Sat:07:30-16:00; Thu:07:30-17:30; Tue:07:30-17:30; Wed:07:30-17:30; Sun:closed; ,,0
Serra Volkswagen of Traverse City,402807,1301 S. Garfield Avenue,,Traverse City,MI,49686,USA,8663086281,44.7439,-85.5944,Fri:09:00-17:00; Mon:09:00-19:00; Sat:09:00-16:00; Thu:09:00-19:00; Tue:09:00-17:00; Wed:09:00-17:00; Sun:closed; ,,0
Paul Clark Volkswagen,401066,122 Liberty Street,,Brockton,MA,02301,USA,8663077994,42.0560,-71.0613,Fri:09:00-18:00; Mon:09:00-20:00; Sat:09:00-17:00; Sun:11:00-16:00; Thu:09:00-20:00; Tue:09:00-20:00; Wed:09:00-20:00; ,,0
Broadway Imports,402641,2700 S Ashland Ave,,Green Bay,WI,54304,USA,8777712055,44.4741,-88.0653,Fri:09:00-18:00; Mon:09:00-20:00; Sat:09:00-17:00; Thu:09:00-20:00; Tue:09:00-18:00; Wed:09:00-20:00; Sun:closed; ,,0
"Tracy Volkswagen, Inc.",401025,686 Iyannough Rd,,Hyannis,MA,02601,USA,5087753049,41.6679,-70.2924,Fri:07:30-17:30; Mon:07:30-17:30; Sat:08:00-12:00; Thu:07:30-17:30; Tue:07:30-17:30; Wed:07:30-17:30; Sun:closed; ,,0
Bob Burg Volkswagen,402647,700 Monitor Street,,La Crosse,WI,54603,USA,6087828808,43.8280,-91.2455,Fri:08:30-17:30; Mon:08:30-20:00; Sat:08:30-16:30; Thu:08:30-20:00; Tue:08:30-17:30; Wed:08:30-17:30; Sun:closed; ,,0
Volkswagen Gallery,401035,1280 Providence Hwy Route 1,,Norwood,MA,02062,USA,7815519397,42.1694,-71.1965,Fri:08:00-18:00; Mon:08:00-20:00; Sat:08:00-18:00; Sun:12:00-17:00; Thu:08:00-20:00; Tue:08:00-20:00; Wed:08:00-20:00; ,,0
F.X. Caprara Volkswagen,408142,18493 Us Route 11,,Watertown,NY,13601,USA,8665788233,43.9348,-75.9329,Fri:08:00-18:00; Mon:08:00-19:00; Sat:08:00-17:00; Thu:08:00-19:00; Tue:08:00-19:00; Wed:08:00-19:00; Sun:closed; ,,0
"Wellesley Volkswagen, Incorporated",401052,231 Linden St,,Wellesley,MA,02482,USA,8556027323,42.3008,-71.2902,Fri:07:30-17:00; Mon:07:30-17:00; Sat:07:30-16:00; Thu:07:30-17:00; Tue:07:30-17:00; Wed:07:30-17:00; Sun:closed; ,,0
"Garvey Volkswagen, Inc.",408313,483 Quaker Rd,,Queensbury,NY,12804,USA,5182033822,43.3293,-73.6298,Fri:09:00-18:00; Mon:09:00-19:00; Sat:09:00-17:00; Thu:09:00-19:00; Tue:09:00-19:00; Wed:09:00-19:00; Sun:closed; ,,0
Quirk Volkswagen,401079,20 Granite St,,Braintree,MA,02184,USA,7819171598,42.2272,-71.0315,Fri:09:00-17:00; Mon:09:00-17:00; Sat:09:00-18:00; Sun:10:00-17:00; Thu:09:00-17:00; Tue:09:00-17:00; Wed:09:00-17:00; ,,0
Coastal Volkswagen,401065,1 Saturn Drive,,Hanover,MA,02339,USA,8666414798,42.1525,-70.8471,Fri:09:00-18:00; Mon:09:00-20:00; Sat:09:00-18:00; Sun:11:00-17:00; Thu:09:00-20:00; Tue:09:00-20:00; Wed:09:00-20:00; ,,0
Volkswagen of Manchester,401301,4847 Main Street,,Manchester Center,VT,05255,USA,8665761929,43.1767,-73.0584,Fri:08:00-17:00; Mon:08:00-17:00; Sat:08:00-16:00; Thu:08:00-17:00; Tue:08:00-17:00; Wed:08:00-17:00; Sun:closed; ,,0
Boston Volkswagen,401080,43 N Beacon St,,Watertown,MA,02472,USA,8445308087,42.3646,-71.1819,Fri:09:00-18:00; Mon:09:00-20:00; Sat:09:00-18:00; Thu:09:00-20:00; Tue:09:00-20:00; Wed:09:00-20:00; Sun:closed; ,,0
"Noyes Volkswagen, Inc.",401127,18 Production Ave,,Keene,NH,03431,USA,8556379120,42.9213,-72.3044,Fri:08:00-17:00; Mon:08:00-17:00; Sat:08:00-12:00; Thu:08:00-17:00; Tue:08:00-17:00; Wed:08:00-17:00; Sun:closed; ,,0
Colonial Volkswagen of Medford,401023,340 Mystic Avenue,,Medford,MA,02155,USA,8555904326,42.4034,-71.0986,Fri:07:30-17:00; Mon:07:30-19:00; Sat:08:00-16:00; Thu:07:30-19:00; Tue:07:30-19:00; Wed:07:30-19:00; Sun:closed; ,,0
"Minuteman Volkswagen, Inc.",401057,39 North Rd,,Bedford,MA,01730,USA,7812758000,42.4958,-71.2851,Fri:07:30-18:00; Mon:07:30-18:00; Sat:08:00-17:00; Sun:09:00-15:00; Thu:07:30-18:00; Tue:07:30-18:00; Wed:07:30-18:00; ,,0
Scaffidi Motors,402655,3733 Stanley Street,,Stevens Point,WI,54481,USA,7153444100,44.5377,-89.5462,Fri:08:30-20:00; Mon:08:30-20:00; Sat:08:30-15:00; Thu:08:30-17:30; Tue:08:30-17:30; Wed:08:30-20:00; Sun:closed; ,,0
Gervais Volkswagen of Lowell,401036,6 Industrial Ave.,,Lowell,MA,01851,USA,9784541202,42.6147,-71.3214,Fri:07:30-17:00; Mon:07:30-17:00; Sat:07:30-15:30; Thu:07:30-17:00; Tue:07:30-17:00; Wed:07:30-17:00; Sun:closed; ,,0
AutoFair Volkswagen of Nashua,401121,717 Nh Route 101a,,Merrimack,NH,03054,USA,6039438700,42.8057,-71.5474,Fri:07:00-19:00; Mon:07:00-19:00; Sat:08:00-17:00; Thu:07:00-19:00; Tue:07:00-19:00; Wed:07:00-19:00; Sun:closed; ,,0
Kelly Volkswagen,401016,72 Andover St,,Danvers,MA,01923,USA,9782082830,42.5522,-70.9610,Fri:08:00-18:00; Mon:08:00-20:00; Sat:08:30-18:00; Sun:11:30-17:00; Thu:08:00-20:00; Tue:08:00-20:00; Wed:08:00-20:00; ,,0
"Dave Syverson Volkswagen, Inc.",402417,2310 East Main Street,,Albert Lea,MN,56007,USA,8557461436,43.6559,-93.3345,Fri:08:00-18:00; Mon:08:00-20:00; Sat:08:00-16:00; Thu:08:00-20:00; Tue:08:00-18:00; Wed:08:00-18:00; Sun:closed; ,,0
Commonwealth Volkswagen,401084,1 Commonwealth Drive,,Lawrence,MA,01841,USA,8662479391,42.7157,-71.1402,Fri:07:00-18:00; Mon:07:00-18:00; Sat:07:00-16:00; Thu:07:00-18:00; Tue:07:00-18:00; Wed:07:00-18:00; Sun:closed; ,,0
Volkswagen of Sioux City,402300,3901 Stadium Dr,,Sioux City,IA,51106,USA,7122271678,42.4385,-96.3655,Fri:08:00-18:00; Mon:08:00-20:00; Sat:08:00-17:00; Thu:08:00-20:00; Tue:08:00-20:00; Wed:08:00-20:00; Sun:closed; ,,0
"Rochester Motors, LLC",402407,2720 Highway 52 N,,Rochester,MN,55901,USA,5074353154,44.0521,-92.4926,Fri:09:00-18:00; Mon:09:00-20:00; Sat:09:00-17:00; Thu:09:00-20:00; Tue:09:00-20:00; Wed:09:00-20:00; Sun:closed; ,,0
"Kinney Motors, Ltd.",401312,176 Us Route 7 S,,Rutland,VT,05701,USA,8027474384,43.5878,-72.9692,Fri:09:00-18:00; Mon:09:00-18:00; Sat:09:00-17:00; Thu:09:00-18:00; Tue:09:00-18:00; Wed:09:00-18:00; Sun:closed; ,,0
Quirk Volkswagen NH,401128,1100 S Willow St,,Manchester,NH,03103,USA,6032062990,42.9623,-71.4377,Fri:09:00-18:00; Mon:09:00-21:00; Sat:09:00-18:00; Sun:10:00-17:00; Thu:09:00-21:00; Tue:09:00-21:00; Wed:09:00-21:00; ,,0
"Kocourek Wausau Imports, Inc.",402651,1501 Morning Glory Ln,,Wausau,WI,54401,USA,7153590303,44.9157,-89.6521,Fri:09:00-17:00; Mon:09:00-17:00; Thu:09:00-17:00; Tue:09:00-17:00; Wed:09:00-17:00; Sun:closed; Sat:closed; ,,0
Miller Volkswagen,401125,175 Heater Rd,,Lebanon,NH,03766,USA,8884108831,43.6509,-72.2443,Fri:08:00-17:00; Mon:08:00-17:00; Thu:08:00-17:00; Tue:08:00-17:00; Wed:08:00-17:00; Sun:closed; Sat:closed; ,,0
"Seacoast Volkswagen, Inc.",401106,95 Ocean Rd,,Greenland,NH,03840,USA,6035132944,43.0445,-70.8180,Fri:08:00-18:00; Mon:08:00-19:00; Sat:09:00-17:00; Sun:11:00-16:00; Thu:08:00-19:00; Tue:08:00-19:00; Wed:08:00-19:00; ,,0
Volkswagen of Eau Claire,402650,5201 Fairview Dr,,Eau Claire,WI,54701,USA,7158521450,44.7638,-91.4626,Fri:08:30-17:00; Mon:08:30-19:00; Sat:08:30-17:00; Thu:08:30-19:00; Tue:08:30-19:00; Wed:08:30-19:00; Sun:closed; ,,0
AutoServ Volkswagen,401102,40 E Main St,,Tilton,NH,03276,USA,6032863141,43.4507,-71.5734,Fri:08:00-20:00; Mon:08:00-20:00; Sat:08:00-17:00; Sun:10:00-17:00; Thu:08:00-20:00; Tue:08:00-20:00; Wed:08:00-20:00; ,,0
Hoy Volkswagen of El Paso,420001,1122 Airway Blvd,,El Paso,TX,79925,USA,8555765711,31.7802,-106.3910,Fri:09:00-20:00; Mon:09:00-20:00; Sat:09:00-18:00; Thu:09:00-20:00; Tue:09:00-20:00; Wed:09:00-20:00; Sun:closed; ,,0
Volkswagen of Rochester,401111,20 Farmington Rd,,Rochester,NH,03867,USA,8554424770,43.3239,-71.0016,Fri:08:30-18:00; Mon:08:30-19:00; Sat:09:00-17:00; Thu:08:30-19:00; Tue:08:30-19:00; Wed:08:30-19:00; Sun:closed; ,,0
Mankato Volkswagen,402425,1815 Madison Ave,,Mankato,MN,56001,USA,5072004575,44.1661,-93.9553,Fri:08:30-18:00; Mon:08:30-20:00; Sat:08:30-17:00; Thu:08:30-20:00; Tue:08:30-20:00; Wed:08:30-20:00; Sun:closed; ,,0
Halbinsel Volkswagen,402802,200 North 30th Street,,Escanaba,MI,49829,USA,9067899650,45.7472,-87.0894,Fri:09:00-18:00; Mon:09:00-18:00; Sat:09:00-15:00; Thu:09:00-18:00; Tue:09:00-18:00; Wed:09:00-18:00; Sun:closed; ,,0
Rudolph Volkswagen of El Paso,420002,5505 S Desert Blvd,,El Paso,TX,79932,USA,9158458500,31.8570,-106.5770,Fri:07:00-18:00; Mon:07:00-18:00; Sat:07:00-18:00; Thu:07:00-18:00; Tue:07:00-18:00; Wed:07:00-18:00; Sun:closed; ,,0
Shearer VW of South Burlington,401306,1030 Shelburne Rd,,South Burlington,VT,05403,USA,8886581130,44.4405,-73.2094,Fri:09:00-18:00; Mon:09:00-19:00; Sat:09:00-17:00; Thu:09:00-19:00; Tue:09:00-19:00; Wed:09:00-19:00; Sun:closed; ,,0
Walker Volkswagen,401313,2287 Berlin State Hwy,,Barre,VT,05641,USA,8554740740,44.2323,-72.5545,Fri:07:30-17:00; Mon:07:30-17:00; Thu:07:30-17:00; Tue:07:30-17:00; Wed:07:30-17:00; Sun:closed; Sat:closed; ,,0
"Burnsville Volkswagen, Inc.",402415,14550 Buck Hill Rd,,Burnsville,MN,55306,USA,6124247353,44.7394,-93.2856,Fri:07:00-18:00; Mon:07:00-21:00; Sat:08:00-17:00; Thu:07:00-21:00; Tue:07:00-21:00; Wed:07:00-21:00; Sun:closed; ,,0
Prime Volkswagen,401425,784 Portland Rd,,Saco,ME,04072,USA,2072832900,43.5297,-70.4272,Fri:09:00-18:00; Mon:09:00-20:00; Sat:09:00-18:00; Thu:09:00-20:00; Tue:09:00-20:00; Wed:09:00-20:00; Sun:closed; ,,0
Volkswagen of Inver Grove,402428,1325 50th St E,,Inver Grove Heights,MN,55077,USA,6514044430,44.8805,-93.0788,Fri:08:30-18:00; Mon:08:30-20:00; Sat:08:30-18:00; Thu:08:30-20:00; Tue:08:30-20:00; Wed:08:30-20:00; Sun:closed; ,,0
"Sisbarro Autoworld, Inc.",420314,1115 S Valley Dr,,Las Cruces,NM,88005,USA,8773610470,32.2954,-106.7870,Fri:08:00-19:00; Mon:08:00-19:00; Sat:08:00-18:00; Sun:11:00-17:00; Thu:08:00-19:00; Tue:08:00-19:00; Wed:08:00-19:00; ,,0
Graham Automotive,402503,801 W 41st St,,Sioux Falls,SD,57105,USA,6053363655,43.5145,-96.7356,Fri:08:00-18:00; Mon:08:00-19:00; Sat:08:00-17:00; Thu:08:00-18:00; Tue:08:00-18:00; Wed:08:00-18:00; Sun:closed; ,,0
Schmelz Countryside Volkswagen,402402,1180 Highway 36 E,,Maplewood,MN,55109,USA,6512434383,45.0111,-93.0509,Fri:08:30-18:00; Mon:08:30-20:30; Sat:09:00-18:00; Thu:08:30-20:30; Tue:08:30-20:30; Wed:08:30-20:30; Sun:closed; ,,0
Luther West Side Volkswagen,402408,2370 Highway 100 S,,Saint Louis Park,MN,55416,USA,6123263925,44.9599,-93.3462,Fri:08:30-18:00; Mon:08:30-21:00; Sat:08:30-17:00; Thu:08:30-21:00; Tue:08:30-21:00; Wed:08:30-21:00; Sun:closed; ,,0
Morong Falmouth Volkswagen,401404,187 Us Route 1,,Falmouth,ME,04105,USA,2077814020,43.7161,-70.2327,Fri:08:00-18:00; Mon:08:00-19:00; Sat:08:00-17:00; Thu:08:00-20:00; Tue:08:00-19:00; Wed:08:00-19:00; Sun:closed; ,,0
Brookdale Volkswagen,402409,6801 Brooklyn Boulevard,,Brooklyn Center,MN,55429,USA,7632194847,45.0786,-93.3366,Fri:09:00-18:00; Mon:09:00-21:00; Sat:09:00-17:00; Thu:09:00-21:00; Tue:09:00-21:00; Wed:09:00-21:00; Sun:closed; ,,0
Morong Brunswick,401419,314 Bath Rd,,Brunswick,ME,04011,USA,8557321118,43.9118,-69.8963,Fri:08:00-17:00; Mon:08:00-17:00; Thu:08:00-17:00; Tue:08:00-17:00; Wed:08:00-17:00; Sun:closed; Sat:closed; ,,0
Garcia Volkswagen of Santa Fe,420324,2560 Camino Edward Ortiz,,Santa Fe,NM,87507,USA,5059132950,35.6339,-106.0230,Fri:09:00-18:00; Mon:09:00-18:00; Sat:09:00-18:00; Thu:09:00-18:00; Tue:09:00-18:00; Wed:09:00-18:00; Sun:closed; ,,0
Rowe Volkswagen,401420,699 Center Street,,Auburn,ME,04210,USA,2077842321,44.1271,-70.2239,Fri:07:00-18:00; Mon:07:00-18:00; Sat:08:00-16:00; Thu:07:00-18:00; Tue:07:00-18:00; Wed:07:00-18:00; Sun:closed; ,,0
Uptown Volkswagen,420312,8201 Lomas Blvd Ne,,Albuquerque,NM,87110,USA,5052605058,35.0879,-106.5550,Fri:09:00-19:00; Mon:09:00-19:00; Sat:09:00-19:00; Thu:09:00-19:00; Tue:09:00-19:00; Wed:09:00-19:00; Sun:closed; ,,0
University Volkswagen,420309,5150 Ellison St NE,,Albuquerque,NM,87109,USA,5052187486,35.1601,-106.5890,Fri:08:30-20:00; Mon:09:00-20:00; Sat:09:00-19:00; Sun:12:00-17:00; Thu:08:30-20:00; Tue:08:30-20:00; Wed:08:30-20:00; ,,0
O'Connor Volkswagen,401426,188 Riverside Drive,,Augusta,ME,04330,USA,8552088729,44.3291,-69.7637,Fri:08:00-19:00; Mon:08:00-19:00; Sat:08:00-17:00; Thu:08:00-19:00; Tue:08:00-19:00; Wed:08:00-19:00; Sun:closed; ,,0
"Eich Motor Company, Inc.",402406,1931 W Division St,,Saint Cloud,MN,56301,USA,3202511737,45.5543,-94.1798,Fri:07:30-17:00; Mon:07:30-19:00; Sat:08:30-15:00; Thu:07:30-19:00; Tue:07:30-19:00; Wed:07:30-19:00; Sun:closed; ,,0
"Thompson Volkswagen, Inc.",401412,347 Main Street,,Waterville,ME,04903,USA,8663086243,44.5684,-69.6381,Fri:09:00-17:00; Mon:09:00-17:00; Thu:09:00-17:00; Tue:09:00-17:00; Wed:09:00-17:00; Sun:closed; Sat:closed; ,,0
Bob Penkhus Volkswagen,420101,1101 Motor City Dr,,Colorado Springs,CO,80905,USA,8552744262,38.8197,-104.8360,Fri:09:00-17:00; Mon:09:00-17:00; Thu:09:00-17:00; Tue:09:00-17:00; Wed:09:00-17:00; Sun:closed; Sat:closed; ,,0
Mike Maroone VW N Colorado Springs,420149,1580 Auto Mall Loop,,Colorado Springs,CO,80920,USA,7192581001,38.9528,-104.7940,,,0
Volkswagen of Duluth,402420,4735 Mall Dr,,Hermantown,MN,55811,USA,2187226989,46.8152,-92.1791,Fri:07:30-17:00; Mon:07:30-17:00; Thu:07:30-17:00; Tue:07:30-17:00; Wed:07:30-17:00; Sun:closed; Sat:closed; ,,0
"Auto Import, Inc.",402405,22 Washington St,,Brainerd,MN,56401,USA,2188293307,46.3578,-94.2089,,,0
"Tynan's Volkswagen, Inc.",420113,700 S Havana St,,Aurora,CO,80012,USA,3039842689,39.7033,-104.8650,Fri:09:00-21:00; Mon:09:00-21:00; Sat:09:00-21:00; Thu:09:00-21:00; Tue:09:00-21:00; Wed:09:00-21:00; Sun:closed; ,,0
McDonald Automotive Grp. Volkswagen,420111,6000 S Broadway,,Littleton,CO,80121,USA,3037951100,39.6084,-104.9880,Fri:08:30-20:00; Mon:08:30-20:00; Sat:08:30-19:00; Thu:08:30-20:00; Tue:08:30-20:00; Wed:08:30-20:00; Sun:closed; ,,0
Emich Volkswagen,420129,1260 S Colorado Blvd,,Denver,CO,80246,USA,8448595840,39.6939,-104.9400,Fri:09:00-20:00; Mon:09:00-20:00; Sat:09:00-20:00; Thu:09:00-20:00; Tue:09:00-20:00; Wed:09:00-20:00; Sun:closed; ,,0
"Darling's, Inc.",401422,403 Hogan Road,,Bangor,ME,04401,USA,8774459872,44.8280,-68.7395,Fri:08:00-19:00; Mon:08:00-19:00; Sat:09:00-18:00; Thu:08:00-19:00; Tue:08:00-19:00; Wed:08:00-19:00; Sun:closed; ,,0
Larry H. Miller Volkswagen Lakewood,420156,8303 W Colfax Ave,,Lakewood,CO,80214,USA,8555524322,39.7406,-105.0900,Fri:08:30-20:00; Mon:08:30-20:00; Sat:08:30-20:00; Thu:08:30-20:00; Tue:08:30-20:00; Wed:08:30-20:00; Sun:closed; ,,0
O'Meara Volkswagen of Thornton,420150,1900 W 104th Ave,,Denver,CO,80234,USA,3039747278,39.8847,-105.0100,Fri:08:30-21:00; Mon:08:30-21:00; Sat:08:30-21:00; Thu:08:30-21:00; Tue:08:30-21:00; Wed:08:30-21:00; Sun:closed; ,,0
Greeley Volkswagen,420144,2605 35th Avenue,,Greeley,CO,80634,USA,9702350554,40.3951,-104.7350,Fri:08:30-20:00; Mon:08:30-20:00; Sat:08:30-20:00; Thu:08:30-20:00; Tue:08:30-20:00; Wed:08:30-20:00; Sun:closed; ,,0
Gebhardt Automotive Inc.,420130,2470 49th St,Po Box 17730,Boulder,CO,80301,USA,8449210820,40.0226,-105.2370,Fri:08:30-19:00; Mon:08:30-19:00; Sat:09:00-18:00; Thu:08:30-19:00; Tue:08:30-19:00; Wed:08:30-19:00; Sun:closed; ,,0
"Ed Carroll Motor Co., Inc.",420112,3003 S College Ave,,Fort Collins,CO,80525,USA,9702263000,40.5463,-105.0780,Fri:09:00-17:00; Mon:09:00-17:00; Thu:09:00-17:00; Tue:09:00-17:00; Wed:09:00-17:00; Sun:closed; Sat:closed; ,,0
"Valley Imports, Inc.",402707,402 40th St S,,Fargo,ND,58103,USA,7012771777,46.8709,-96.8449,Fri:08:00-18:00; Mon:08:00-19:00; Sat:09:00-17:00; Thu:08:00-19:00; Tue:08:00-19:00; Wed:08:00-19:00; Sun:closed; ,,0
Glenwood Springs Volkswagen,420114,100 Riverine Rd,,Glenwood Springs,CO,81601,USA,8663081836,39.5608,-107.3660,Fri:09:00-17:00; Mon:09:00-17:00; Sat:09:00-17:00; Thu:09:00-17:00; Tue:09:00-17:00; Wed:09:00-17:00; Sun:closed; ,,0
Chapman Volkswagen,422234,4500 E 22nd St,,Tucson,AZ,85711,USA,5207481000,32.2065,-110.8960,Fri:08:00-20:00; Mon:08:00-20:00; Sat:08:00-18:00; Thu:08:00-20:00; Tue:08:00-20:00; Wed:08:00-20:00; Sun:closed; ,,0
Larry H. Miller Volkswagen Tucson,422236,900 W Auto Mall Dr,,Tucson,AZ,85705,USA,8553469519,32.2870,-110.9880,Fri:07:00-18:00; Mon:07:00-18:00; Sat:08:00-17:00; Thu:07:00-18:00; Tue:07:00-18:00; Wed:07:00-18:00; Sun:closed; ,,0
Liberty Volkswagen,420704,600 Cambell St.,,Rapid City,SD,57701,USA,6057216060,44.0769,-103.1910,Fri:09:00-19:00; Mon:09:00-19:00; Sat:09:00-17:00; Thu:09:00-19:00; Tue:09:00-19:00; Wed:09:00-19:00; Sun:closed; ,,0
Grand Junction Volkswagen,420138,653 Market St,,Grand Junction,CO,81505,USA,9702556677,39.0982,-108.6070,Fri:07:30-17:30; Mon:07:30-17:30; Sat:08:00-17:00; Thu:07:30-17:30; Tue:07:30-17:30; Wed:07:30-17:30; Sun:closed; ,,0
San Tan Volkswagen,422222,1489 E Motorplex Loop,,Gilbert,AZ,85297,USA,8665698577,33.2887,-111.7590,Fri:08:00-20:00; Mon:08:00-20:00; Sat:08:00-20:00; Sun:10:00-18:00; Thu:08:00-20:00; Tue:08:00-20:00; Wed:08:00-20:00; ,,0
Fremont Volkswagen,420504,6001 E 2nd St,,Casper,WY,82609,USA,3072028114,42.8423,-106.2370,Fri:08:00-18:00; Mon:08:00-18:00; Sat:09:00-17:00; Thu:08:00-18:00; Tue:08:00-18:00; Wed:08:00-18:00; Sun:closed; ,,0
Berge Volkswagen,422207,385 W Baseline Rd,,Gilbert,AZ,85233,USA,8777317012,33.3782,-111.8410,Fri:08:00-18:00; Mon:08:00-18:00; Sat:08:00-17:00; Thu:08:00-18:00; Tue:08:00-18:00; Wed:08:00-18:00; Sun:closed; ,,0
Volkswagen of Bismarck,402700,914 NE 57th Avenue,,Bismarck,ND,58504,USA,7012581944,46.8680,-100.7760,Fri:08:00-20:00; Mon:08:30-20:00; Sat:08:30-18:00; Thu:08:30-20:00; Tue:08:30-20:00; Wed:08:30-20:00; Sun:closed; ,,0
Chapman Volkswagen,422228,6601 E Mcdowell Rd,,Scottsdale,AZ,85257,USA,4804243560,33.4646,-111.9380,Fri:08:00-21:00; Mon:08:00-21:00; Sat:08:00-19:00; Sun:10:00-17:00; Thu:08:00-21:00; Tue:08:00-21:00; Wed:08:00-21:00; ,,0
Volkswagen North Scottsdale,422231,7001 E Chauncey Ln,,Phoenix,AZ,85054,USA,8777041164,33.6509,-111.9300,Fri:08:00-20:00; Mon:08:00-20:00; Sat:08:00-18:00; Sun:10:00-17:00; Thu:08:00-20:00; Tue:08:00-20:00; Wed:08:00-20:00; ,,0
Camelback Volkswagen,422238,1499 E. Camelback Road,,Phoenix,AZ,85014,USA,8448719464,33.5089,-112.0500,Fri:08:00-20:00; Mon:08:00-20:00; Sat:08:00-20:00; Sun:10:00-18:00; Thu:08:00-20:00; Tue:08:00-20:00; Wed:08:00-20:00; ,,0
Findlay Volkswagen,422201,5160 North Test Drive,,Flagstaff,AZ,86004,USA,9282165032,35.2235,-111.5680,Fri:08:00-19:00; Mon:08:00-19:00; Sat:08:00-19:00; Thu:08:00-19:00; Tue:08:00-19:00; Wed:08:00-19:00; Sun:closed; ,,0
Larry H. Miller Volkswagen Avondale,422232,10205 W Papago Fwy,,Avondale,AZ,85323,USA,8883265996,33.4599,-112.2820,Fri:07:00-18:00; Mon:07:00-18:00; Sat:08:00-17:00; Thu:07:00-18:00; Tue:07:00-18:00; Wed:07:00-18:00; Sun:closed; ,,0
Lunde's Peoria Volkswagen,422202,8801 W Bell Rd,,Peoria,AZ,85382,USA,8442854840,33.6374,-112.2490,Fri:08:30-20:00; Mon:08:30-20:00; Sat:09:00-18:00; Sun:11:00-17:00; Thu:08:30-20:00; Tue:08:30-20:00; Wed:08:30-20:00; ,,0
Prescott German Car Service,422753,710 Ruth Avenue,,Prescott,AZ,86301,USA,9282379959,34.553487,-112.477487,Mon:07:30-17:00; Tue:07:30-17:00; Wed:07:30-17:00; Thu:07:30-17:00; Fri:07:30-17:00; Sat:closed; Sun:closed; ,,0
Ken Garff Motors,419404,195 E University Pkwy,,Orem,UT,84058,USA,8012280482,40.2736,-111.6910,Fri:09:00-20:00; Mon:09:00-20:00; Sat:09:00-20:00; Thu:09:00-20:00; Tue:09:00-20:00; Wed:09:00-20:00; Sun:closed; ,,0
Findlay Volkswagen,419410,1333 South Sunland Dr.,,St. George,UT,84790,USA,8449210062,37.0851,-113.5800,Fri:08:00-19:00; Mon:08:00-19:00; Sat:08:00-19:00; Thu:08:00-19:00; Tue:08:00-19:00; Wed:08:00-19:00; Sun:closed; ,,0
Volkswagen SouthTowne,419419,10968 S 290 W,,South Jordan,UT,84095,USA,8019885825,40.5543,-111.8980,Fri:09:00-21:00; Mon:09:00-21:00; Sat:09:00-21:00; Thu:09:00-21:00; Tue:09:00-21:00; Wed:09:00-21:00; Sun:closed; ,,0
"Strong Volkswagen, Inc.",419400,1070 South Main Street,,Salt Lake City,UT,84101,USA,8015962200,40.7459,-111.8920,Fri:07:30-18:00; Mon:07:30-18:00; Sat:08:00-14:00; Thu:07:30-18:00; Tue:07:30-18:00; Wed:07:30-18:00; Sun:closed; ,,0
Cutrubus Motors Volkswagen,419420,1230 N Main St,,Layton,UT,84041,USA,8015445878,41.0790,-111.9830,Fri:09:00-20:00; Mon:09:00-20:00; Sat:09:00-19:00; Thu:09:00-20:00; Tue:09:00-20:00; Wed:09:00-20:00; Sun:closed; ,,0
Murdock Volkswagen of Logan,419427,3181 N Main St,,Logan,UT,84341,USA,4357993500,41.7907,-111.8350,Fri:07:30-18:00; Mon:07:30-18:00; Sat:08:00-15:00; Thu:07:30-18:00; Tue:07:30-18:00; Wed:07:30-18:00; Sun:closed; ,,0
Imperial Valley Volkswagen,422129,2381 Highway 86,,Imperial,CA,92251,USA,7606790000,32.8176,-115.5710,Fri:08:00-18:00; Mon:08:00-18:00; Sat:08:00-17:00; Thu:08:00-18:00; Tue:08:00-18:00; Wed:08:00-18:00; Sun:closed; ,,0
Volkswagen Billings,419235,4040 King Ave W,,Billings,MT,59106,USA,4066557500,45.7545,-108.6190,Fri:08:00-19:00; Mon:08:00-19:00; Sat:09:00-19:00; Thu:08:00-19:00; Tue:08:00-19:00; Wed:08:00-19:00; Sun:closed; ,,0
Findlay Volkswagen,422600,983 Auto Show Dr,,Henderson,NV,89014,USA,7025586600,36.0442,-115.0270,Fri:07:00-20:00; Mon:07:00-20:00; Sat:08:00-17:00; Thu:07:00-20:00; Tue:07:00-20:00; Wed:07:00-20:00; Sun:closed; ,,0
AutoNation Volkswagen Las Vegas,422607,6375 W Sahara Ave,,Las Vegas,NV,89146,USA,7026055802,36.1432,-115.2310,Fri:07:00-19:00; Mon:07:00-19:00; Sat:08:00-18:00; Thu:07:00-19:00; Tue:07:00-19:00; Wed:07:00-19:00; Sun:closed; ,,0
Findlay North Volkswagen,422606,7500 W Azure Dr,,Las Vegas,NV,89130,USA,7029824800,36.2755,-115.2600,Fri:07:00-19:00; Mon:07:00-19:00; Sat:07:00-16:00; Thu:07:00-19:00; Tue:07:00-19:00; Wed:07:00-19:00; Sun:closed; ,,0
Coachella Valley Volkswagen,422518,79050 Varner Road,,Indio,CA,92203,USA,8776290222,33.7561,-116.2850,Fri:07:00-18:00; Mon:07:00-18:00; Sat:07:00-16:00; Thu:07:00-18:00; Tue:07:00-18:00; Wed:07:00-18:00; Sun:closed; ,,0
Volkswagen of Palm Springs,422517,67909 East Palm Canyon Drive,,Cathedral City,CA,92234,USA,7607701100,33.7848,-116.4780,Fri:07:00-17:30; Mon:07:00-17:30; Sat:07:00-15:00; Thu:07:00-17:30; Tue:07:00-17:30; Wed:07:00-17:30; Sun:closed; ,,0
Teton Volkswagen,419120,2220 W Sunnyside Rd,,Idaho Falls,ID,83402,USA,2085224501,43.4695,-112.0750,Fri:08:30-20:00; Mon:08:30-20:00; Sat:08:30-20:00; Sun:10:00-18:00; Thu:08:30-20:00; Tue:08:30-20:00; Wed:08:30-20:00; ,,0
Mossy Volkswagen El Cajon,422133,300 El Cajon Blvd,,El Cajon,CA,92020,USA,6194015000,32.7929,-116.9700,Fri:09:00-17:00; Mon:09:00-17:00; Thu:09:00-17:00; Tue:09:00-17:00; Wed:09:00-17:00; Sun:closed; Sat:closed; ,,0
South Bay Volkswagen,422580,3131 National City Blvd,,National City,CA,91950,USA,6193364020,32.6557,-117.0980,Fri:08:30-21:00; Mon:08:30-21:00; Sat:09:00-20:00; Sun:10:00-19:00; Thu:08:30-21:00; Tue:08:30-21:00; Wed:08:30-21:00; ,,0
Volkswagen Kearny Mesa,422563,8040 Balboa Ave,,San Diego,CA,92111,USA,8445647082,32.8229,-117.1500,Fri:09:00-21:00; Mon:09:00-21:00; Sat:09:00-21:00; Sun:10:00-19:00; Thu:09:00-21:00; Tue:09:00-21:00; Wed:09:00-21:00; ,,0
Mossy Volkswagen,422134,1695 Auto Park Way,,Escondido,CA,92029,USA,7607457551,33.1153,-117.1080,Fri:09:00-21:00; Mon:09:00-21:00; Sat:09:00-20:00; Sun:10:00-19:00; Thu:09:00-21:00; Tue:09:00-21:00; Wed:09:00-21:00; ,,0
City Volkswagen,422540,2111 Morena Blvd,,San Diego,CA,92110,USA,8663080567,32.7850,-117.2060,Fri:08:30-21:00; Mon:08:30-21:00; Sat:08:30-21:00; Sun:10:00-19:00; Thu:08:30-21:00; Tue:08:30-21:00; Wed:08:30-21:00; ,,0
Volkswagen of Murrieta,422128,41300 Date St,,Murrieta,CA,92562,USA,9512238562,33.5324,-117.1710,Fri:08:30-21:00; Mon:08:30-21:00; Sat:09:00-20:00; Sun:10:00-20:00; Thu:08:30-21:00; Tue:08:30-21:00; Wed:08:30-21:00; ,,0
"Herman Cook Volkswagen, Inc.",422188,1435 Encinitas Blvd,,Encinitas,CA,92024,USA,8556378636,33.0456,-117.2580,Fri:07:00-18:00; Mon:07:00-18:00; Thu:07:00-18:00; Tue:07:00-18:00; Wed:07:00-18:00; Sun:closed; Sat:closed; ,,0
Volkswagen of Moreno Valley,422140,27750 Eucalyptus Ave,,Moreno Valley,CA,92555,USA,8556682589,33.9380,-117.1780,Fri:08:30-21:30; Mon:08:30-21:00; Sat:09:00-21:30; Sun:09:30-21:00; Thu:08:30-21:00; Tue:08:30-21:00; Wed:08:30-21:00; ,,0
Bob Baker Volkswagen,422531,5500 Paseo Del Norte,,Carlsbad,CA,92008,USA,7608045000,33.1301,-117.3250,Fri:08:30-21:00; Mon:08:30-21:00; Sat:08:30-19:00; Sun:09:00-18:00; Thu:08:30-21:00; Tue:08:30-21:00; Wed:08:30-21:00; ,,0
Gallatin Volkswagen,419234,8340 Huffine Lane,,Bozeman,MT,59718,USA,4065861771,45.6705,-111.1550,Fri:08:00-18:00; Mon:08:00-18:00; Sat:08:00-17:00; Thu:08:00-18:00; Tue:08:00-18:00; Wed:08:00-18:00; Sun:closed; ,,0
Riverside Volkswagen,422500,8330 Indiana Ave,,Riverside,CA,92504,USA,8663085532,33.9251,-117.4190,Fri:07:00-19:00; Mon:07:00-19:00; Sat:08:00-17:00; Thu:07:00-19:00; Tue:07:00-19:00; Wed:07:00-19:00; Sun:closed; ,,0
Ontario Volkswagen,422180,701 Kettering Dr,,Ontario,CA,91761,USA,8556036789,34.0563,-117.5450,Fri:07:00-18:30; Mon:07:00-18:30; Sat:08:00-16:00; Thu:07:00-18:30; Tue:07:00-18:30; Wed:07:00-18:30; Sun:closed; ,,0
Capistrano Volkswagen,422599,32922 Valle Rd,,San Juan Capistrano,CA,92675,USA,9494934511,33.4843,-117.6670,Fri:09:00-21:00; Mon:09:00-21:00; Sat:09:00-20:00; Sun:10:00-19:00; Thu:09:00-21:00; Tue:09:00-21:00; Wed:09:00-21:00; ,,0
CardinaleWay Volkswagen,422597,2603 Wardlow Rd,,Corona,CA,92882,USA,8882127390,33.8825,-117.6190,Fri:07:00-18:00; Mon:07:00-18:00; Sat:08:00-17:00; Sun:09:00-17:00; Thu:07:00-18:00; Tue:07:00-18:00; Wed:07:00-18:00; ,,0
Norm Reeves Volkswagen Superstore,422529,20 Auto Center Dr,,Irvine,CA,92618,USA,8669383392,33.6319,-117.7230,Fri:09:00-21:00; Mon:09:00-21:00; Sat:09:00-21:00; Sun:09:00-20:00; Thu:09:00-21:00; Tue:09:00-21:00; Wed:09:00-21:00; ,,0
Volkswagen South Coast,422126,1450 Auto Mall Dr,,Santa Ana,CA,92705,USA,8553157225,33.7287,-117.8390,Fri:08:30-21:00; Mon:08:30-21:00; Sat:08:30-20:00; Sun:10:00-19:00; Thu:08:30-21:00; Tue:08:30-21:00; Wed:08:30-21:00; ,,0
Twin Falls Volkswagen,419116,1534 Blue Lakes Blvd N,,Twin Falls,ID,83301,USA,2087330413,42.5891,-114.4600,Fri:09:00-17:00; Mon:09:00-17:00; Thu:09:00-17:00; Tue:09:00-17:00; Wed:09:00-17:00; Sun:closed; Sat:closed; ,,0
Volkswagen of Garden Grove,422601,10800 Trask Ave,,Garden Grove,CA,92843,USA,7145904000,33.7666,-117.9410,Fri:09:00-21:00; Mon:09:00-21:00; Sat:09:00-20:00; Sun:10:00-19:00; Thu:09:00-21:00; Tue:09:00-21:00; Wed:09:00-21:00; ,,0
Bozzani Motors,422142,528 S Citrus Ave,,Covina,CA,91723,USA,6269676325,34.0807,-117.8900,,,0
Puente Hills Volkswagen,422104,17110 Gale Ave,,City Of Industry,CA,91745,USA,6269657500,33.9988,-117.9330,Fri:07:30-18:00; Mon:07:30-18:00; Sat:08:00-15:00; Thu:07:30-18:00; Tue:07:30-18:00; Wed:07:30-18:00; Sun:closed; ,,0
McKenna Volkswagen,422539,18711 Beach Blvd,,Huntington Beach,CA,92648,USA,7148422000,33.6905,-117.9890,Fri:09:00-21:00; Mon:09:00-21:00; Sat:09:00-21:00; Sun:10:00-20:00; Thu:09:00-21:00; Tue:09:00-21:00; Wed:09:00-21:00; ,,0
McKenna Motors Cerritos,422147,18303 Studebaker Rd,,Cerritos,CA,90703,USA,8559963498,33.8649,-118.1010,Fri:09:00-21:00; Mon:09:00-21:00; Sat:09:00-21:00; Sun:10:00-20:00; Thu:09:00-21:00; Tue:09:00-21:00; Wed:09:00-21:00; ,,0
Volkswagen Pasadena,422116,130 N Sierra Madre Blvd,,Pasadena,CA,91107,USA,8884831307,34.1486,-118.1010,Fri:09:00-21:00; Mon:09:00-21:00; Sat:09:00-20:00; Sun:09:00-19:00; Thu:09:00-21:00; Tue:09:00-21:00; Wed:09:00-21:00; ,,0
Timmons Volkswagen,422516,3940 Cherry Ave,,Long Beach,CA,90807,USA,8558323136,33.8297,-118.1670,Fri:07:00-18:00; Mon:07:00-18:00; Sat:08:00-16:00; Thu:07:00-18:00; Tue:07:00-18:00; Wed:07:00-18:00; Sun:closed; ,,0
Volkswagen Alhambra,422530,1811 W Main St,,Alhambra,CA,91801,USA,6264070500,34.0919,-118.1430,Fri:09:00-21:00; Mon:09:00-21:00; Sat:09:00-21:00; Sun:10:00-20:00; Thu:09:00-21:00; Tue:09:00-21:00; Wed:09:00-21:00; ,,0
Antelope Valley Volkswagen,422585,39050 Carriage Way,,Palmdale,CA,93551,USA,6612732500,34.5924,-118.1350,Fri:07:00-18:00; Mon:07:00-18:00; Sat:08:00-17:00; Thu:07:00-18:00; Tue:07:00-18:00; Wed:07:00-18:00; Sun:closed; ,,0
Volkswagen of Downtown L.A.,422144,1900 S Figueroa St,,Los Angeles,CA,90007,USA,8888761074,34.0337,-118.2710,Fri:07:30-18:30; Mon:07:30-18:30; Sat:08:00-17:00; Thu:07:30-18:30; Tue:07:30-18:30; Wed:07:30-18:30; Sun:closed; ,,0
New Century Volkswagen,422595,1220 S Brand Blvd,,Glendale,CA,91204,USA,8185526263,34.1314,-118.2540,Fri:07:30-18:00; Mon:07:30-18:00; Sat:08:00-17:00; Thu:07:30-18:00; Tue:07:30-18:00; Wed:07:30-18:00; Sun:closed; ,,0
Pacific Volkswagen,422110,14900 Hindry Ave,,Hawthorne,CA,90250,USA,8774250939,33.8971,-118.3710,Fri:07:00-18:00; Mon:07:00-18:00; Sat:08:00-17:00; Thu:07:00-18:00; Tue:07:00-18:00; Wed:07:00-18:00; Sun:closed; ,,0
"Volkswagen Santa Monica, L.L.C.",422503,2440 Santa Monica Blvd,,Santa Monica,CA,90404,USA,8554597323,34.0318,-118.4750,Fri:07:30-19:00; Mon:07:30-19:00; Sat:07:30-17:00; Thu:07:30-19:00; Tue:07:30-19:00; Wed:07:30-19:00; Sun:closed; ,,0
Volkswagen of Van Nuys,422506,6115 Van Nuys Blvd,,Van Nuys,CA,91401,USA,8779321218,34.1813,-118.4490,Fri:09:00-21:00; Mon:09:00-21:00; Sat:09:00-20:00; Sun:10:00-19:00; Thu:09:00-21:00; Tue:09:00-21:00; Wed:09:00-21:00; ,,0
Galpin VW of San Fernando Valley,422507,15421 Roscoe Blvd,,North Hills,CA,91343,USA,8559965051,34.2217,-118.4690,Fri:08:30-21:00; Mon:08:30-21:00; Sat:08:30-21:00; Sun:09:00-20:00; Thu:08:30-21:00; Tue:08:30-21:00; Wed:08:30-21:00; ,,0
Taylor's Automax VW of Great Falls,419233,4100 10th Avenue South,,Great Falls,MT,59405,USA,4062018199,47.4933,-111.2360,Fri:08:00-18:00; Mon:08:00-18:00; Sat:09:00-18:00; Thu:08:00-18:00; Tue:08:00-18:00; Wed:08:00-18:00; Sun:closed; ,,0
Winn Volkswagen Woodland Hills,422502,21141 Ventura Blvd,,Woodland Hills,CA,91364,USA,8554199290,34.1677,-118.5940,Fri:07:00-18:00; Mon:07:00-18:00; Sat:08:00-16:00; Thu:07:00-18:00; Tue:07:00-18:00; Wed:07:00-18:00; Sun:closed; ,,0
Parkway Volkswagen,422103,24075 Magic Mountain Pkwy,,Valencia,CA,91355,USA,8774560139,34.4183,-118.5560,Fri:09:00-21:00; Mon:09:00-21:00; Sat:09:00-21:00; Sun:10:00-20:00; Thu:09:00-21:00; Tue:09:00-21:00; Wed:09:00-21:00; ,,0
Neftin Volkswagen,422592,3550 Auto Mall Dr,,Westlake Village,CA,91362,USA,8554168566,34.1644,-118.8340,Fri:07:30-18:00; Mon:07:30-19:00; Sat:08:00-17:00; Thu:07:30-19:00; Tue:07:30-19:00; Wed:07:30-19:00; Sun:closed; ,,0
Family Volkswagen,422593,6000 Wible Rd,,Bakersfield,CA,93313,USA,6616176200,35.3001,-119.0380,Fri:07:30-17:30; Mon:07:30-17:30; Sat:08:00-13:00; Thu:07:30-17:30; Tue:07:30-17:30; Wed:07:30-17:30; Sun:closed; ,,0
Ventura Volkswagen,422602,3650 E Main St,,Ventura,CA,93003,USA,8053351708,34.2635,-119.2430,Fri:09:00-21:00; Mon:09:00-21:00; Sat:09:00-20:00; Sun:22:00-19:00; Thu:09:00-21:00; Tue:09:00-21:00; Wed:09:00-21:00; ,,0
Boise Volkswagen,419127,8400 W Franklin Rd,,Boise,ID,83709,USA,2083775400,43.6053,-116.2870,Fri:08:00-21:00; Mon:08:00-21:00; Sat:09:00-19:00; Thu:08:00-21:00; Tue:08:00-21:00; Wed:08:00-21:00; Sun:closed; ,,0
Karl Tyler's Missoula Volkswagen,419232,3665 N Reserve Street,,Missoula,MT,59808,USA,8554233261,46.9056,-114.0420,Fri:08:00-17:30; Mon:08:00-17:30; Thu:08:00-17:30; Tue:08:00-17:30; Wed:08:00-17:30; Sun:closed; Sat:closed; ,,0
Clovis Volkswagen,426118,350 Herndon Ave,,Clovis,CA,93612,USA,8444732978,36.8364,-119.7060,Fri:08:30-20:00; Mon:08:30-20:00; Sat:09:00-20:00; Sun:10:00-20:00; Thu:08:30-20:00; Tue:08:30-20:00; Wed:08:30-20:00; ,,0
Michael Volkswagen,426093,50 W Bullard Ave,,Fresno,CA,93704,USA,8775563044,36.8242,-119.7910,Fri:08:00-17:30; Mon:08:00-17:30; Thu:08:00-17:30; Tue:08:00-17:30; Wed:08:00-17:30; Sun:closed; Sat:closed; ,,0
Community Volkswagen,422520,2150 S College Dr,,Santa Maria,CA,93455,USA,8053483221,34.9216,-120.4240,Fri:07:30-17:30; Mon:07:30-17:30; Sat:08:00-14:00; Thu:07:30-17:30; Tue:07:30-17:30; Wed:07:30-17:30; Sun:closed; ,,0
Perry Volkswagen of San Luis Obispo,422521,12200 Los Osos Valley Rd,,San Luis Obispo,CA,93405,USA,8775164303,35.2499,-120.6840,Fri:08:00-20:00; Mon:08:00-20:00; Sat:09:00-19:00; Sun:10:00-18:00; Thu:08:00-20:00; Tue:08:00-20:00; Wed:08:00-20:00; ,,0
Lithia Volkswagen of Reno,426105,7063 South Virginia,,Reno,NV,89511,USA,8669632154,39.4624,-119.7820,Fri:07:30-18:00; Mon:07:30-18:00; Sat:08:00-16:00; Thu:07:30-18:00; Tue:07:30-18:00; Wed:07:30-18:00; Sun:closed; ,,0
Merced Volkswagen,426043,1555 W 16th St,,Merced,CA,95340,USA,2093842000,37.3067,-120.5000,Fri:09:00-20:00; Mon:09:00-20:00; Sat:09:00-20:00; Sun:10:00-19:00; Thu:09:00-20:00; Tue:09:00-20:00; Wed:09:00-20:00; ,,0
Whitefish Volkswagen,419222,6331 Hwy 93 South,,Whitefish,MT,59937,USA,8447778660,48.3897,-114.3350,Fri:08:00-19:00; Mon:08:00-19:00; Sat:09:00-18:00; Thu:08:00-19:00; Tue:08:00-19:00; Wed:08:00-19:00; Sun:closed; ,,0
Central Valley Volkswagen,426086,4620 N. Mchenry Ave.,,Modesto,CA,95356,USA,2093232710,37.7059,-120.9940,Fri:09:00-21:00; Mon:09:00-21:00; Sat:09:00-21:00; Sun:09:00-20:00; Thu:09:00-21:00; Tue:09:00-21:00; Wed:09:00-21:00; ,,0
Volkswagen of Stockton,426115,3055 E Hammer Ln,,Stockton,CA,95212,USA,8553997477,38.0219,-121.2760,Fri:07:30-17:30; Mon:07:30-17:30; Sat:08:00-17:00; Thu:07:30-17:30; Tue:07:30-17:30; Wed:07:30-17:30; Sun:closed; ,,0
Cardinale Volkswagen,426050,555 Auto Center Cir,,Salinas,CA,93907,USA,8883146063,36.7200,-121.6620,Fri:08:00-17:30; Mon:08:00-17:30; Thu:08:00-17:30; Tue:08:00-17:30; Wed:08:00-17:30; Sun:closed; Sat:closed; ,,0
Folsom Lake Volkswagen,426106,12565 Auto Mall Cir,,Folsom,CA,95630,USA,8556237094,38.6353,-121.2070,Fri:09:00-20:00; Mon:09:00-20:00; Sat:09:00-20:00; Sun:10:00-19:00; Thu:09:00-20:00; Tue:09:00-20:00; Wed:09:00-20:00; ,,0
Tracy Volkswagen,426113,2605 Auto Plaza Way,,Tracy,CA,95304,USA,2092075104,37.7627,-121.4650,Fri:09:00-19:00; Mon:09:00-19:00; Sat:09:00-19:00; Sun:10:00-18:00; Thu:09:00-19:00; Tue:09:00-19:00; Wed:09:00-19:00; ,,0
Roseville Volkswagen,426111,830 Automall Dr,,Roseville,CA,95661,USA,9167427849,38.7508,-121.2560,Fri:09:00-21:00; Mon:10:00-21:00; Sat:09:00-21:00; Sun:10:00-20:00; Thu:10:00-21:00; Tue:10:00-21:00; Wed:10:00-21:00; ,,0
Elk Grove Volkswagen,426026,9776 W Stockton Blvd,,Elk Grove,CA,95757,USA,9164052650,38.4040,-121.3870,Fri:08:00-18:00; Mon:08:00-18:00; Sat:08:00-16:00; Thu:08:00-18:00; Tue:08:00-18:00; Wed:08:00-18:00; Sun:closed; ,,0
Seaside Volkswagen,422105,1725 Auto Center Pkwy,,Seaside,CA,93955,USA,8312328730,36.6169,-121.8420,Fri:08:30-20:00; Mon:08:30-20:00; Sat:09:00-20:00; Sun:10:00-19:00; Thu:08:30-20:00; Tue:08:30-20:00; Wed:08:30-20:00; ,,0
Niello Volkswagen,426027,2701 Arden Way,,Sacramento,CA,95825,USA,8559965037,38.5965,-121.3990,Fri:09:00-17:00; Mon:09:00-17:00; Sat:09:00-17:00; Thu:09:00-17:00; Tue:09:00-17:00; Wed:09:00-17:00; Sun:closed; ,,0
Lasher's Downtown Volkswagen Service Center,426098,925 S Street,,Sacramento,CA,95814,USA,9164412761,38.570655,-121.497972,Mon:07:30-17:30; Tue:07:30-17:30; Wed:07:30-17:30; Thu:07:30-17:30; Fri:07:30-17:30; Sat:closed; Sun:closed; ,,0
Capitol Volkswagen,426071,911 Capitol Expressway Auto Mall,,San Jose,CA,95136,USA,8775099884,37.2763,-121.8740,Fri:09:00-21:00; Mon:09:00-21:00; Sat:09:00-21:00; Sun:10:00-20:00; Thu:09:00-21:00; Tue:09:00-21:00; Wed:09:00-21:00; ,,0
Volkswagen of Santa Cruz,426030,1616 Soquel Avenue,,Santa Cruz,CA,95062,USA,8663085598,36.9810,-122.0030,Fri:10:00-19:00; Mon:10:00-19:00; Sat:09:00-18:00; Sun:10:00-17:00; Thu:10:00-19:00; Tue:10:00-19:00; Wed:10:00-19:00; ,,0
Volkswagen of Stevens Creek,426085,4490 Stevens Creek Blvd,,San Jose,CA,95129,USA,4082609300,37.3226,-121.9810,Fri:09:00-21:00; Mon:09:00-21:00; Sat:09:00-20:00; Sun:10:00-19:00; Thu:09:00-21:00; Tue:09:00-21:00; Wed:09:00-21:00; ,,0
Dublin Volkswagen,426061,6085 Scarlett Ct,,Dublin,CA,94568,USA,9258290800,37.7026,-121.9040,Fri:09:00-21:00; Mon:09:00-21:00; Sat:09:00-20:00; Sun:09:00-20:00; Thu:09:00-21:00; Tue:09:00-21:00; Wed:09:00-21:00; ,,0
Sunnyvale Volkswagen,426101,1025 E El Camino Real,,Sunnyvale,CA,94087,USA,4087397321,37.3528,-122.0060,Fri:08:00-17:30; Mon:08:00-17:30; Sat:08:00-16:00; Thu:08:00-17:30; Tue:08:00-17:30; Wed:08:00-17:30; Sun:closed; ,,0
Post Falls Volkswagen,419115,811 North Greensferry Rd,,Post Falls,ID,83854,USA,2082438802,47.7155,-116.9170,Fri:08:30-19:00; Mon:08:30-19:00; Sat:08:30-19:00; Sun:11:00-17:00; Thu:08:30-19:00; Tue:08:30-19:00; Wed:08:30-19:00; ,,0
Winn Volkswagen,426116,39695 Balentine Dr,,Newark,CA,94560,USA,8669189394,37.5225,-121.9960,Fri:07:00-18:00; Mon:07:00-18:00; Sat:07:00-16:30; Thu:07:00-18:00; Tue:07:00-18:00; Wed:07:00-18:00; Sun:closed; ,,0
Team Volkswagen of Hayward,426031,25115 Mission Blvd,,Hayward,CA,94544,USA,5108851000,37.6575,-122.0730,Fri:08:00-18:00; Mon:08:00-18:00; Sat:09:00-16:00; Thu:08:00-18:00; Tue:08:00-18:00; Wed:08:00-18:00; Sun:closed; ,,0
Vacaville Volkswagen,426114,721 Orange Dr,,Vacaville,CA,95687,USA,8663086306,38.3840,-121.9380,Fri:09:00-17:00; Mon:09:00-17:00; Thu:09:00-17:00; Tue:09:00-17:00; Wed:09:00-17:00; Sun:closed; Sat:closed; ,,0
Dirito Bros Walnut Creek Volkswagen,426078,2020 N Main St,,Walnut Creek,CA,94596,USA,8552302084,37.9074,-122.0650,Fri:09:00-20:00; Mon:09:00-20:00; Sat:09:00-18:00; Sun:10:00-18:00; Thu:09:00-20:00; Tue:09:00-20:00; Wed:09:00-20:00; ,,0
AutoNation Volkswagen Spokane,419303,10006 E Sprague Ave,,Spokane Valley,WA,99206,USA,5098509361,47.6566,-117.2700,Fri:07:00-19:00; Mon:07:00-19:00; Sat:08:00-17:00; Thu:07:00-19:00; Tue:07:00-19:00; Wed:07:00-19:00; Sun:closed; ,,0
Boardwalk Volkswagen,426074,#1 Bair Island Road,,Redwood City,CA,94063,USA,8666945805,37.4956,-122.2270,Fri:09:00-20:00; Mon:09:00-20:00; Sat:09:00-19:00; Sun:11:00-18:00; Thu:09:00-20:00; Tue:09:00-20:00; Wed:09:00-20:00; ,,0
Volkswagen of Fairfield,426065,2855 Auto Mall Pkwy,,Fairfield,CA,94533,USA,7074027100,38.2421,-122.0820,Fri:09:00-21:00; Mon:09:00-21:00; Sat:09:00-21:00; Sun:10:00-20:00; Thu:09:00-21:00; Tue:09:00-21:00; Wed:09:00-21:00; ,,0
Volkswagen of Oakland,426084,2740 Broadway,,Oakland,CA,94612,USA,8007230736,37.8159,-122.2640,Fri:09:00-20:00; Mon:09:00-20:00; Thu:09:00-20:00; Tue:09:00-20:00; Wed:09:00-20:00; Sun:closed; Sat:closed; ,,0
Hilltop Volkswagen,426062,3255 Auto Plaza,,Richmond,CA,94806,USA,5102836300,37.9852,-122.3220,Fri:09:00-21:00; Mon:09:00-21:00; Sat:09:00-21:00; Sun:10:00-20:00; Thu:09:00-21:00; Tue:09:00-21:00; Wed:09:00-21:00; ,,0
Chico Volkswagen,426109,902 Main St,,Chico,CA,95928,USA,5308916275,39.7250,-121.8350,Fri:09:00-19:00; Mon:09:00-19:00; Sat:09:00-19:00; Sun:10:00-16:00; Thu:09:00-19:00; Tue:09:00-19:00; Wed:09:00-19:00; ,,0
Hanlees Volkswagen,426047,495 Soscol Ave,,Napa,CA,94559,USA,7072539100,38.2920,-122.2780,Fri:09:00-20:00; Mon:09:00-20:00; Sat:09:00-20:00; Sun:10:00-19:00; Thu:09:00-20:00; Tue:09:00-20:00; Wed:09:00-20:00; ,,0
Royal Motor Sales,426024,280 S Van Ness Ave,,San Francisco,CA,94103,USA,4152418100,37.7687,-122.4180,Fri:08:00-17:00; Mon:08:00-17:00; Thu:08:00-17:00; Tue:08:00-17:00; Wed:08:00-17:00; Sun:closed; Sat:closed; ,,0
Serramonte Volkswagen,426002,711 Serramonte Blvd,,Colma,CA,94014,USA,6507569000,37.6743,-122.4600,Fri:07:30-18:00; Mon:07:30-18:00; Sat:08:00-16:30; Thu:07:30-18:00; Tue:07:30-18:00; Wed:07:30-18:00; Sun:closed; ,,0
"Sonnen Motorcars, Inc.",426097,740 Francisco Boulevard West,,San Rafael,CA,94901,USA,4154604100,37.9629,-122.5130,Fri:09:00-17:00; Mon:09:00-17:00; Thu:09:00-17:00; Tue:09:00-17:00; Wed:09:00-17:00; Sun:closed; Sat:closed; ,,0
"Overturf Motor Company, Inc.",423324,1016 W Columbia Drive,,Kennewick,WA,99336,USA,5095863185,46.2173,-119.1320,Fri:09:00-20:00; Mon:09:00-20:00; Sat:09:00-18:00; Sun:11:00-17:00; Thu:09:00-20:00; Tue:09:00-20:00; Wed:09:00-20:00; ,,0
Hansel Volkswagen of Santa Rosa,426004,2951 Corby Ave.,,Santa Rosa,CA,95407,USA,7075781320,38.4057,-122.7170,Fri:11:00-19:00; Mon:11:00-19:00; Sat:11:00-19:00; Sun:11:00-18:00; Thu:11:00-19:00; Tue:11:00-19:00; Wed:11:00-19:00; ,,0
Volkswagen of Bend,423010,1975 Highway 20,,Bend,OR,97701,USA,8556060615,44.0546,-121.2750,Fri:08:00-18:00; Mon:08:00-18:00; Thu:08:00-18:00; Tue:08:00-18:00; Wed:08:00-18:00; Sun:closed; Sat:closed; ,,0
Steve Hahn's Performance Volkswagen,423347,1730 South First Street,,Yakima,WA,98909,USA,8662475845,46.5788,-120.4930,Fri:07:30-18:00; Mon:07:30-18:00; Sat:08:00-17:00; Thu:07:30-18:00; Tue:07:30-18:00; Wed:07:30-18:00; Sun:closed; ,,0
Lithia Medford Volkswagen,423074,4606 Grumman Drive,,Medford,OR,97504,USA,8776520968,42.3814,-122.8560,Fri:07:30-18:00; Mon:07:30-18:00; Sat:07:30-18:00; Thu:07:30-18:00; Tue:07:30-18:00; Wed:07:30-18:00; Sun:closed; ,,0
Sheppard Motors,423048,2366 W 7th Ave,,Eugene,OR,97402,USA,5413438811,44.0538,-123.1290,Fri:10:00-19:00; Mon:10:00-19:00; Sat:10:00-18:00; Sun:10:00-17:00; Thu:10:00-19:00; Tue:10:00-19:00; Wed:10:00-19:00; ,,0
Armstrong Volkswagen,423063,20000 Mcloughlin Blvd,,Gladstone,OR,97027,USA,8009787461,45.3761,-122.6010,Fri:08:00-18:00; Mon:08:00-18:00; Sat:09:00-17:00; Thu:08:00-18:00; Tue:08:00-18:00; Wed:08:00-18:00; Sun:closed; ,,0
Dick Hannahs Volkswagen of Portland,423073,12345 E Burnside St,,Portland,OR,97233,USA,8553957893,45.5229,-122.5360,Fri:07:00-18:00; Mon:07:00-18:00; Sat:07:00-18:00; Thu:07:00-18:00; Tue:07:00-18:00; Wed:07:00-18:00; Sun:closed; ,,0
Dick Hannah Volkswagen,423337,3500 Ne Auto Mall Dr,,Vancouver,WA,98662,USA,8556632605,45.6474,-122.5980,Fri:07:30-18:00; Mon:07:30-18:00; Sat:07:30-18:00; Thu:07:30-18:00; Tue:07:30-18:00; Wed:07:30-18:00; Sun:closed; ,,0
Volkswagen of Salem,423041,3335 Del Webb Ave. Ne,,Salem,OR,97301,USA,8558178984,44.9732,-123.0180,Fri:07:00-18:00; Mon:07:00-18:00; Sat:08:00-17:00; Thu:07:00-18:00; Tue:07:00-18:00; Wed:07:00-18:00; Sun:closed; ,,0
Power Volkswagen of Corvallis,423042,705 Nw Buchanan Ave,,Corvallis,OR,97330,USA,8778099850,44.5753,-123.2600,Fri:08:00-19:00; Mon:08:00-19:00; Sat:08:00-18:00; Sun:11:00-17:00; Thu:08:00-19:00; Tue:08:00-19:00; Wed:08:00-19:00; ,,0
Herzog Meier Volkswagen,423069,4275 Sw 139th Way,,Beaverton,OR,97005,USA,5036449121,45.4895,-122.8200,Fri:09:00-21:00; Mon:09:00-20:00; Sat:09:00-21:00; Sun:10:00-20:00; Thu:09:00-20:00; Tue:09:00-20:00; Wed:09:00-20:00; ,,0
"Mac Volkswagen, Inc.",423038,1920 Ne Highway 99w,,Mcminnville,OR,97128,USA,8777215794,45.2271,-123.1780,Fri:09:00-19:00; Mon:09:00-19:00; Sat:09:00-18:00; Sun:11:00-17:00; Thu:09:00-19:00; Tue:09:00-19:00; Wed:09:00-19:00; ,,0
Volkswagen of Puyallup,423305,820 River Rd,,Puyallup,WA,98371,USA,2532681800,47.2011,-122.3050,Fri:07:30-18:00; Mon:07:30-18:00; Sat:08:00-17:00; Thu:07:30-18:00; Tue:07:30-18:00; Wed:07:30-18:00; Sun:closed; ,,0
Auburn Volkswagen,423344,3109 Auburn Way N,,Auburn,WA,98002,USA,8885285280,47.3356,-122.2230,,,0
Chaplin's Bellevue Volkswagen,423328,15000 Se Eastgate Way,,Bellevue,WA,98007,USA,4256412002,47.5813,-122.1380,Fri:08:00-18:00; Mon:08:00-18:00; Sat:08:00-16:00; Thu:08:00-18:00; Tue:08:00-18:00; Wed:08:00-18:00; Sun:closed; ,,0
Volkswagen of Tacoma,423303,7633 S Tacoma Way,,Tacoma,WA,98409,USA,2532050198,47.1869,-122.4830,Fri:08:30-20:00; Mon:08:30-20:00; Sat:09:00-19:00; Sun:10:00-18:00; Thu:08:30-20:00; Tue:08:30-20:00; Wed:08:30-20:00; ,,0
Volkswagen of Kirkland,423321,12612 Ne 124th Street,,Kirkland,WA,98034,USA,4258982500,47.7107,-122.1720,Fri:08:30-21:00; Mon:08:30-21:00; Sat:09:00-21:00; Sun:10:00-20:00; Thu:08:30-21:00; Tue:08:30-21:00; Wed:08:30-21:00; ,,0
University Volkswagen,423320,4724 Roosevelt Way Ne,,Seattle,WA,98105,USA,8775367406,47.6639,-122.3170,Fri:09:00-20:00; Mon:09:00-20:00; Sat:09:00-19:00; Sun:11:00-18:00; Thu:09:00-20:00; Tue:09:00-20:00; Wed:09:00-20:00; ,,0
Carter Volkswagen,423322,5202 Leary Ave Nw,,Seattle,WA,98107,USA,2067827474,47.6659,-122.3810,Fri:08:30-20:00; Mon:08:30-20:00; Sat:09:00-19:00; Sun:10:00-18:00; Thu:08:30-20:00; Tue:08:30-20:00; Wed:08:30-20:00; ,,0
Pignataro Volkswagen,423345,10633 Evergreen Way,,Everett,WA,98204,USA,8664614365,47.9013,-122.2460,Fri:09:00-20:00; Mon:09:00-20:00; Sat:09:00-19:00; Sun:10:00-18:00; Thu:09:00-20:00; Tue:09:00-20:00; Wed:09:00-20:00; ,,0
Campbell Volkswagen of Edmonds,423329,24329 Highway 99,,Edmonds,WA,98026,USA,8667838672,47.7782,-122.3450,Fri:07:30-18:00; Mon:07:30-18:00; Sat:09:00-16:00; Thu:07:30-18:00; Tue:07:30-18:00; Wed:07:30-18:00; Sun:closed; ,,0
Volkswagen of Olympia,423313,2107 Cooper Point Rd Sw,,Olympia,WA,98502,USA,8558176541,47.0289,-122.9280,Fri:08:30-20:00; Mon:08:30-20:00; Sat:08:30-19:00; Sun:10:00-18:00; Thu:08:30-20:00; Tue:08:30-20:00; Wed:08:30-20:00; ,,0
Haselwood Volkswagen of Bremerton,423342,5008 Auto Center Blvd # 4670,,Bremerton,WA,98312,USA,3603773855,47.5620,-122.6820,Fri:07:30-18:00; Mon:07:30-18:00; Thu:07:30-18:00; Tue:07:30-18:00; Wed:07:30-18:00; Sun:closed; Sat:closed; ,,0
KarMart Volkswagen,423339,1725 Bouslog Rd,,Burlington,WA,98233,USA,8007181158,48.4533,-122.3460,Fri:07:30-17:30; Mon:07:30-17:30; Sat:08:00-16:00; Thu:07:30-17:30; Tue:07:30-17:30; Wed:07:30-17:30; Sun:closed; ,,0
"Roger Jobs Volkswagen, Inc.",423312,2200 Iowa Street,,Bellingham,WA,98229,USA,3607345230,48.7559,-122.4460,Fri:09:00-19:00; Mon:09:00-19:00; Sat:09:00-18:00; Thu:09:00-19:00; Tue:09:00-19:00; Wed:09:00-19:00; Sun:closed; ,,0
"Dan Wilder Volkswagen, Inc.",423304,97 Deer Park Road,,Port Angeles,WA,98362,USA,8559019401,48.1029,-123.3430,Fri:08:00-17:30; Mon:08:00-17:30; Sat:08:00-17:00; Thu:08:00-17:30; Tue:08:00-17:30; Wed:08:00-17:30; Sun:closed; ,,0
Kendall Volkswagen of Anchorage,423413,935 Gambell St,,Anchorage,AK,99501,USA,8556061608,61.2129,-149.8710,Fri:09:00-17:00; Mon:09:00-17:00; Sat:09:00-17:00; Thu:09:00-17:00; Tue:09:00-17:00; Wed:09:00-17:00; Sun:closed; ,,0
GMW of Hawaii,421755,74-5536  Kaiwi Street Bldg A,,Kailua-Kona,HI,96740,USA,8083220026,19.644119,-156.001720,Mon:07:30-16:30; Tue:07:30-16:30; Wed:07:30-16:30; Thu:07:30-16:30; Fri:07:30-16:30; Sat:closed; Sun:closed; ,,0
KarMART Volkswagen of Maui,421029,411 Huku Lii Pl Ste 104,,Kihei,HI,96753,USA,8084197400,20.7719,-156.4520,Fri:08:00-17:00; Mon:08:00-17:00; Thu:08:00-17:00; Tue:08:00-17:00; Wed:08:00-17:00; Sun:closed; Sat:closed; ,,0
Honolulu Volkswagen,421012,2881 N. Nimitz Highway,,Honolulu,HI,96819,USA,8087973361,21.3347,-157.9030,Fri:09:00-17:00; Mon:09:00-17:00; Sat:09:00-17:00; Sun:09:00-17:00; Thu:09:00-17:00; Tue:09:00-17:00; Wed:09:00-17:00; ,,0
Tony Volkswagen,421026,94-1299 Ka Uka Blvd.,,Waipahu,HI,96797,USA,8779894327,21.4274,-157.9980,Fri:09:00-20:00; Mon:09:00-20:00; Sat:09:00-20:00; Sun:10:00-19:00; Thu:09:00-20:00; Tue:09:00-20:00; Wed:09:00-20:00; ,,0
Hewlett VW Parts Warehouse,425916,200 Commerce Blvd,,Georgetown,TX,78626,USA,5126813500,0,0,,,0
Car Pros VW of San Bernardino,422186,1600 South Camino Real,,San Bernardino,CA,92408,USA,9093808030,0,0,,,0
VW Gallery Parts Warehouse,401935,101 Morgan Drive,,Norwood,MA,02062,USA,7817626820,0,0,,,0
Hawk VW of Joliet Parts Warehouse,402963,1527 Mound Road,,Rockdale,IL,60436,USA,8157411100,0,0,,,0
Brunswick VW Parts Warehouse,403800,2888 Nationwide Pkwy,,Brunswick,OH,44212,USA,3302733300,0,0,,,0
Nye VW of Rome Parts Warehouse,408907,1421 Genesee St.,,Oneida,NY,13421,USA,3153378900,0,0,,,0
