store_name,store_number,address,address2,city,state,zip_code,country,phone_number,latitude,longitude,store_hours,other_fields,coming_soon
COLLEGEVILLE,571,400 FRONT STREET SUITE #3,,COLLEGEVILLE,PA,19426,United States,(484) 961-6012,,,Mon - Thu: 5:00am - 11:00pm; Fri: 5:00am - 10:00pm; Sat - Sun: 7:00am - 7:00pm,,0
TUALATIN,1097,7405 SW NYBERG STREET,,TUALATIN,OR,97062,United States,(503) 404-0126,,,Mon - Thu: 5:00am - Midnight; Fri: 5:00am - 10:00pm; Sat - Sun: 7:00am - 8:00pm,,0
WARWICK - BALD HILL RD.,1070,1500 BALD HILL ROAD,,WARWICK,RI,02886,United States,(401) 773-2933,,,Mon - Thu: 5:00am - 11:00pm; Fri: 5:00am - 10:00pm; Sat - Sun: 8:00am - 8:00pm,,0
DON MILLS (Signature),578,1380 DON MILLS ROAD,,TORONTO,ON,M3B 2X2,Canada,(416) 391-0220,,,Mon - Thu: 5:00am - 11:00pm; Fri: 5:00am - 10:00pm; Sat - Sun: 8:00am - 8:00pm,,0
NORTH BERGEN,793,3137 KENNEDY BOULEVARD,,NORTH BERGEN,NJ,07047,United States,(201) 974-9010,,,Mon - Thu: 5:00am - 11:00pm; Fri: 5:00am - 10:00pm; Sat: 8:00am - 6:00pm; Sun: 8:00am - 5:00pm,,0
MT LAUREL,305,4300 DEARBORN CIRCLE,,MT. LAUREL,NJ,08054,United States,(856) 638-0419,,,Mon - Thu: 5:00am - 11:00pm; Fri: 5:00am - 10:00pm; Sat - Sun: 7:00am - 7:00pm,,0
COLUMBUS-POLARIS PKWY,1005,2100 POLARIS PARKWAY,,COLUMBUS,OH,43240,United States,(614) 430-9210,,,Mon - Thu: 5:00am - 11:00pm; Fri: 5:00am - 9:00pm; Sat: 6:30am - 7:00pm; Sun: 9:00am - 7:00pm,,0
NEW BRIGHTON,499,1101 SILVER LAKE ROAD,,NEW BRIGHTON,MN,55112,United States,(651) 674-3186,,,Mon - Thu: 5:00am - 11:00pm; Fri: 5:00am - 10:00pm; Sat - Sun: 8:00am - 8:00pm,,0
ROCK HILL,1155,745 ARDEN LANE,,ROCK HILL,SC,29732,United States,(803) 818-3368,,,Mon - Thu: 5:00am - 10:00pm; Fri: 5:00am - 9:00pm; Sat - Sun: 8:00am - 7:00pm,,0
GARDEN CITY (Premier Plus),915,711 STEWART AVE,,GARDEN CITY,NY,11530,United States,(516) 214-9691,,,Mon - Thu: 5:00am - 11:00pm; Fri: 5:00am - 10:00pm; Sat - Sun: 8:00am - 8:00pm,,0
MEMPHIS RIDGEWAY RD (Signature),1170,1285 RIDGEWAY ROAD,,MEMPHIS,TN,38119,United States,(901) 291-1114,,,Mon - Thu: 5:00am - 11:00pm; Fri: 5:00am - 10:00pm; Sat - Sun: 8:00am - 8:00pm,,0
DALLAS UPTOWN (Signature),697,2690 N HASKELL AVE,,DALLAS,TX,75204,United States,(214) 530-0005,,,Mon - Thu: 5:00am - 11:00pm; Fri: 5:00am - 10:00pm; Sat - Sun: 8:00am - 8:00pm,,0
WOODBRIDGE,575,13060 WORTH AVENUE,,WOODBRIDGE,VA,22192,United States,(703) 398-1373,,,Mon - Thu: 5:00am - 11:00pm; Fri: 5:00am - 10:00pm; Sat - Sun: 8:00am - 8:00pm,,0
HAZEL DELL,338,7607 NE 5TH AVENUE,,VANCOUVER,WA,98665,United States,(360) 546-3400,,,Mon - Thu: 4:30am - 11:00pm; Fri: 4:30am - 10:00pm; Sat - Sun: 8:00am - 8:00pm,,0
GREENBELT MD,789,7415 GREENBELT ROAD,,GREENBELT,MD,20770,United States,(301) 441-8300,,,Mon - Wed: 5:30am - 10:00pm; Thu - Fri: 5:30am - 9:00pm; Sat - Sun: 8:00am - 6:00pm,,0
HYATTSVILLE,777,2970 BELCREST CENTER DRIVE,,HYATTSVILLE,MD,20782,United States,(301) 559-5031,,,Mon - Thu: 5:30am - 11:00pm; Fri: 5:30am - 10:00pm; Sat - Sun: 8:00am - 8:00pm,,0
CROFTON/GAMBRILLS,433,2625 BRANDERMILL BLVD,,GAMBRILLS,MD,21054,United States,(410) 774-0350,,,Mon - Thu: 5:00am - 11:00pm; Fri: 5:00am - 10:00pm; Sat - Sun: 8:00am - 8:00pm,,0
BOWIE,1059,15401 EMERALD WAY,,BOWIE,MD,20716,United States,(301) 867-6623,,,Mon - Thu: 5:00am - 10:00pm; Fri: 5:00am - 9:00pm; Sat - Sun: 8:00am - 6:00pm,,0
GAITHERSBURG - COPLEY PLACE,968,314 COPLEY PLACE,,GAITHERSBURG,MD,20878,United States,(301) 944-5734,,,Mon - Thu: 4:30am - 10:30pm; Fri: 4:30am - 10:00pm; Sat - Sun: 7:00am - 8:00pm,,0
ROSEVILLE - GRATIOT AVE,1143,31055  GRATIOT AVE,,ROSEVILLE,MI,48066,United States,(586) 298-3030,,,Mon - Thu: 5:00am - 11:00pm; Fri: 5:00am - 10:00pm; Sat - Sun: 8:00am - 8:00pm,,0
PLYMOUTH,1186,41128 ANN ARBOR RD E,,PLYMOUTH,MI,48170,United States,(734) 259-4370,,,Mon - Thu: 5:00am - 11:00pm; Fri: 5:00am - 10:00pm; Sat - Sun: 8:00am - 8:00pm,,0
ASPEN HILL,1180,2219 BEL PRE ROAD,,SILVER SPRING,MD,20906,United States,(301) 348-3650,,,Mon - Thu: 5:00am - 11:00pm; Fri: 5:00am - 10:00pm; Sat - Sun: 8:00am - 8:00pm,,0
GROSSE POINTE WOODS,1047,22327 MOROSS ROAD,,DETROIT,MI,48236,United States,(313) 732-9188,,,Mon - Thu: 5:00am - 11:00pm; Fri: 5:00am - 10:00pm; Sat - Sun: 8:00am - 8:00pm,,0
DEARBORN,758,18900 MICHIGAN AVENUE,,DEARBORN,MI,48126,United States,(313) 583-0034,,,Mon - Fri: 6:00am - 10:00pm; Sat: 8:00am - 9:00pm; Sun: 8:00am - 8:00pm,,0
LIVONIA,471,30273 PLYMOUTH ROAD,,LIVONIA,MI,48150,United States,(734) 956-9914,,,Mon - Thu: 5:00am - Midnight; Fri: 5:00am - 10:00pm; Sat - Sun: 8:00am - 8:00pm,,0
CLINTON TOWNSHIP,1037,17500 HALL ROAD,,CLINTON TOWNSHIP,MI,48038,United States,(586) 913-8587,,,Mon - Thu: 5:00am - 11:00pm; Fri: 5:00am - 10:00pm; Sat - Sun: 8:00am - 8:00pm,,0
ANN ARBOR,754,615 BRIARWOOD CIRCLE,,ANN ARBOR,MI,48108,United States,(734) 769-6600,,,Mon - Thu: 6:00am - 10:00pm; Fri: 6:00am - 9:00pm; Sat - Sun: 7:00am - 6:00pm,,0
ALLEN PARK,537,3223 FAIRLANE DRIVE,,ALLEN PARK,MI,48101,United States,(313) 254-4411,,,Mon - Thu: 5:00am - 11:00pm; Fri: 5:00am - 10:00pm; Sat - Sun: 8:00am - 8:00pm,,0
MINNEAPOLIS UPTOWN,582,3001 HENNEPIN AVE SOUTH SUITE 2210,,MINNEAPOLIS,MN,55408,United States,(612) 392-0395,,,Mon - Thu: 5:00am - 11:00pm; Fri: 5:00am - 10:00pm; Sat - Sun: 8:00am - 8:00pm,,0
MAPLEWOOD,927,1940 COUNTY ROAD D EAST,,MAPLEWOOD,MN,55109,United States,(651) 355-1655,,,Mon - Thu: 5:00am - 11:00pm; Fri: 5:00am - 10:00pm; Sat - Sun: 8:00am - 8:00pm,,0
HOPKINS,516,1710 STATE HIGHWAY 7,,HOPKINS,MN,55343,United States,(612) 246-3692,,,Mon - Thu: 5:00am - 11:00pm; Fri: 5:00am - 10:00pm; Sat - Sun: 8:00am - 8:00pm,,0
EDINA,423,4175 WEST 76TH STREET,,EDINA,MN,55435,United States,(612) 235-4831,,,Mon - Thu: 5:00am - Midnight; Fri: 5:00am - 10:00pm; Sat - Sun: 8:00am - 8:00pm,,0
GAITHERSBURG - QUINCE ORCHARD,682,602 QUINCE ORCHARD RD,,GAITHERSBURG,MD,20878,United States,(301) 987-5421,,,Mon - Thu: 5:00am - 11:00pm; Fri: 5:00am - 10:00pm; Sat - Sun: 8:00am - 8:00pm,,0
LANSDOWNE,730,3551 WASHINGTON BLVD,,LANSDOWNE,MD,21227,United States,(410) 242-2062,,,Mon - Thu: 5:30am - 11:00pm; Fri: 5:30am - 10:00pm; Sat - Sun: 8:00am - 8:00pm,,0
"BROOKLYN CTR- SHINGLE CREEK, MN",1018,1500 SHINGLE CREEK CROSSING,,BROOKLYN CENTER,MN,55430,United States,(763) 567-2037,,,Mon - Thu: 5:00am - 11:00pm; Fri: 5:00am - 10:00pm; Sat - Sun: 8:00am - 8:00pm,,0
BURNSVILLE,527,1801 COUNTY ROAD 42 WEST,,BURNSVILLE,MN,55306,United States,(952) 392-4400,,,Mon - Thu: 5:00am - 11:00pm; Fri: 5:00am - 10:00pm; Sat - Sun: 8:00am - 8:00pm,,0
APPLE VALLEY,398,15135 GALAXIE AVENUE,,APPLE VALLEY,MN,55124,United States,(952) 432-6085,,,Mon - Thu: 5:00am - 11:00pm; Fri: 5:00am - 10:00pm; Sat - Sun: 8:00am - 8:00pm,,0
CHARLOTTE-COPPER WAY,990,12325 COPPER WAY,,CHARLOTTE,NC,28277,United States,(704) 247-9090,,,Mon - Thu: 5:00am - 11:00pm; Fri: 5:00am - 9:00pm; Sat: 8:00am - 7:00pm; Sun: 9:00am - 7:00pm,,0
MARLTON,1162,1051 ROUTE 73 NORTH,,MARLTON,NJ,08053,United States,(856) 452-9003,,,Mon - Thu: 5:00am - 11:00pm; Fri: 5:00am - 10:00pm; Sat - Sun: 8:00am - 8:00pm,,0
BROOKLYN PARK,434,6600 96TH LANE NORTH,,BROOKLYN PARK,MN,55445,United States,(763) 515-7778,,,Mon - Thu: 5:00am - 11:00pm; Fri: 5:00am - 10:00pm; Sat - Sun: 8:00am - 8:00pm,,0
BLOOMFIELD HILLS,458,2050 SOUTH TELEGRAPH RD,,BLOOMFIELD HILLS,MI,48302,United States,(248) 630-2720,,,Mon - Thu: 5:00am - Midnight; Fri: 5:00am - 10:00pm; Sat - Sun: 8:00am - 8:00pm,,0
CLARK,1100,1255 RARITAN RD SUITE 720,,CLARK,NJ,07066,United States,(732) 943-9008,,,Mon - Thu: 5:00am - 11:00pm; Fri: 5:00am - 10:00pm; Sat - Sun: 8:00am - 8:00pm,,0
CHERRY HILL,148,2100 STATE HWY #38,,CHERRY HILL,NJ,08002,United States,(856) 482-8565,,,Mon - Thu: 5:00am - 11:00pm; Fri: 5:00am - 10:00pm; Sat - Sun: 8:00am - 8:00pm,,0
FARMINGVILLE (Premier Plus),1028,2272 NORTH OCEAN AVE,,FARMINGVILLE,NY,11738,United States,(631) 496-3009,,,Mon - Thu: 5:00am - 11:00pm; Fri: 5:00am - 10:00pm; Sat - Sun: 8:00am - 8:00pm,,0
COMMACK (Premier Plus),913,68 VETERANS MEMORIAL HIGHWAY,,COMMACK,NY,11725,United States,(631) 623-5216,,,Mon - Thu: 5:00am - 11:00pm; Fri: 5:00am - 10:00pm; Sat - Sun: 8:00am - 8:00pm,,0
FARMINGDALE (Premier Plus),259,2110 ROUTE #110 BROAD HOLLOW ROAD,,FARMINGDALE,NY,11735,United States,(631) 293-4263,,,Mon - Thu: 4:30am - Midnight; Fri: 4:30am - 11:00pm; Sat - Sun: 7:00am - 8:00pm,,0
CENTEREACH (Premier Plus),686,1934 MIDDLE COUNTRY ROAD,,CENTEREACH,NY,11720,United States,(631) 820-4604,,,Mon - Thu: 5:00am - 11:00pm; Fri: 5:00am - 10:00pm; Sat - Sun: 8:00am - 8:00pm,,0
BUFFALO - ELMWOOD AVE,902,1893 ELMWOOD AVE SUITE 200,,BUFFALO,NY,14207,United States,(716) 541-1092,,,Mon - Thu: 5:00am - 11:00pm; Fri: 5:00am - 10:00pm; Sat - Sun: 8:00am - 8:00pm,,0
BUFFALO - DELAWARE AVE,1113,69 DELAWARE AVENUE,,BUFFALO,NY,14202,United States,(716) 845-6660,,,Mon - Fri: 5:45am - 9:00pm; Sat: 8:00am - 5:00pm; Sun: 8:00am - 2:00pm,,0
CLARENCE,903,5089 TRANSIT ROAD,,BUFFALO,NY,14221,United States,(716) 810-1004,,,Mon - Thu: 5:00am - 11:00pm; Fri: 5:00am - 10:00pm; Sat - Sun: 7:00am - 7:00pm,,0
AMHERST,1074,3040 SHERIDAN DRIVE,,AMHERST,NY,14226,United States,(716) 541-0648,,,Mon - Thu: 5:00am - 11:00pm; Fri: 5:00am - 10:00pm; Sat - Sun: 8:00am - 8:00pm,,0
BRONX - EASTCHESTER RD. (Premier Plus),932,1776 EASTCHESTER ROAD,,BRONX,NY,10461,United States,(917) 634-5609,,,Mon - Thu: 5:00am - 11:00pm; Fri: 5:00am - 10:00pm; Sat - Sun: 8:00am - 8:00pm,,0
COLUMBUS-N HAMILTON RD,1004,5959 NORTH HAMILTON ROAD,,COLUMBUS,OH,43230,United States,(614) 476-4653,,,Mon - Thu: 5:00am - 11:00pm; Fri: 5:00am - 9:00pm; Sat: 6:30am - 7:00pm; Sun: 9:00am - 7:00pm,,0
CLIFTON,615,852 ROUTE 3,,CLIFTON,NJ,07012,United States,(973) 574-4175,,,Mon - Thu: 5:00am - Midnight; Fri: 5:00am - 10:00pm; Sat - Sun: 8:00am - 8:00pm,,0
GLASSBORO,1098,731 DELSEA DRIVE N.,,GLASSBORO,NJ,08028,United States,(856) 556-1071,,,Mon - Thu: 5:00am - 11:00pm; Fri: 5:00am - 10:00pm; Sat - Sun: 8:00am - 8:00pm,,0
COLUMBUS-BRITTON PKWY,999,5750 BRITTON PARKWAY,,COLUMBUS,OH,43016,United States,(614) 339-1343,,,Mon - Thu: 5:00am - 10:00pm; Fri: 5:00am - 9:00pm; Sat: 8:00am - 6:00pm; Sun: 9:00am - 6:00pm,,0
CENTERVILLE,464,45 WEST ALEX BELL ROAD,,CENTERVILLE,OH,45459,United States,(937) 684-8160,,,Mon - Thu: 5:00am - 11:00pm; Fri: 5:00am - 10:00pm; Sat - Sun: 8:00am - 8:00pm,,0
COLUMBUS - EAST BROAD ST.,1086,6585 EAST BROAD STREET,,COLUMBUS,OH,43213,United States,(614) 892-7092,,,Mon - Thu: 5:00am - 11:00pm; Fri: 5:00am - 10:00pm; Sat - Sun: 8:00am - 8:00pm,,0
"BROOKLYN - TIEDEMAN, OH",1131,5000 TIEDEMAN ROAD,,BROOKLYN,OH,44144,United States,(216) 912-1537,,,Mon - Thu: 5:00am - 11:00pm; Fri: 5:00am - 10:00pm; Sat - Sun: 8:00am - 8:00pm,,0
BEAVERCREEK/N FAIRFIELD,532,2500-F NORTH FAIRFIELD RD,,BEAVERCREEK,OH,45431,United States,(937) 912-0063,,,Mon - Thu: 5:00am - 11:00pm; Fri: 5:00am - 10:00pm; Sat - Sun: 8:00am - 8:00pm,,0
BURLINGTON NORTH - APPLEBY LINE (Premier Plus),560,3011 APPLEBY LINE,,BURLINGTON,ON,L7M 0V7,Canada,(905) 319-1771,,,Mon - Thu: 5:00am - 11:00pm; Fri: 5:00am - 10:00pm; Sat - Sun: 8:00am - 8:00pm,,0
BEAVER CREEK @THE GREENE,1007,4494 WALNUT STREET,,BEAVERCREEK,OH,45440,United States,(937) 427-0700,,,Mon - Thu: 5:00am - 11:00pm; Fri: 5:00am - 9:00pm; Sat: 8:00am - 7:00pm; Sun: 9:00am - 7:00pm,,0
COLUMBUS-GRACELAND BLVD,1000,260 GRACELAND BLVD,,COLUMBUS,OH,43212,United States,(614) 310-0770,,,Mon - Thu: 5:00am - 10:00pm; Fri: 5:00am - 9:00pm; Sat: 8:00am - 7:00pm; Sun: 9:00am - 7:00pm,,0
COLUMBUS-GOODALE BLVD,1001,850 GOODALE BLVD,,COLUMBUS,OH,43212,United States,(614) 643-0070,,,Mon - Thu: 5:00am - 11:00pm; Fri: 5:00am - 9:00pm; Sat: 8:00am - 7:00pm; Sun: 9:00am - 7:00pm,,0
BARRIE - LIVE EIGHT WAY (Premier Plus),1052,149 LIVE EIGHT WAY,,BARRIE,ON,L4N 6P1,Canada,(705) 302-2371,,,Mon - Thu: 5:00am - 11:00pm; Fri: 5:00am - 10:00pm; Sat - Sun: 8:00am - 8:00pm,,0
BRAMPTON SOUTH (Premier Plus),461,539 STEELES AVENUE EAST,,BRAMPTON,ON,L6W 4S2,Canada,(905) 452-7800,,,Mon: 5:00am - Midnight; Tue - Fri: 24 Hours Open; Sat - Sun: 7:00am - 8:00pm,,0
PORTLAND - SE82ND,523,4140 SE 82ND AVENUE,,PORTLAND,OR,97266,United States,(503) 345-0782,,,Mon - Thu: 5:00am - Midnight; Fri: 5:00am - 10:00pm; Sat - Sun: 8:00am - 8:00pm,,0
TANASBOURNE/HILLSBORO,284,21970 NW IMBRIE DR,,HILLSBORO,OR,97124,United States,(503) 640-7872,,,Mon - Thu: 5:00am - Midnight; Fri: 5:00am - 9:00pm; Sat - Sun: 8:00am - 8:00pm,,0
PEARL DISTRICT,438,1400 NW NORTHRUP STREET,,PORTLAND,OR,97209,United States,(503) 928-8892,,,Mon - Thu: 5:00am - 11:00pm; Fri: 5:00am - 10:00pm; Sat - Sun: 8:00am - 8:00pm,,0
AURORA - BAYVIEW AVE (Premier Plus),1103,15650 BAYVIEW AVENUE,,AURORA,ON,L4G 6J1,Canada,(289) 648-3973,,,Mon - Thu: 5:00am - 11:00pm; Fri: 5:00am - 10:00pm; Sat - Sun: 8:00am - 8:00pm,,0
GRESHAM,261,779 NW COUNCIL DRIVE,,GRESHAM,OR,97030,United States,(503) 669-8818,,,Mon - Thu: 4:30am - 11:00pm; Fri: 4:30am - 10:00pm; Sat - Sun: 7:00am - 8:00pm,,0
BEAVERTON,324,2800 SW HOCKEN AVE,,BEAVERTON,OR,97005,United States,(503) 627-0737,,,Mon - Thu: 5:00am - 11:00pm; Fri: 5:00am - 9:00pm; Sat - Sun: 8:00am - 8:00pm,,0
CAMP HILL,337,3321 TRINDLE ROAD,,CAMP HILL,PA,17011,United States,(717) 731-1015,,,Mon - Fri: 5:00am - 10:00pm; Sat - Sun: 8:00am - 8:00pm,,0
BROOKHAVEN-EDGMONT AVE,1207,4900 EDGMONT AVE,,BROOKHAVEN,PA,19015,United States,(484) 768-8216,,,Mon - Thu: 5:00am - 11:00pm; Fri: 5:00am - 10:00pm; Sat - Sun: 8:00am - 8:00pm,,0
LLOYD CENTER,556,1270 NE WEIDLER ST,,PORTLAND,OR,97232,United States,(503) 734-2950,,,Mon - Thu: 5:00am - 11:00pm; Fri: 5:00am - 10:00pm; Sat - Sun: 8:00am - 8:00pm,,0
BRIDGEVILLE,442,1155 WASHINGTON PIKE,,BRIDGEVILLE,PA,15017,United States,(412) 569-1180,,,Mon - Thu: 5:00am - Midnight; Fri: 5:00am - 10:00pm; Sat - Sun: 8:00am - 8:00pm,,0
BARRIE - CUNDLES RD. E. (Premier Plus),1178,527 CUNDLES ROAD EAST BUILDING D,,BARRIE,ON,L4M 0J7,Canada,(705) 302-2365,,,Mon - Thu: 5:00am - 11:00pm; Fri: 5:00am - 10:00pm; Sat - Sun: 8:00am - 8:00pm,,0
BENSALEM,114,500 ROCK HILL DRIVE,,BENSALEM,PA,19020,United States,(215) 357-4311,,,Mon - Thu: 5:00am - Midnight; Fri: 5:00am - 10:00pm; Sat - Sun: 7:00am - 8:00pm,,0
"MILWAUKIE, OR",820,4330 SE INTERNATIONAL WAY,,MILWAUKIE,OR,97222,United States,(503) 653-0377,,,Mon - Thu: 5:00am - 10:00pm; Fri: 5:00am - 9:00pm; Sat - Sun: 7:00am - 6:00pm,,0
BRAMPTON NORTH (Premier Plus),555,2959 BOVAIRD DRIVE EAST,,BRAMPTON,ON,L6S 0C6,Canada,(905) 789-6257,,,Mon - Thu: 5:00am - Midnight; Fri: 5:00am - 10:00pm; Sat - Sun: 8:00am - 8:00pm,,0
BRAMPTON NW (Premier Plus),628,225 FLETCHER'S CREEK BLVD,,BRAMPTON,ON,L6X 0Y7,Canada,(905) 454-1991,,,Mon - Thu: 5:00am - 11:00pm; Fri: 5:00am - 10:00pm; Sat - Sun: 8:00am - 8:00pm,,0
ABINGTON,613,371 HIGHLAND AVE,,GLENSIDE,PA,19038,United States,(215) 277-2032,,,Mon - Thu: 5:00am - 11:00pm; Fri: 5:00am - 10:00pm; Sat - Sun: 8:00am - 8:00pm,,0
PAWTUCKET,1149,615 PAWTUCKET AVE,,PAWTUCKET,RI,02860,United States,(401) 834-1397,,,Mon - Thu: 5:00am - 11:00pm; Fri: 5:00am - 10:00pm; Sat - Sun: 8:00am - 8:00pm,,0
CRANSTON,976,190 HILLSIDE RD,,CRANSTON,RI,02920,United States,(401) 854-0330,,,Mon - Thu: 5:00am - 11:00pm; Fri: 5:00am - 10:00pm; Sat - Sun: 8:00am - 8:00pm,,0
LAKELAND - US HWY 64,1107,8864 US HIGHWAY 64,,LAKELAND,TN,38002,United States,(901) 291-1113,,,Mon - Thu: 5:00am - 11:00pm; Fri: 5:00am - 10:00pm; Sat - Sun: 8:00am - 8:00pm,,0
MEMPHIS - POLO GROUNDS BLVD,1108,7630 POLO GROUNDS BLVD,,MEMPHIS,TN,38125,United States,(901) 291-1101,,,Mon - Thu: 5:00am - 11:00pm; Fri: 5:00am - 10:00pm; Sat - Sun: 8:00am - 8:00pm,,0
DALLAS LBJ @ WEBB CHAPEL,543,3029 FOREST LANE,,DALLAS,TX,75234,United States,(972) 499-0720,,,Mon - Thu: 5:00am - 11:00pm; Fri: 5:00am - 10:00pm; Sat - Sun: 8:00am - 5:00pm,,0
ALLENTOWN,202,1515 MAUCH CHUNK ROAD,,ALLENTOWN,PA,18102,United States,(610) 432-7330,,,Mon - Thu: 5:00am - Midnight; Fri: 5:00am - 10:00pm; Sat: 7:00am - 8:00pm; Sun: 8:00am - 8:00pm,,0
AUSTIN - SLAUGHTER LANE,1158,1824 W SLAUGHTER LANE,,AUSTIN,TX,78748,United States,(512) 593-4445,,,Mon - Thu: 5:00am - 11:00pm; Fri: 5:00am - 10:00pm; Sat - Sun: 8:00am - 8:00pm,,0
CYPRESS,327,12304 BARKER CYPRESS ROAD,,CYPRESS,TX,77429,United States,(281) 304-6500,,,Mon - Thu: 5:00am - 11:00pm; Fri: 5:00am - 10:00pm; Sat - Sun: 8:00am - 8:00pm,,0
AUSTIN - S. LAMAR BLVD.,1036,4001 S LAMAR BLVD,,AUSTIN,TX,78704,United States,(512) 652-5779,,,Mon - Thu: 5:00am - 11:00pm; Fri: 5:00am - 10:00pm; Sat - Sun: 8:00am - 8:00pm,,0
AUSTIN - ANDERSON LANE,1035,2020 W ANDERSON LANE,,AUSTIN,TX,78757,United States,(512) 831-3393,,,Mon - Thu: 5:00am - 10:00pm; Fri: 5:00am - 9:00pm; Sat - Sun: 8:00am - 6:00pm,,0
DALLAS - GREENVILLE AVE.,911,"5500 GREENVILLE AVE, SUITE 100",,DALLAS,TX,75206,United States,(214) 530-0966,,,Mon - Thu: 5:00am - 11:00pm; Fri: 5:00am - 10:00pm; Sat - Sun: 8:00am - 8:00pm,,0
ARLINGTON SOUTH - LITTLE RD,319,4850 LITTLE RD,,ARLINGTON,TX,76017,United States,(817) 478-2492,,,Mon - Thu: 5:00am - 11:00pm; Fri: 5:00am - 10:00pm; Sat - Sun: 8:00am - 8:00pm,,0
STERLING VA,343,21074 DULLES TOWN CIRCLE,,STERLING,VA,20166,United States,(703) 444-0302,,,Mon - Thu: 5:00am - 11:00pm; Fri: 5:00am - 9:00pm; Sat - Sun: 8:00am - 6:00pm,,0
"SPRINGFIELD TOWN CENTER, VA",1057,6565 SPRINGFIELD MALL,,SPRINGFIELD,VA,22150,United States,(703) 682-2861,,,Mon - Thu: 5:00am - 11:00pm; Fri: 5:00am - 10:00pm; Sat - Sun: 8:00am - 8:00pm,,0
MANASSAS,1045,9946 LIBERIA AVE,,MANASSAS,VA,20110,United States,(703) 334-0439,,,Mon - Thu: 5:00am - 11:00pm; Fri: 5:00am - 10:00pm; Sat - Sun: 8:00am - 8:00pm,,0
LEESBURG,496,1490 CLASSIC PATH WAY SE,,LEESBURG,VA,20175,United States,(571) 223-5694,,,Mon - Thu: 5:00am - 11:00pm; Fri: 5:00am - 10:00pm; Sat - Sun: 8:00am - 8:00pm,,0
ARLINGTON - CLARK ST,542,3550 S CLARK STREET,,ARLINGTON,VA,22202,United States,(703) 229-1504,,,Mon - Thu: 5:00am - 11:00pm; Fri: 5:00am - 10:00pm; Sat - Sun: 8:00am - 8:00pm,,0
ALEXANDRIA,822,6200 LITTLE RIVER TURNPIKE,,ALEXANDRIA,VA,22312,United States,(703) 637-2204,,,Mon - Thu: 5:00am - 10:00pm; Fri: 5:00am - 9:00pm; Sat: 8:00am - 6:00pm; Sun: 8:00am - 5:00pm,,0
ALEXANDRIA - BEULAH ST,1101,7867 HENESKA LOOP,,ALEXANDRIA,VA,22315,United States,(571) 302-8389,,,Mon - Thu: 5:00am - 11:00pm; Fri: 5:00am - 10:00pm; Sat - Sun: 8:00am - 8:00pm,,0
FEDERAL WAY,325,35009 ENCHANTED PARKWAY SOUTH,,FEDERAL WAY,WA,98003,United States,(253) 838-5900,,,Mon - Thu: 5:00am - Midnight; Fri: 5:00am - 10:00pm; Sat - Sun: 8:00am - 8:00pm,,0
COVINGTON,388,27245 172ND AVENUE SE,,COVINGTON,WA,98042,United States,(253) 458-0960,,,Mon - Thu: 5:00am - Midnight; Fri: 5:00am - 10:00pm; Sat - Sun: 8:00am - 8:00pm,,0
BURIEN,1048,14905 4TH AVE. SW,,BURIEN,WA,98166,United States,(206) 701-3446,,,Mon - Thu: 5:00am - 11:00pm; Fri: 5:00am - 10:00pm; Sat - Sun: 8:00am - 8:00pm,,0
CARROLLTON,430,4220 MIDWAY ROAD,,CARROLLTON,TX,75007,United States,(214) 483-1834,,,Mon - Thu: 5:00am - 11:00pm; Fri: 5:00am - 10:00pm; Sat - Sun: 8:00am - 8:00pm,,0
EVERETT,397,"1402 SE. EVERETT MALL WAY, STE 138",,EVERETT,WA,98208,United States,(425) 290-9351,,,Mon - Thu: 5:00am - 11:00pm; Fri: 5:00am - 10:00pm; Sat - Sun: 8:00am - 8:00pm,,0
AUBURN,1118,1101 OUTLET COLLECTION WAY STE 1269,,AUBURN,WA,98001,United States,(253) 333-7771,,,Mon - Thu: 5:00am - 11:00pm; Fri: 5:00am - 9:00pm; Sat - Sun: 7:00am - 7:00pm,,0
BALLARD (Signature),455,1416 NW BALLARD WAY,,SEATTLE,WA,98107,United States,(206) 508-5030,,,Mon - Thu: 5:00am - 11:00pm; Fri: 5:00am - 10:00pm; Sat - Sun: 8:00am - 8:00pm,,0
BELLEVUE/KELSEY CREEK,685,15053 MAIN STREET,,BELLEVUE,WA,98007,United States,(425) 698-2575,,,Mon - Thu: 5:00am - 11:00pm; Fri: 5:00am - 10:00pm; Sat - Sun: 8:00am - 8:00pm,,0
BELLEVUE - 106TH AVE,314,550 106TH AVENUE NE  SUITE 215,,BELLEVUE,WA,98004,United States,(425) 688-8700,,,Mon - Thu: 5:00am - Midnight; Fri: 5:00am - 10:00pm; Sat - Sun: 8:00am - 8:00pm,,0
NATICK,1148,1 DEAN ROAD (SHERWOOD PLAZA),,NATICK,MA,01760,United States,(508) 318-4073,,,Mon - Thu: 5:00am - 11:00pm; Fri: 5:00am - 10:00pm; Sat - Sun: 8:00am - 8:00pm,,0
SLIDELL,1142,390 TOWN CENTER PARKWAY,,SLIDELL,LA,70458,United States,(985) 718-3095,,,Mon - Thu: 5:00am - 10:00pm; Fri: 5:00am - 9:00pm; Sat - Sun: 8:00am - 6:00pm,,0
NOBLESVILLE - MERCANTILE BLVD.,1038,16640 MERCANTILE BLVD,,NOBLESVILLE,IN,46060,United States,(317) 774-0900,,,Mon - Thu: 5:00am - 11:00pm; Fri: 5:00am - 10:00pm; Sat - Sun: 8:00am - 8:00pm,,0
BRADENTON - CORTEZ RD. WEST,1136,1005 CORTEZ ROAD WEST,,BRADENTON,FL,34207,United States,(941) 251-8148,,,Mon - Thu: 5:00am - 10:00pm; Fri: 5:00am - 9:00pm; Sat - Sun: 8:00am - 7:00pm,,0
WASHINGTON DC - CONNECTICUT AVE,1138,1101 CONNECTICUT AVE NW,,WASHINGTON,DC,20036,United States,(202) 331-7788,,,Mon - Fri: 5:00am - 9:00pm; Sat - Sun: 7:00am - 6:00pm,,0
BOYNTON BEACH,255,2290 N. CONGRESS AVENUE,,BOYNTON BEACH,FL,33426,United States,(561) 364-5766,,,Mon - Thu: 5:00am - 11:00pm; Fri: 5:00am - 10:00pm; Sat - Sun: 8:00am - 8:00pm,,0
STRATFORD,1084,411 BARNUM AVE CUT-OFF,,STRATFORD,CT,06614,United States,(203) 212-5491,,,Mon - Thu: 5:00am - 11:00pm; Fri: 5:00am - 10:00pm; Sat - Sun: 8:00am - 8:00pm,,0
CHICAGO - ROGERS PARK,739,7529 NORTH CLARK STREET,,CHICAGO,IL,60626,United States,(773) 274-1686,,,Mon - Fri: 5:30am - 10:00pm; Sat - Sun: 8:00am - 6:00pm,,0
CERRITOS - ALONDRA BLVD,6,10802 ALONDRA BLVD.,,CERRITOS,CA,90703,United States,(562) 924-8737,,,Mon - Thu: 5:00am - Midnight; Fri: 5:00am - 9:00pm; Sat - Sun: 8:00am - 8:00pm,,0
SOUTHPORT,392,3855 E. SOUTHPORT RD,,INDIANAPOLIS,IN,46237,United States,(317) 644-0683,,,Mon - Thu: 5:00am - Midnight; Fri: 5:00am - 10:00pm; Sat - Sun: 8:00am - 8:00pm,,0
BATON ROUGE - SIEGEN LN,1156,6474 SIEGEN LN,,BATON ROUGE,LA,70809,United States,(225) 663-4191,,,Mon - Thu: 5:00am - 11:00pm; Fri: 5:00am - 10:00pm; Sat - Sun: 8:00am - 8:00pm,,0
BLOCK @ ORANGE,39,3901 W. METROPOLITAN DR.,,ORANGE,CA,92868,United States,(714) 769-8000,,,Mon - Thu: 4:00am - 11:30pm; Fri: 4:00am - 10:00pm; Sat - Sun: 7:00am - 7:00pm,,0
ARCADIA,370,1325 SOUTH BALDWIN AVENUE,,ARCADIA,CA,91007,United States,(626) 400-5001,,,Mon - Thu: 5:00am - Midnight; Fri: 5:00am - 10:00pm; Sat - Sun: 8:00am - 8:00pm,,0
BEVERLY HILLS - WILSHIRE BLVD. (Signature),904,9100 WILSHIRE BLVD STE 100E,,BEVERLY HILLS,CA,90212,United States,(310) 734-0942,,,Mon - Thu: 5:00am - 11:00pm; Fri: 5:00am - 10:00pm; Sat - Sun: 8:00am - 8:00pm,,0
ANAHEIM HILLS,4,5757 SANTA ANA CANYON RD.,,ANAHEIM HILLS,CA,92807,United States,(714) 282-3931,,,Mon - Thu: 4:30am - Midnight; Fri: 4:30am - 10:00pm; Sat - Sun: 7:00am - 8:00pm,,0
ALHAMBRA,2,412 EAST MAIN STREET,,ALHAMBRA,CA,91801,United States,(626) 299-5980,,,Mon - Thu: 5:00am - Midnight; Fri: 5:00am - 10:00pm; Sat - Sun: 7:00am - 9:00pm,,0
BOTHELL - 220TH ST SE,1123,1629 220TH ST SE,,BOTHELL,WA,98021,United States,(425) 483-3330,,,Mon - Thu: 5:00am - 11:00pm; Fri: 5:00am - 9:00pm; Sat: 7:00am - 7:00pm; Sun: 8:00am - 6:00pm,,0
BALDWIN PARK - E GARVEY AVE (Presale),1135,,,,,,United States,(626) 521-5293,,,,,0
CHICAGO - LAKEVIEW EAST,722,2828 NORTH CLARK STREET,,CHICAGO,IL,60657,United States,(773) 929-6900,,,Mon - Fri: 5:30am - 11:00pm; Sat - Sun: 8:00am - 8:00pm,,0
CHICAGO - LAWRENCE AVE.,917,1804 WEST LAWRENCE AVE,,CHICAGO,IL,60640,United States,(773) 250-0298,,,Mon - Thu: 5:00am - 11:00pm; Fri: 5:00am - 10:00pm; Sat - Sun: 8:00am - 8:00pm,,0
ALHAMBRA/FREMONT,379,920 SOUTH FREMONT AVE,,ALHAMBRA,CA,91803,United States,(626) 310-3030,,,Mon - Thu: 5:00am - Midnight; Fri: 5:00am - 10:00pm; Sat - Sun: 8:00am - 8:00pm,,0
BOLINGBROOK,414,506 JANES AVENUE,,BOLINGBROOK,IL,60440,United States,(630) 739-7011,,,Mon - Thu: 5:00am - Midnight; Fri: 5:00am - 10:00pm; Sat - Sun: 8:00am - 8:00pm,,0
GILBERT - S. GILBERT RD.,357,3625 S GILBERT RD,,GILBERT,AZ,85297,United States,(480) 845-6594,,,Mon - Thu: 5:00am - 11:00pm; Fri: 5:00am - 10:00pm; Sat - Sun: 8:00am - 8:00pm,,0
DESERT SKY,50,7640 W. THOMAS ROAD,,PHOENIX,AZ,85033,United States,(623) 845-9920,,,Mon - Thu: 5:00am - 10:00pm; Fri: 5:00am - 9:00pm; Sat - Sun: 8:00am - 7:00pm,,0
BLOOMINGTON,1034,2103 NORTH VETERANS PARKWAY,,BLOOMINGTON,IL,61704,United States,(309) 319-9040,,,Mon - Thu: 5:00am - 11:00pm; Fri: 5:00am - 10:00pm; Sat - Sun: 8:00am - 8:00pm,,0
BROADVIEW,601,200 BROADVIEW VILLAGE SQUARE,,BROADVIEW,IL,60155,United States,(708) 273-6977,,,Mon - Thu: 5:00am - 11:00pm; Fri: 5:00am - 10:00pm; Sat - Sun: 8:00am - 8:00pm,,0
LEXINGTON-WELLINGTON WAY,980,1028 WELLINGTON WAY,,LEXINGTON,KY,40513,United States,(859) 219-9558,,,Mon - Thu: 5:00am - 10:00pm; Fri: 5:00am - 9:00pm; Sat: 7:00am - 7:00pm; Sun: 9:00am - 7:00pm,,0
LEXINGTON-BLAKE JAMES DR,981,3001 BLAKE JAMES DR,,LEXINGTON,KY,40509,United States,(859) 269-2492,,,Mon - Thu: 5:00am - 11:00pm; Fri: 5:00am - 9:00pm; Sat: 7:00am - 7:00pm; Sun: 9:00am - 7:00pm,,0
CHICAGO - KEDZIE AVE,1062,5559 S KEDZIE AVE,,CHICAGO,IL,60629,United States,(312) 288-3048,,,Mon - Thu: 5:00am - 11:00pm; Fri: 5:00am - 10:00pm; Sat - Sun: 8:00am - 8:00pm,,0
FLORENCE-MEIJER DR,988,430 MEIJER DRIVE,,FLORENCE,KY,41042,United States,(859) 746-9201,,,Mon - Thu: 5:00am - 11:00pm; Fri: 5:00am - 9:00pm; Sat: 8:00am - 7:00pm; Sun: 9:00am - 7:00pm,,0
LOUISVILLE-SHELBYVILLE RD,984,4900 SHELBYVILLE ROAD,,LOUISVILLE,KY,40207,United States,(502) 894-9911,,,Mon - Thu: 5:00am - 11:00pm; Fri: 5:00am - 9:00pm; Sat: 7:00am - 7:00pm; Sun: 9:00am - 7:00pm,,0
CRESCENT SPRINGS,540,550 CLOCK TOWER WAY,,CRESCENT SPRINGS,KY,41017,United States,(859) 663-2920,,,Mon - Thu: 5:00am - 11:00pm; Fri: 5:00am - 10:00pm; Sat - Sun: 8:00am - 7:00pm,,0
CHANDLER - ARIZONA AVE,1042,3985 S ARIZONA AVE,,CHANDLER,AZ,85248,United States,(480) 426-7819,,,Mon - Thu: 5:00am - 11:00pm; Fri: 5:00am - 10:00pm; Sat - Sun: 8:00am - 8:00pm,,0
BELLEVUE-FAIRFIELD AVE,986,119 FAIRFIELD AVE STE 200,,BELLEVUE,KY,41073,United States,(859) 957-2700,,,Mon - Thu: 5:00am - 11:00pm; Fri: 5:00am - 9:00pm; Sat: 8:00am - 7:00pm; Sun: 9:00am - 7:00pm,,0
LOUISVILLE-TAYLORSVILLE RD,985,4620 TAYLORSVILLE ROAD,,LOUISVILLE,KY,40220,United States,(502) 671-8233,,,Mon - Thu: 5:00am - 11:00pm; Fri: 5:00am - 9:00pm; Sat: 7:00am - 7:00pm; Sun: 9:00am - 7:00pm,,0
CHANDLER,145,2100 N. DOBSON ROAD,,CHANDLER,AZ,85224,United States,(480) 782-7560,,,Mon - Thu: 4:00am - Midnight; Fri: 4:00am - 10:00pm; Sat - Sun: 7:00am - 8:00pm,,0
CHICAGO - NORWOOD PARK,762,5444 N CUMBERLAND AVE,,CHICAGO,IL,60656,United States,(773) 380-8600,,,Mon - Thu: 5:30am - 11:00pm; Fri: 5:30am - 10:00pm; Sat - Sun: 8:00am - 8:00pm,,0
4S RANCH,322,16913 DOVE CANYON RD,,SAN DIEGO,CA,92127,United States,(858) 676-6806,,,Mon - Thu: 5:00am - 11:00pm; Fri: 5:00am - 9:00pm; Sat - Sun: 8:00am - 8:00pm,,0
CAMELBACK @ I-51,232,2077 EAST CAMELBACK ROAD,,PHOENIX,AZ,85016,United States,(602) 241-9800,,,Mon - Thu: 5:00am - Midnight; Fri: 5:00am - 10:00pm; Sat - Sun: 7:00am - 8:00pm,,0
ARLINGTON HEIGHTS - PALATINE RD,1212,345 EAST PALATINE ROAD,,ARLINGTON HEIGHTS,IL,60004,United States,(224) 318-1447,,,Mon - Thu: 5:00am - 11:00pm; Fri: 5:00am - 10:00pm; Sat - Sun: 8:00am - 8:00pm,,0
AHWATUKEE,1,7810 S. PRIEST DRIVE SUITE D,,TEMPE,AZ,85284,United States,(480) 496-8805,,,Mon - Thu: 4:30am - 10:00pm; Fri: 4:30am - 9:00pm; Sat - Sun: 7:00am - 8:00pm,,0
AHWATUKEE WEST,152,4836 E. CHANDLER BLVD,,PHOENIX,AZ,85048,United States,(480) 592-9090,,,Mon - Thu: 4:00am - Midnight; Fri: 4:00am - 10:00pm; Sat - Sun: 6:00am - 8:00pm,,0
ARROWHEAD,5,5536 W. BELL ROAD,,GLENDALE,AZ,85308,United States,(602) 547-9425,,,Mon - Thu: 4:00am - 11:00pm; Fri: 4:00am - 10:00pm; Sat - Sun: 7:00am - 8:00pm,,0
CHATSWORTH,791,9143 DE SOTO AVENUE,,CHATSWORTH,CA,91311,United States,(818) 882-5912,,,Mon - Thu: 5:00am - 11:00pm; Fri: 5:00am - 10:00pm; Sat - Sun: 8:00am - 8:00pm,,0
ALSIP,419,12080 S. CICERO AVENUE,,ALSIP,IL,60803,United States,(708) 377-3589,,,Mon - Thu: 5:00am - Midnight; Fri: 5:00am - 10:00pm; Sat - Sun: 8:00am - 8:00pm,,0
BROOKHAVEN,607,755 BROOKHAVEN AVE,,ATLANTA,GA,30319,United States,(678) 280-8844,,,Mon - Thu: 5:00am - 11:00pm; Fri: 5:00am - 10:00pm; Sat - Sun: 8:00am - 8:00pm,,0
ATLANTIC STATION,384,261 19TH ST. SUITE 1140,,ATLANTA,GA,30363,United States,(404) 810-9015,,,Mon - Thu: 5:00am - 11:00pm; Fri: 5:00am - 10:00pm; Sat - Sun: 8:00am - 8:00pm,,0
ATLANTA-PEACHTREE RD,978,3535 PEACHTREE ROAD NE SUITE 300,,ATLANTA,GA,30326,United States,(404) 389-1143,,,Mon - Thu: 5:00am - 11:00pm; Fri: 5:00am - 9:00pm; Sat: 8:00am - 7:00pm; Sun: 9:00am - 7:00pm,,0
ALPHARETTA/WINDWARD,291,"5530 WINDWARD PARKWAY, SUITE H",,ALPHARETTA,GA,30004,United States,(678) 393-2733,,,Mon - Fri: 5:00am - 10:00pm; Sat - Sun: 8:00am - 8:00pm,,0
AKERS MILL,269,2995 COBB PARKWAY,,ATLANTA,GA,30339,United States,(770) 956-9093,,,Mon - Thu: 5:00am - 11:00pm; Fri: 5:00am - 10:00pm; Sat - Sun: 8:00am - 8:00pm,,0
STAMFORD,262,52 SIXTH STREET,,STAMFORD,CT,06905,United States,(203) 353-8810,,,Mon - Thu: 5:00am - 11:00pm; Fri: 5:00am - 10:00pm; Sat - Sun: 8:00am - 8:00pm,,0
SOUTH WINDSOR,318,100 CEDAR AVE,,SOUTH WINDSOR,CT,06074,United States,(860) 644-5552,,,Mon - Thu: 5:00am - 11:00pm; Fri: 5:00am - 10:00pm; Sat - Sun: 8:00am - 8:00pm,,0
"ORANGE, CT",249,96 BOSTON POST RD,,ORANGE,CT,06477,United States,(203) 795-3050,,,Mon - Thu: 5:00am - 10:00pm; Fri: 5:00am - 9:00pm; Sat - Sun: 8:00am - 6:00pm,,0
"NORWALK, CT",428,761 MAIN AVE,,NORWALK,CT,06851,United States,(203) 842-0012,,,Mon - Thu: 5:00am - 11:00pm; Fri: 5:00am - 10:00pm; Sat - Sun: 8:00am - 8:00pm,,0
MILFORD,707,1201 BOSTON POST ROAD SPACE 2090,,MILFORD,CT,06460,United States,(203) 701-4827,,,Mon - Thu: 5:00am - 10:00pm; Fri: 5:00am - 9:00pm; Sat - Sun: 8:00am - 5:00pm,,0
HAMDEN,336,46 SKIFF STREET,,HAMDEN,CT,06517,United States,(203) 287-9989,,,Mon - Thu: 5:00am - 11:00pm; Fri: 5:00am - 10:00pm; Sat - Sun: 8:00am - 5:00pm,,0
FARMINGTON,1014,1600  SOUTHEAST ROAD,,FARMINGTON,CT,06032,United States,(860) 321-2062,,,Mon - Thu: 5:00am - 11:00pm; Fri: 5:00am - 10:00pm; Sat - Sun: 8:00am - 8:00pm,,0
NEWINGTON,466,3563 BERLIN TURNPIKE,,NEWINGTON,CT,06111,United States,(860) 838-4239,,,Mon - Thu: 5:00am - 11:00pm; Fri: 5:00am - 10:00pm; Sat - Sun: 8:00am - 8:00pm,,0
BONITA SPRINGS,403,"8951 BONITA BEACH RD SE, STE. 560",,BONITA SPRINGS,FL,34135,United States,(239) 494-6297,,,Mon - Thu: 5:00am - 10:00pm; Fri: 5:00am - 9:00pm; Sat - Sun: 8:00am - 7:00pm,,0
BOCA RATON WEST - STATE RD. 2PS (Presale),1239,,,,,,United States,(561) 482-1146,,,,,0
BOCA RATON WEST - STATE RD,150,20443 STATE RD 7 (BAY BB1),,BOCA RATON,FL,33498,United States,(561) 482-1146,,,Mon - Thu: 5:00am - 11:00pm; Fri: 5:00am - 10:00pm; Sat - Sun: 8:00am - 8:00pm,,0
BOCA RATON EAST-TECHNOLOGY WAY,356,4950 TECHNOLOGY WAY,,BOCA RATON,FL,33431,United States,(561) 206-3034,,,Mon - Thu: 5:00am - 11:00pm; Fri: 5:00am - 10:00pm; Sat - Sun: 8:00am - 8:00pm,,0
ATLANTIC BEACH,692,985 ATLANTIC BLVD,,ATLANTIC BEACH,FL,32233,United States,(904) 853-2210,,,Mon - Thu: 5:00am - 11:00pm; Fri: 5:00am - 10:00pm; Sat - Sun: 8:00am - 8:00pm,,0
ATLANTIC @ KERNAN,680,11901 ATLANTIC BLVD STE 800,,JACKSONVILLE,FL,32225,United States,(904) 596-0080,,,Mon - Thu: 5:00am - 11:00pm; Fri: 5:00am - 10:00pm; Sat - Sun: 8:00am - 8:00pm,,0
ANSLEY MALL,153,1544 PIEDMONT AVE NE SUITE 115,,ATLANTA,GA,30324,United States,(404) 249-6463,,,Mon - Thu: 5:00am - 11:00pm; Fri: 5:00am - 9:00pm; Sat - Sun: 8:00am - 8:00pm,,0
BRISTOL,424,1379 FARMINGTON AVE,,BRISTOL,CT,06010,United States,(860) 516-4200,,,Mon - Thu: 5:00am - 11:00pm; Fri: 5:00am - 10:00pm; Sat - Sun: 8:00am - 8:00pm,,0
ALTAMONTE SPRINGS @ MONTGOMERY,399,1074 MONTGOMERY ROAD,,ALTAMONTE SPRINGS,FL,32714,United States,(407) 304-8020,,,Mon - Thu: 5:00am - 11:00pm; Fri: 5:00am - 10:00pm; Sat - Sun: 8:00am - 8:00pm,,0
INDIANAPOLIS - E. WASHINGTON ST,1053,9529 EAST WASHINGTON STREET,,INDIANAPOLIS,IN,46229,United States,(317) 829-0022,,,Mon - Thu: 5:00am - 10:00pm; Fri: 5:00am - 9:00pm; Sat - Sun: 8:00am - 8:00pm,,0
AUSTELL - AUSTELL RD,1102,"3999 AUSTELL ROAD, SUITE 101",,AUSTELL,GA,30106,United States,(678) 224-9091,,,Mon - Thu: 5:00am - 11:00pm; Fri: 5:00am - 10:00pm; Sat - Sun: 8:00am - 8:00pm,,0
APOPKA,935,3030 E. SEMORAN BLVD.,,APOPKA,FL,32703,United States,(407) 772-4660,,,Mon - Tue: 5:00am - 11:00pm; Wed - Fri: 5:00am - 10:00pm; Sat - Sun: 8:00am - 8:00pm,,0
CARMEL WEST/ZIONSVILLE,515,10574 WORKOUT WAY,,CARMEL,IN,46032,United States,(317) 708-3862,,,Mon - Thu: 5:00am - 11:00pm; Fri: 5:00am - 10:00pm; Sat - Sun: 8:00am - 8:00pm,,0
AVON,472,9030 ROCKVILLE ROAD,,INDIANAPOLIS,IN,46234,United States,(317) 644-0200,,,Mon - Thu: 5:00am - 11:00pm; Fri: 5:00am - 10:00pm; Sat - Sun: 8:00am - 8:00pm,,0
BATON ROUGE - PERKINS ROWE,1132,10000 PERKINS ROWE,,BATON ROUGE,LA,70810,United States,(225) 663-7969,,,Mon - Thu: 5:00am - 10:00pm; Fri: 5:00am - 9:00pm; Sat - Sun: 8:00am - 6:00pm,,0
FISHERS,501,11752 CUMBERLAND ROAD,,FISHERS,IN,46037,United States,(317) 436-0013,,,Mon - Thu: 5:00am - 11:00pm; Fri: 5:00am - 10:00pm; Sat - Sun: 8:00am - 8:00pm,,0
WALPOLE,518,20 PROVIDENCE HIGHWAY,,WALPOLE,MA,02032,United States,(508) 505-3020,,,Mon - Thu: 5:00am - 11:00pm; Fri: 5:00am - 10:00pm; Sat - Sun: 7:00am - 7:00pm,,0
STOUGHTON,654,3 HAWES WAY,,STOUGHTON,MA,02072,United States,(781) 573-0172,,,Mon - Thu: 5:00am - 11:00pm; Fri: 5:00am - 10:00pm; Sat - Sun: 7:00am - 7:00pm,,0
SAUGUS,488,1450 BROADWAY,,SAUGUS,MA,01906,United States,(781) 417-5050,,,Mon - Thu: 5:00am - 11:00pm; Fri: 5:00am - 10:00pm; Sat - Sun: 8:00am - 8:00pm,,0
"SPRINGFIELD, MA",427,"1150 WEST COLUMBUS AVENUE, UNIT 1",,SPRINGFIELD,MA,01105,United States,(413) 301-1015,,,Mon - Thu: 5:00am - 11:00pm; Fri: 5:00am - 10:00pm; Sat - Sun: 8:00am - 8:00pm,,0
AVONDALE,300,13035 W. RANCHO SANTA FE BLVD.,,AVONDALE,AZ,85392,United States,(623) 535-8700,,,Mon - Thu: 5:00am - 10:00pm; Fri: 5:00am - 9:00pm; Sat - Sun: 8:00am - 7:00pm,,0
CAMP CREEK,316,"3755 CARMIA DR. SW, SUITE 700",,ATLANTA,GA,30331,United States,(404) 344-1248,,,Mon - Thu: 5:00am - Midnight; Fri: 5:00am - 10:00pm; Sat - Sun: 8:00am - 8:00pm,,0
STONEHAM,552,121 MAIN STREET,,STONEHAM,MA,02180,United States,(781) 435-5999,,,Mon - Thu: 5:00am - 11:00pm; Fri: 5:00am - 10:00pm; Sat - Sun: 8:00am - 8:00pm,,0
CASA GRANDE,514,2024 E. FLORENCE BLVD.,,CASA GRANDE,AZ,85122,United States,(520) 413-2068,,,Mon - Thu: 5:00am - 10:00pm; Fri: 5:00am - 9:00pm; Sat - Sun: 8:00am - 6:00pm,,0
COLLEGE PARK,602,6385 OLD NATIONAL HIGHWAY,,ATLANTA,GA,30349,United States,(678) 304-2444,,,Mon - Thu: 5:00am - 11:00pm; Fri: 5:00am - 10:00pm; Sat - Sun: 8:00am - 8:00pm,,0
GREENWOOD,404,540 N. STATE ROAD 135,,GREENWOOD,IN,46142,United States,(317) 215-5947,,,Mon - Thu: 5:00am - 11:00pm; Fri: 5:00am - 9:00pm; Sat - Sun: 8:00am - 8:00pm,,0
ANDORRA,238,701 CATHEDRAL ROAD,,PHILADELPHIA,PA,19128,United States,(215) 482-4088,,,Mon - Thu: 5:00am - Midnight; Fri: 5:00am - 10:00pm; Sat - Sun: 8:00am - 8:00pm,,0
BETHEL PARK,830,3000 OXFORD DRIVE,,BETHEL PARK,PA,15102,United States,(412) 833-7200,,,Mon - Thu: 5:30am - 11:00pm; Fri: 5:30am - 10:00pm; Sat - Sun: 8:00am - 8:00pm,,0
N. LITTLE ROCK-LAKEWOOD VILLAGE,1094,2939 LAKEWOOD VILLAGE DR,,N. LITTLE ROCK,AR,72116,United States,(501) 708-0878,,,Mon - Thu: 5:00am - 10:00pm; Fri: 5:00am - 9:00pm; Sat - Sun: 8:00am - 6:00pm,,0
LITTLE ROCK - S. UNIVERSITY AVE,1039,304 S UNIVERSITY AVE,,LITTLE ROCK,AR,72205,United States,(501) 707-3561,,,Mon - Thu: 5:00am - 10:00pm; Fri: 5:00am - 9:00pm; Sat - Sun: 8:00am - 6:00pm,,0
BALA CYNWYD,243,25 EAST CITY AVENUE,,BALA CYNWYD,PA,19004,United States,(610) 664-4282,,,Mon - Thu: 5:00am - Midnight; Fri: 5:00am - 10:00pm; Sat: 7:00am - 8:00pm; Sun: 8:00am - 8:00pm,,0
LITTLE ROCK - CHENAL PKWY,1072,11700 CHENAL PARKWAY,,LITTLE ROCK,AR,72211,United States,(501) 707-1121,,,Mon - Thu: 5:00am - 10:00pm; Fri: 5:00am - 9:00pm; Sat - Sun: 8:00am - 6:00pm,,0
EDMONTON - CALGARY TRAIL NW (Premier Plus),1089,4223 CALGARY TRAIL,,EDMONTON,AB,T6J 7K1,Canada,(780) 666-4149,,,Mon - Thu: 5:00am - 11:00pm; Fri: 5:00am - 10:00pm; Sat - Sun: 8:00am - 8:00pm,,0
EDMONTON - 186TH ST. NW (Premier Plus),1078,10167 186TH ST NW,,EDMONTON,AB,T5S 0G5,Canada,(780) 666-4150,,,Mon - Thu: 5:00am - 11:00pm; Fri: 5:00am - 10:00pm; Sat - Sun: 8:00am - 8:00pm,,0
BURLINGTON - BRANT ST. (Premier Plus),1092,1326 BRANT ST,,BURLINGTON,ON,L7P 1X8,Canada,(289) 812-0617,,,Mon - Thu: 5:00am - 11:00pm; Fri: 5:00am - 10:00pm; Sat - Sun: 8:00am - 8:00pm,,0
EDMONTON - 167TH AVE. NW (Premier Plus),1109,12410 167 AVENUE NW,,EDMONTON,AB,T6V 1B1,Canada,(780) 666-4155,,,Mon - Thu: 5:00am - 11:00pm; Fri: 5:00am - 10:00pm; Sat - Sun: 8:00am - 8:00pm,,0
KEARNY,1163,175 PASSAIC AVE,,KEARNY,NJ,07032,United States,(201) 283-9703,,,Mon - Thu: 5:00am - 11:00pm; Fri: 5:00am - 10:00pm; Sat - Sun: 8:00am - 8:00pm,,0
BLAINE,519,100 NORTHTOWN DRIVE NE,,BLAINE,MN,55434,United States,(763) 392-1800,,,Mon - Thu: 5:00am - 11:00pm; Fri: 5:00am - 10:00pm; Sat - Sun: 8:00am - 8:00pm,,0
LAUREL,665,327 MONTROSE AVE,,LAUREL,MD,20707,United States,(240) 294-5867,,,Mon - Thu: 5:00am - 11:00pm; Fri: 5:00am - 10:00pm; Sat - Sun: 8:00am - 8:00pm,,0
MARLBORO,1054,50 WATKINS PARK DRIVE,,UPPER MARLBORO,MD,20774,United States,(301) 909-7669,,,Mon - Thu: 5:00am - 11:00pm; Fri: 5:00am - 10:00pm; Sat - Sun: 8:00am - 8:00pm,,0
WINSTON-SALEM STRATFORD RD,1128,240 HARVEY STREET,,WINSTON-SALEM,NC,27103,United States,(336) 934-8520,,,Mon - Thu: 5:00am - 11:00pm; Fri: 5:00am - 10:00pm; Sat - Sun: 8:00am - 8:00pm,,0
LAWRENCE,593,9930 PENDLETON PIKE,,INDIANAPOLIS,IN,46236,United States,(317) 855-9012,,,Mon - Thu: 5:00am - 11:00pm; Fri: 5:00am - 10:00pm; Sat - Sun: 8:00am - 8:00pm,,0
ROYAL OAK (Signature),494,25352 WOODWARD AVE,,ROYAL OAK,MI,48067,United States,(248) 565-2750,,,Mon - Thu: 5:00am - Midnight; Fri: 5:00am - 10:00pm; Sat - Sun: 8:00am - 8:00pm,,0
INDIANAPOLIS - SHORE DRIVE,921,4015 SHORE DRIVE,,INDIANAPOLIS,IN,46254,United States,(317) 238-3163,,,Mon - Thu: 5:00am - 11:00pm; Fri: 5:00am - 10:00pm; Sat - Sun: 8:00am - 8:00pm,,0
HOLMDEL,321,2101 ROUTE 35,,HOLMDEL,NJ,07733,United States,(732) 757-0051,,,Mon - Thu: 5:00am - 11:00pm; Fri: 5:00am - 10:00pm; Sat - Sun: 7:00am - 7:00pm,,0
INDIANAPOLIS/GLENDALE,378,6160 N. KEYSTONE AVENUE,,INDIANAPOLIS,IN,46220,United States,(317) 254-8977,,,Mon - Thu: 5:00am - 11:00pm; Fri: 5:00am - 9:00pm; Sat - Sun: 8:00am - 8:00pm,,0
EAST BRUNSWICK - STATE ROUTE 18,622,341 STATE ROUTE 18,,EAST BRUNSWICK,NJ,08816,United States,(732) 353-3081,,,Mon - Thu: 5:00am - 11:00pm; Fri: 5:00am - 10:00pm; Sat - Sun: 8:00am - 8:00pm,,0
CAMBRIDGE (Premier Plus),1099,90 PINEBUSH RD,,CAMBRIDGE,ON,N1R 8J8,Canada,(226) 533-9674,,,Mon - Thu: 5:00am - 11:00pm; Fri: 5:00am - 10:00pm; Sat - Sun: 8:00am - 8:00pm,,0
CORDOVA (Presale),1233,,,,,,United States,(901) 203-3362,,,,,0
ARLINGTON NORTH - I30 & COLLINS,349,141 ROAD TO SIX FLAGS ST. W,,ARLINGTON,TX,76011,United States,(817) 469-1384,,,Mon - Thu: 5:00am - 11:00pm; Fri: 5:00am - 10:00pm; Sat - Sun: 8:00am - 8:00pm,,0
BUFORD,393,3420 BUFORD DRIVE NE,,BUFORD,GA,30519,United States,(678) 714-5075,,,Mon - Thu: 5:00am - 11:00pm; Fri: 5:00am - 10:00pm; Sat - Sun: 8:00am - 8:00pm,,0
