store_name,store_number,address,address2,city,state,zip_code,country,phone_number,latitude,longitude,store_hours,other_fields,coming_soon
Pizza Ranch Casper,,5011 E 2nd St ,,Casper,WY, 82609,United States,(307) 237-1234,42.8471180960107,-106.25816434621811,Monday 11:00 AM - 10:00 PM; Tuesday 11:00 AM - 10:00 PM; Wednesday 11:00 AM - 10:00 PM; Thursday 11:00 AM - 10:00 PM; Friday 11:00 AM - 10:00 PM; Saturday 11:00 AM - 10:00 PM; Sunday 11:00 AM - 10:00 PM,,0
Pizza Ranch Lennox,,112 E 1st Ave. ,,Lennox,SD, 57039,United States,(605) 647-2828,43.3554,-96.8908,Monday 11:00 AM - 9:00 PM; Tuesday 11:00 AM - 9:00 PM; Wednesday 11:00 AM - 9:00 PM; Thursday 11:00 AM - 9:00 PM; Friday 11:00 AM - 9:00 PM; Saturday 11:00 AM - 9:00 PM; Sunday 11:00 AM - 9:00 PM,,0
Pizza Ranch Hartford,,120 W Hwy 38 ,,Hartford,SD, 57033,United States,(605) 528-3663,43.631908974876644,-96.94686738777818,Monday 10:30 AM - 9:30 PM; Tuesday 10:30 AM - 9:30 PM; Wednesday 10:30 AM - 9:30 PM; Thursday 10:30 AM - 9:30 PM; Friday 10:30 AM - 10:30 PM; Saturday 10:30 AM - 10:30 PM; Sunday 10:30 AM - 9:30 PM,,0
Pizza Ranch Fort Pierre,,321 E Hustan ,,Fort Pierre,SD, 57532,United States,(605) 223-9114,44.36920670884732,-100.37321001291275,Monday 11:00 AM - 9:00 PM; Tuesday 11:00 AM - 9:00 PM; Wednesday 11:00 AM - 9:00 PM; Thursday 11:00 AM - 9:00 PM; Friday 11:00 AM - 9:00 PM; Saturday 11:00 AM - 9:00 PM; Sunday 11:00 AM - 9:00 PM,,0
Pizza Ranch Dell Rapids,,500 W 4th Street ,,Dell Rapids,SD, 57022,United States,(605) 428-5967,43.82419390662226,-96.72473220158281,Monday 11:00 AM - 9:00 PM; Tuesday 11:00 AM - 9:00 PM; Wednesday 11:00 AM - 9:00 PM; Thursday 11:00 AM - 9:00 PM; Friday 11:00 AM - 10:00 PM; Saturday 11:00 AM - 10:00 PM; Sunday 11:00 AM - 9:00 PM,,0
Pizza Ranch Yankton,,1501 Broadway Avenue ,,Yankton,SD, 57078,United States,(605) 665-1222,42.88381607501697,-97.39719971084924,Monday 11:00 AM - 10:00 PM; Tuesday 11:00 AM - 10:00 PM; Wednesday 11:00 AM - 10:00 PM; Thursday 11:00 AM - 10:00 PM; Friday 11:00 AM - 10:00 PM; Saturday 11:00 AM - 10:00 PM; Sunday 11:00 AM - 10:00 PM,,0
Pizza Ranch Wahpeton,,1110 3rd Avenue North ,,Wahpeton,ND, 58075,United States,(701) 672-7492,46.26639653657466,-96.61672800779343,Monday 11:00 AM - 9:00 PM; Tuesday 11:00 AM - 9:00 PM; Wednesday 11:00 AM - 9:00 PM; Thursday 11:00 AM - 9:00 PM; Friday 11:00 AM - 9:00 PM; Saturday 11:00 AM - 9:00 PM; Sunday 11:00 AM - 9:00 PM,,0
Pizza Ranch West Point,,245 S Main St ,,West Point,NE, 68788,United States,(402) 372-5099,41.83853444843559,-96.7124480009079,Monday 11:00 AM - 9:00 PM; Tuesday 11:00 AM - 10:00 PM; Wednesday 11:00 AM - 10:00 PM; Thursday 11:00 AM - 10:00 PM; Friday 11:00 AM - 10:00 PM; Saturday 11:00 AM - 10:00 PM; Sunday 11:00 AM - 9:00 PM,,0
Pizza Ranch Butte,,3541 Harrison Ave. ,,Butte,MT, 59701,United States,(406) 494-2822,45.97366776373795,-112.5084970286116,Monday 11:00 AM - 10:00 PM; Tuesday 11:00 AM - 10:00 PM; Wednesday 11:00 AM - 10:00 PM; Thursday 11:00 AM - 10:00 PM; Friday 11:00 AM - 10:00 PM; Saturday 11:00 AM - 10:00 PM; Sunday 11:00 AM - 10:00 PM,,0
Pizza Ranch St. Joseph,,3007 N. Belt Highway ,Suite A ,St. Joseph,MO, 64506,United States,(816) 259-5260,39.79619,-94.812175,Monday 11:00 AM - 9:00 PM; Tuesday 11:00 AM - 9:00 PM; Wednesday 11:00 AM - 9:00 PM; Thursday 11:00 AM - 9:00 PM; Friday 11:00 AM - 10:00 PM; Saturday 11:00 AM - 10:00 PM; Sunday 11:00 AM - 9:00 PM,,0
Pizza Ranch Worthington,,1132 Oxford Street ,Ste 4 ,Worthington,MN, 56187,United States,(507) 376-3711,43.63083549316355,-95.5995510426419,Monday 11:00 AM - 9:00 PM; Tuesday 11:00 AM - 9:00 PM; Wednesday 11:00 AM - 9:00 PM; Thursday 11:00 AM - 9:00 PM; Friday 11:00 AM - 9:00 PM; Saturday 11:00 AM - 9:00 PM; Sunday 11:00 AM - 9:00 PM,,0
Pizza Ranch Muskegon,,1848 E Sherman Blvd. ,SUITE W ,Muskegon,MI, 49444,United States,(231) 739-3300,43.20726957733401,-86.1991621461766,Monday 11:00 AM - 9:00 PM; Tuesday 11:00 AM - 9:00 PM; Wednesday 11:00 AM - 9:00 PM; Thursday 11:00 AM - 9:00 PM; Friday 11:00 AM - 10:00 PM; Saturday 11:00 AM - 10:00 PM; Sunday 11:00 AM - 8:00 PM,,0
Pizza Ranch Manhattan,,511 McCall Road ,,Manhattan,KS, 66502,United States,(785) 537-2200,39.19007606446167,-96.55095756053925,Monday 11:00 AM - 9:30 PM; Tuesday 11:00 AM - 9:30 PM; Wednesday 11:00 AM - 9:30 PM; Thursday 11:00 AM - 9:30 PM; Friday 11:00 AM - 9:30 PM; Saturday 11:00 AM - 9:30 PM; Sunday 11:00 AM - 9:30 PM,,0
Pizza Ranch Winterset,,1009 John Wayne Dr. North ,,Winterset,IA, 50273,United States,(515) 493-1223,41.343268799601645,-94.01271611452103,Monday 10:00 AM - 10:00 PM; Tuesday 10:00 AM - 10:00 PM; Wednesday 10:00 AM - 10:00 PM; Thursday 10:00 AM - 10:00 PM; Friday 10:00 AM - 10:00 PM; Saturday 10:00 AM - 10:00 PM; Sunday 10:00 AM - 10:00 PM,,0
Pizza Ranch Sterling,,3900 E Lincolnway ,,Sterling,IL, 61081,United States,(815) 716-8599,41.81482106406948,-89.65296006878663,Monday 11:00 AM - 8:00 PM; Tuesday 11:00 AM - 8:00 PM; Wednesday 11:00 AM - 8:00 PM; Thursday 11:00 AM - 8:00 PM; Friday 11:00 AM - 8:00 PM; Saturday 11:00 AM - 8:00 PM; Sunday 11:00 AM - 8:00 PM,,0
Pizza Ranch Pueblo,,1761 S. Pueblo Blvd. ,,Pueblo,CO, 81005,United States,(719) 281-3957,38.236115088798364,-104.66401156045322,Monday 11:00 AM - 9:00 PM; Tuesday 11:00 AM - 9:00 PM; Wednesday 11:00 AM - 9:00 PM; Thursday 11:00 AM - 9:00 PM; Friday 11:00 AM - 10:00 PM; Saturday 11:00 AM - 10:00 PM; Sunday 10:00 AM - 9:00 PM,,0
Pizza Ranch Loveland,,3451 Mountain Lion Drive ,,Loveland,CO, 80537,United States,(970) 619-8787,40.406813654658734,-105.02873092889791,Monday 11:00 AM - 9:00 PM; Tuesday 11:00 AM - 9:00 PM; Wednesday 11:00 AM - 9:00 PM; Thursday 11:00 AM - 9:00 PM; Friday 11:00 AM - 10:00 PM; Saturday 11:00 AM - 10:00 PM; Sunday 11:00 AM - 9:00 PM,,0
Pizza Ranch Weston,,2715 Schofield Ave. ,Unit 4 ,Weston,WI, 54476,United States,(715) 298-5378,44.9062586,-89.5900833,Monday 11:00 AM - 9:00 PM; Tuesday 11:00 AM - 9:00 PM; Wednesday 11:00 AM - 9:00 PM; Thursday 11:00 AM - 9:00 PM; Friday 11:00 AM - 9:00 PM; Saturday 11:00 AM - 9:00 PM; Sunday 11:00 AM - 9:00 PM,,0
Pizza Ranch Waupun,,900 W Main St ,,Waupun,WI, 53963,United States,(920) 324-9000,43.63375711151424,-88.75215558338823,Monday 11:00 AM - 9:00 PM; Tuesday 11:00 AM - 9:00 PM; Wednesday 11:00 AM - 9:00 PM; Thursday 11:00 AM - 9:00 PM; Friday 11:00 AM - 10:00 PM; Saturday 11:00 AM - 10:00 PM; Sunday 11:00 AM - 7:00 PM,,0
Pizza Ranch Verona,,100 Keenan Ct. ,,Verona,WI, 53593,United States,(608) 848-3600,42.99466132543947,-89.51809203252196,Monday 11:00 AM - 9:00 PM; Tuesday 11:00 AM - 9:00 PM; Wednesday 11:00 AM - 9:00 PM; Thursday 11:00 AM - 9:00 PM; Friday 11:00 AM - 10:00 PM; Saturday 11:00 AM - 10:00 PM; Sunday 11:00 AM - 9:00 PM,,0
Pizza Ranch Sun Prairie,,682 South Grand Ave ,,Sun Prairie,WI, 53590,United States,(608) 825-6900,43.170738067452874,-89.26617703871216,Monday 11:00 AM - 9:00 PM; Tuesday 11:00 AM - 9:00 PM; Wednesday 11:00 AM - 9:00 PM; Thursday 11:00 AM - 9:00 PM; Friday 11:00 AM - 10:00 PM; Saturday 11:00 AM - 10:00 PM; Sunday 11:00 AM - 9:00 PM,,0
Pizza Ranch Sheboygan,,3518 Kohler Memorial Drive ,,Sheboygan,WI, 53081,United States,(920) 395-2506,43.75691828348134,-87.75427088141441,Monday 11:00 AM - 10:00 PM; Tuesday 11:00 AM - 10:00 PM; Wednesday 11:00 AM - 10:00 PM; Thursday 11:00 AM - 10:00 PM; Friday 11:00 AM - 10:00 PM; Saturday 11:00 AM - 10:00 PM; Sunday 11:00 AM - 7:00 PM,,0
Pizza Ranch Reedsburg,,2670 E Main St. ,,Reedsburg,WI, 53959,United States,(608) 768-5555,43.531803708518325,-89.96897220611567,Monday 11:00 AM - 9:00 PM; Tuesday 11:00 AM - 9:00 PM; Wednesday 11:00 AM - 9:00 PM; Thursday 11:00 AM - 9:00 PM; Friday 11:00 AM - 10:00 PM; Saturday 11:00 AM - 10:00 PM; Sunday 11:00 AM - 9:00 PM,,0
Pizza Ranch Portage,,2905 New Pinery Road ,,Portage,WI, 53901,United States,(608) 566-1750,43.56852361003596,-89.46861400270791,Monday 11:00 AM - 9:00 PM; Tuesday 11:00 AM - 9:00 PM; Wednesday 11:00 AM - 9:00 PM; Thursday 11:00 AM - 9:00 PM; Friday 11:00 AM - 10:00 PM; Saturday 11:00 AM - 10:00 PM; Sunday 11:00 AM - 9:00 PM,,0
Pizza Ranch Oshkosh,,1051 S. Washburn Street ,,Oshkosh,WI, 54904,United States,(920) 235-3360,44.009355112955674,-88.58427375555038,Monday 11:00 AM - 9:00 PM; Tuesday 11:00 AM - 9:00 PM; Wednesday 11:00 AM - 9:00 PM; Thursday 11:00 AM - 9:00 PM; Friday 11:00 AM - 9:00 PM; Saturday 11:00 AM - 9:00 PM; Sunday 11:00 AM - 9:00 PM,,0
Pizza Ranch Oostburg,,944 Center Avenue ,,Oostburg,WI, 53070,United States,(920) 564-6333,43.62331409889131,-87.79860093268326,,,0
Pizza Ranch Manitowoc,,3212 Calumet Avenue ,,Manitowoc,WI, 54220,United States,(920) 769-0015,44.08566420752619,-87.68801629543304,Monday 11:00 AM - 9:00 PM; Tuesday 11:00 AM - 9:00 PM; Wednesday 11:00 AM - 9:00 PM; Thursday 11:00 AM - 9:00 PM; Friday 11:00 AM - 9:00 PM; Saturday 11:00 AM - 9:00 PM; Sunday 11:00 AM - 9:00 PM,,0
Pizza Ranch Lake Delton,,1131 East Frontage Rd. ,,Lake Delton,WI, 53940,United States,(608) 254-8200,43.57617048296219,-89.77545484900475,Monday 11:00 AM - 9:00 PM; Tuesday 11:00 AM - 9:00 PM; Wednesday 11:00 AM - 9:00 PM; Thursday 11:00 AM - 9:00 PM; Friday 11:00 AM - 10:00 PM; Saturday 11:00 AM - 10:00 PM; Sunday 11:00 AM - 9:00 PM,,0
Pizza Ranch Green Bay,,2206 Main Street ,,Green Bay,WI, 54302,United States,(920) 468-3555,44.48689931212947,-87.97220706939697,Monday 11:00 AM - 9:00 PM; Tuesday 11:00 AM - 9:00 PM; Wednesday 11:00 AM - 9:00 PM; Thursday 11:00 AM - 9:00 PM; Friday 11:00 AM - 9:00 PM; Saturday 11:00 AM - 9:00 PM; Sunday 11:00 AM - 9:00 PM,,0
Pizza Ranch Fond Du Lac,,1235 West Johnson Street ,,Fond Du Lac,WI, 54935,United States,(920) 929-8800,43.78515240250341,-88.49094316374249,Monday 11:00 AM - 9:00 PM; Tuesday 11:00 AM - 9:00 PM; Wednesday 11:00 AM - 9:00 PM; Thursday 11:00 AM - 9:00 PM; Friday 11:00 AM - 9:00 PM; Saturday 11:00 AM - 9:00 PM; Sunday 11:00 AM - 7:00 PM,,0
Pizza Ranch Elkhorn,,28 West Hidden Trail ,,Elkhorn,WI, 53121,United States,(262) 723-7880,42.694584050876784,-88.54346915150018,Monday 10:00 AM - 10:00 PM; Tuesday 10:00 AM - 10:00 PM; Wednesday 10:00 AM - 10:00 PM; Thursday 10:00 AM - 10:00 PM; Friday 10:00 AM - 10:00 PM; Saturday 10:00 AM - 10:00 PM; Sunday 10:00 AM - 10:00 PM,,0
Pizza Ranch Eau Claire,,2451 Truax Blvd ,,Eau Claire,WI, 54703,United States,(715) 514-4143,44.83185706500758,-91.5431821346283,Monday 11:00 AM - 8:30 PM; Tuesday 11:00 AM - 8:30 PM; Wednesday 11:00 AM - 8:30 PM; Thursday 11:00 AM - 8:30 PM; Friday 11:00 AM - 8:30 PM; Saturday 11:00 AM - 8:30 PM; Sunday 11:00 AM - 8:30 PM,,0
Pizza Ranch Baraboo,,916 Gateway Dr. ,,Baraboo,WI, 53913,United States,(608) 448-2215,43.457802,-89.77563409999999,Monday 11:00 AM - 9:00 PM; Tuesday 11:00 AM - 9:00 PM; Wednesday 11:00 AM - 9:00 PM; Thursday 11:00 AM - 9:00 PM; Friday 11:00 AM - 9:00 PM; Saturday 11:00 AM - 9:00 PM; Sunday 11:00 AM - 8:00 PM,,0
Pizza Ranch Appleton,,N 139 Eisenhower Drive ,,Appleton,WI, 54915,United States,(920) 734-8800,44.24482332808885,-88.34736756515667,Monday 11:00 AM - 9:00 PM; Tuesday 11:00 AM - 9:00 PM; Wednesday 11:00 AM - 9:00 PM; Thursday 11:00 AM - 9:00 PM; Friday 11:00 AM - 9:00 PM; Saturday 11:00 AM - 9:00 PM; Sunday 11:00 AM - 9:00 PM,,0
Pizza Ranch Springfield,,1001 Lejune Dr. ,,Springfield,IL, 62703,United States,(217) 679-8844,39.746030958868765,-89.64332789182663,Monday 11:00 AM - 9:00 PM; Tuesday 11:00 AM - 9:00 PM; Wednesday 11:00 AM - 9:00 PM; Thursday 11:00 AM - 9:00 PM; Friday 11:00 AM - 9:00 PM; Saturday 11:00 AM - 9:00 PM; Sunday 11:00 AM - 9:00 PM,,0
Pizza Ranch Roscoe,,4797 Bluestem Road ,,Roscoe,IL, 61073,United States,(815) 623-3800,42.43335341532717,-89.02378304863305,Monday 11:00 AM - 9:00 PM; Tuesday 11:00 AM - 9:00 PM; Wednesday 11:00 AM - 9:00 PM; Thursday 11:00 AM - 9:00 PM; Friday 11:00 AM - 10:00 PM; Saturday 11:00 AM - 10:00 PM; Sunday 11:00 AM - 11:00 PM,,0
Pizza Ranch Peoria,,4114 N Brandywine Dr. ,,Peoria,IL, 61614,United States,(309) 839-1420,40.73850645975539,-89.62206065654755,Monday 11:00 AM - 9:00 PM; Tuesday 11:00 AM - 9:00 PM; Wednesday 11:00 AM - 9:00 PM; Thursday 11:00 AM - 9:00 PM; Friday 11:00 AM - 9:00 PM; Saturday 11:00 AM - 9:00 PM; Sunday 11:00 AM - 9:00 PM,,0
Pizza Ranch Morton,,903 West Jackson St. ,,Morton,IL, 61550,United States,(309) 263-1200,40.61995866389316,-89.4652533531189,Monday 11:00 AM - 9:00 PM; Tuesday 11:00 AM - 9:00 PM; Wednesday 11:00 AM - 9:00 PM; Thursday 11:00 AM - 9:00 PM; Friday 11:00 AM - 9:00 PM; Saturday 11:00 AM - 9:00 PM; Sunday 11:00 AM - 9:00 PM,,0
Pizza Ranch Galesburg,,2590 North Seminary Street ,,Galesburg,IL, 61401,United States,(309) 351-7860,40.9788661187802,-90.36443152930588,Monday 11:00 AM - 9:00 PM; Tuesday 11:00 AM - 9:00 PM; Wednesday 11:00 AM - 9:00 PM; Thursday 11:00 AM - 9:00 PM; Friday 11:00 AM - 9:00 PM; Saturday 11:00 AM - 9:00 PM; Sunday 11:00 AM - 9:00 PM,,0
Pizza Ranch Bloomington,,1211 Holiday Drive ,,Bloomington,IL, 61704,United States,(309) 820-9777,40.48927187534381,-88.95164251327515,Monday 11:00 AM - 9:00 PM; Tuesday 11:00 AM - 9:00 PM; Wednesday 11:00 AM - 9:00 PM; Thursday 11:00 AM - 9:00 PM; Friday 11:00 AM - 9:00 PM; Saturday 11:00 AM - 9:00 PM; Sunday 11:00 AM - 9:00 PM,,0
Pizza Ranch Waverly,,2020 W Bremer Ave ,,Waverly,IA, 50677,United States,(319) 352-2222,42.72592480824319,-92.49631299639077,Monday 11:00 AM - 9:00 PM; Tuesday 11:00 AM - 9:00 PM; Wednesday 11:00 AM - 9:00 PM; Thursday 11:00 AM - 9:00 PM; Friday 11:00 AM - 10:00 PM; Saturday 11:00 AM - 10:00 PM; Sunday 11:00 AM - 9:00 PM,,0
Pizza Ranch Waukee,,448 SE University Avenue ,,Waukee,IA, 50263,United States,(515) 978-6603,41.59973312635508,-93.86494517326355,Monday 11:00 AM - 9:00 PM; Tuesday 11:00 AM - 9:00 PM; Wednesday 11:00 AM - 9:00 PM; Thursday 11:00 AM - 9:00 PM; Friday 11:00 AM - 9:00 PM; Saturday 11:00 AM - 9:00 PM; Sunday 11:00 AM - 9:00 PM,,0
Pizza Ranch Washington,,201 S Wiley Ave ,,Washington,IA, 52353,United States,(319) 653-5553,41.29744864865495,-91.66438547897997,Monday 11:00 AM - 10:00 PM; Tuesday 11:00 AM - 10:00 PM; Wednesday 11:00 AM - 10:00 PM; Thursday 11:00 AM - 10:00 PM; Friday 11:00 AM - 11:00 PM; Saturday 11:00 AM - 11:00 PM; Sunday 11:00 AM - 10:00 PM,,0
Pizza Ranch Vinton,,219 W 4th Street ,,Vinton,IA, 52349,United States,(319) 472-4000,42.16796992760054,-92.02659382486672,Monday 11:00 AM - 9:00 PM; Tuesday 11:00 AM - 9:00 PM; Wednesday 11:00 AM - 9:00 PM; Thursday 11:00 AM - 9:00 PM; Friday 11:00 AM - 10:00 PM; Saturday 11:00 AM - 10:00 PM; Sunday 11:00 AM - 9:00 PM,,0
Pizza Ranch Urbandale,,4954 86th Street ,,Urbandale,IA, 50322,United States,(515) 331-4610,41.64980751560375,-93.73725056648254,Monday 11:00 AM - 8:30 PM; Tuesday 11:00 AM - 8:30 PM; Wednesday 11:00 AM - 8:30 PM; Thursday 11:00 AM - 8:30 PM; Friday 11:00 AM - 9:00 PM; Saturday 11:00 AM - 9:00 PM; Sunday 11:00 AM - 8:30 PM,,0
Pizza Ranch Story City,,1513 Broad Street ,,Story City,IA, 50248,United States,(515) 733-4111,42.18803569729918,-93.57727825641638,Monday 10:00 AM - 10:00 PM; Tuesday 10:00 AM - 10:00 PM; Wednesday 10:00 AM - 10:00 PM; Thursday 10:00 AM - 10:00 PM; Friday 10:00 AM - 10:00 PM; Saturday 10:00 AM - 10:00 PM; Sunday 10:00 AM - 10:00 PM,,0
Pizza Ranch Storm Lake,,517 W. Milwaukee Avenue ,,Storm Lake,IA, 50588,United States,(712) 732-1524,42.64783325405299,-95.20700170660348,Monday 11:00 AM - 9:00 PM; Tuesday 11:00 AM - 9:00 PM; Wednesday 11:00 AM - 9:00 PM; Thursday 11:00 AM - 9:00 PM; Friday 11:00 AM - 9:00 PM; Saturday 11:00 AM - 9:00 PM; Sunday 11:00 AM - 9:00 PM,,0
Pizza Ranch Spirit Lake,,2003 18th St. ,,Spirit Lake,IA, 51360,United States,(712) 336-1419,43.42195552840485,-95.1209349837336,Monday 11:00 AM - 10:00 PM; Tuesday 11:00 AM - 10:00 PM; Wednesday 11:00 AM - 10:00 PM; Thursday 11:00 AM - 10:00 PM; Friday 11:00 AM - 10:00 PM; Saturday 11:00 AM - 10:00 PM; Sunday 11:00 AM - 10:00 PM,,0
Pizza Ranch Spencer,,528 N Grand Avenue ,,Spencer,IA, 51301,United States,(712) 262-6262,43.14345001089909,-95.1444740500483,Monday 11:00 AM - 9:00 PM; Tuesday 11:00 AM - 9:00 PM; Wednesday 11:00 AM - 9:00 PM; Thursday 11:00 AM - 9:00 PM; Friday 11:00 AM - 10:00 PM; Saturday 11:00 AM - 10:00 PM; Sunday 11:00 AM - 9:00 PM,,0
Pizza Ranch Sioux City,,3116 Floyd Blvd ,,Sioux City,IA, 51108,United States,(712) 222-1777,42.53136970456166,-96.37152298355431,Monday 11:00 AM - 9:00 PM; Tuesday 11:00 AM - 9:00 PM; Wednesday 11:00 AM - 9:00 PM; Thursday 11:00 AM - 9:00 PM; Friday 11:00 AM - 9:00 PM; Saturday 11:00 AM - 9:00 PM; Sunday 11:00 AM - 9:00 PM,,0
Pizza Ranch Sioux Center,,251 N Main St ,#100 ,Sioux Center,IA, 51250,United States,(712) 722-3988,43.07931485080377,-96.17657987404527,,,0
Pizza Ranch Sigourney,,416 W Jackson Street ,,Sigourney,IA, 52591,United States,(641) 622-9990,41.33727763893422,-92.21005423935821,Monday 11:00 AM - 9:00 PM; Tuesday 11:00 AM - 9:00 PM; Wednesday 11:00 AM - 9:00 PM; Thursday 11:00 AM - 9:00 PM; Friday 11:00 AM - 10:00 PM; Saturday 11:00 AM - 10:00 PM; Sunday 11:00 AM - 9:00 PM,,0
Pizza Ranch Sibley,,316 9th St. ,,Sibley,IA, 51249,United States,(712) 754-4196,43.39947892807885,-95.74997618794436,Monday 11:00 AM - 9:00 PM; Tuesday 11:00 AM - 9:00 PM; Wednesday 11:00 AM - 9:00 PM; Thursday 11:00 AM - 9:00 PM; Friday 11:00 AM - 10:00 PM; Saturday 11:00 AM - 10:00 PM; Sunday 11:00 AM - 9:00 PM,,0
Pizza Ranch Sheldon,,104 North Runger Avenue ,,Sheldon,IA, 51201,United States,(712) 324-4800,43.18701413819939,-95.81649867837768,,,0
Pizza Ranch Sergeant Bluff,,204 1st Street ,,Sergeant Bluff,IA, 51054,United States,(712) 943-7499,42.399259771568474,-96.36176786852047,Monday 11:00 AM - 9:00 PM; Tuesday 11:00 AM - 9:00 PM; Wednesday 11:00 AM - 9:00 PM; Thursday 11:00 AM - 9:00 PM; Friday 11:00 AM - 9:00 PM; Saturday 11:00 AM - 9:00 PM; Sunday 11:00 AM - 9:00 PM,,0
Pizza Ranch Sanborn,,107 W 7th St. ,,Sanborn,IA, 51248,United States,(712) 729-5402,43.18576846363637,-95.65631999636025,,,0
Pizza Ranch Rockwell City,,102 Warner St ,,Rockwell City,IA, 50579,United States,(712) 297-5800,42.398632824028,-94.62104632521005,Monday 11:00 AM - 8:00 PM; Tuesday 11:00 AM - 8:00 PM; Wednesday 11:00 AM - 8:00 PM; Thursday 11:00 AM - 8:00 PM; Friday 11:00 AM - 8:00 PM; Saturday 11:00 AM - 8:00 PM; Sunday 11:00 AM - 7:00 PM,,0
Pizza Ranch Rock Valley,,1513 14th St. ,,Rock Valley,IA, 51247,United States,(712) 476-9930,43.20439564014274,-96.29615022802682,,,0
Pizza Ranch Rock Rapids,,205 S Union St. ,,Rock Rapids,IA, 51246,United States,(712) 472-3258,43.43040003435775,-96.17603286171288,Monday 9:00 AM - 10:00 PM; Tuesday 9:00 AM - 10:00 PM; Wednesday 9:00 AM - 10:00 PM; Thursday 9:00 AM - 10:00 PM; Friday 9:00 AM - 10:00 PM; Saturday 9:00 AM - 10:00 PM; Sunday 9:00 AM - 9:00 PM,,0
Pizza Ranch Red Oak,,1511 N Broadway St ,,Red Oak,IA, 51566,United States,(712) 623-2332,41.018457005994705,-95.23481337357225,Monday 11:00 AM - 8:30 PM; Tuesday 11:00 AM - 8:30 PM; Wednesday 11:00 AM - 8:30 PM; Thursday 11:00 AM - 8:30 PM; Friday 11:00 AM - 8:30 PM; Saturday 11:00 AM - 8:30 PM; Sunday 11:00 AM - 8:30 PM,,0
Pizza Ranch Primghar,,103 1st St. SE ,,Primghar,IA, 51245,United States,(712) 957-0053,43.08619382264459,-95.62819161918014,,,0
Pizza Ranch Pocahontas,,211 N Main St ,,Pocahontas,IA, 50574,United States,(712) 335-4555,42.734779024933104,-94.66924562128952,Monday 11:00 AM - 8:00 PM; Tuesday 11:00 AM - 8:00 PM; Wednesday 11:00 AM - 8:00 PM; Thursday 11:00 AM - 8:00 PM; Friday 11:00 AM - 8:00 PM; Saturday 11:00 AM - 8:00 PM; Sunday 11:00 AM - 8:00 PM,,0
Pizza Ranch Pella,,508 Main St ,,Pella,IA, 50219,United States,(641) 628-8844,41.40350319828664,-92.91617006063461,Monday 11:00 AM - 9:00 PM; Tuesday 11:00 AM - 9:00 PM; Wednesday 11:00 AM - 9:00 PM; Thursday 11:00 AM - 9:00 PM; Friday 11:00 AM - 10:00 PM; Saturday 11:00 AM - 10:00 PM; Sunday 11:00 AM - 2:00 PM,,0
Pizza Ranch Ottumwa,,1791 Venture Drive ,,Ottumwa,IA, 52501,United States,(641) 684-0800,41.01668430012837,-92.45148255499771,Monday 10:30 AM - 9:00 PM; Tuesday 10:30 AM - 9:00 PM; Wednesday 10:30 AM - 9:00 PM; Thursday 10:30 AM - 9:00 PM; Friday 10:30 AM - 9:00 PM; Saturday 10:30 AM - 9:00 PM; Sunday 10:30 AM - 9:00 PM,,0
Pizza Ranch Oskaloosa,,120 High Avenue West ,,Oskaloosa,IA, 52577,United States,(641) 672-0222,41.295056747863896,-92.64601512813897,Monday 11:00 AM - 9:00 PM; Tuesday 11:00 AM - 9:00 PM; Wednesday 11:00 AM - 9:00 PM; Thursday 11:00 AM - 9:00 PM; Friday 11:00 AM - 10:00 PM; Saturday 11:00 AM - 10:00 PM; Sunday 11:00 AM - 9:00 PM,,0
Pizza Ranch Orange City,,1505 8th Street SE ,,Orange City,IA, 51041,United States,(712) 737-3711,42.99798935730726,-96.03852941664627,,,0
Pizza Ranch Oelwein,,125 1st Avenue SE ,,Oelwein,IA, 50662,United States,(319) 283-5858,42.67582554218681,-91.9113471919809,Monday 11:00 AM - 9:00 PM; Tuesday 11:00 AM - 9:00 PM; Wednesday 11:00 AM - 9:00 PM; Thursday 11:00 AM - 9:00 PM; Friday 11:00 AM - 10:00 PM; Saturday 11:00 AM - 10:00 PM; Sunday 11:00 AM - 9:00 PM,,0
Pizza Ranch North Liberty,,395 Beaver Kreek Centre ,,North Liberty,IA, 52317,United States,(319) 626-7999,41.743065572126525,-91.59122318029404,Monday 11:00 AM - 8:30 PM; Tuesday 11:00 AM - 8:30 PM; Wednesday 11:00 AM - 8:30 PM; Thursday 11:00 AM - 8:30 PM; Friday 11:00 AM - 8:30 PM; Saturday 11:00 AM - 8:30 PM; Sunday 11:00 AM - 8:30 PM,,0
Pizza Ranch Newton,,1500 W 18th Street S. ,,Newton,IA, 50208,United States,(641) 792-3447,41.68631673005258,-93.07614371180534,Monday 11:00 AM - 8:30 PM; Tuesday 11:00 AM - 8:30 PM; Wednesday 11:00 AM - 8:30 PM; Thursday 11:00 AM - 8:30 PM; Friday 11:00 AM - 8:30 PM; Saturday 11:00 AM - 8:30 PM; Sunday 11:00 AM - 8:30 PM,,0
Pizza Ranch Muscatine,,106 Ford Avenue ,,Muscatine,IA, 52761,United States,(563) 263-3535,41.44871567441433,-91.0296086874041,Monday 10:00 AM - 10:00 PM; Tuesday 10:00 AM - 10:00 PM; Wednesday 10:00 AM - 10:00 PM; Thursday 10:00 AM - 10:00 PM; Friday 10:00 AM - 10:00 PM; Saturday 10:00 AM - 10:00 PM; Sunday 10:00 AM - 9:00 PM,,0
Pizza Ranch Mt. Pleasant,,708 N Grand Avenue ,,Mt. Pleasant,IA, 52641,United States,(319) 986-2222,40.97544910247713,-91.53714164170196,Monday 11:00 AM - 10:00 PM; Tuesday 11:00 AM - 10:00 PM; Wednesday 11:00 AM - 10:00 PM; Thursday 11:00 AM - 10:00 PM; Friday 11:00 AM - 11:00 PM; Saturday 11:00 AM - 11:00 PM; Sunday 11:00 AM - 10:00 PM,,0
"Pizza Ranch Monticello, IA",,505 E Oak Street ,,Monticello,IA, 52310,United States,(319) 465-6000,42.234088012519884,-91.183063229646,Monday 11:00 AM - 9:00 PM; Tuesday 11:00 AM - 9:00 PM; Wednesday 11:00 AM - 9:00 PM; Thursday 11:00 AM - 9:00 PM; Friday 11:00 AM - 10:00 PM; Saturday 11:00 AM - 10:00 PM; Sunday 11:00 AM - 9:00 PM,,0
Pizza Ranch Missouri Valley,,104 W Erie Street ,,Missouri Valley,IA, 51555,United States,(712) 642-5050,41.55587625573404,-95.89495345020623,Monday 11:00 AM - 9:00 PM; Tuesday 11:00 AM - 9:00 PM; Wednesday 11:00 AM - 9:00 PM; Thursday 11:00 AM - 9:00 PM; Friday 11:00 AM - 9:00 PM; Saturday 11:00 AM - 9:00 PM; Sunday 11:00 AM - 9:00 PM,,0
Pizza Ranch Mason City,,1617 S Monroe Avenue ,,Mason City,IA, 50401,United States,(641) 423-3100,43.136087212490935,-93.21044996380806,Monday 11:00 AM - 9:00 PM; Tuesday 11:00 AM - 9:00 PM; Wednesday 11:00 AM - 9:00 PM; Thursday 11:00 AM - 9:00 PM; Friday 11:00 AM - 9:00 PM; Saturday 10:30 AM - 9:00 PM; Sunday 10:30 AM - 9:00 PM,,0
Pizza Ranch Marshalltown,,2305 S Center Street ,,Marshalltown,IA, 50158,United States,(641) 753-7711,42.018255977524355,-92.91302248835564,Monday 11:00 AM - 9:00 PM; Tuesday 11:00 AM - 9:00 PM; Wednesday 11:00 AM - 9:00 PM; Thursday 11:00 AM - 9:00 PM; Friday 11:00 AM - 10:00 PM; Saturday 11:00 AM - 10:00 PM; Sunday 11:00 AM - 9:00 PM,,0
Pizza Ranch Marion,,1055 Linden Drive ,,Marion,IA, 52302,United States,(319) 447-2624,42.03681325628187,-91.57490193843842,Monday 10:30 AM - 8:00 PM; Tuesday 10:30 AM - 8:00 PM; Wednesday 10:30 AM - 8:00 PM; Thursday 10:30 AM - 8:00 PM; Friday 10:30 AM - 9:00 PM; Saturday 10:30 AM - 9:00 PM; Sunday 10:30 AM - 8:00 PM,,0
Pizza Ranch Marcus,,109 N Main St ,,Marcus,IA, 51035,United States,(712) 376-2168,42.82336970480853,-95.80764754677148,Monday 9:30 AM - 8:30 PM; Tuesday 9:30 AM - 8:30 PM; Wednesday 9:30 AM - 8:30 PM; Thursday 9:30 AM - 8:30 PM; Friday 9:30 AM - 9:30 PM; Saturday 9:30 AM - 9:30 PM; Sunday 4:00 PM - 8:30 PM,,0
Pizza Ranch Manchester,,1100 West Main Street ,,Manchester,IA, 52057,United States,(563) 927-4600,42.4833550514876,-91.4728251099587,Monday 11:00 AM - 9:00 PM; Tuesday 11:00 AM - 9:00 PM; Wednesday 11:00 AM - 9:00 PM; Thursday 11:00 AM - 9:00 PM; Friday 11:00 AM - 10:00 PM; Saturday 11:00 AM - 10:00 PM; Sunday 11:00 AM - 9:00 PM,,0
Pizza Ranch Le Mars,,11 Central Ave SW ,,Le Mars,IA, 51031,United States,(712) 546-7272,42.79289897146895,-96.16687848234506,Monday 10:00 AM - 9:00 PM; Tuesday 10:00 AM - 9:00 PM; Wednesday 10:00 AM - 9:00 PM; Thursday 10:00 AM - 9:00 PM; Friday 10:00 AM - 9:00 PM; Saturday 10:00 AM - 9:00 PM; Sunday 10:00 AM - 9:00 PM,,0
Pizza Ranch Laurens,,130 N 3rd St. ,,Laurens,IA, 50554,United States,(712) 841-2658,42.84732851302581,-94.8511290550232,,,0
Pizza Ranch Iowa Falls,,706 Washington Ave. ,,Iowa Falls,IA, 50126,United States,(641) 648-3322,42.51983562787021,-93.26580941677094,Monday 11:00 AM - 9:00 PM; Tuesday 11:00 AM - 9:00 PM; Wednesday 11:00 AM - 9:00 PM; Thursday 11:00 AM - 9:00 PM; Friday 11:00 AM - 9:00 PM; Saturday 11:00 AM - 9:00 PM; Sunday 11:00 AM - 9:00 PM,,0
Pizza Ranch Iowa City,,1610 Sycamore Street ,,Iowa City,IA, 52240,United States,(319) 337-6800,41.64231671739223,-91.51022835636468,Monday 11:00 AM - 9:00 PM; Tuesday 11:00 AM - 9:00 PM; Wednesday 11:00 AM - 9:00 PM; Thursday 11:00 AM - 9:00 PM; Friday 11:00 AM - 10:00 PM; Saturday 11:00 AM - 10:00 PM; Sunday 11:00 AM - 9:00 PM,,0
Pizza Ranch Indianola,,1709 N Jefferson Way ,SUITE 1000 ,Indianola,IA, 50125,United States,(515) 961-7492,41.37846094881402,-93.55954349040985,Monday 10:00 AM - 9:00 PM; Tuesday 10:00 AM - 9:00 PM; Wednesday 10:00 AM - 9:00 PM; Thursday 10:00 AM - 9:00 PM; Friday 10:00 AM - 9:00 PM; Saturday 10:00 AM - 9:00 PM; Sunday 10:00 AM - 9:00 PM,,0
"Pizza Ranch Independence, IA",,1900 1st Street West ,,Independence,IA, 50644,United States,(319) 334-9000,42.46895006620726,-91.9190855232136,Monday 11:00 AM - 9:00 PM; Tuesday 11:00 AM - 9:00 PM; Wednesday 11:00 AM - 9:00 PM; Thursday 11:00 AM - 9:00 PM; Friday 11:00 AM - 10:00 PM; Saturday 11:00 AM - 10:00 PM; Sunday 11:00 AM - 9:00 PM,,0
Pizza Ranch Hull,,1015 Main St. ,,Hull,IA, 51239,United States,(712) 439-1853,43.18799196152649,-96.13410977650346,,,0
Pizza Ranch Hawarden,,723 Central Ave. ,,Hawarden,IA, 51023,United States,(712) 551-2455,42.99408258760532,-96.48563504219055,Monday 11:00 AM - 9:00 PM; Tuesday 11:00 AM - 9:00 PM; Wednesday 11:00 AM - 9:00 PM; Thursday 11:00 AM - 9:00 PM; Friday 11:00 AM - 10:00 PM; Saturday 11:00 AM - 10:00 PM; Sunday 5:00 PM - 9:00 PM,,0
Pizza Ranch Harlan,,613 Court St ,,Harlan,IA, 51537,United States,(712) 755-2262,41.65750309406948,-95.31842066908212,Monday 11:00 AM - 9:00 PM; Tuesday 11:00 AM - 9:00 PM; Wednesday 11:00 AM - 9:00 PM; Thursday 11:00 AM - 9:00 PM; Friday 11:00 AM - 10:00 PM; Saturday 11:00 AM - 10:00 PM; Sunday 11:00 AM - 9:00 PM,,0
Pizza Ranch Grinnell,,613 West Street S ,,Grinnell,IA, 50112,United States,(641) 260-8020,41.72260704753795,-92.72831082344055,Monday 11:00 AM - 10:00 PM; Tuesday 11:00 AM - 10:00 PM; Wednesday 11:00 AM - 10:00 PM; Thursday 11:00 AM - 10:00 PM; Friday 11:00 AM - 10:00 PM; Saturday 11:00 AM - 10:00 PM; Sunday 11:00 AM - 9:00 PM,,0
Pizza Ranch George,,108 E Michigan Ave. ,,George,IA, 51237,United States,(712) 475-2865,43.34391625943056,-96.00166245373657,,,0
Pizza Ranch Garner,,405 State Street ,,Garner,IA, 50438,United States,(641) 923-7262,43.10124530342395,-93.60174536705017,Monday 11:00 AM - 9:00 PM; Tuesday 11:00 AM - 9:00 PM; Wednesday 11:00 AM - 9:00 PM; Thursday 11:00 AM - 9:00 PM; Friday 11:00 AM - 10:00 PM; Saturday 11:00 AM - 10:00 PM; Sunday 11:00 AM - 9:00 PM,,0
Pizza Ranch Fort Dodge,,3311 5th Ave South ,,Fort Dodge,IA, 50501,United States,(515) 955-5599,42.500801070253026,-94.1454398632049,Monday 11:00 AM - 9:00 PM; Tuesday 11:00 AM - 9:00 PM; Wednesday 11:00 AM - 9:00 PM; Thursday 11:00 AM - 9:00 PM; Friday 11:00 AM - 9:00 PM; Saturday 11:00 AM - 9:00 PM; Sunday 11:00 AM - 9:00 PM,,0
Pizza Ranch Fairfield,,1103 West Burlington Ave ,,Fairfield,IA, 52556,United States,(641) 472-0123,41.00674478476023,-91.97719289923043,Monday 11:00 AM - 9:00 PM; Tuesday 11:00 AM - 9:00 PM; Wednesday 11:00 AM - 9:00 PM; Thursday 11:00 AM - 9:00 PM; Friday 11:00 AM - 9:00 PM; Saturday 11:00 AM - 9:00 PM; Sunday 11:00 AM - 9:00 PM,,0
Pizza Ranch Emmetsburg,,2120 11th St. ,,Emmetsburg,IA, 50536,United States,(712) 852-2222,43.10996155693061,-94.67839479446417,Monday 11:00 AM - 9:00 PM; Tuesday 11:00 AM - 9:00 PM; Wednesday 11:00 AM - 9:00 PM; Thursday 11:00 AM - 9:00 PM; Friday 11:00 AM - 9:00 PM; Saturday 11:00 AM - 9:00 PM; Sunday 11:00 AM - 9:00 PM,,0
Pizza Ranch Eldora,,1914 Edgington Ave. ,,Eldora,IA, 50627,United States,(641) 858-2323,42.36080722403651,-93.10754283333154,Monday 11:00 AM - 9:00 PM; Tuesday 11:00 AM - 9:00 PM; Wednesday 11:00 AM - 9:00 PM; Thursday 11:00 AM - 9:00 PM; Friday 11:00 AM - 10:00 PM; Saturday 11:00 AM - 10:00 PM; Sunday 10:30 AM - 9:00 PM,,0
Pizza Ranch Dubuque,,2020 Radford Road ,,Dubuque,IA, 52002,United States,(563) 556-4488,42.507029809603715,-90.74924810791344,Monday 11:00 AM - 9:00 PM; Tuesday 11:00 AM - 9:00 PM; Wednesday 11:00 AM - 9:00 PM; Thursday 11:00 AM - 9:00 PM; Friday 11:00 AM - 10:00 PM; Saturday 11:00 AM - 10:00 PM; Sunday 11:00 AM - 9:00 PM,,0
Pizza Ranch Denison,,510 N Hwy 39 ,,Denison,IA, 51442,United States,(712) 393-3333,42.021477894485706,-95.36707846467834,Monday 11:00 AM - 9:00 PM; Tuesday 11:00 AM - 9:00 PM; Wednesday 11:00 AM - 9:00 PM; Thursday 11:00 AM - 9:00 PM; Friday 11:00 AM - 10:00 PM; Saturday 11:00 AM - 10:00 PM; Sunday 11:00 AM - 9:00 PM,,0
Pizza Ranch Decorah,,212 College Dr. ,,Decorah,IA, 52101,United States,(563) 382-8744,43.307410893971195,-91.7961999588079,Monday 11:00 AM - 9:00 PM; Tuesday 11:00 AM - 9:00 PM; Wednesday 11:00 AM - 9:00 PM; Thursday 11:00 AM - 9:00 PM; Friday 11:00 AM - 9:00 PM; Saturday 11:00 AM - 9:00 PM; Sunday 11:00 AM - 9:00 PM,,0
Pizza Ranch Creston,,520 Livingston Avenue ,,Creston,IA, 50801,United States,(641) 782-7337,41.05137068564088,-94.37062172222795,Monday 11:00 AM - 9:00 PM; Tuesday 11:00 AM - 9:00 PM; Wednesday 11:00 AM - 9:00 PM; Thursday 11:00 AM - 9:00 PM; Friday 11:00 AM - 9:00 PM; Saturday 11:00 AM - 9:00 PM; Sunday 11:00 AM - 8:00 PM,,0
Pizza Ranch Council Bluffs,,3505 Metro Drive ,,Council Bluffs,IA, 51501,United States,(712) 256-7701,41.225060604677836,-95.83853728604481,Monday 11:00 AM - 9:00 PM; Tuesday 11:00 AM - 9:00 PM; Wednesday 11:00 AM - 9:00 PM; Thursday 11:00 AM - 9:00 PM; Friday 11:00 AM - 9:00 PM; Saturday 11:00 AM - 9:00 PM; Sunday 11:00 AM - 9:00 PM,,0
Pizza Ranch Clinton,,1347 11th Street NW ,,Clinton,IA, 52732,United States,(563) 242-3598,41.860785767024055,-90.21091534757943,Monday 11:00 AM - 9:00 PM; Tuesday 11:00 AM - 9:00 PM; Wednesday 11:00 AM - 9:00 PM; Thursday 11:00 AM - 9:00 PM; Friday 11:00 AM - 10:00 PM; Saturday 11:00 AM - 10:00 PM; Sunday 11:00 AM - 9:00 PM,,0
Pizza Ranch Clarion,,102 S Main St ,,Clarion,IA, 50525,United States,(515) 532-3215,42.731437757958446,-93.73316824436188,Monday 11:00 AM - 9:00 PM; Tuesday 11:00 AM - 9:00 PM; Wednesday 11:00 AM - 9:00 PM; Thursday 11:00 AM - 9:00 PM; Friday 11:00 AM - 10:00 PM; Saturday 11:00 AM - 10:00 PM; Sunday 11:00 AM - 9:00 PM,,0
Pizza Ranch Charles City,,1000 Blunt Parkway ,,Charles City,IA, 50616,United States,(641) 228-4100,43.06704567987968,-92.67438737687371,Monday 11:00 AM - 9:00 PM; Tuesday 11:00 AM - 9:00 PM; Wednesday 11:00 AM - 9:00 PM; Thursday 11:00 AM - 9:00 PM; Friday 11:00 AM - 10:00 PM; Saturday 11:00 AM - 10:00 PM; Sunday 11:00 AM - 9:00 PM,,0
Pizza Ranch Cedar Rapids,,2450 Westdale Dr. SW ,,Cedar Rapids,IA, 52404,United States,(319) 365-6800,41.95469495177157,-91.72213627958627,Monday 11:00 AM - 9:00 PM; Tuesday 11:00 AM - 9:00 PM; Wednesday 11:00 AM - 9:00 PM; Thursday 11:00 AM - 9:00 PM; Friday 11:00 AM - 10:00 PM; Saturday 11:00 AM - 10:00 PM; Sunday 11:00 AM - 9:00 PM,,0
Pizza Ranch Cedar Falls,,4302 University Avenue ,SUITE B ,Cedar Falls,IA, 50613,United States,(319) 266-2555,42.5072730182083,-92.4086610879931,Monday 11:00 AM - 9:00 PM; Tuesday 11:00 AM - 9:00 PM; Wednesday 11:00 AM - 9:00 PM; Thursday 11:00 AM - 9:00 PM; Friday 11:00 AM - 10:00 PM; Saturday 11:00 AM - 10:00 PM; Sunday 10:30 AM - 9:00 PM,,0
Pizza Ranch Carroll,,425 US Highway 30 West ,SUITE 130 ,Carroll,IA, 51401,United States,(712) 792-3456,42.0665934,-94.8732435,Monday 11:00 AM - 9:00 PM; Tuesday 11:00 AM - 9:00 PM; Wednesday 11:00 AM - 9:00 PM; Thursday 11:00 AM - 9:00 PM; Friday 11:00 AM - 10:00 PM; Saturday 11:00 AM - 10:00 PM; Sunday 11:00 AM - 9:00 PM,,0
Pizza Ranch Burlington,,233 Legacy Drive ,,Burlington,IA, 52601,United States,(319) 754-5555,40.812201,-91.140595,Monday 11:00 AM - 10:00 PM; Tuesday 11:00 AM - 10:00 PM; Wednesday 11:00 AM - 10:00 PM; Thursday 11:00 AM - 10:00 PM; Friday 11:00 AM - 11:00 PM; Saturday 11:00 AM - 11:00 PM; Sunday 11:00 AM - 10:00 PM,,0
Pizza Ranch Boone,,1703 S Story Avenue ,,Boone,IA, 50036,United States,(515) 432-2222,42.03716187565902,-93.88047248125076,Monday 11:00 AM - 9:00 PM; Tuesday 11:00 AM - 9:00 PM; Wednesday 11:00 AM - 9:00 PM; Thursday 11:00 AM - 9:00 PM; Friday 11:00 AM - 9:00 PM; Saturday 11:00 AM - 9:00 PM; Sunday 11:00 AM - 9:00 PM,,0
Pizza Ranch Bettendorf,,880 Lincoln Road ,,Bettendorf,IA, 52722,United States,(563) 355-9400,41.53701263119075,-90.52030421328709,Monday 11:00 AM - 9:00 PM; Tuesday 11:00 AM - 9:00 PM; Wednesday 11:00 AM - 9:00 PM; Thursday 11:00 AM - 9:00 PM; Friday 11:00 AM - 10:00 PM; Saturday 11:00 AM - 10:00 PM; Sunday 11:00 AM - 9:00 PM,,0
Pizza Ranch Atlantic,,1512 E 7th Street ,,Atlantic,IA, 50022,United States,(712) 243-2552,41.40483100322329,-94.99127447605139,Monday 11:00 AM - 9:00 PM; Tuesday 11:00 AM - 9:00 PM; Wednesday 11:00 AM - 9:00 PM; Thursday 11:00 AM - 9:00 PM; Friday 11:00 AM - 9:00 PM; Saturday 11:00 AM - 9:00 PM; Sunday 11:00 AM - 9:00 PM,,0
Pizza Ranch Ankeny,,201 SE Oralabor Road ,,Ankeny,IA, 50021,United States,(515) 964-9990,41.702210177911205,-93.59836041927338,Monday 8:00 AM - 10:00 PM; Tuesday 8:00 AM - 10:00 PM; Wednesday 8:00 AM - 10:00 PM; Thursday 8:00 AM - 10:00 PM; Friday 8:00 AM - 10:00 PM; Saturday 8:00 AM - 10:00 PM; Sunday 8:00 AM - 10:00 PM,,0
Pizza Ranch Ames,,1404 Boston Avenue ,,Ames,IA, 50010,United States,(515) 232-1999,42.035886915502005,-93.58199894428253,Monday 10:00 AM - 10:00 PM; Tuesday 10:00 AM - 10:00 PM; Wednesday 10:00 AM - 10:00 PM; Thursday 10:00 AM - 10:00 PM; Friday 10:00 AM - 12:00 AM; Saturday 10:00 AM - 12:00 AM; Sunday 10:00 AM - 10:00 PM,,0
Pizza Ranch Altoona,,465 Center Place SW ,,Altoona,IA, 50009,United States,(515) 967-8800,41.642936744883755,-93.46898943185806,Monday 11:00 AM - 8:30 PM; Tuesday 11:00 AM - 8:30 PM; Wednesday 11:00 AM - 8:30 PM; Thursday 11:00 AM - 8:30 PM; Friday 11:00 AM - 9:00 PM; Saturday 11:00 AM - 9:00 PM; Sunday 11:00 AM - 9:00 PM,,0
Pizza Ranch Algona,,1325 Hwy 169 North ,,Algona,IA, 50511,United States,(515) 295-6995,43.08035727853576,-94.23760458827019,Monday 11:00 AM - 9:00 PM; Tuesday 11:00 AM - 9:00 PM; Wednesday 11:00 AM - 9:00 PM; Thursday 11:00 AM - 9:00 PM; Friday 11:00 AM - 10:00 PM; Saturday 11:00 AM - 10:00 PM; Sunday 11:00 AM - 2:00 PM,,0
Pizza Ranch Akron,,223 Reed St. ,,Akron,IA, 51001,United States,(712) 568-3506,42.82893487068032,-96.55896379614205,,,0
Pizza Ranch Ackley,,634 Main St ,,Ackley,IA, 50601,United States,(641) 847-2244,42.55394363442264,-93.05371358061171,Monday 9:00 AM - 9:00 PM; Tuesday 9:00 AM - 9:00 PM; Wednesday 9:00 AM - 9:00 PM; Thursday 9:00 AM - 9:00 PM; Friday 9:00 AM - 10:00 PM; Saturday 9:00 AM - 10:00 PM; Sunday 9:00 AM - 9:00 PM,,0
Pizza Ranch Hutchinson,,1805 East 17th Ave. ,,Hutchinson,KS, 67502,United States,(620) 662-2066,38.071239479991846,-97.89575681090355,Monday 11:00 AM - 9:00 PM; Tuesday 11:00 AM - 9:00 PM; Wednesday 11:00 AM - 9:00 PM; Thursday 11:00 AM - 9:00 PM; Friday 11:00 AM - 9:00 PM; Saturday 11:00 AM - 9:00 PM; Sunday 11:00 AM - 9:00 PM,,0
Pizza Ranch Emporia,,3000 W 18th Avenue ,,Emporia,KS, 66801,United States,(620) 343-8646,38.42222817408683,-96.22106999158859,Monday 11:00 AM - 9:30 PM; Tuesday 11:00 AM - 9:30 PM; Wednesday 11:00 AM - 9:30 PM; Thursday 11:00 AM - 9:30 PM; Friday 11:00 AM - 9:30 PM; Saturday 11:00 AM - 9:30 PM; Sunday 11:00 AM - 9:30 PM,,0
Pizza Ranch Kentwood,,3858 28th St. SE ,,Kentwood,MI, 49512,United States,(616) 942-2200,42.91173156240243,-85.57229518890381,Monday 11:00 AM - 8:00 PM; Tuesday 11:00 AM - 8:00 PM; Wednesday 11:00 AM - 8:00 PM; Thursday 11:00 AM - 8:00 PM; Friday 11:00 AM - 9:00 PM; Saturday 11:00 AM - 9:00 PM; Sunday 11:00 AM - 8:00 PM,,0
Pizza Ranch Hudsonville,,3492 Chicago Dr. ,,Hudsonville,MI, 49426,United States,(616) 669-7030,42.8661574491875,-85.86828626227543,Monday 11:00 AM - 8:00 PM; Tuesday 11:00 AM - 8:00 PM; Wednesday 11:00 AM - 8:00 PM; Thursday 11:00 AM - 8:00 PM; Friday 11:00 AM - 8:00 PM; Saturday 11:00 AM - 8:00 PM; Sunday 11:00 AM - 7:00 PM,,0
Pizza Ranch Holland,,734 E. 16th Street ,,Holland,MI, 49423,United States,(616) 499-3900,42.782863175032546,-86.07575807980686,Monday 11:00 AM - 8:00 PM; Tuesday 11:00 AM - 8:00 PM; Wednesday 11:00 AM - 8:00 PM; Thursday 11:00 AM - 8:00 PM; Friday 11:00 AM - 8:00 PM; Saturday 11:00 AM - 8:00 PM; Sunday 11:00 AM - 7:00 PM,,0
Pizza Ranch Willmar,,1612 Lakeland Drive SE ,,Willmar,MN, 56201,United States,(320) 222-3663,45.1057,-95.023,Monday 11:00 AM - 9:00 PM; Tuesday 11:00 AM - 9:00 PM; Wednesday 11:00 AM - 9:00 PM; Thursday 11:00 AM - 9:00 PM; Friday 11:00 AM - 10:00 PM; Saturday 11:00 AM - 10:00 PM; Sunday 10:30 AM - 9:00 PM,,0
Pizza Ranch Waseca,,212 17th Avenue NE ,,Waseca,MN, 56093,United States,(507) 833-9080,44.09406179939663,-93.50522339344025,Monday 11:00 AM - 8:30 PM; Tuesday 11:00 AM - 8:30 PM; Wednesday 11:00 AM - 8:30 PM; Thursday 11:00 AM - 8:30 PM; Friday 11:00 AM - 8:30 PM; Saturday 11:00 AM - 8:30 PM; Sunday 11:00 AM - 8:30 PM,,0
Pizza Ranch Waite Park,,110 2nd Street South ,#119 ,Waite Park,MN, 56387,United States,(320) 203-8646,45.54853513834593,-94.21615898609161,Monday 11:00 AM - 9:00 PM; Tuesday 11:00 AM - 9:00 PM; Wednesday 11:00 AM - 9:00 PM; Thursday 11:00 AM - 9:00 PM; Friday 11:00 AM - 9:00 PM; Saturday 11:00 AM - 9:00 PM; Sunday 11:00 AM - 9:00 PM,,0
Pizza Ranch Wadena,,106 S Jefferson St ,,Wadena,MN, 56482,United States,(218) 631-2145,46.44073758139679,-95.1367561519146,,,0
Pizza Ranch Stewartville,,1580 2nd Avenue NW ,,Stewartville,MN, 55976,United States,(507) 533-0117,43.86759869872691,-92.48926699161535,Monday 11:00 AM - 9:00 PM; Tuesday 11:00 AM - 9:00 PM; Wednesday 11:00 AM - 9:00 PM; Thursday 11:00 AM - 9:00 PM; Friday 11:00 AM - 9:00 PM; Saturday 11:00 AM - 9:00 PM; Sunday 11:00 AM - 9:00 PM,,0
Pizza Ranch Slayton,,2306 Broadway Ave ,,Slayton,MN, 56172,United States,(507) 836-8856,43.99086358888816,-95.75692981481552,Monday 11:00 AM - 9:00 PM; Tuesday 11:00 AM - 9:00 PM; Wednesday 11:00 AM - 9:00 PM; Thursday 11:00 AM - 9:00 PM; Friday 11:00 AM - 9:00 PM; Saturday 11:00 AM - 9:00 PM; Sunday 11:00 AM - 9:00 PM,,0
Pizza Ranch Shakopee,,1266 Vierling Drive East ,,Shakopee,MN, 55379,United States,(952) 233-2122,44.77944951251231,-93.50700974464417,Monday 11:00 AM - 9:00 PM; Tuesday 11:00 AM - 9:00 PM; Wednesday 11:00 AM - 9:00 PM; Thursday 11:00 AM - 9:00 PM; Friday 11:00 AM - 10:00 PM; Saturday 11:00 AM - 10:00 PM; Sunday 11:00 AM - 9:00 PM,,0
Pizza Ranch Redwood Falls,,1360 E. Bridge St. ,,Redwood Falls,MN, 56283,United States,(507) 644-5936,44.54087471135052,-95.0936570763588,Monday 11:00 AM - 9:30 PM; Tuesday 11:00 AM - 9:30 PM; Wednesday 11:00 AM - 9:30 PM; Thursday 11:00 AM - 9:30 PM; Friday 11:00 AM - 10:30 PM; Saturday 11:00 AM - 10:30 PM; Sunday 11:00 AM - 9:30 PM,,0
Pizza Ranch Pipestone,,108 W Main Street ,,Pipestone,MN, 56164,United States,(507) 562-2222,44.000291,-96.318058,Monday 10:00 AM - 9:00 PM; Tuesday 10:00 AM - 9:00 PM; Wednesday 10:00 AM - 9:00 PM; Thursday 10:00 AM - 9:00 PM; Friday 10:00 AM - 10:00 PM; Saturday 10:00 AM - 10:00 PM; Sunday 10:00 AM - 9:00 PM,,0
Pizza Ranch Perham,,720 3rd Avenue SE ,,Perham,MN, 56573,United States,(218) 346-7890,46.5863664702795,-95.57537931779098,,,0
Pizza Ranch Park Rapids,,16137 State 34 ,,Park Rapids,MN, 56470,United States,(218) 732-4030,46.92156517264653,-95.03093093633652,,,0
Pizza Ranch Owatonna,,142 W Broadway Street ,,Owatonna,MN, 55060,United States,(507) 446-9990,44.085076581908154,-93.22783738374716,Monday 11:00 AM - 8:30 PM; Tuesday 11:00 AM - 8:30 PM; Wednesday 11:00 AM - 8:30 PM; Thursday 11:00 AM - 8:30 PM; Friday 11:00 AM - 9:00 PM; Saturday 11:00 AM - 9:00 PM; Sunday 11:00 AM - 8:30 PM,,0
Pizza Ranch Oak Park Heights,,5785 Minnesota Ave. N ,,Oak Park Heights,MN, 55082,United States,(651) 351-2150,45.03204354116785,-92.85158540122211,Monday 11:00 AM - 9:00 PM; Tuesday 11:00 AM - 9:00 PM; Wednesday 11:00 AM - 9:00 PM; Thursday 11:00 AM - 9:00 PM; Friday 11:00 AM - 10:00 PM; Saturday 11:00 AM - 10:00 PM; Sunday 11:00 AM - 9:00 PM,,0
Pizza Ranch - Closed New Ulm,,1927 S Broadway St ,,New Ulm,MN, 56073,United States,(507) 354-7772,44.293555885325084,-94.44126471877098,,,0
Pizza Ranch New Prague,,1102 1st Street NE ,,New Prague,MN, 56071,United States,(952) 758-9440,44.54429281128266,-93.56038302183151,Monday 11:00 AM - 9:00 PM; Tuesday 11:00 AM - 9:00 PM; Wednesday 11:00 AM - 9:00 PM; Thursday 11:00 AM - 9:00 PM; Friday 11:00 AM - 10:00 PM; Saturday 11:00 AM - 10:00 PM; Sunday 11:00 AM - 8:00 PM,,0
Pizza Ranch Morris,,7 E 5th St. ,,Morris,MN, 56267,United States,(320) 589-2102,45.58656725527602,-95.91345012187958,Monday 11:00 AM - 9:00 PM; Tuesday 11:00 AM - 9:00 PM; Wednesday 11:00 AM - 9:00 PM; Thursday 11:00 AM - 9:00 PM; Friday 11:00 AM - 10:00 PM; Saturday 11:00 AM - 10:00 PM; Sunday 11:00 AM - 9:00 PM,,0
"Pizza Ranch Monticello, MN",,1220 Hwy 25 South ,SUITE 104 ,Monticello,MN, 55362,United States,(763) 295-6500,45.29323720999524,-93.80133358765306,Monday 11:00 AM - 9:00 PM; Tuesday 11:00 AM - 9:00 PM; Wednesday 11:00 AM - 9:00 PM; Thursday 11:00 AM - 9:00 PM; Friday 11:00 AM - 9:00 PM; Saturday 11:00 AM - 9:00 PM; Sunday 11:00 AM - 9:00 PM,,0
Pizza Ranch Montevideo,,1504 E Hwy 7 ,,Montevideo,MN, 56265,United States,(320) 269-6738,44.95031196356307,-95.7079093877316,,,0
Pizza Ranch Marshall,,1420 Boyer Drive ,,Marshall,MN, 56258,United States,(507) 537-0000,44.43028439510829,-95.7672026753425,Monday 10:00 AM - 9:00 PM; Tuesday 10:00 AM - 9:00 PM; Wednesday 10:00 AM - 9:00 PM; Thursday 10:00 AM - 9:00 PM; Friday 10:00 AM - 9:00 PM; Saturday 10:00 AM - 9:00 PM; Sunday 10:00 AM - 9:00 PM,,0
Pizza Ranch Maplewood,,1845 E County Rd D ,STE 100 ,Maplewood,MN, 55109,United States,(651) 777-4500,45.0364092015665,-93.02440240049691,Monday 11:00 AM - 9:00 PM; Tuesday 11:00 AM - 9:00 PM; Wednesday 11:00 AM - 9:00 PM; Thursday 11:00 AM - 9:00 PM; Friday 11:00 AM - 9:00 PM; Saturday 11:00 AM - 9:00 PM; Sunday 11:00 AM - 9:00 PM,,0
Pizza Ranch Mankato,,1551 Tullamore Street ,,Mankato,MN, 56001,United States,(507) 386-7077,44.16743643080098,-93.96714396310017,Monday 10:00 AM - 9:00 PM; Tuesday 10:00 AM - 9:00 PM; Wednesday 10:00 AM - 9:00 PM; Thursday 10:00 AM - 9:00 PM; Friday 10:00 AM - 10:00 PM; Saturday 10:00 AM - 10:00 PM; Sunday 10:00 AM - 9:00 PM,,0
Pizza Ranch Luverne,,110 E Main St ,,Luverne,MN, 56156,United States,(507) 283-2379,43.653947207718716,-96.2089946866036,Monday 9:00 AM - 10:00 PM; Tuesday 9:00 AM - 10:00 PM; Wednesday 9:00 AM - 10:00 PM; Thursday 9:00 AM - 10:00 PM; Friday 9:00 AM - 10:00 PM; Saturday 9:00 AM - 10:00 PM; Sunday 9:00 AM - 10:00 PM,,0
Pizza Ranch Little Falls,,202 Lemiuer Street ,,Little Falls,MN, 56345,United States,(320) 632-8333,45.97302953694753,-94.33845162391663,Monday 11:00 AM - 9:00 PM; Tuesday 11:00 AM - 9:00 PM; Wednesday 11:00 AM - 9:00 PM; Thursday 11:00 AM - 9:00 PM; Friday 11:00 AM - 9:00 PM; Saturday 11:00 AM - 9:00 PM; Sunday 11:00 AM - 9:00 PM,,0
Pizza Ranch Litchfield,,201 N Sibley Ave. ,,Litchfield,MN, 55355,United States,(320) 693-9393,45.127564103643465,-94.52844440015724,Monday 11:00 AM - 9:00 PM; Tuesday 11:00 AM - 9:00 PM; Wednesday 11:00 AM - 9:00 PM; Thursday 11:00 AM - 9:00 PM; Friday 11:00 AM - 10:00 PM; Saturday 11:00 AM - 10:00 PM; Sunday 11:00 AM - 9:00 PM,,0
Pizza Ranch Le Sueur,,124 N 2nd Street ,,Le Sueur,MN, 56058,United States,(507) 665-2222,44.46185940242193,-93.91386196017265,Monday 11:00 AM - 8:00 PM; Tuesday 11:00 AM - 8:00 PM; Wednesday 11:00 AM - 8:00 PM; Thursday 11:00 AM - 8:00 PM; Friday 11:00 AM - 9:00 PM; Saturday 11:00 AM - 9:00 PM; Sunday 11:00 AM - 8:00 PM,,0
Pizza Ranch Lakeville,,16995 Kenyon Avenue ,,Lakeville,MN, 55044,United States,(952) 898-3333,44.70262391227655,-93.28719735145569,Monday 11:00 AM - 9:00 PM; Tuesday 11:00 AM - 9:00 PM; Wednesday 11:00 AM - 9:00 PM; Thursday 11:00 AM - 9:00 PM; Friday 11:00 AM - 10:00 PM; Saturday 11:00 AM - 10:00 PM; Sunday 10:30 AM - 9:00 PM,,0
Pizza Ranch Jackson,,206 3rd St. ,,Jackson,MN, 56143,United States,(507) 847-5555,43.61974925952083,-94.98836696147919,Monday 11:00 AM - 9:00 PM; Tuesday 11:00 AM - 9:00 PM; Wednesday 11:00 AM - 9:00 PM; Thursday 11:00 AM - 9:00 PM; Friday 11:00 AM - 9:30 PM; Saturday 11:00 AM - 9:30 PM; Sunday 11:00 AM - 9:00 PM,,0
Pizza Ranch Hibbing,,2502 E Beltline ,,Hibbing,MN, 55746,United States,(218) 440-1371,47.420242357009265,-92.92250007390976,Monday 11:00 AM - 9:00 PM; Tuesday 11:00 AM - 9:00 PM; Wednesday 11:00 AM - 9:00 PM; Thursday 11:00 AM - 9:00 PM; Friday 11:00 AM - 9:00 PM; Saturday 11:00 AM - 9:00 PM; Sunday 11:00 AM - 9:00 PM,,0
Pizza Ranch Glenwood,,14 E Minnesota Ave. ,,Glenwood,MN, 56334,United States,(320) 634-4261,45.64996962956893,-95.3893692791462,Monday 11:00 AM - 9:00 PM; Tuesday 11:00 AM - 9:00 PM; Wednesday 11:00 AM - 9:00 PM; Thursday 11:00 AM - 9:00 PM; Friday 11:00 AM - 10:00 PM; Saturday 11:00 AM - 10:00 PM; Sunday 11:00 AM - 9:00 PM,,0
Pizza Ranch Fergus Falls,,604 Frontier Dr ,,Fergus Falls,MN, 56537,United States,(218) 739-5888,46.29090024332274,-96.1176547408104,Monday 11:00 AM - 9:00 PM; Tuesday 11:00 AM - 9:00 PM; Wednesday 11:00 AM - 9:00 PM; Thursday 11:00 AM - 9:00 PM; Friday 11:00 AM - 9:00 PM; Saturday 11:00 AM - 9:00 PM; Sunday 11:00 AM - 9:00 PM,,0
Pizza Ranch Fairmont,,1101 N State Street ,,Fairmont,MN, 56031,United States,(507) 235-8822,43.66353697976839,-94.44829060697884,Monday 10:00 AM - 9:00 PM; Tuesday 10:00 AM - 9:00 PM; Wednesday 10:00 AM - 9:00 PM; Thursday 10:00 AM - 9:00 PM; Friday 10:00 AM - 10:00 PM; Saturday 10:00 AM - 10:00 PM; Sunday 10:00 AM - 9:00 PM,,0
Pizza Ranch Elk River,,19141 Freeport St NW ,,Elk River,MN, 55330,United States,(763) 441-3000,45.31536326224939,-93.56109641027615,Monday 11:00 AM - 8:00 PM; Tuesday 11:00 AM - 8:00 PM; Wednesday 11:00 AM - 8:00 PM; Thursday 11:00 AM - 8:00 PM; Friday 11:00 AM - 8:00 PM; Saturday 11:00 AM - 8:00 PM; Sunday 11:00 AM - 3:00 PM,,0
Pizza Ranch Dilworth,,1504 Center Avenue West ,,Dilworth,MN, 56529,United States,(218) 287-6001,46.8758229974789,-96.72219372821019,Monday 11:00 AM - 10:00 PM; Tuesday 11:00 AM - 10:00 PM; Wednesday 11:00 AM - 10:00 PM; Thursday 11:00 AM - 10:00 PM; Friday 11:00 AM - 10:00 PM; Saturday 11:00 AM - 10:00 PM; Sunday 11:00 AM - 10:00 PM,,0
Pizza Ranch Champlin,,12443 Champlin Drive ,,Champlin,MN, 55316,United States,(763) 421-2558,45.179368184988675,-93.39458889794514,Monday 11:00 AM - 9:00 PM; Tuesday 11:00 AM - 9:00 PM; Wednesday 11:00 AM - 9:00 PM; Thursday 11:00 AM - 9:00 PM; Friday 11:00 AM - 9:00 PM; Saturday 11:00 AM - 9:00 PM; Sunday 11:00 AM - 9:00 PM,,0
Pizza Ranch Baxter,,14643 Edgewood Drive ,SUITE 110 ,Baxter,MN, 56425,United States,(218) 454-3290,46.36440582776636,-94.24621032873335,Monday 11:00 AM - 9:00 PM; Tuesday 11:00 AM - 9:00 PM; Wednesday 11:00 AM - 9:00 PM; Thursday 11:00 AM - 9:00 PM; Friday 11:00 AM - 9:00 PM; Saturday 11:00 AM - 9:00 PM; Sunday 11:00 AM - 9:00 PM,,0
Pizza Ranch Austin,,1300 18th Ave NW ,SUITE B ,Austin,MN, 55912,United States,(507) 396-2677,43.68586318468429,-92.99033045768738,Monday 8:30 AM - 9:00 PM; Tuesday 8:30 AM - 9:00 PM; Wednesday 8:30 AM - 9:00 PM; Thursday 8:30 AM - 9:00 PM; Friday 8:30 AM - 10:00 PM; Saturday 8:30 AM - 10:00 PM; Sunday 8:30 AM - 9:00 PM,,0
Pizza Ranch Apple Valley,,15662 Pilot Knob Road ,,Apple Valley,MN, 55124,United States,(952) 431-3333,44.72173303518108,-93.17611753011079,Monday 11:00 AM - 9:00 PM; Tuesday 11:00 AM - 9:00 PM; Wednesday 11:00 AM - 9:00 PM; Thursday 11:00 AM - 9:00 PM; Friday 11:00 AM - 10:00 PM; Saturday 11:00 AM - 10:00 PM; Sunday 10:30 AM - 9:00 PM,,0
Pizza Ranch Andover,,13797 Jay Street NW ,,Andover,MN, 55304,United States,(763) 710-4555,45.220487548224305,-93.31077665090561,Monday 11:00 AM - 9:00 PM; Tuesday 11:00 AM - 9:00 PM; Wednesday 11:00 AM - 9:00 PM; Thursday 11:00 AM - 9:00 PM; Friday 11:00 AM - 9:00 PM; Saturday 11:00 AM - 9:00 PM; Sunday 11:00 AM - 9:00 PM,,0
Pizza Ranch Alexandria,,1522 Broadway Street ,,Alexandria,MN, 56308,United States,(320) 762-4010,45.87457779352896,-95.37867665290833,Monday 11:00 AM - 9:00 PM; Tuesday 11:00 AM - 9:00 PM; Wednesday 11:00 AM - 9:00 PM; Thursday 11:00 AM - 9:00 PM; Friday 11:00 AM - 10:00 PM; Saturday 11:00 AM - 10:00 PM; Sunday 11:00 AM - 9:00 PM,,0
Pizza Ranch Albert Lea,,2430 N Bridge Avenue ,,Albert Lea,MN, 56007,United States,(507) 377-2166,43.68138737650943,-93.35671752691269,Monday 11:00 AM - 9:00 PM; Tuesday 11:00 AM - 9:00 PM; Wednesday 11:00 AM - 9:00 PM; Thursday 11:00 AM - 9:00 PM; Friday 11:00 AM - 9:00 PM; Saturday 11:00 AM - 9:00 PM; Sunday 11:00 AM - 9:00 PM,,0
Pizza Ranch Maryville,,215 Che Drive ,,Maryville,MO, 64468,United States,(660) 224-2185,40.34640664684736,-94.8540951590985,Monday 11:00 AM - 9:00 PM; Tuesday 11:00 AM - 9:00 PM; Wednesday 11:00 AM - 9:00 PM; Thursday 11:00 AM - 9:00 PM; Friday 11:00 AM - 9:00 PM; Saturday 11:00 AM - 9:00 PM; Sunday 11:00 AM - 9:00 PM,,0
Pizza Ranch Liberty,,116 Stewart Ct ,,Liberty,MO, 64068,United States,(816) 792-1111,39.245469641924835,-94.45376247167587,Monday 11:00 AM - 10:00 PM; Tuesday 11:00 AM - 10:00 PM; Wednesday 11:00 AM - 10:00 PM; Thursday 11:00 AM - 10:00 PM; Friday 11:00 AM - 10:00 PM; Saturday 11:00 AM - 10:00 PM; Sunday 11:00 AM - 10:00 PM,,0
Pizza Ranch Kansas City,,4801 North Oak Trafficway ,,Kansas City,MO, 64118,United States,(816) 454-4444,39.181901,-94.5759387,Monday 11:00 AM - 9:00 PM; Tuesday 11:00 AM - 9:00 PM; Wednesday 11:00 AM - 9:00 PM; Thursday 11:00 AM - 9:00 PM; Friday 11:00 AM - 9:00 PM; Saturday 11:00 AM - 9:00 PM; Sunday 11:00 AM - 9:00 PM,,0
"Pizza Ranch Independence, MO",,4660 S Bass Pro Dr. ,,Independence,MO, 64055,United States,(816) 478-1100,39.035453386613035,-94.36532199382782,Monday 11:00 AM - 10:00 PM; Tuesday 11:00 AM - 10:00 PM; Wednesday 11:00 AM - 10:00 PM; Thursday 11:00 AM - 10:00 PM; Friday 11:00 AM - 11:00 PM; Saturday 11:00 AM - 11:00 PM; Sunday 11:00 AM - 10:00 PM,,0
Pizza Ranch Billings,,2505 King Ave W ,,Billings,MT, 59102,United States,(406) 294-3663,45.75581183263813,-108.57925675344632,Monday 11:00 AM - 10:00 PM; Tuesday 11:00 AM - 10:00 PM; Wednesday 11:00 AM - 10:00 PM; Thursday 11:00 AM - 10:00 PM; Friday 11:00 AM - 10:00 PM; Saturday 11:00 AM - 10:00 PM; Sunday 11:00 AM - 10:00 PM,,0
Pizza Ranch Papillion,,8810 S 71st Plaza ,,Papillion,NE, 68133,United States,(402) 884-2468,41.170673200899685,-96.02291643619537,Monday 11:00 AM - 9:00 PM; Tuesday 11:00 AM - 9:00 PM; Wednesday 11:00 AM - 9:00 PM; Thursday 11:00 AM - 9:00 PM; Friday 11:00 AM - 10:00 PM; Saturday 11:00 AM - 10:00 PM; Sunday 11:00 AM - 9:00 PM,,0
Pizza Ranch Omaha,,3010 South 84th Street ,,Omaha,NE, 68124,United States,(402) 934-4888,41.23114882558876,-96.04596647616472,Monday 11:00 AM - 9:00 PM; Tuesday 11:00 AM - 9:00 PM; Wednesday 11:00 AM - 9:00 PM; Thursday 11:00 AM - 9:00 PM; Friday 11:00 AM - 10:00 PM; Saturday 11:00 AM - 10:00 PM; Sunday 11:00 AM - 9:00 PM,,0
Pizza Ranch Norfolk,,1700 Market Lane ,SUITE 430 ,Norfolk,NE, 68701,United States,(402) 316-4015,42.02064517729599,-97.43100643157959,Monday 11:00 AM - 9:00 PM; Tuesday 11:00 AM - 9:00 PM; Wednesday 11:00 AM - 9:00 PM; Thursday 11:00 AM - 9:00 PM; Friday 11:00 AM - 9:00 PM; Saturday 11:00 AM - 9:00 PM; Sunday 11:00 AM - 9:00 PM,,0
Pizza Ranch Lincoln,,8420 Lexington Ave ,,Lincoln,NE, 68505,United States,(402) 261-8039,40.83291585046885,-96.60524412989616,Monday 11:00 AM - 9:00 PM; Tuesday 11:00 AM - 9:00 PM; Wednesday 11:00 AM - 9:00 PM; Thursday 11:00 AM - 9:00 PM; Friday 11:00 AM - 9:00 PM; Saturday 11:00 AM - 9:00 PM; Sunday 11:00 AM - 8:00 PM,,0
Pizza Ranch Columbus,,2266 33rd Ave ,,Columbus,NE, 68601,United States,(402) 564-8131,41.43807360986833,-97.36859947443008,Monday 11:00 AM - 9:00 PM; Tuesday 11:00 AM - 9:00 PM; Wednesday 11:00 AM - 9:00 PM; Thursday 11:00 AM - 9:00 PM; Friday 11:00 AM - 9:00 PM; Saturday 11:00 AM - 9:00 PM; Sunday 11:00 AM - 9:00 PM,,0
Pizza Ranch Valley City,,1066 W Main Street ,,Valley City,ND, 58072,United States,(701) 845-4455,46.921465159746965,-98.0177608134918,Monday 11:00 AM - 9:00 PM; Tuesday 11:00 AM - 9:00 PM; Wednesday 11:00 AM - 9:00 PM; Thursday 11:00 AM - 9:00 PM; Friday 11:00 AM - 9:00 PM; Saturday 11:00 AM - 9:00 PM; Sunday 11:00 AM - 9:00 PM,,0
Pizza Ranch Minot,,305 37th Avenue SW ,,Minot,ND, 58701,United States,(701) 852-3663,48.196036339684156,-101.29829837942452,Monday 11:00 AM - 10:00 PM; Tuesday 11:00 AM - 10:00 PM; Wednesday 11:00 AM - 10:00 PM; Thursday 11:00 AM - 10:00 PM; Friday 11:00 AM - 10:00 PM; Saturday 11:00 AM - 10:00 PM; Sunday 11:00 AM - 10:00 PM,,0
Pizza Ranch Mandan,,305 E Main Street ,,Mandan,ND, 58554,United States,(701) 667-5400,46.82664872985088,-100.88528662919998,,,0
Pizza Ranch Lisbon,,520 Main ,,Lisbon,ND, 58054,United States,(701) 683-4017,46.44074774716822,-97.68180504441261,,,0
Pizza Ranch Jamestown,,805 20th Street SW ,,Jamestown,ND, 58401,United States,(701) 952-2000,46.8879182563213,-98.72001975774765,Monday 11:00 AM - 9:00 PM; Tuesday 11:00 AM - 9:00 PM; Wednesday 11:00 AM - 9:00 PM; Thursday 11:00 AM - 9:00 PM; Friday 11:00 AM - 9:00 PM; Saturday 11:00 AM - 9:00 PM; Sunday 11:00 AM - 9:00 PM,,0
Pizza Ranch Harvey,,721 Lincoln Avenue ,,Harvey,ND, 58341,United States,(701) 324-2332,47.77048718280553,-99.93436424994798,Monday 9:30 AM - 8:00 PM; Tuesday 9:30 AM - 8:00 PM; Wednesday 9:30 AM - 8:00 PM; Thursday 9:30 AM - 8:00 PM; Friday 9:30 AM - 8:00 PM; Saturday 9:30 AM - 8:00 PM; Sunday 9:30 AM - 8:00 PM,,0
Pizza Ranch Grand Forks,,3750 32nd Ave. S ,UNIT 100 ,Grand Forks,ND, 58201,United States,(701) 775-2222,47.89086772885801,-97.08241574001477,Monday 11:00 AM - 10:00 PM; Tuesday 11:00 AM - 10:00 PM; Wednesday 11:00 AM - 10:00 PM; Thursday 11:00 AM - 10:00 PM; Friday 11:00 AM - 10:00 PM; Saturday 11:00 AM - 10:00 PM; Sunday 11:00 AM - 10:00 PM,,0
Pizza Ranch Fargo,,4480 23rd Avenue South. ,STE A ,Fargo,ND, 58104,United States,(701) 356-4141,46.842761107401316,-96.86100482940674,Monday 11:00 AM - 10:00 PM; Tuesday 11:00 AM - 10:00 PM; Wednesday 11:00 AM - 10:00 PM; Thursday 11:00 AM - 10:00 PM; Friday 11:00 AM - 10:00 PM; Saturday 11:00 AM - 10:00 PM; Sunday 11:00 AM - 10:00 PM,,0
Pizza Ranch Dickinson,,2184 2nd Avenue West ,,Dickinson,ND, 58601,United States,(701) 483-0008,46.90599686770888,-102.78761923313141,Monday 11:00 AM - 9:00 PM; Tuesday 11:00 AM - 9:00 PM; Wednesday 11:00 AM - 9:00 PM; Thursday 11:00 AM - 9:00 PM; Friday 11:00 AM - 9:00 PM; Saturday 11:00 AM - 9:00 PM; Sunday 11:00 AM - 9:00 PM,,0
Pizza Ranch Devils Lake,,624 College Drive South ,,Devils Lake,ND, 58301,United States,(701) 665-6565,48.102838839954075,-98.86324167251587,Monday 11:00 AM - 10:00 PM; Tuesday 11:00 AM - 10:00 PM; Wednesday 11:00 AM - 10:00 PM; Thursday 11:00 AM - 10:00 PM; Friday 11:00 AM - 10:00 PM; Saturday 11:00 AM - 10:00 PM; Sunday 11:00 AM - 10:00 PM,,0
Pizza Ranch Cooperstown,,815 Burrel Ave SW ,,Cooperstown,ND, 58425,United States,(701) 797-2800,47.44482196536036,-98.12410785822516,Monday 11:00 AM - 9:00 PM; Tuesday 11:00 AM - 9:00 PM; Wednesday 11:00 AM - 9:00 PM; Thursday 11:00 AM - 9:00 PM; Friday 11:00 AM - 9:00 PM; Saturday 11:00 AM - 9:00 PM; Sunday 11:00 AM - 9:00 PM,,0
Pizza Ranch Casselton,,638 Front Street ,,Casselton,ND, 58012,United States,(701) 347-4099,46.900856431178674,-97.2118845489058,Monday 11:00 AM - 8:00 PM; Tuesday 11:00 AM - 8:00 PM; Wednesday 11:00 AM - 8:00 PM; Thursday 11:00 AM - 8:00 PM; Friday 11:00 AM - 8:00 PM; Saturday 11:00 AM - 8:00 PM; Sunday 11:00 AM - 8:00 PM,,0
Pizza Ranch Carrington,,730 4th Avenue South ,,Carrington,ND, 58421,United States,(701) 652-3232,47.441016014208124,-99.11828724679253,Monday 11:00 AM - 8:00 PM; Tuesday 11:00 AM - 8:00 PM; Wednesday 11:00 AM - 8:00 PM; Thursday 11:00 AM - 8:00 PM; Friday 11:00 AM - 8:00 PM; Saturday 11:00 AM - 8:00 PM; Sunday 11:00 AM - 8:00 PM,,0
Pizza Ranch Watertown,,217 10th Street NW ,,Watertown,SD, 57201,United States,(605) 882-4040,44.90427442739435,-97.13185145521493,Monday 11:00 AM - 9:00 PM; Tuesday 11:00 AM - 9:00 PM; Wednesday 11:00 AM - 9:00 PM; Thursday 11:00 AM - 9:00 PM; Friday 11:00 AM - 10:00 PM; Saturday 11:00 AM - 10:00 PM; Sunday 11:00 AM - 9:00 PM,,0
Pizza Ranch Tea,,801 E Brian Street ,,Tea,SD, 57064,United States,(605) 368-5588,43.4534249539445,-96.82545451451006,Monday 10:00 AM - 10:00 PM; Tuesday 10:00 AM - 10:00 PM; Wednesday 10:00 AM - 10:00 PM; Thursday 10:00 AM - 10:00 PM; Friday 10:00 AM - 10:30 PM; Saturday 10:00 AM - 10:30 PM; Sunday 10:00 AM - 10:00 PM,,0
Pizza Ranch Sturgis,,2711 Lazelle Street ,,Sturgis,SD, 57785,United States,(605) 347-3400,44.41777941043881,-103.537975093368,Monday 11:00 AM - 8:00 PM; Tuesday 11:00 AM - 8:00 PM; Wednesday 11:00 AM - 8:00 PM; Thursday 11:00 AM - 8:00 PM; Friday 11:00 AM - 8:00 PM; Saturday 11:00 AM - 8:00 PM; Sunday 11:00 AM - 8:00 PM,,0
Pizza Ranch Spearfish,,2625 E Colorado Blvd. ,,Spearfish,SD, 57783,United States,(605) 642-4422,44.47505739733668,-103.81489917790987,Monday 11:00 AM - 9:00 PM; Tuesday 11:00 AM - 9:00 PM; Wednesday 11:00 AM - 9:00 PM; Thursday 11:00 AM - 9:00 PM; Friday 11:00 AM - 10:00 PM; Saturday 11:00 AM - 10:00 PM; Sunday 11:00 AM - 9:00 PM,,0
Pizza Ranch Platte,,801 E 7th Street ,,Platte,SD, 57369,United States,(605) 337-3250,43.384491360434986,-98.83343680763574,Monday 10:00 AM - 10:00 PM; Tuesday 10:00 AM - 10:00 PM; Wednesday 10:00 AM - 10:00 PM; Thursday 10:00 AM - 10:00 PM; Friday 10:00 AM - 10:00 PM; Saturday 10:00 AM - 10:00 PM; Sunday 10:00 AM - 10:00 PM,,0
Pizza Ranch Mobridge,,1209 10th Street West ,,Mobridge,SD, 57601,United States,(605) 845-2700,45.542282,-100.449793,,,0
Pizza Ranch Mitchell,,502 E Norway Ave ,,Mitchell,SD, 57301,United States,(605) 996-8009,43.69529165040329,-98.0185225420064,Monday 10:00 AM - 10:00 PM; Tuesday 10:00 AM - 10:00 PM; Wednesday 10:00 AM - 10:00 PM; Thursday 10:00 AM - 10:00 PM; Friday 10:00 AM - 10:00 PM; Saturday 10:00 AM - 10:00 PM; Sunday 10:00 AM - 10:00 PM,,0
Pizza Ranch Milbank,,306 S Main St ,,Milbank,SD, 57252,United States,(605) 432-5200,45.21966853269749,-96.6363188624382,Monday 11:00 AM - 9:00 PM; Tuesday 11:00 AM - 9:00 PM; Wednesday 11:00 AM - 9:00 PM; Thursday 11:00 AM - 9:00 PM; Friday 11:00 AM - 10:00 PM; Saturday 11:00 AM - 10:00 PM; Sunday 11:00 AM - 9:00 PM,,0
Pizza Ranch Madison,,1111 NW 2nd St. ,,Madison,SD, 57042,United States,(605) 256-3333,44.00706511495746,-97.12982102299065,Monday 10:00 AM - 9:30 PM; Tuesday 10:00 AM - 9:30 PM; Wednesday 10:00 AM - 9:30 PM; Thursday 10:00 AM - 9:30 PM; Friday 10:00 AM - 9:30 PM; Saturday 10:00 AM - 9:30 PM; Sunday 10:00 AM - 9:30 PM,,0
Pizza Ranch Canton,,719 E 5th Street ,,Canton,SD, 57013,United States,(605) 987-0099,43.3003722931617,-96.58371238057953,Monday 11:00 AM - 9:30 PM; Tuesday 11:00 AM - 9:30 PM; Wednesday 11:00 AM - 9:30 PM; Thursday 11:00 AM - 9:30 PM; Friday 11:00 AM - 9:30 PM; Saturday 11:00 AM - 9:30 PM; Sunday 11:00 AM - 9:30 PM,,0
Pizza Ranch Brookings,,1815 6th Street ,,Brookings,SD, 57006,United States,(605) 692-3663,44.312030370707085,-96.77405802536663,Monday 10:00 AM - 10:00 PM; Tuesday 10:00 AM - 10:00 PM; Wednesday 10:00 AM - 10:00 PM; Thursday 10:00 AM - 10:00 PM; Friday 10:00 AM - 10:00 PM; Saturday 10:00 AM - 10:00 PM; Sunday 10:00 AM - 10:00 PM,,0
Pizza Ranch Brandon,,202 Splitrock Blvd. ,,Brandon,SD, 57005,United States,(605) 582-6322,43.59305505516319,-96.57144963741302,Monday 11:00 AM - 10:00 PM; Tuesday 11:00 AM - 10:00 PM; Wednesday 11:00 AM - 10:00 PM; Thursday 11:00 AM - 10:00 PM; Friday 11:00 AM - 10:00 PM; Saturday 11:00 AM - 10:00 PM; Sunday 11:00 AM - 10:00 PM,,0
Pizza Ranch Aberdeen,,1010 6th Avenue SE ,,Aberdeen,SD, 57401,United States,(605) 725-2525,45.45883340995857,-98.47272134852574,Monday 11:00 AM - 10:00 PM; Tuesday 11:00 AM - 10:00 PM; Wednesday 11:00 AM - 10:00 PM; Thursday 11:00 AM - 10:00 PM; Friday 11:00 AM - 10:00 PM; Saturday 11:00 AM - 10:00 PM; Sunday 11:00 AM - 10:00 PM,,0
Pizza Ranch Sioux Falls West 41st St,,2717 W 41st Street ,,Sioux Falls,SD, 57105,United States,(605) 271-8646,43.514233809513115,-96.75896018743515,Monday 10:00 AM - 10:00 PM; Tuesday 10:00 AM - 10:00 PM; Wednesday 10:00 AM - 10:00 PM; Thursday 10:00 AM - 10:00 PM; Friday 10:00 AM - 11:00 PM; Saturday 10:00 AM - 11:00 PM; Sunday 10:00 AM - 10:00 PM,,0
Pizza Ranch Rapid City North,,1556 Luna Avenue ,,Rapid City,SD, 57701,United States,(605) 348-9114,44.099608179849454,-103.19526806473732,Monday 11:00 AM - 9:00 PM; Tuesday 11:00 AM - 9:00 PM; Wednesday 11:00 AM - 9:00 PM; Thursday 11:00 AM - 9:00 PM; Friday 11:00 AM - 9:00 PM; Saturday 11:00 AM - 9:00 PM; Sunday 11:00 AM - 9:00 PM,,0
