store_name,store_number,address,address2,city,state,zip_code,country,phone_number,latitude,longitude,store_hours,other_fields,coming_soon
117th & I90 GetGo/WetGo,3230,3038 W 117th Street,,Cleveland,OH,44111,United States,(216) 941-9024 (Main); (216) 941-9254 (Main Fax); (216) 941-9443 (Car Wash),41.469188,-81.769217,Sun-Sat: 6:00 AM - 11:00 PM,,0
117th & I90 Giant Eagle,230,3050 W. 117th Street,,Cleveland,OH,44111,United States,(216) 941-5012 (Main); (216) 941-5109 (Pharmacy); (216) 941-5284 (Main Fax); (216) 941-5158 (Pharmacy Fax); (216) 941-5649 (State Liquor Agency),41.468795,-81.771390,Sun-Sat: Open 24 hours,,0
Akron Route 224 & 241 GetGo,3392,1900 East Waterloo Road,,Akron,OH,44312,United States,(330) 849-3050 (Main); (330) 849-3051 (Main Fax),41.026985,-81.461538,Sun-Sat: Open 24 hours,,0
Aliquippa GetGo,3694,3105 Green Garden Road,,Aliquippa,PA,15001-1069,United States,(724) 378-6320 (Main); Sun: 6:00 AM - 9:00 PM,40.598231,-80.302662,Mon-Sat: 6:00 AM - 10:00 PM,,0
Aliquippa Giant Eagle,625,3113 Green Garden Road,Green Garden Shopping Center,Aliquippa,PA,15001,United States,"Aliquippa, PA 15001; (724) 378-8896 (Main); (724) 378-9170 (Pharmacy); (724) 378-3290 (Main Fax); (724) 378-4207 (Pharmacy Fax); Sun: 7:00 AM - 9:00 PM",40.598240,-80.305710,Mon-Sat: 7:00 AM - 10:00 PM,,0
Allegheny Towne Center Giant Eagle,41,41 Towne Center Drive,,Leechburg,PA,15656,United States,(724) 845-9298 (Main); (724) 845-1077 (Pharmacy); (724) 845-4347 (Main Fax); (724) 845-4355 (Pharmacy Fax),40.608333,-79.610973,Sun-Sat: 6:00 AM - 10:00 PM,,0
Allegheny Township GetGo,3041,51 Towne Center Drive,,Leechburg,PA,15656,United States,(724) 845-4343 (Main); (724) 845-4367 (Main Fax),40.606839,-79.609101,Sun-Sat: 5:00 AM - 11:00 PM,,0
Alliance Giant Eagle,1605,1800 W. State ,,Alliance,OH,44601,United States,(330) 821-9015 (Main); (330) 829-3192 (Pharmacy); (330) 829-3185 (Main Fax); (330) 829-3196 (Pharmacy Fax); (330) 829-3191 (State Liquor Agency),40.901346,-81.130603,Sun-Sat: 6:00 AM - 12:00 AM,,0
Allison Park GetGo,3489,2401 Ferguson Road,,Allison Park,PA,15101,United States,(412) 487-9685 (Main),40.555246,-79.971201,Sun-Sat: 5:30 AM - 11:00 PM,,0
Altoona GetGo,3649,200 Sophira Lane,,Altoona,PA,16602,United States,(814) 940-1525 (Main),40.485400,-78.387906,Sun-Sat: 6:00 AM - 11:00 PM,,0
Altoona Giant Eagle,71,181 Sophira Lane,Logan Town Center,Altoona,PA,16602,United States,"Altoona, PA 16602; (814) 946-1845 (Main); (814) 946-4267 (Pharmacy); (814) 946-4025 (Main Fax); (814) 946-5324 (Pharmacy Fax)",40.484320,-78.387142,Sun-Sat: 6:00 AM - 12:00 AM,,0
Ames Plaza Giant Eagle,76,4680 Old William Penn Hwy,,Monroeville,PA,15146,United States,(412) 373-8299 (Main); (412) 373-4158 (Main Fax),40.439533,-79.741047,Sun-Sat: 6:00 AM - 11:00 PM,,0
Amherst GetGo,3220,2223 Kresge Drive,,Amherst,OH,44001,United States,(440) 282-8600 (Main),41.416641,-82.205529,Sun-Sat: 5:00 AM - 11:00 PM,,0
Amherst Giant Eagle,220,2201 Kresge Drive,,Amherst,OH,44001,United States,(440) 282-7614 (Main); (440) 282-7651 (Pharmacy); (440) 282-5769 (Main Fax); (440) 282-7663 (Pharmacy Fax); (440) 960-9127 (State Liquor Agency),41.416420,-82.203394,Sun-Sat: Open 24 hours,,0
Ashtabula GetGo,3621,2388 Prospect Ave,,Ashtabula,OH,44004,United States,(440) 992-5159 (Main),41.854377,-80.817174,Sun-Sat: 6:00 AM - 11:00 PM,,0
Ashtabula Giant Eagle,621,2390 Prospect Avenue,,Ashtabula,OH,44004,United States,(440) 992-6881 (Main); (440) 992-6165 (Pharmacy); (440) 998-6258 (Main Fax); (440) 992-6046 (Pharmacy Fax); Sun: 6:00 AM - 10:00 PM,41.854377,-80.817174,Mon-Sat: 6:00 AM - 11:00 PM,,0
Austintown GetGo/WetGo,3132,5163 Mahoning Ave,,Austintown,OH,44515,United States,(330) 792-2311 (Main); (330) 792-2313 (Main Fax),41.099144,-80.755057,Sun-Sat: Open 24 hours,,0
Austintown Giant Eagle,4078,5220 Mahoning Avenue,,Youngstown,OH,44515,United States,(330) 793-2994 (Main); (330) 793-9345 (Pharmacy); (330) 793-2726 (Main Fax); (330) 793-8659 (Pharmacy Fax),41.101044,-80.756940,Sun-Sat: 6:00 AM - 1:00 AM,,0
Avon GetGo,3284,1501 Travelers Pointe,,Avon,OH,44011,United States,(440) 934-5855 (Main); (440) 934-5864 (Main Fax),41.466638,-82.023024,Sun-Sat: Open 24 hours,,0
Avon Lake Giant Eagle,1284,31990 Walker Road,,Avon Lake,OH,44012,United States,(440) 933-5078 (Main); (440) 933-9598 (Pharmacy); (440) 930-8891 (Main Fax); (440) 933-7571 (Pharmacy Fax),41.493500,-81.985994,Sun-Sat: 6:00 AM - 1:00 AM,,0
Babcock Blvd GetGo,3488,5603 Babcock Boulevard,,Pittsburgh,PA,15237,United States,(412) 366-6999 (Main),40.547086,-80.029268,Sun-Sat: 6:00 AM - 11:00 PM,,0
Baden Giant Eagle,75,1600 West State Street,Northern Lights Shopping Ctr.,Baden,PA,15005,United States,"Baden, PA 15005; (724) 869-8420 (Main); (724) 869-7220 (Pharmacy); (724) 869-3170 (Main Fax); (724) 869-7408 (Pharmacy Fax); Sun: 8:00 AM - 9:00 PM",40.657765,-80.236568,Mon-Sat: 7:00 AM - 10:00 PM,,0
Barberton GetGo,3656,45 5th Street S.E.,,Barberton,OH,44203,United States,(330) 861-5039 (Main); (330) 861-0717 (Main Fax),41.009189,-81.589917,Sun-Sat: 6:00 AM - 11:00 PM,,0
Barberton Giant Eagle,4031,41 5th Street S.E.,,Barberton,OH,44203,United States,(330) 745-9200 (Main); (330) 861-0849 (Pharmacy); (330) 745-7131 (Main Fax); (330) 861-0872 (Pharmacy Fax),41.009310,-81.588002,Sun-Sat: 6:00 AM - 12:00 AM,,0
Baum Blvd. GetGo,3064,4924 Baum Blvd.,,Pittsburgh,PA,15213,United States,(412) 681-1883 (Main); (412) 621-6191 (Main Fax),40.454590,-79.945506,Sun-Sat: Open 24 hours,,0
Beachwood Giant Eagle,5830,24601 Chagrin Blvd.,,Beachwood,OH,44122,United States,(216) 831-3535 (Main); (216) 831-8080 (Pharmacy); (216) 831-5750 (Main Fax); (216) 831-5330 (Pharmacy Fax); (216) 755-8002 (State Liquor Agency),41.465584,-81.506038,Sun-Sat: 7:00 AM - 12:00 AM,,0
Bedford GetGo,3602,4363 U.S. 220 Business,Unit #1,Bedford,PA,15522,United States,"Bedford, PA 15522; (814) 624-0599 (Main); (814) 624-0399 (Main Fax)",40.053028,-78.511219,Sun-Sat: 5:00 AM - 12:00 AM,,0
Bedford GetGo/WetGo,3833,400 Northfield Road,,Bedford,OH,44146,United States,(216) 587-4176 (Main); (216) 587-4244 (Main Fax),41.409182,-81.528405,Sun-Sat: 5:00 AM - 12:00 AM,,0
Bedford OH Giant Eagle,209,900 Northfield Road,,Bedford,OH,44146,United States,(440) 439-1800 (Main); (440) 439-1416 (Pharmacy); (440) 439-6602 (Main Fax); (440) 439-1796 (Pharmacy Fax); Sun: 7:00 AM - 9:00 PM,41.389117,-81.526029,Mon-Sat: 7:00 AM - 11:00 PM,,0
Bedford PA Giant Eagle,1602,510 East Pitt Street,,Bedford,PA,15522,United States,(814) 623-2775 (Main); (814) 623-1188 (Pharmacy); (814) 623-5665 (Main Fax); (814) 623-1143 (Pharmacy Fax); Sun: 6:30 AM - 7:00 PM,40.019312,-78.495060,Mon-Sat: 6:30 AM - 9:00 PM,,0
Beechwood & State St. GetGo Cafe and Market,3625,1896 West State Street,,Alliance,OH,44601,United States,(330) 821-2216 (Main); (330) 821-2298 (Main Fax),40.901500,-81.134400,Sun-Sat: Open 24 hours,,0
Belle Vernon GetGo,3051,4285 State Route 51 S,,Belle Vernon,PA,15012,United States,(724) 929-6328 (Main); (724) 929-3857 (Main Fax),40.152383,-79.775158,Sun-Sat: Open 24 hours,,0
Belle Vernon Giant Eagle,53,300 Tri County Lane,,Belle Vernon,PA,15012,United States,(724) 929-6750 (Main); (724) 929-3789 (Pharmacy); (724) 929-8809 (Main Fax); (724) 929-6034 (Pharmacy Fax),40.137428,-79.840528,Sun-Sat: 6:00 AM - 11:00 PM,,0
Bentleyville Giant Eagle,1603,155 Wilson Road,,Bentleyville,PA,15314,United States,(724) 239-2300 (Main); (724) 239-2305 (Main Fax),40.129194,-80.001976,Sun-Sat: 8:00 AM - 10:00 PM,,0
Berea Giant Eagle,2108,50 West Bridge Street,,Berea,OH,44017,United States,(440) 234-6616 (Main); (440) 826-9104 (Pharmacy); (440) 826-9110 (Main Fax); (440) 826-9107 (Pharmacy Fax),41.367601,-81.855903,Sun-Sat: 7:00 AM - 11:00 PM,,0
Bethel Park Giant Eagle,4,"5055 Library Road, Suite 5",,Bethel Park,PA,15102-4215,United States,(412) 833-8575 (Main); (412) 831-7727 (Pharmacy); (412) 833-4526 (Main Fax); (412) 833-0606 (Pharmacy Fax),40.338725,-80.024388,Sun-Sat: Open 24 hours,,0
Bexley Market District Express,5107,2250 East Main St,,Bexley,OH,43209,United States,(614) 591-6635 (Main); (614) 591-6639 (Main Fax); (614) 591-6637 (Curbside Express),39.957659,-82.939679,Sun-Sat: 6:00 AM - 11:00 PM,,0
Biddulph Plaza Giant Eagle,6376,6300 Biddulph Road,,Brooklyn,OH,44144,United States,(216) 351-5180 (Main); (216) 739-4125 (Pharmacy); (216) 398-5771 (Main Fax); (216) 739-4128 (Pharmacy Fax),41.431776,-81.730471,Sun-Sat: 6:00 AM - 1:00 AM,,0
Blacklick GetGo,3513,6825 East Broad Street,,Columbus,OH,43213,United States,(614) 863-0826 (Main); (614) 863-0849 (Main Fax),39.981843,-82.821780,Sun-Sat: 6:00 AM - 11:00 PM,,0
Blacklick Giant Eagle,6513,6867 East Broad Street,,Columbus,OH,43213,United States,(614) 866-1468 (Main); (614) 866-3079 (Pharmacy); (614) 866-6372 (Main Fax); (614) 866-5654 (Pharmacy Fax); (614) 866-5226 (State Liquor Agency); (614) 866-6084 (State Liquor Agency Fax),39.980836,-82.820606,Sun-Sat: 6:00 AM - 11:00 PM,,0
Boardman GetGo,3318,480 Boardman-Canfield Rd,,Boardman,OH,44512,United States,(330) 729-9305 (Main),41.024609,-80.679035,Sun-Sat: 6:00 AM - 11:00 PM,,0
Boardman Giant Eagle,4018,476 Boardman-Canfield Road,,Youngstown,OH,44512,United States,(330) 758-5367 (Main); (330) 726-9518 (Pharmacy); (330) 758-0002 (Main Fax); (330) 726-5957 (Pharmacy Fax); (330) 758-3767 (State Liquor Agency),41.025709,-80.678954,Sun-Sat: 6:00 AM - 1:00 AM,,0
Bolivar Giant Eagle,4016,11031 State Rt. 212 - N.E.,,Bolivar,OH,44612-8744,United States,(330) 874-3511 (Main); (330) 874-3723 (Pharmacy); (330) 874-4112 (Main Fax); (330) 874-1184 (Pharmacy Fax),40.640510,-81.442326,Sun-Sat: 7:00 AM - 10:00 PM,,0
Braddock Hills Giant Eagle,77,254 Yost Boulevard-Braddock,,Pittsburgh,PA,15221,United States,(412) 271-3505 (Main); (412) 271-4445 (Pharmacy); (412) 271-0826 (Main Fax); (412) 351-6112 (Pharmacy Fax); Sun: 7:00 AM - 10:00 PM,40.414427,-79.855306,Mon-Sat: 6:00 AM - 10:00 PM,,0
Brentwood GetGo/WetGo,3616,3601 Sawmill Run Blvd,State Route 51,Pittsburgh,PA,15227,United States,"Pittsburgh, PA 15227; (412) 885-7360 (Main)",40.372174,-79.981943,Sun-Sat: Open 24 hours,,0
Brentwood Giant Eagle,616,600 Towne Square Way,,Pittsburgh,PA,15227,United States,(412) 881-4075 (Main); (412) 881-5120 (Pharmacy); (412) 881-0170 (Main Fax); (412) 885-0693 (Pharmacy Fax),40.365482,-79.982512,Sun-Sat: 5:00 AM - 12:00 AM,,0
Bridgeville GetGo/WetGo,3641,3029 Washington Pike,,Bridgeville,PA,15017,United States,(412) 220-7190 (Main); (412) 220-7193 (Main Fax),40.353110,-80.114203,Sun-Sat: Open 24 hours,,0
Bridgeville Giant Eagle,641,1025 Washington Pike,,Bridgeville,PA,15017,United States,(412) 221-1422 (Main); (412) 257-3050 (Pharmacy); (412) 221-3760 (Main Fax); (412) 220-0352 (Pharmacy Fax),40.367495,-80.109102,Sun-Sat: 7:00 AM - 10:00 PM,,0
Brighton Heights Giant Eagle,65,4110 Brighton Road,Brighton Road & Bascom Street,Pittsburgh,PA,15212,United States,"Pittsburgh, PA 15212; (412) 761-2240 (Main); (412) 761-1133 (Pharmacy); (412) 761-1293 (Main Fax); (412) 761-7788 (Pharmacy Fax)",40.489719,-80.044245,Sun-Sat: 6:00 AM - 11:00 PM,,0
Britton Parkway GetGo,3531,4051 Britton Parkway,,Hilliard,OH,43026,United States,(614) 876-1080 (Main); (614) 876-1627 (Main Fax),40.036000,-83.131800,Sun-Sat: 5:00 AM - 12:00 AM,,0
Britton Parkway Giant Eagle,6531,4001 Britton Parkway,,Hilliard,OH,43026,United States,(614) 921-8196 (Main); (614) 921-8260 (Pharmacy); (614) 921-8301 (Main Fax); (614) 921-8285 (Pharmacy Fax); (614) 921-8250 (Curbside Express),40.035731,-83.133502,Sun-Sat: 6:00 AM - 11:00 PM,,0
Broad Street Giant Eagle,19,1233 Broad Street,,Johnstown,PA,15906,United States,(814) 535-6711 (Main); (814) 535-4496 (Pharmacy); (814) 535-6712 (Main Fax); (814) 536-6968 (Pharmacy Fax); Sun: 8:00 AM - 9:00 PM,40.345432,-78.939527,Mon-Sat: 6:00 AM - 10:00 PM,,0
Broadview GetGo,3388,7418 Broadview Road,,Parma,OH,44134,United States,(216) 328-8540 (Main); (216) 328-8542 (Main Fax),41.363864,-81.685107,Sun-Sat: 6:00 AM - 12:00 AM,,0
Broadview Heights Giant Eagle,6388,7400 Broadview Road,,Parma,OH,44134,United States,(216) 328-8095 (Main); (216) 328-8263 (Pharmacy); (216) 328-9541 (Main Fax); (216) 328-8267 (Pharmacy Fax); (216) 328-8266 (State Liquor Agency),41.364794,-81.687774,Sun-Sat: 6:00 AM - 12:00 AM,,0
Brookfield Giant Eagle,1435,7229 Warren-Sharon Road,,Brookfield,OH,44403,United States,(330) 448-6480 (Pharmacy); (330) 448-5291 (Pharmacy Fax); Sun: 9:00 AM - 5:00 PM; Mon-Fri: 9:00 AM - 9:00 PM,41.235553,-80.557637,Sat: 9:00 AM - 7:00 PM,,0
Brookpark GetGo,3465,14600 Snow Rd,,Brookpark,OH,44142,United States,(216) 267-8128 (Main),41.404834,-81.796418,Sun-Sat: 6:00 AM - 11:00 PM,,0
Brookpark Giant Eagle,465,14650 Snow Road,,Brook Park,OH,44142,United States,(216) 267-0404 (Main); (216) 267-2185 (Pharmacy); (216) 267-2177 (Main Fax); (216) 267-2392 (Pharmacy Fax),41.405556,-81.798135,Sun-Sat: 6:00 AM - 1:00 AM,,0
Brookville GetGo,3080,217 Allegheny Blvd,,Brookville,PA,15825,United States,(814) 849-4363 (Main); (814) 849-6398 (Main Fax),41.165337,-79.098247,Sun-Sat: Open 24 hours,,0
Brookville Giant Eagle,80,40 White Street,,Brookville,PA,15825,United States,(814) 849-2356 (Main); (814) 849-7548 (Pharmacy); (814) 849-7792 (Main Fax); (814) 849-9650 (Pharmacy Fax),41.159513,-79.083259,Sun-Sat: 7:00 AM - 10:00 PM,,0
Brunswick Center Road GetGo,3390,3351 Center Road,,Brunswick,OH,44212,United States,(330) 741-6052 (Main); (330) 741-6053 (Main Fax),41.238798,-81.806639,Sun-Sat: Open 24 hours,,0
Brunswick Giant Eagle,229,3440 Center Road,,Brunswick,OH,44212,United States,(330) 225-0616 (Main); (330) 225-1159 (Pharmacy); (330) 220-0756 (Main Fax); (330) 220-1917 (Pharmacy Fax); (330) 220-7778 (State Liquor Agency); (330) 220-7617 (Curbside Express),41.237051,-81.809364,Sun-Sat: 6:00 AM - 1:00 AM,,0
Buffalo Twp. Giant Eagle,643,100 Buffalo Plaza,,Sarver,PA,16055,United States,(724) 294-2882 (Main); (724) 294-2802 (Pharmacy); (724) 294-2426 (Main Fax); (724) 294-2820 (Pharmacy Fax); Sun: 7:00 AM - 10:00 PM,40.706112,-79.724103,Mon-Sat: 6:00 AM - 11:00 PM,,0
Busch Blvd GetGo,3502,990 East Dublin-Granville Rd.,,Columbus,OH,43229,United States,(614) 416-0366 (Main),40.087837,-82.991074,Sun-Sat: 7:00 AM - 8:00 PM,,0
Butler GetGo/WetGo,3500,1024 North Main Street,,Butler,PA,16001,United States,(724) 282-4148 (Main),40.878157,-79.897195,Sun-Sat: Open 24 hours,,0
Butler Road GetGo/WetGo,3386,1700-B New Butler Road,,New Castle,PA,16101,United States,(724) 658-9651 (Main),40.984684,-80.313425,Sun-Sat: 6:00 AM - 11:00 PM,,0
Butler Road Giant Eagle,6386,1700 New Butler Road,,New Castle,PA,16101,United States,(724) 652-3822 (Main); (724) 654-9051 (Pharmacy); (724) 652-3262 (Entertainment); (724) 652-8058 (Main Fax); (724) 657-8225 (Pharmacy Fax),40.984684,-80.313425,Sun-Sat: 6:00 AM - 1:00 AM,,0
Calcutta GetGo,3632,15905 SR 170,,East Liverpool,OH,43920,United States,(330) 386-0574 (Main); (330) 386-1192 (Main Fax),40.674811,-80.584209,Sun-Sat: 6:00 AM - 11:00 PM,,0
Calcutta Giant Eagle,632,15937 State Route 170,,East Liverpool,OH,43920,United States,(330) 385-5313 (Main); (330) 385-2327 (Pharmacy); (330) 385-1730 (Main Fax); (330) 385-3150 (Pharmacy Fax),40.671915,-80.584995,Sun-Sat: Open 24 hours,,0
Camp Horne GetGo,3352,156 Ben Avon Heights Road,,Pittsburgh,PA,15237,United States,(412) 364-3453 (Main),40.521151,-80.068881,Sun-Sat: 5:00 AM - 11:00 PM,,0
Camp Horne Giant Eagle,52,132 Ben Avon Heights Road,,Pittsburgh,PA,15237,United States,(412) 364-2390 (Main); (412) 364-2671 (Pharmacy); (412) 364-3847 (Entertainment); (412) 364-3743 (Main Fax); (412) 364-3883 (Pharmacy Fax),40.521951,-80.070888,Sun-Sat: Open 24 hours,,0
Canal Fulton Giant Eagle,1633,2275 Locust Street,,Canal Fulton,OH,44614,United States,(330) 854-2239 (Main); (330) 854-7816 (Main Fax),40.881256,-81.569973,Sun-Sat: 6:00 AM - 12:00 AM,,0
Canfield Giant Eagle,6385,525 East Main Street,,Canfield,OH,44406,United States,(330) 702-0522 (Main); (330) 286-0012 (Pharmacy); (330) 702-0626 (Entertainment); (330) 702-0637 (Main Fax); (330) 286-0025 (Pharmacy Fax); (330) 702-1317 (State Liquor Agency); (330) 702-1326 (State Liquor Agency Fax),41.024552,-80.744485,Sun-Sat: 6:00 AM - 1:00 AM,,0
Canfield Route 224 & 11 GetGo,3358,4590 Boardman Canfield Rd,,Canfield,OH,44406,United States,(330) 967-7146 (Main); (330) 967-7147 (Main Fax),41.024167,-80.736456,Sun-Sat: Open 24 hours,,0
Canton GetGo,3387,3070 Cromer Avenue NW,,Canton,OH,44709,United States,(330) 492-2157 (Main); (330) 492-2206 (Main Fax),40.832985,-81.382796,Sun-Sat: 6:00 AM - 11:00 PM,,0
Canton Giant Eagle,4387,"3100 Cromer Avenue, N.W.",,Canton,OH,44709,United States,(330) 492-5160 (Main); (330) 493-9404 (Pharmacy); (330) 492-0530 (Main Fax); (330) 493-3127 (Pharmacy Fax); (330) 493-9469 (State Liquor Agency); (330) 493-9476 (State Liquor Agency Fax),40.833801,-81.382733,Sun-Sat: 6:00 AM - 12:00 AM,,0
Carmel 146th & Gray GetGo,3557,4927 E 146th Street,,Carmel,IN,46033,United States,(317) 689-6804 (Main); (317) 689-6805 (Main Fax); (317) 689-6804 (Curbside Express),39.998922,-86.088241,Sun-Sat: Open 24 hours,,0
Carmel GetGo Cafe and Market,3550,11545 N Illinois Street,,Carmel,IN,46032,United States,(317) 569-0034 (Main); (317) 569-0245 (Main Fax),39.954400,-86.163300,Sun-Sat: Open 24 hours,,0
Carnegie Parkway GetGo,3705,410 Chestnut Street,,Carnegie,PA,15106,United States,(412) 276-0925 (Main); (412) 276-0927 (Main Fax),40.409706,-80.082746,Sun-Sat: Open 24 hours,,0
Carnegie Parkway GetGo,3205,350 E Main Street,,Carnegie,PA,15106,United States,(412) 276-6107 (Main),40.409689,-80.082478,Sun-Sat: Open 24 hours,,0
Caste Village Giant Eagle,31,5260 Grove Road,Baptist & Grove Roads,Pittsburgh,PA,15236,United States,"Pittsburgh, PA 15236; (412) 881-4601 (Main); (412) 881-4602 (Pharmacy); (412) 881-0920 (Main Fax); (412) 881-2887 (Pharmacy Fax)",40.357901,-80.001370,Sun-Sat: 6:00 AM - 12:00 AM,,0
Cedar Avenue Giant Eagle,91,318-320 Cedar Avenue,,Pittsburgh,PA,15212,United States,(412) 321-3551 (Main); (412) 321-3553 (Pharmacy); (412) 321-7141 (Main Fax); (412) 321-8828 (Pharmacy Fax); Sun: 8:00 AM - 9:00 PM,40.451427,-79.999854,Mon-Sat: 7:00 AM - 10:00 PM,,0
Century Plaza Giant Eagle,73,9901 Mountainview Drive,,West Mifflin,PA,15122,United States,(412) 655-7344 (Main); (412) 655-7333 (Pharmacy); (412) 650-4040 (Entertainment); (412) 655-1363 (Main Fax); (412) 655-4874 (Pharmacy Fax); (412) 655-9720 (Curbside Express),40.339126,-79.949774,Sun-Sat: 6:00 AM - 1:00 AM,,0
Chardon GetGo/WetGo,3383,318 Center Street,,Chardon,OH,44024,United States,(440) 285-8307 (Main),41.584044,-81.213229,Sun-Sat: 5:00 AM - 12:00 AM,,0
Chardon Giant Eagle,4098,351 Center Street,,Chardon,OH,44024,United States,(440) 286-4949 (Main); (440) 286-8680 (Pharmacy); (440) 286-6208 (Main Fax); (440) 285-9734 (Pharmacy Fax); (440) 286-8786 (State Liquor Agency),41.583274,-81.217691,Sun-Sat: 7:00 AM - 11:00 PM,,0
Chesterland Giant Eagle,203,12692 Chillicothe Road,,Chesterland,OH,44026,United States,(440) 729-9587 (Main); (440) 729-5457 (Pharmacy); (440) 729-2610 (Main Fax); (440) 729-5454 (Pharmacy Fax); Sun: 7:00 AM - 9:00 PM,41.523627,-81.340134,Mon-Sat: 7:00 AM - 11:00 PM,,0
Chippewa GetGo/WetGo,3166,111 McMillen Avenue,,Beaver Falls,PA,15010,United States,(724) 847-2263 (Main); (724) 847-0061 (Main Fax),40.770962,-80.372280,Sun-Sat: Open 24 hours,,0
Chippewa Giant Eagle,66,2650 Constitution Boulevard,,Beaver Falls,PA,15010,United States,(724) 843-9034 (Main); (724) 843-3922 (Pharmacy); (724) 846-1752 (Main Fax); (724) 891-6535 (Pharmacy Fax),40.775666,-80.379374,Sun-Sat: 6:00 AM - 12:00 AM,,0
Churchill Commons GetGo,3384,4698 Belmont Avenue,,Youngstown,OH,44505,United States,(330) 759-9502 (Main),41.165900,-80.666776,Sun-Sat: 6:00 AM - 11:00 PM,,0
Churchill Commons Giant Eagle,6384,4700 Belmont Avenue,,Youngstown,OH,44505,United States,(330) 759-9502 (Main); (330) 759-9348 (Pharmacy); (330) 759-9504 (Main Fax); (330) 759-1517 (Pharmacy Fax),41.165900,-80.666776,Sun-Sat: Open 24 hours,,0
City View GetGo,3218,5637 Transportation Blvd,,Garfield Heights,OH,44125,United States,(216) 662-7569 (Main),41.408747,-81.614369,Sun-Sat: 5:00 AM - 12:00 AM,,0
City View Giant Eagle,218,5744 Transportation Blvd,,Garfield Heights,OH,44125,United States,(216) 662-8419 (Main); (216) 662-8466 (Pharmacy); (216) 662-8435 (Main Fax); (216) 662-8539 (Pharmacy Fax); (216) 865-4760 (State Liquor Agency),41.404966,-81.612563,Sun-Sat: Open 24 hours,,0
Clearview Mall Giant Eagle,1608,1521 North Main Street,,Butler,PA,16001,United States,(724) 285-5761 (Main); (724) 282-9160 (Pharmacy); (724) 285-2155 (Main Fax); (724) 282-1648 (Pharmacy Fax); Sun: 7:00 AM - 9:00 PM,40.899596,-79.904850,Mon-Sat: 7:00 AM - 10:00 PM,,0
Cochran Road GetGo,3130,1636 Cochran Road,,Pittsburgh,PA,15220,United States,(412) 563-4140 (Main),40.391712,-80.060729,Sun-Sat: 5:00 AM - 11:00 PM,,0
Cochran Road Giant Eagle,35,1717 Cochran Road,Greentree & Cochran Rd,Pittsburgh,PA,15220,United States,"Pittsburgh, PA 15220; (412) 343-8020 (Main); (412) 343-8217 (Pharmacy); (412) 343-8254 (Main Fax); (412) 343-6886 (Pharmacy Fax)",40.392342,-80.068411,Sun-Sat: 6:00 AM - 12:00 AM,,0
Community Center GetGo,3075,6911 South Avenue,,Boardman,OH,44512,United States,(330) 758-1295 (Main); (330) 758-1362 (Main Fax),41.027700,-80.633900,Sun-Sat: 6:00 AM - 11:00 PM,,0
Community Center Giant Eagle,4075,1201 Doral Drive,Boardman Community SC,Youngstown,OH,44514,United States,"Youngstown, OH 44514; (330) 726-4991 (Main); (330) 726-7142 (Pharmacy); (330) 726-8657 (Main Fax); (330) 726-1381 (Pharmacy Fax); (330) 729-9479 (State Liquor Agency); (330) 726-7111 (Curbside Express)",41.027315,-80.632855,Sun-Sat: 6:00 AM - 1:00 AM,,0
Crafton CNG,3999,755 Beechnut Dr,,Crafton,PA,15205,United States,,40.453511,-80.082736,(412) 963-6200 (Main),,0
Crafton Giant Eagle,646,51 Walsh Road,Crafton-Ingram Shopping Center,Pittsburgh,PA,15205,United States,"Pittsburgh, PA 15205; (412) 921-4504 (Main); (412) 921-7250 (Pharmacy); (412) 921-1741 (Main Fax); (412) 920-0743 (Pharmacy Fax); Sun: 8:00 AM - 9:00 PM",40.440751,-80.072051,Mon-Sat: 6:00 AM - 11:00 PM,,0
Crafton/Ingram GetGo,3646,280 Crafton Ingram Shopping Center,,Pittsburgh,PA,15205,United States,(412) 937-0190 (Main); (412) 937-0196 (Main Fax),40.441721,-80.072028,Sun-Sat: 6:00 AM - 11:00 PM,,0
Cranberry Crossroads GetGo/WetGo,3165,1737 State Route 228,,Cranberry Twp,PA,16066,United States,(724) 741-2380 (Main); (724) 741-2382 (Main Fax),40.686596,-80.086010,Sun-Sat: Open 24 hours,,0
Cranberry Giant Eagle,665,20111 Route 19,Cranberry Mall SC,Cranberry Township,PA,16066,United States,"Cranberry Township, PA 16066; (724) 772-1030 (Main); (724) 772-7420 (Pharmacy); (724) 779-4390 (Main Fax); (724) 772-7471 (Pharmacy Fax)",40.681815,-80.100628,Sun-Sat: Open 24 hours,,0
Cranberry Township GetGo/WetGo,3131,20110 State Route 19,,Cranberry Township,PA,16066,United States,(724) 772-4944 (Main); (724) 779-3294 (Main Fax),40.682955,-80.100460,Sun-Sat: 5:00 AM - 12:00 AM,,0
Day Drive GetGo,3817,8039 Day Drive,,Cleveland,OH,44129,United States,(440) 842-1350 (Main); (440) 842-1665 (Main Fax),41.380093,-81.740555,Sun-Sat: 6:00 AM - 11:00 PM,,0
Day Drive Giant Eagle,5817,7939 Day Drive,,Cleveland,OH,44129,United States,(440) 888-7316 (Main); (440) 888-7392 (Pharmacy); (440) 888-7510 (Main Fax); (440) 888-7546 (State Liquor Agency); (440) 888-7367 (Curbside Express),41.378435,-81.739633,Sun-Sat: Open 24 hours,,0
Delmont GetGo/WetGo,3122,6586 Route 22,,Delmont,PA,15626,United States,(724) 468-3808 (Main),40.399704,-79.578978,Sun-Sat: Open 24 hours,,0
Donaldson Crossroads GetGo/WetGo,3070,4031 Washington Road,,McMurray,PA,15317,United States,(724) 941-0722 (Main); (724) 941-0726 (Main Fax); (724) 941-1322 (Car Wash),40.268573,-80.128039,Sun-Sat: 5:00 AM - 11:00 PM,,0
Donaldsons Crossroads Giant Eagle,70,4007 Washington Road,,McMurray,PA,15317-2520,United States,(724) 941-7220 (Main); (724) 941-0788 (Pharmacy); (724) 941-6047 (Main Fax); (724) 942-1531 (Pharmacy Fax); (724) 941-1595 (Curbside Express),40.270759,-80.128031,Sun-Sat: Open 24 hours,,0
Dover GetGo,3689,501 Union Avenue,,Dover,OH,44622,United States,(330) 343-8268 (Main); (330) 343-8364 (Main Fax),40.511450,-81.466906,Sun-Sat: 6:00 AM - 11:00 PM,,0
Dover Giant Eagle,4089,515 Union Avenue,,Dover,OH,44622,United States,(330) 364-5301 (Main); (330) 602-8490 (Pharmacy); (330) 364-7562 (Main Fax); (330) 602-8523 (Pharmacy Fax); (330) 343-4856 (State Liquor Agency); (330) 602-8489 (State Liquor Agency Fax),40.506875,-81.463565,Sun-Sat: 6:00 AM - 12:00 AM,,0
Dublin GetGo/WetGo,3401,6725 Perimeter Loop Dr,,Dublin,OH,43017,United States,(614) 766-5877 (Main); (614) 766-5071 (Main Fax),40.102736,-83.158768,Sun-Sat: 5:00 AM - 12:00 AM,,0
Dublin Market District,6520,6700 Perimeter Loop Road,,Dublin,OH,43017,United States,(614) 717-9445 (Main); (614) 717-9424 (Pharmacy); (614) 717-9162 (Main Fax); (614) 336-1660 (Pharmacy Fax); (614) 588-0095 (Curbside Express),40.102885,-83.156660,Sun-Sat: 6:00 AM - 12:00 AM,,0
DuBois GetGo,3484,14 North Main Street,,DuBois,PA,15801,United States,(814) 371-1275 (Main); (814) 371-1380 (Main Fax),41.122669,-78.766318,Sun-Sat: 6:00 AM - 10:00 PM,,0
DuBois Giant Eagle,84,100 N Main Street,,DuBois,PA,15801,United States,(814) 375-3708 (Main); (814) 371-9000 (Pharmacy); (814) 371-3268 (Main Fax); (814) 375-9704 (Pharmacy Fax),41.123946,-78.766565,Sun-Sat: 6:00 AM - 10:00 PM,,0
East Hills GetGo,3659,9003 Frankstown Road,,Pittsburgh,PA,15235,United States,(412) 371-6638 (Main),40.462268,-79.865225,Sun-Sat: 6:00 AM - 11:00 PM,,0
East Liverpool Giant Eagle,645,619 Bradshaw Avenue,,East Liverpool,OH,43920,United States,(330) 385-9845 (Main); (330) 385-7554 (Pharmacy); (330) 385-7087 (Main Fax); (330) 385-7462 (Pharmacy Fax),40.620783,-80.574786,Sun-Sat: 6:00 AM - 12:00 AM,,0
East McKeesport GetGo,3109,436 Lincoln Highway East,,East McKeesport,PA,15035,United States,(412) 829-8030 (Main),40.380683,-79.811598,Sun-Sat: Open 24 hours,,0
East Whittier Street Giant Eagle,6508,280 E. Whittier Street,,Columbus,OH,43206,United States,(614) 443-6575 (Main); (614) 443-5234 (Pharmacy); (614) 443-2587 (Main Fax); (614) 443-5239 (Pharmacy Fax),39.945236,-82.989478,Sun-Sat: 6:00 AM - 11:00 PM,,0
East Wylie GetGo,3154,104 East Wylie Avenue,,Washington,PA,15301,United States,(724) 228-8401 (Main),40.182785,-80.262817,Sun-Sat: Open 24 hours,,0
Eastgate Plaza Giant Eagle,81,"5142 Route 30, Suite 140",Eastgate Plaza ,Greensburg,PA,15601,United States,"Greensburg, PA 15601; (724) 836-7541 (Main); (724) 836-7613 (Pharmacy); (724) 836-5327 (Main Fax); (724) 850-7993 (Pharmacy Fax)",40.300957,-79.497599,Sun-Sat: 6:00 AM - 12:00 AM,,0
Ebensburg GetGo,3670,4534 Admiral Peary Highway,,Ebensburg,PA,15931,United States,(814) 472-2153 (Main); (814) 472-2162 (Main Fax),40.471412,-78.752006,Sun-Sat: 5:00 AM - 12:00 AM,,0
Ebensburg Giant Eagle,1670,881 College Plaza,Rt. 22W & Rt. 219,Ebensburg,PA,15931,United States,"Ebensburg, PA 15931; (814) 472-4710 (Main); (814) 472-0614 (Pharmacy); (814) 472-4553 (Main Fax); (814) 472-7088 (Pharmacy Fax); Sun: 7:00 AM - 9:00 PM",40.469212,-78.759120,Mon-Sat: 7:00 AM - 10:00 PM,,0
Edgecliff Giant Eagle,1263,15325 Edgecliff Avenue,,Cleveland,OH,44111,United States,(216) 476-2292 (Main); (216) 671-6550 (Pharmacy); (216) 476-2402 (Main Fax); (216) 671-6553 (Pharmacy Fax),41.463424,-81.803378,Sun-Sat: 7:00 AM - 10:00 PM,,0
Edgewood GetGo,3619,1043 South Braddock Ave,,Pittsburgh,PA,15218,United States,(412) 241-7481 (Main); (412) 241-7687 (Main Fax),40.433151,-79.893918,Sun-Sat: 6:00 AM - 11:00 PM,,0
Edgewood Giant Eagle,619,1705 South Braddock Avenue,,Pittsburgh,PA,15218,United States,(412) 371-4614 (Main); (412) 371-4456 (Pharmacy); (412) 371-7846 (Main Fax); (412) 242-6239 (Pharmacy Fax),40.425552,-79.886988,Sun-Sat: 6:00 AM - 11:00 PM,,0
Edinboro GetGo,3435,200 Erie Street,,Edinboro,PA,16412,United States,(814) 734-6960 (Main); (814) 734-6962 (Main Fax),41.875948,-80.131261,Sun-Sat: 6:00 AM - 11:00 PM,,0
Edinboro Giant Eagle,4035,606 Erie Street,,Edinboro,PA,16412,United States,(814) 734-7236 (Main); (814) 734-5036 (Pharmacy); (814) 734-2610 (Main Fax); (814) 734-7299 (Pharmacy Fax),41.888840,-80.126737,Sun-Sat: 6:00 AM - 10:00 PM,,0
Elizabeth GetGo,3105,1000 Hayden Boulevard,,Elizabeth,PA,15037,United States,(412) 384-1829 (Main); (412) 384-1896 (Main Fax),40.264914,-79.879381,Sun-Sat: Open 24 hours,,0
Elizabeth GetGo,3005,998 Hayden Boulevard,,Elizabeth,PA,15037,United States,(412) 382-3080 (Main); (412) 382-3082 (Main Fax),40.264398,-79.879081,Sun-Sat: Open 24 hours,,0
Elizabeth Giant Eagle,605,800 McKeesport Rd,,Elizabeth,PA,15037,United States,(412) 384-3884 (Main); (412) 384-3939 (Pharmacy); (412) 384-5802 (Main Fax); (412) 384-5314 (Pharmacy Fax); Sun: 8:00 AM - 9:00 PM,40.279841,-79.875493,Mon-Sat: 7:00 AM - 10:00 PM,,0
Ellwood City GetGo,3182,263 State Route 288,,Ellwood City,PA,16117,United States,(724) 752-1337 (Main); (724) 752-1446 (Main Fax),40.846703,-80.259869,Sun-Sat: 6:00 AM - 11:00 PM,,0
Ellwood City Plaza Giant Eagle,182,289 State Route 288,,Ellwood City,PA,16117,United States,(724) 752-1100 (Main); (724) 752-2101 (Pharmacy); (724) 752-1500 (Main Fax); (724) 752-9146 (Pharmacy Fax); Sun: 8:00 AM - 7:00 PM,40.847190,-80.258850,Mon-Sat: 8:00 AM - 10:00 PM,,0
Elyria GetGo,3811,209 East Bridge Street,,Elyria,OH,44035,United States,(440) 326-1940 (Main),41.369552,-82.097465,Sun-Sat: 6:00 AM - 11:00 PM,,0
Erie Bayfront GetGo,3232,1625 West Bayfront Pkwy,,Erie,PA,16505,United States,(814) 871-4308 (Main),42.110688,-80.118441,Sun-Sat: Open 24 hours,,0
Erie Bayfront GetGo Cafe and Market,3202,1655 W Bayfront Pkwy,,Erie,PA,16505,United States,(814) 461-6535 (Main); (814) 461-6539 (Main Fax),42.125802,-80.109962,Sun-Sat: Open 24 hours,,0
Erie I-90 & 430 GetGo Cafe and Market,3090,6005 Knowledge Pkwy,,Erie,PA,16510,United States,(814) 898-1025 (Main); (814) 898-1094 (Main Fax),42.118774,-79.965448,Sun-Sat: Open 24 hours,,0
Erie I-90 GetGo,3290,6001 Knowledge Pkwy,,Erie,PA,16510,United States,(814) 898-1548 (Main),42.118694,-79.965491,Sun-Sat: Open 24 hours,,0
Erie Peach St GetGo,3237,6400 Peach St,,Erie,PA,16509,United States,(814) 314-0721 (Main); (814) 314-0723 (Main Fax),42.059059,-80.093379,Sun-Sat: Open 24 hours,,0
Fairlawn GetGo,3703,4072 Medina Road,,Akron,OH,44333,United States,(330) 666-1900 (Main),41.129700,-81.614500,Sun-Sat: 5:00 AM - 12:00 AM,,0
Fairlawn Giant Eagle,4025,2775 West Market Street,,Fairlawn,OH,44333,United States,(330) 836-1504 (Main); (330) 836-2036 (Pharmacy); (330) 836-2505 (Main Fax); (330) 836-2289 (Pharmacy Fax); Sun-Thu: 6:00 AM - 11:00 PM,41.125911,-81.602144,Fri-Sat: 6:00 AM - 12:00 AM,,0
Fairview Park GetGo,3376,21991 Lorain Road,,Cleveland,OH,44126,United States,(440) 734-3307 (Main),41.441521,-81.863543,Sun-Sat: 6:00 AM - 11:00 PM,,0
Fairview Park Giant Eagle,5810,21593 Lorain Road,,Fairview Park,OH,44126,United States,(440) 356-3666 (Main); (440) 356-3677 (Pharmacy); (440) 356-3690 (Main Fax); (440) 356-3680 (Pharmacy Fax),41.441186,-81.861344,Sun-Sat: 7:00 AM - 11:00 PM,,0
Finleyville Giant Eagle,667,3701 Route 88,,Finleyville,PA,15332,United States,(724) 348-4051 (Main); (724) 348-6229 (Pharmacy); (724) 348-4321 (Main Fax); (724) 348-8079 (Pharmacy Fax),40.248326,-80.004405,Sun-Sat: 7:00 AM - 10:00 PM,,0
Fisher Heights Giant Eagle,614,1300 Country Club Road,,Monongahela,PA,15063,United States,(724) 258-5011 (Main); (724) 258-6101 (Pharmacy); (724) 258-2813 (Main Fax); (724) 258-6640 (Pharmacy Fax),40.171990,-79.915914,Sun-Sat: 7:00 AM - 10:00 PM,,0
Fort Couch GetGo/WetGo,3127,14 Fort Couch Road,,Pittsburgh,PA,15241,United States,(412) 833-6370 (Main),40.337143,-80.050817,Sun-Sat: 6:00 AM - 12:00 AM,,0
Franklin GetGo,3681,511 Allegheny Blvd.,,Franklin,PA,16323,United States,(814) 437-9070 (Main); (814) 437-9072 (Main Fax),41.401773,-79.809928,Sun-Sat: 6:00 AM - 10:00 PM,,0
Franklin Giant Eagle,681,541 Allegheny Boulevard,,Franklin,PA,16323,United States,(814) 437-1878 (Main); (814) 432-2024 (Pharmacy); (814) 432-2488 (Main Fax); (814) 437-6760 (Pharmacy Fax),41.401579,-79.810601,Sun-Sat: 7:00 AM - 9:00 PM,,0
Frankstown Rd. Giant Eagle,697,9001 Frankstown Road,,Pittsburgh,PA,15235,United States,(412) 371-0858 (Main); (412) 371-0040 (Pharmacy); (412) 371-1281 (Main Fax); (412) 371-0065 (Pharmacy Fax),40.462268,-79.865225,Sun-Sat: 7:00 AM - 11:00 PM,,0
Frederick GetGo,3841,1000 West Patrick St.,,Frederick,MD,21703,United States,(301) 694-5331 (Main),39.415658,-77.439068,Sun-Sat: 5:30 AM - 11:30 PM,,0
Frederick Shopping Center GetGo,3843,1391 W Seventh Street,,Frederick,MD,21702,United States,(301) 846-7740 (Main); (301) 846-7742 (Main Fax),39.430641,-77.420643,Sun-Sat: 6:00 AM - 11:00 PM,,0
Gahanna GetGo,3501,1310 North Hamilton Rd,,Columbus,OH,43230,United States,(614) 775-9233 (Main); (614) 939-9607 (Main Fax),40.052770,-82.862850,Sun-Sat: 6:00 AM - 11:00 PM,,0
Gahanna Giant Eagle,6501,1250 North Hamilton Road,,Columbus,OH,43230,United States,(614) 939-5559 (Main); (614) 939-5280 (Pharmacy); (614) 939-5185 (Entertainment); (614) 939-5607 (Main Fax); (614) 939-5316 (Pharmacy Fax); (614) 855-3872 (State Liquor Agency); (614) 939-5261 (Curbside Express); Sun-Thu: 6:00 AM - 11:00 PM,40.051814,-82.863622,Fri-Sat: 6:00 AM - 12:00 AM,,0
Geneva GetGo,3627,1759 South Broadway Ave,,Geneva,OH,44041,United States,(440) 466-6037 (Main),41.772045,-80.946650,Sun-Sat: 5:00 AM - 11:00 PM,,0
Geneva Giant Eagle,617,755 South Broadway Avenue,,Geneva,OH,44041,United States,(440) 466-5100 (Main); (440) 466-3005 (Pharmacy); (440) 466-0486 (Main Fax); (440) 466-3052 (Pharmacy Fax),41.795152,-80.947320,Sun-Sat: 7:00 AM - 10:00 PM,,0
Gibsonia GetGo/WetGo,3691,4099 Grandview Drive,,Gibsonia,PA,15044,United States,(724) 443-3011 (Main),40.642598,-79.937897,Sun-Sat: Open 24 hours,,0
Gibsonia Giant Eagle,1691,5600 William Flynn Highway,400 Northtowne Square,Gibsonia,PA,15044,United States,"Gibsonia, PA 15044; (724) 443-7400 (Main); (724) 443-7979 (Pharmacy); (724) 443-9790 (Main Fax); (724) 443-0150 (Pharmacy Fax)",40.636391,-79.941920,Sun-Sat: 7:00 AM - 11:00 PM,,0
Girard GetGo,3050,9165 West Ridge Road,,Girard,PA,16417,United States,(814) 774-2447 (Main); (814) 774-2458 (Main Fax),42.009211,-80.303360,Sun-Sat: 6:00 AM - 11:00 PM,,0
Girard Giant Eagle,4050,9125 West Ridge Road,Box 162,Girard,PA,16417,United States,"Girard, PA 16417; (814) 774-2656 (Main); (814) 774-2467 (Pharmacy); (814) 774-9608 (Main Fax); (814) 774-7216 (Pharmacy Fax)",42.009827,-80.302371,Sun-Sat: 6:00 AM - 12:00 PM,,0
Glenshaw GetGo,3487,801 Mt Royal Boulevard,,Pittsburgh,PA,15223,United States,(412) 487-1775 (Main),40.514018,-79.959305,Sun-Sat: 5:30 AM - 11:00 PM,,0
Goucher Street GetGo,3612,358 Goucher Street,,Johnstown,PA,15905,United States,(814) 288-0800 (Main); (814) 288-0802 (Main Fax),40.293805,-78.933537,Sun-Sat: 6:00 AM - 11:00 PM,,0
Goucher Street Giant Eagle,46,344 Goucher Street,,Johnstown,PA,15905,United States,(814) 288-6918 (Main); (814) 288-5843 (Pharmacy); (814) 288-2283 (Main Fax); (814) 288-6784 (Pharmacy Fax),40.291525,-78.929244,Sun-Sat: 6:00 AM - 11:00 PM,,0
Grandview Yard GetGo,3539,820 W 3rd Avenue,,Columbus,OH,43212,United States,(614) 674-6437 (Main); (614) 674-6439 (Main Fax),39.982974,-83.028702,Sun-Sat: 5:00 AM - 12:00 AM,,0
Grandview Yard Market District,6539,840 W 3rd Avenue,,Columbus,OH,43212,United States,(614) 294-2186 (Main); (614) 294-2344 (Pharmacy); (614) 297-8078 (Main Fax); (614) 294-2377 (Pharmacy Fax); (614) 291-1372 (State Liquor Agency Fax); (614) 291-1256 (Curbside Express),39.985242,-83.028466,Sun-Sat: Open 24 hours,,0
Great Lakes Mall Giant Eagle,196,7960 Plaza Boulevard,,Mentor,OH,44060,United States,(440) 946-1346 (Main); (440) 602-4013 (Pharmacy); (440) 946-5435 (Main Fax); (440) 602-4051 (Pharmacy Fax),41.654658,-81.366279,Sun-Sat: 7:00 AM - 11:00 AM,,0
Green GetGo,3620,1711 Corporate Wood Circle,,Uniontown,OH,44685,United States,(330) 899-9461 (Main),40.960941,-81.466010,Sun-Sat: 6:00 AM - 11:00 PM,,0
Green Market District,1620,1700 Corporate Woods Parkway,,Uniontown,OH,44685,United States,(330) 896-4456 (Main); (330) 896-9787 (Pharmacy); (330) 896-5780 (Main Fax); (330) 896-2182 (Pharmacy Fax); (330) 896-9257 (State Liquor Agency); (330) 899-8633 (Curbside Express),40.961236,-81.468789,Sun-Sat: 6:00 AM - 11:00 PM,,0
Greenfield Giant Eagle,63,4250 Murray Avenue,,Pittsburgh,PA,15217,United States,(412) 421-6472 (Main); (412) 421-1340 (Pharmacy); (412) 421-8597 (Main Fax); (412) 521-3716 (Pharmacy Fax),40.422606,-79.928566,Sun-Sat: 6:00 AM - 12:00 AM,,0
Greenville Giant Eagle,659,50 Hadley Road,,Greenville,PA,16125,United States,(724) 588-4553 (Main); (724) 588-1381 (Pharmacy); (724) 588-8478 (Main Fax); (724) 588-7351 (Pharmacy Fax); Sun: 7:00 AM - 8:00 PM,41.412252,-80.360783,Mon-Sat: 7:00 AM - 9:00 PM,,0
Grove City GetGo,3526,2165 Stringtown Road,,Grove City,OH,43123,United States,(614) 277-9128 (Main); Sun: 6:00 AM - 10:00 PM,39.878609,-83.060715,Mon-Sat: 6:00 AM - 11:00 PM,,0
Grove City Giant Eagle,6526,2173 Stringtown Road,,Grove City,OH,43123,United States,(614) 875-5879 (Main); (614) 875-8591 (Pharmacy); (614) 875-8479 (Main Fax); (614) 875-8407 (Pharmacy Fax); (614) 875-8539 (State Liquor Agency); (614) 594-0070 (Curbside Express); Sun-Thu: 6:00 AM - 11:00 PM,39.876774,-83.061396,Fri-Sat: 6:00 AM - 12:00 AM,,0
Hamilton & Route 33 GetGo/WetGo,3537,3765 S. Hamilton Road,,Groveport,OH,43125,United States,(614) 836-5835 (Main); (614) 836-6195 (Main Fax),39.896665,-82.884116,Sun-Sat: 6:00 AM - 11:00 PM,,0
Hamilton & Route 33 Giant Eagle,6537,3841 S. Hamilton Road,,Groveport,OH,43125,United States,(614) 836-8258 (Main); (614) 836-8420 (Pharmacy); (614) 836-9071 (Main Fax); (614) 836-8532 (Pharmacy Fax); (614) 836-5065 (State Liquor Agency); Sun-Thu: 6:00 AM - 11:00 PM,39.896665,-82.884116,Fri-Sat: 6:00 AM - 12:00 AM,,0
Harborcreek GetGo,3438,4307 Buffalo Road,,Erie,PA,16510,United States,(814) 898-1374 (Main); (814) 898-1425 (Main Fax),42.145197,-80.004179,Sun-Sat: 5:00 AM - 12:00 AM,,0
Harborcreek Giant Eagle,4038,4265 Buffalo Road,,Erie,PA,16510,United States,(814) 899-2730 (Main); (814) 899-6063 (Pharmacy); (814) 899-8361 (Main Fax); (814) 898-1553 (Pharmacy Fax),42.143535,-80.004951,Sun-Sat: Open 24 hours,,0
Harmar Giant Eagle,5103,2611 Freeport Road,,Pittsburgh,PA,15238,United States,(412) 828-3766 (Main); (412) 828-2277 (Pharmacy); (412) 828-2093 (Pharmacy Fax),40.537800,-79.838727,Sun-Sat: Open 24 hours,,0
Hartville GetGo,3618,909 W Maple Street,,Hartville,OH,44632,United States,(330) 877-2293 (Main); (330) 877-2716 (Main Fax),40.972073,-81.347172,Sun-Sat: 7:00 AM - 11:00 PM,,0
Hartville Giant Eagle,1618,907 West Maple Street,,Hartville,OH,44632,United States,(330) 877-3664 (Main); (330) 877-0221 (Pharmacy); (330) 877-3571 (Main Fax); (330) 877-0787 (Pharmacy Fax),40.968590,-81.347110,Sun-Sat: 7:00 AM - 12:00 AM,,0
Hayden & Cosgray GetGo/WetGo,3529,6780 Hayden Run Road,,Hilliard,OH,43026,United States,(614) 850-9569 (Main),40.060567,-83.181438,Sun-Sat: 6:00 AM - 11:00 PM,,0
Hayden & Cosgray Giant Eagle,6529,6700 Hayden Run Road,,Hilliard,OH,43026,United States,(614) 529-5327 (Main); (614) 529-6685 (Pharmacy); (614) 529-9056 (Main Fax); (614) 529-9511 (State Liquor Agency); Sun-Thu: 6:00 AM - 11:00 PM,40.061293,-83.180318,Fri-Sat: 6:00 AM - 12:00 AM,,0
Heath GetGo,3523,625 South 30th Street,,Heath,OH,43056,United States,(740) 522-6166 (Main),40.034685,-82.443366,Sun-Sat: 6:00 AM - 11:00 PM,,0
Heath Giant Eagle,6523,553 Hebron Road,,Newark,OH,43056,United States,(740) 522-1138 (Main); (740) 522-6168 (Pharmacy); (740) 522-4489 (Main Fax); (740) 522-6312 (Pharmacy Fax); Sun-Thu: 6:00 AM - 11:00 PM,40.037232,-82.430081,Fri-Sat: 6:00 AM - 12:00 AM,,0
Hempfield GetGo,3009,"RD 6, Box 215A",,Greensburg,PA,15601,United States,(724) 837-3682 (Main); (724) 837-3948 (Main Fax),40.304174,-79.594442,Sun-Sat: 6:00 AM - 11:00 PM,,0
Hempfield Giant Eagle,9,6204 Route 30,Hempfield Square SC,Greensburg,PA,15601,United States,"Greensburg, PA 15601; (724) 836-5121 (Main); (724) 836-6756 (Pharmacy); (724) 836-2937 (Main Fax); (724) 836-4392 (Pharmacy Fax)",40.302995,-79.594604,Sun-Sat: 6:00 AM - 12:00 AM,,0
Hermitage Giant Eagle,4012,2365 East State Street,Hickory Plaza,Hermitage,PA,16148,United States,"Hermitage, PA 16148; (724) 981-1662 (Main); (724) 981-0271 (Pharmacy); (724) 981-3853 (Main Fax); (724) 981-2162 (Pharmacy Fax)",41.233389,-80.465838,Sun-Sat: Open 24 hours,,0
Hoffman Blvd GetGo,3185,1200 Hoffman Blvd,,West Mifflin,PA,15122,United States,(412) 461-8153 (Main); (412) 461-9068 (Main Fax),40.383085,-79.867730,Sun-Sat: 6:00 AM - 10:00 PM,,0
Howe Ave GetGo,3878,1125 Main Street,,Cuyahoga Falls,OH,44221,United States,(330) 923-8195 (Main); (330) 923-8314 (Main Fax),41.117367,-81.484555,Sun-Sat: 6:00 AM - 11:00 PM,,0
Howe Avenue Giant Eagle,5878,230 Howe Avenue,,Cuyahoga Falls,OH,44221,United States,(330) 922-0131 (Main); (330) 929-6372 (Pharmacy); (330) 475-0023 (Main Fax),41.117302,-81.481771,Sun-Sat: 6:00 AM - 12:00 AM,,0
Howland GetGo,3151,119 Niles Cortland Road,,Warren,OH,44484,United States,(330) 856-1563 (Main),41.237700,-80.739900,Sun-Sat: 4:00 AM - 11:00 PM,,0
Howland Giant Eagle,4051,8202 East Market Street,,Warren,OH,44484,United States,(330) 856-1521 (Main); (330) 856-1324 (Pharmacy); (330) 856-3744 (Main Fax); (330) 856-1498 (Pharmacy Fax),41.238341,-80.743445,Sun-Sat: 6:00 AM - 1:00 AM,,0
Indiana GetGo,3608,3100 Oakland Avenue,,Indiana,PA,15701,United States,(724) 465-7914 (Main); (724) 465-5241 (Main Fax),40.601111,-79.193834,Sun-Sat: 6:00 AM - 11:00 PM,,0
Indiana Giant Eagle,678,475 Ben Franklin Rd S,,Indiana,PA,15701,United States,(724) 349-9376 (Main); (724) 464-2108 (Pharmacy); (724) 349-2104 (Main Fax); (724) 463-1994 (Pharmacy Fax),40.613008,-79.190480,Sun-Sat: 6:00 AM - 12:00 AM,,0
Indiana University GetGo,3678,680 Locust St,,Indiana,PA,15701,United States,(724) 349-7050 (Main); (724) 349-0768 (Main Fax),40.617430,-79.152352,Sun-Sat: 6:00 AM - 12:00 AM,,0
Irwin GetGo,3010,8813 Route 30,North Huntingdon Square,North Huntingdon,PA,15642,United States,"North Huntingdon, PA 15642; (724) 861-6710 (Main); (412) 861-6711 (Main Fax)",40.319177,-79.686342,Sun-Sat: 5:00 AM - 11:00 PM,,0
Jamestown GetGo,3356,2800 Mahoning Avenue,,Warren,OH,44483,United States,(330) 393-5983 (Main); (330) 393-5986 (Main Fax),41.261614,-80.834342,Sun-Sat: 5:00 AM - 11:00 PM,,0
Jamestown Giant Eagle,4056,2700 Mahoning Avenue N.W.,,Warren,OH,44483,United States,(330) 399-4175 (Main); (330) 395-0505 (Pharmacy); (330) 393-0337 (Main Fax); (330) 399-1395 (Pharmacy Fax),41.259812,-80.833598,Sun-Sat: Open 24 hours,,0
Kennedy Township GetGo,3002,1809 McKees Rocks Road,,McKees Rocks,PA,15136,United States,(412) 771-8675 (Main); (412) 733-3924 (Main Fax),40.467698,-80.097087,Sun-Sat: 6:00 AM - 11:00 PM,,0
Kennedy Township Giant Eagle,2,1800 McKees Rocks Road,,McKees Rocks,PA,15136,United States,(412) 771-7707 (Main); (412) 771-8366 (Pharmacy); (412) 771-9654 (Main Fax); (412) 771-8757 (Pharmacy Fax),40.467698,-80.097087,Sun-Sat: 6:00 AM - 1:00 AM,,0
Kingsdale GetGo,3511,1640 Fishinger Rd.,,Upper Arlington,OH,43221,United States,(614) 457-3996 (Main),40.025686,-83.057550,Sun-Sat: 6:00 AM - 11:00 PM,,0
Kingsdale Market District,6515,3061 Kingsdale Center,,Columbus,OH,43221,United States,(614) 538-0762 (Main); (614) 538-0801 (Pharmacy); (614) 538-0834 (Main Fax); (614) 538-0825 (Pharmacy Fax); (614) 326-0424 (State Liquor Agency); (614) 326-0448 (State Liquor Agency Fax); (614) 366-2050 (Walk-in Care); (614) 586-0404 (Curbside Express),40.020652,-83.058222,Sun-Sat: 6:00 AM - 12:00 AM,,0
Lakewood GetGo,3431,14013 Detroit Road,,Lakewood,OH,44107,United States,(440) 799-8864 (Main); (440) 799-8866 (Main Fax),41.485627,-81.789941,Sun-Sat: 6:00 AM - 12:00 AM,,0
Lakewood Giant Eagle,5831,14100 Detroit Ave.,,Lakewood,OH,44107,United States,(216) 226-2698 (Main); (216) 226-1600 (Pharmacy); (216) 228-1089 (Pharmacy Fax),41.486501,-81.790770,Sun-Sat: 7:00 AM - 11:00 AM,,0
Lancaster GetGo/WetGo,3538,1416 Ety Shops Way,,Lancaster,OH,43130,United States,(740) 687-0138 (Main); (740) 687-0730 (Main Fax),39.743973,-82.636177,Sun-Sat: 6:00 AM - 11:00 PM,,0
Lancaster Giant Eagle,6538,1394 Ety Shops Way,,Lancaster,OH,43130,United States,(740) 654-4765 (Main); (740) 654-5219 (Pharmacy); (740) 654-4818 (Main Fax); (740) 654-5502 (Pharmacy Fax); (740) 654-5027 (State Liquor Agency); Sun-Thu: 6:00 AM - 11:00 PM,39.741539,-82.635909,Fri-Sat: 6:00 AM - 12:00 AM,,0
Latrobe GetGo,3082,1100 Mt. Laurel Plaza,State Route 30,Latrobe,PA,15650,United States,"Latrobe, PA 15650; (724) 539-4330 (Main); (724) 539-4331 (Main Fax)",40.285552,-79.390141,Sun-Sat: 6:00 AM - 12:00 AM,,0
Latrobe Giant Eagle,82,1050 Mt. Laurel Plaza,Route 30,Latrobe,PA,15650,United States,"Latrobe, PA 15650; (724) 537-0610 (Main); (724) 537-4995 (Pharmacy); (724) 539-2266 (Main Fax); (724) 537-5197 (Pharmacy Fax)",40.283485,-79.389812,Sun-Sat: 6:00 AM - 12:00 AM,,0
Lawrenceville GetGo,3107,4000 Butler Street,,Pittsburgh,PA,15201,United States,(412) 682-7219 (Main),40.468663,-79.961834,Sun-Sat: Open 24 hours,,0
Leetsdale GetGo,3137,8A Quaker Village Shopping Center,,Leetsdale,PA,15056,United States,(412) 749-9183 (Main); (412) 749-9915 (Main Fax),40.558758,-80.204694,Sun-Sat: 6:00 AM - 11:00 PM,,0
Leetsdale Giant Eagle,37,5 Quaker Village S.C.,,Leetsdale,PA,15056,United States,(412) 741-6040 (Main); (412) 259-1021 (Pharmacy); (412) 741-6839 (Main Fax); (412) 259-1025 (Pharmacy Fax),40.559192,-80.202928,Sun-Sat: 6:00 AM - 11:00 PM,,0
Legacy Village Giant Eagle,208,25105 Cedar Road,,Lyndhurst,OH,44124,United States,(216) 920-3300 (Main); (216) 920-3320 (Pharmacy); (216) 920-3325 (Main Fax); (216) 920-3323 (Pharmacy Fax); (216) 382-4250 (State Liquor Agency); (216) 920-3305 (Curbside Express),41.504323,-81.497766,Sun-Sat: 6:00 AM - 12:00 AM,,0
Ligonier GetGo,3256,215 South Market Street,,Ligonier,PA,15658,United States,(724) 238-3304 (Main),40.241935,-79.239982,Sun-Sat: 5:00 AM - 11:00 PM,,0
Ligonier Giant Eagle,607,117 South Walnut Street,,Ligonier,PA,15658,United States,(724) 238-5490 (Main); (724) 238-0342 (Pharmacy); (724) 238-8406 (Main Fax); (724) 238-0363 (Pharmacy Fax),40.246451,-79.245030,Sun-Sat: 7:00 AM - 9:00 PM,,0
Lincoln Village GetGo,3519,4758 West Broad Street,,Columbus,OH,43228,United States,(614) 878-8710 (Main),39.952431,-83.128035,Sun-Sat: 6:00 AM - 11:00 PM,,0
Lincoln Village Giant Eagle,6519,4780 West Broad Street,,Columbus,OH,43228,United States,(614) 878-8710 (Main); (614) 878-8942 (Pharmacy); (614) 878-8923 (Main Fax); (614) 878-8942 (Pharmacy Fax),39.952775,-83.128635,Sun-Sat: 6:00 AM - 11:00 PM,,0
Louisville GetGo,3403,115 N Chapel Rd,,Louisville,OH,44641,United States,(330) 875-7488 (Main); (330) 871-8502 (Main Fax),40.837978,-81.259914,Sun-Sat: 5:00 AM - 12:00 AM,,0
Louisville Giant Eagle,692,108 West Main Street,,Louisville,OH,44641,United States,(330) 875-1451 (Main); (330) 875-1135 (Pharmacy); (330) 875-5143 (Main Fax); (330) 875-4862 (State Liquor Agency Fax),40.837035,-81.260612,Sun-Sat: 7:00 AM - 11:00 PM,,0
Lyndhurst GetGo,3092,5275 Mayfield Road,,Lyndhurst,OH,44124,United States,(440) 442-6453 (Main); (440) 684-9485 (Main Fax),41.520067,-81.489435,Sun-Sat: 7:00 AM - 11:00 PM,,0
Macedonia GetGo Cafe and Market,3279,265 East Highland Road,,Macedonia,OH,44056,United States,(234) 808-4765 (Main); (234) 808-4764 (Main Fax),41.299582,-81.516248,Sun-Sat: Open 24 hours,,0
Macedonia Giant Eagle,6299,290 East Aurora Road,,Northfield,OH,44067,United States,(330) 468-0100 (Main); (330) 468-3263 (Pharmacy); (330) 468-2749 (Main Fax); (330) 468-3370 (Pharmacy Fax),41.313284,-81.528819,Sun-Sat: 6:00 AM - 12:00 AM,,0
Marietta GetGo,3510,331 Pike Street,,Marietta,OH,45750,United States,(740) 374-4031 (Main); (740) 374-4068 (Main Fax),39.411798,-81.435121,Sun-Sat: 6:00 AM - 11:00 PM,,0
Marietta Giant Eagle,6510,128 Gross Street,Frontier Shopping Center,Marietta,OH,45750,United States,"Marietta, OH 45750; (740) 373-5567 (Main); (740) 374-3127 (Pharmacy); (740) 376-7444 (Main Fax); (740) 374-3296 (Pharmacy Fax)",39.420743,-81.447401,Sun-Sat: 6:00 AM - 11:00 PM,,0
Massillon GetGo,3152,2046 Lincoln Way East,,Massillon,OH,44646,United States,(330) 833-2656 (Main),40.798648,-81.494863,Sun-Sat: 6:00 AM - 11:00 PM,,0
Massillon Giant Eagle,4152,2032 Lincoln Way East,Meadows Plaza,Massillon,OH,44646,United States,"Massillon, OH 44646; (330) 833-2733 (Main); (330) 833-4890 (Pharmacy); (330) 833-3698 (Main Fax); (330) 833-5276 (Pharmacy Fax); (330) 833-2493 (State Liquor Agency)",40.800839,-81.495206,Sun-Sat: 6:00 AM - 12:00 AM,,0
Mayfield Heights Giant Eagle,5836,6259 Mayfield Road,,Mayfield Heights,OH,44124,United States,(440) 446-1628 (Main); (440) 449-8566 (Main Fax),41.520760,-81.452424,Sun-Sat: 7:00 AM - 12:00 AM,,0
McCutcheon & Stelzer GetGo/WetGo,3517,2920 Stelzer Road,,Columbus,OH,43219,United States,(614) 342-2170 (Main); (614) 342-2716 (Main Fax),40.032842,-82.909949,Sun-Sat: 6:00 AM - 11:00 PM,,0
McCutcheon & Stelzer Giant Eagle,6517,2900 Stelzer Road,,Columbus,OH,43219,United States,(614) 337-0245 (Main); (614) 337-0397 (Pharmacy); (614) 337-1241 (Main Fax); (614) 337-1060 (Pharmacy Fax); (614) 471-8904 (State Liquor Agency); (614) 471-8908 (State Liquor Agency Fax); (614) 337-0365 (Curbside Express); Sun-Thu: 6:00 AM - 11:00 PM,40.032266,-82.910262,Fri-Sat: 6:00 AM - 12:00 AM,,0
McDonald Giant Eagle,698,200 Station Street,,McDonald,PA,15057,United States,(724) 926-2830 (Main); (724) 926-2201 (Pharmacy); (724) 926-0197 (Main Fax); (724) 926-4360 (Pharmacy Fax); Sun: 7:30 AM - 8:00 PM,40.367237,-80.235872,Mon-Sat: 7:30 AM - 9:00 PM,,0
McIntyre Square Giant Eagle,67,8080 McIntyre Square Drive,,Pittsburgh,PA,15237,United States,(412) 366-6534 (Main); (412) 364-8747 (Pharmacy); (412) 366-9338 (Entertainment); (412) 366-0975 (Main Fax); (412) 366-9824 (Pharmacy Fax); (412) 366-9338 (Curbside Express),40.555343,-80.018151,Sun-Sat: Open 24 hours,,0
McKeesport Giant Eagle,64,3812 O'Neil Boulevard,,McKeesport,PA,15132,United States,(412) 672-7392 (Main); (412) 672-9036 (Pharmacy); (412) 672-4208 (Main Fax); (412) 672-1951 (Pharmacy Fax),40.347696,-79.832122,Sun-Sat: 6:00 AM - 11:00 PM,,0
McKnight Road GetGo,3021,7675 McKnight Road,,Pittsburgh,PA,15237,United States,(412) 369-9259 (Main),40.545350,-80.017096,Sun-Sat: Open 24 hours,,0
McMurray GetGo/WetGo,3116,2846 Washington Rd,,McMurray,PA,15317,United States,(724) 942-7105 (Main); (724) 942-7102 (Main Fax),40.303667,-80.097488,Sun-Sat: 6:00 AM - 10:00 PM,,0
McMurray Market District Express,5104,2840 Washington Rd,,McMurray,PA,15317,United States,(724) 942-2802 (Main); (724) 942-1090 (Pharmacy); (724) 942-7504 (Main Fax); (724) 942-1094 (Pharmacy Fax); (412) 477-8115 (Curbside Express),40.303438,-80.097627,Sun-Sat: 6:00 AM - 10:00 PM,,0
Meadville GetGo,3675,18499 Smock Highway,,Meadville,PA,16335,United States,(814) 724-3535 (Main),41.620153,-80.167030,Sun-Sat: 6:00 AM - 11:00 PM,,0
Meadville Giant Eagle,675,18511 Smock Highway,,Meadville,PA,16335,United States,(814) 724-1119 (Main); (814) 724-6292 (Pharmacy); (814) 336-1553 (Main Fax); (814) 333-9101 (Pharmacy Fax),41.620228,-80.166305,Sun-Sat: 6:00 AM - 10:00 PM,,0
Medina GetGo,3389,302 S. Court Street,,Medina,OH,44256,United States,(330) 722-0320 (Main); (330) 722-2634 (Main Fax),41.135992,-81.863719,Sun-Sat: 6:00 AM - 11:00 PM,,0
Medina Giant Eagle,5839,870 N. Court ,,Medina,OH,44256,United States,(330) 723-8873 (Main); (330) 721-8028 (Pharmacy); (330) 725-3464 (Main Fax); (330) 723-8914 (Pharmacy Fax),41.150553,-81.861776,Sun-Sat: 5:30 AM - 1:00 AM,,0
Mentor Convenience,3617,6045 Andrews Road,,Mentor On The Lake,OH,44060,United States,(440) 209-9582 (Main); (440) 209-9653 (Main Fax),41.707333,-81.360920,Sun-Sat: 5:00 AM - 11:00 PM,,0
Mentor GetGo,3638,7750 Reynolds Rd,,Mentor,OH,44060,United States,(440) 946-3837 (Main); (440) 946-3845 (Main Fax),41.659511,-81.377813,Sun-Sat: Open 24 hours,,0
Mentor on the Lake Giant Eagle,1217,6079 Andrew Road,,Mentor On The Lake,OH,44060,United States,(440) 257-7271 (Main); (440) 306-0011 (Pharmacy); (440) 257-8706 (Main Fax); (440) 306-0022 (Pharmacy Fax); (440) 306-0025 (State Liquor Agency),41.707000,-81.360135,Sun-Sat: Open 24 hours,,0
Middlefield GetGo,3648,15402 W High Street,,Middlefield,OH,44062,United States,(440) 632-3030 (Main); (440) 632-3031 (Main Fax); Sun: 7:00 AM - 10:00 PM,41.463284,-81.091451,Mon-Sat: 7:00 AM - 11:00 PM,,0
Middlefield Giant Eagle,4133,15400 West High Street,,Middlefield,OH,44062,United States,(440) 632-1200 (Main); (440) 632-5587 (Pharmacy); (440) 632-0653 (Pharmacy Fax),41.463995,-81.091147,Sun-Sat: 7:00 AM - 10:00 PM,,0
Midway Mall Giant Eagle,6375,320 Market Drive,,Elyria,OH,44035,United States,(440) 366-5110 (Main); (440) 324-1742 (Pharmacy); (440) 366-1977 (Main Fax); (440) 324-1794 (Pharmacy Fax); (440) 324-5148 (State Liquor Agency),41.390506,-82.109379,Sun-Sat: 6:00 AM - 12:00 AM,,0
Millcreek Marketplace Giant Eagle,4237,2067 Interchange Rd,,Erie,PA,16509,United States,(814) 866-1089 (Main); (814) 868-7923 (Pharmacy); (814) 866-1824 (Main Fax); (814) 864-3698 (Pharmacy Fax); (814) 844-6398 (Curbside Express),42.062821,-80.102016,Sun-Sat: 6:00 AM - 1:00 AM,,0
Monroeville Giant Eagle,60,4010 Monroeville Boulevard,,Monroeville,PA,15146,United States,(412) 372-1220 (Main); (412) 372-1224 (Pharmacy); (412) 372-6745 (Main Fax); (412) 374-1880 (Pharmacy Fax); (412) 372-1221 (Curbside Express),40.432370,-79.772186,Sun-Sat: Open 24 hours,,0
Monroeville Pad Site GetGo,3060,4000 Monroeville Blvd.,,Monroeville,PA,15146,United States,(412) 856-0685 (Main); (412) 856-0686 (Main Fax),40.436188,-79.772402,Sun-Sat: 5:00 AM - 12:00 AM,,0
Monroeville Stand Alone GetGo,3140,4685 Old William Penn Hwy,,Monroeville,PA,15146,United States,(412) 372-6955 (Main),40.440887,-79.742830,Sun-Sat: 5:00 AM - 12:00 AM,,0
Moon Township GetGo,3642,6507 University Boulevard,,Coraopolis,PA,15108,United States,(412) 264-3020 (Main); (412) 264-3063 (Main Fax),40.518225,-80.218641,Sun-Sat: 6:00 AM - 11:00 PM,,0
Moon Township Giant Eagle,68,5990 University Blvd,Suite 4,Coraopolis,PA,15108,United States,"Coraopolis, PA 15108; (412) 264-3856 (Main); (412) 269-0254 (Pharmacy); (412) 264-3654 (Main Fax); (412) 299-5673 (Pharmacy Fax); (412) 264-1300 (Curbside Express)",40.521743,-80.219987,Sun-Sat: 6:00 AM - 11:00 PM,,0
Moraine Point Giant Eagle,1609,700 Moraine Pointe Plaza,,Butler,PA,16001,United States,(724) 287-5001 (Main); (724) 283-3779 (Pharmacy); (724) 287-2172 (Main Fax); (724) 283-8707 (Pharmacy Fax); Sun: 7:00 AM - 9:00 PM,40.874893,-79.949763,Mon-Sat: 7:00 AM - 10:00 PM,,0
Morgantown GetGo,3059,54 Don Knotts Blvd.,,Morgantown,WV,26501,United States,(304) 291-4620 (Main); (304) 291-4623 (Main Fax),39.604961,-79.967422,Sun-Sat: Open 24 hours,,0
Morgantown Giant Eagle,59,130 Greenbag Road,Mountaineer Mall,Morgantown,WV,26505,United States,"Morgantown, WV 26505; (304) 292-6066 (Main); (304) 292-0385 (Pharmacy); (304) 296-7402 (Main Fax); (304) 292-6081 (Pharmacy Fax)",39.607221,-79.964384,Sun-Sat: 6:00 AM - 12:00 AM,,0
Mount Pleasant GetGo/WetGo,3081,230 Bessemer Road,,Mount Pleasant,PA,15666,United States,(724) 547-6234 (Main); (724) 547-6265 (Main Fax),40.124937,-79.554193,Sun-Sat: Open 24 hours,,0
Mt. Lebanon GetGo,3129,1540 Washington Road,,Pittsburgh,PA,15228,United States,(412) 531-0426 (Main),40.355728,-80.050694,Sun-Sat: 6:00 AM - 12:00 AM,,0
Murrysville Giant Eagle,32,4810 Old William Penn Hwy,,Export,PA,15632,United States,(724) 327-7866 (Main); (724) 327-5493 (Pharmacy); (724) 733-8068 (Main Fax); (724) 733-0691 (Pharmacy Fax); Sun: 6:00 AM - 9:00 PM,40.424216,-79.661703,Mon-Sat: 6:00 AM - 11:00 PM,,0
Nagel Road GetGo Cafe and Market,3015,33501 Just Imagine Drive,,Avon,OH,44011,United States,(440) 695-1622 (Main); (440) 695-1565 (Main Fax),41.466673,-81.987705,Sun-Sat: Open 24 hours,,0
Neil Avenue Giant Eagle,6516,777 Neil Avenue,,Columbus,OH,43215,United States,(614) 224-3065 (Main); (614) 224-9996 (Main Fax); Sun: 11:00 AM - 6:00 PM,39.976913,-83.012142,Mon-Sat: 9:00 AM - 9:00 PM,,0
New Albany GetGo,3528,5465 New Albany Road West,,New Albany,OH,43054,United States,(614) 775-0961 (Main),40.094100,-82.824600,Sun-Sat: 6:00 AM - 11:00 PM,,0
New Albany Giant Eagle,6528,5461 New Albany Road West,,New Albany,OH,43054,United States,(614) 939-4039 (Main); (614) 939-4102 (Pharmacy); (614) 939-4116 (Main Fax); (614) 939-4107 (Pharmacy Fax); (614) 939-4069 (State Liquor Agency); Sun-Thu: 6:00 AM - 11:00 PM,40.094000,-82.825200,Fri-Sat: 6:00 AM - 12:00 AM,,0
New Castle GetGo,3077,3224 Wilmington Road,,New Castle,PA,16105,United States,(724) 658-0972 (Main); (724) 658-0680 (Main Fax),41.053215,-80.356955,Sun-Sat: 6:00 AM - 11:00 PM,,0
New Kensington GetGo/WetGo,3008,250 Tarentum Bridge Road,,New Kensington,PA,15068,United States,(724) 337-9303 (Main); (724) 337-9305 (Main Fax),40.591161,-79.751427,Sun-Sat: 5:00 AM - 11:00 PM,,0
New Kensington Giant Eagle,8,200 Tarentum Bridge Road,,New Kensington,PA,15068,United States,(724) 339-4940 (Main); (724) 339-4943 (Pharmacy); (724) 339-8526 (Main Fax); (724) 334-3238 (Pharmacy Fax); (724) 889-0114 (Curbside Express),40.592871,-79.750459,Sun-Sat: Open 24 hours,,0
Niles Giant Eagle,1041,48 Vienna Avenue,,Niles,OH,44446,United States,(330) 652-2519 (Main); (330) 652-2158 (Pharmacy); (330) 652-3430 (Main Fax); (330) 652-1260 (Pharmacy Fax); Sun: 8:00 AM - 8:00 PM,41.183946,-80.759069,Mon-Sat: 8:00 AM - 9:00 PM,,0
North Center Avenue Giant Eagle,54,1606 North Center Avenue,,Somerset,PA,15501,United States,(814) 443-4300 (Main); (814) 443-0544 (Pharmacy); (814) 445-7960 (Main Fax); (814) 445-7125 (Pharmacy Fax),40.036655,-79.075266,Sun-Sat: 6:00 AM - 11:00 PM,,0
North High Street GetGo,3512,2845 N. High Street,,Columbus,OH,43202,United States,(614) 262-6470 (Main),40.020106,-83.013010,Sun-Sat: 6:00 AM - 11:00 PM,,0
North High Street Giant Eagle,6512,2801 N. High Street,,Columbus,OH,43202,United States,(614) 268-0976 (Main); (614) 268-3223 (Pharmacy); (614) 268-1743 (Main Fax); (614) 784-2391 (Pharmacy Fax),40.019421,-83.013470,Sun-Sat: Open 24 hours,,0
North Huntingdon Giant Eagle,10,8901 Route 30,North Huntingdon Square,North Huntingdon,PA,15642,United States,"North Huntingdon, PA 15642; (724) 864-0100 (Main); (724) 864-7481 (Pharmacy); (724) 864-7449 (Entertainment); (724) 864-1593 (Main Fax); (724) 864-7604 (Pharmacy Fax); (724) 864-2063 (Curbside Express)",40.319948,-79.687263,Sun-Sat: Open 24 hours,,0
North Madison GetGo,3658,6542 North Ridge Road,,North Madison,OH,44057,United States,(440) 428-1232 (Main),41.803055,-81.056539,Sun-Sat: 6:00 AM - 11:00 PM,,0
North Madison Giant Eagle,4097,6556 North Ridge Road,,North Madison,OH,44057,United States,(440) 428-1156 (Main); (440) 428-7905 (Main Fax); (440) 428-6256 (State Liquor Agency); Sun-Thu: 6:00 AM - 10:00 PM,41.801562,-81.056289,Fri-Sat: 6:00 AM - 11:00 PM,,0
North Ridgeville GetGo,3199,34179 Center Ridge Road,,North Ridgeville,OH,44039,United States,(440) 353-3311 (Main),41.398059,-81.995429,Sun-Sat: 6:00 AM - 12:00 AM,,0
North Ridgeville Giant Eagle,199,34325 Center Ridge Road,,North Ridgeville,OH,44039,United States,(440) 327-1901 (Main); (440) 327-8085 (Pharmacy); (440) 327-5218 (Main Fax); (440) 327-8151 (Pharmacy Fax); (440) 327-3730 (State Liquor Agency),41.397510,-81.997412,Sun-Sat: 7:00 AM - 11:00 PM,,0
North Royalton GetGo,3204,10151 West 130th Street,,North Royalton,OH,44133,United States,(440) 877-1236 (Main),41.336183,-81.785177,Sun-Sat: 6:00 AM - 11:00 PM,,0
North Royalton Giant Eagle,204,6000 Royalton Road,,North Royalton,OH,44133,United States,(440) 237-3061 (Main); (440) 582-6430 (Pharmacy); (440) 237-1284 (Entertainment); (440) 582-6243 (Main Fax); (440) 582-6701 (Pharmacy Fax),41.314737,-81.726485,Sun-Sat: 6:00 AM - 1:00 AM,,0
North Versailles Giant Eagle,15,1701 Lincoln Highway,,North Versailles,PA,15137,United States,(412) 823-3133 (Main); (412) 824-3221 (Pharmacy); (412) 823-6834 (Main Fax); (412) 825-4615 (Pharmacy Fax); Sun: 7:00 AM - 9:00 PM,40.370387,-79.786149,Mon-Sat: 7:00 AM - 10:00 PM,,0
Northern Cambria Giant Eagle,682,7 Cottonwood Street,,Northern Cambria,PA,15714,United States,(814) 948-8360 (Main); (814) 948-9732 (Pharmacy); (814) 948-9152 (Main Fax); (814) 951-0163 (Pharmacy Fax),40.661551,-78.782972,Sun-Sat: 7:00 AM - 9:00 PM,,0
O'Hara GetGo/WetGo,3172,1081 Freeport Road,,Pittsburgh,PA,15238,United States,(412) 781-0508 (Main),40.488003,-79.883677,Sun-Sat: Open 24 hours,,0
Oil City Giant Eagle,86,602 East 2nd Street,,Oil City,PA,16301,United States,(814) 676-6121 (Main); (814) 677-3396 (Main Fax); Sun: 7:00 AM - 9:00 PM,41.426395,-79.704418,Mon-Sat: 7:00 AM - 10:00 PM,,0
Painesville GetGo,3357,1251 Mentor Ave,,Painesville,OH,44077,United States,(440) 354-4396 (Main); (440) 354-4687 (Main Fax),41.705216,-81.269141,Sun-Sat: Open 24 hours,,0
Painesville Giant Eagle,6377,1201 Mentor Avenue,,Painesville,OH,44077,United States,(440) 358-1300 (Main); (440) 358-7769 (Pharmacy); (440) 358-7778 (Entertainment); (440) 358-7777 (Main Fax); (440) 358-7772 (Pharmacy Fax); (440) 358-7782 (State Liquor Agency); (440) 358-7768 (Curbside Express),41.705957,-81.267296,Sun-Sat: Open 24 hours,,0
Parkway Center Giant Eagle,74,1165 McKinney Lane,Parkway Center Mall,Pittsburgh,PA,15220,United States,"Pittsburgh, PA 15220; (412) 921-1276 (Main); (412) 921-1610 (Pharmacy); (412) 922-1228 (Main Fax); (412) 921-1864 (Pharmacy Fax)",40.422457,-80.035588,Sun-Sat: 7:00 AM - 11:00 PM,,0
Parma Heights GetGo,3203,6730 Pearl Road,,Parma,OH,44130,United States,(440) 845-3301 (Main),41.381268,-81.784146,Sun-Sat: Open 24 hours,,0
Pendleton Pike GetGo,3552,6990 Pendleton Pike,,Indianapolis,IN,46226,United States,(317) 612-0021 (Main); (317) 612-0022 (Main Fax); (317) 612-0021 (Curbside Express),39.827633,-86.046551,Sun-Sat: 5:00 AM - 11:00 PM,,0
Penn Hills GetGo/WetGo,3108,10525 Frankstown Road,,Pittsburgh,PA,15235,United States,(412) 243-0439 (Main); (412) 243-0470 (Main Fax),40.460292,-79.843366,Sun-Sat: 5:00 AM - 12:00 AM,,0
Penn Township Giant Eagle,626,2000 Penny Lane Drive,,Jeannette,PA,15644,United States,(724) 744-6113 (Main); (724) 744-1901 (Pharmacy); (724) 744-6135 (Main Fax); (724) 744-1908 (Pharmacy Fax),40.365578,-79.642058,Sun-Sat: 7:00 AM - 10:00 PM,,0
Pickerington GetGo,3514,1020 Hill Road North,,Pickerington,OH,43147,United States,(614) 866-7030 (Main),39.907730,-82.776209,Sun-Sat: 6:00 AM - 11:00 PM,,0
Pickerington Giant Eagle,6514,873 Refugee Road,,Pickerington,OH,43147,United States,(614) 866-3693 (Main); (614) 866-3756 (Pharmacy); (614) 522-0052 (Curbside Express); Sun-Fri: 6:00 AM - 11:00 PM,39.908694,-82.776305,Sat: 6:00 AM - 12:00 AM,,0
Pine Township GetGo/WetGo,3043,140 Towne Centre Drive,,Wexford,PA,15090,United States,(724) 934-1404 (Main); (724) 934-1413 (Main Fax),40.631843,-80.055676,Sun-Sat: 6:00 AM - 11:00 PM,,0
Plainfield Reagan Pkwy GetGo,3663,3061 E Main St,,Plainfield,IN,46168,United States,(317) 204-6620 (Main); (317) 204-6621 (Main Fax),39.726799,-86.337475,Sun-Sat: Open 24 hours,,0
Poland Giant Eagle,688,3130 Center Road,,Poland,OH,44514,United States,(330) 757-3735 (Main); (330) 757-4099 (Pharmacy); (330) 757-6045 (Main Fax); (330) 757-3774 (Pharmacy Fax); Sun: 7:00 AM - 9:00 PM,41.024015,-80.593475,Mon-Sat: 7:00 AM - 10:00 PM,,0
Polaris GetGo/WetGo,3503,9151 Columbus Pike ,,Lewis Center,OH,43035,United States,(614) 888-0266 (Main); (614) 888-5144 (Main Fax),40.157459,-83.017923,Sun-Sat: 5:00 AM - 12:00 AM,,0
Polaris Giant Eagle,6503,55 Meadow Park Ave.,,Lewis Center,OH,43035,United States,(740) 657-8912 (Main); (740) 657-1344 (Pharmacy); (740) 657-1795 (Entertainment); (740) 657-8366 (Main Fax); (740) 657-1484 (Pharmacy Fax); (740) 888-1206 (Curbside Express); Sun-Fri: 6:00 AM - 11:00 PM,40.162852,-83.017879,Sat: 6:00 AM - 12:00 AM,,0
Portage Crossing Market District,4036,2687 State Road,,Cuyahoga Falls,OH,44223,United States,(330) 928-6669 (Main); (330) 928-8844 (Pharmacy); (330) 926-1571 (Main Fax); (330) 926-1589 (Pharmacy Fax); (330) 928-6606 (State Liquor Agency); (330) 928-1039 (State Liquor Agency Fax); (330) 849-2436 (Curbside Express),41.149254,-81.506967,Sun-Sat: Open 24 hours,,0
Portage Trail GetGo,3036,2816 State Road,,Cuyahoga Falls,OH,44223,United States,(330) 922-4175 (Main); (330) 922-4291 (Main Fax),41.148664,-81.509102,Sun-Sat: Open 24 hours,,0
Powell GetGo,3527,9590 Sawmill Parkway,,Powell,OH,43065,United States,(614) 793-2494 (Main); (614) 793-2496 (Main Fax),40.162205,-83.089063,Sun-Sat: 6:00 AM - 11:00 PM,,0
Powell Giant Eagle,6527,4000 West Powell Road,,Powell,OH,43065,United States,(614) 889-8073 (Main); (614) 889-8438 (Pharmacy); (614) 889-8315 (Main Fax); (614) 889-8415 (Curbside Express),40.158459,-83.098772,Sun-Sat: 6:00 AM - 11:00 PM,,0
Raff Road GetGo,3364,104 Raff Road SW,,Canton,OH,44710,United States,(330) 454-8679 (Main); (330) 454-8706 (Main Fax),40.797237,-81.416477,Sun-Sat: 6:00 AM - 12:00 AM,,0
Raff Road Giant Eagle,4034,"608 Raff Road, SW",,Canton,OH,44710,United States,(330) 456-5757 (Main); (330) 452-5905 (Pharmacy); (330) 580-8055 (Main Fax); (330) 452-7016 (Pharmacy Fax); (330) 454-5758 (State Liquor Agency),40.796288,-81.415791,Sun-Sat: 6:00 AM - 12:00 AM,,0
Ravenna Giant Eagle,6348,909 East Main Street,,Ravenna,OH,44266,United States,(330) 296-7115 (Main); (330) 297-7366 (Pharmacy); (330) 296-7930 (Entertainment); (330) 296-0631 (Main Fax); (330) 297-8936 (Pharmacy Fax),41.158923,-81.228049,Sun-Sat: Open 24 hours,,0
Ravenna Route 59 & 14 GetGo,3327,1363 East Main Street,,Ravenna,OH,44266,United States,(330) 235-7116 (Main); (330) 235-7117 (Main Fax),41.157375,-81.219945,Sun-Sat: Open 24 hours,,0
Rices Landing Giant Eagle,389,999 North Eighty Eight Road,,Rices Landing,PA,15357,United States,(724) 592-5565 (Main); (724) 592-6057 (Pharmacy); (724) 592-5316 (Main Fax); (724) 592-7494 (Pharmacy Fax),39.943000,-80.015000,Sun-Sat: 7:00 AM - 10:00 PM,,0
Richeyville GetGo,3027,3143 National Pike Rd.,,Richeyville,PA,15358,United States,(724) 632-2122 (Main); (724) 632-2037 (Main Fax),40.053305,-80.001585,Sun-Sat: Open 24 hours,,0
Richfield Giant Eagle,179,4428 Broadview Road,,West Richfield,OH,44286,United States,(330) 659-6134 (Main); (330) 659-4564 (Main Fax); Sun: 7:00 AM - 9:00 PM,41.250708,-81.664320,Mon-Sat: 7:00 AM - 10:00 PM,,0
Ridge Road GetGo,3361,4951 Ridge Road,,Cleveland,OH,44144,United States,(216) 741-2570 (Main); (216) 741-2690 (Main Fax),41.419514,-81.733752,Sun-Sat: 6:00 AM - 11:00 PM,,0
Roaring Spring GetGo,3701,334 Travelers Road,,East Freedom,PA,16637-8118,United States,(814) 695-5645 (Main),40.368733,-78.432930,Sun-Sat: 5:00 AM - 12:00 AM,,0
Roaring Spring Giant Eagle,79,510 S Route 36,,Roaring Spring,PA,16673-1629,United States,(814) 224-5128 (Main); (814) 224-4201 (Pharmacy); (814) 224-4454 (Main Fax); (814) 224-0067 (Pharmacy Fax),40.329550,-78.391691,Sun-Sat: 7:00 AM - 12:00 AM,,0
Robinson Cafe GetGo,3057,6513-A Steubenville Pike,,Pittsburgh,PA,15205,United States,(412) 446-0264 (Main); (412) 446-0285 (Main Fax),40.447446,-80.162887,Sun-Sat: Open 24 hours,,0
Robinson GetGo,3257,6513-B Steubenville Pike,,Pittsburgh,PA,15205,United States,(412) 446-0171 (Main); (412) 446-0263 (Main Fax),40.447249,-80.163352,Sun-Sat: Open 24 hours,,0
Robinson Market District,47,100 Settlers Ridge Center Drive,,Pittsburgh,PA,15205-1421,United States,(412) 788-5392 (Main); (412) 490-5160 (Pharmacy); (412) 490-2535 (Main Fax); (412) 490-5824 (Pharmacy Fax); (412) 490-2902 (Curbside Express),40.441681,-80.151342,Sun-Sat: Open 24 hours,,0
Rochester GetGo,3062,820 Ohio River Blvd.,,Rochester,PA,15074,United States,(724) 775-2802 (Main); (724) 728-3108 (Main Fax),40.698067,-80.270715,Sun-Sat: Open 24 hours,,0
Rochester Giant Eagle,62,111 West Madison Street,,Rochester,PA,15074,United States,(724) 775-0551 (Main); (724) 775-1820 (Pharmacy); (724) 775-4104 (Main Fax); (724) 775-0892 (Pharmacy Fax),40.702013,-80.289354,Sun-Sat: 6:00 AM - 12:00 AM,,0
Rockville & Country Club GetGo,3553,8249 Rockville Road,,Indianapolis,IN,46214,United States,(317) 510-8779 (Main); (317) 510-8780 (Main Fax); (317) 510-8779 (Curbside Express),39.763463,-86.307201,Sun-Sat: Open 24 hours,,0
Rocky River GetGo,3297,22150 Center Ridge Road,,Rocky River,OH,44116,United States,(440) 356-4051 (Main); (440) 356-5449 (Main Fax),41.458803,-81.863331,Sun-Sat: 5:00 AM - 11:00 PM,,0
Rocky River Giant Eagle,1297,22160 Center Ridge Road,,Rocky River,OH,44116,United States,(440) 333-2733 (Main); (440) 356-3287 (Pharmacy); (440) 356-3292 (Main Fax); (440) 356-3290 (Pharmacy Fax); (440) 333-5209 (State Liquor Agency); (440) 356-3291 (State Liquor Agency Fax); (440) 356-3279 (Curbside Express),41.459594,-81.863720,Sun-Sat: 6:00 AM - 1:00 AM,,0
Rodi Road Giant Eagle,78,230 Rodi Road,,Pittsburgh,PA,15235,United States,(412) 241-7744 (Main); (412) 241-6134 (Pharmacy); (412) 241-3391 (Main Fax); (412) 242-1193 (Pharmacy Fax),40.461698,-79.825044,Sun-Sat: 6:00 AM - 12:00 AM,,0
Rootstown Giant Eagle,4095,4260 State Route 44,,Rootstown,OH,44272,United States,(330) 325-7965 (Main); (330) 325-7967 (Pharmacy); (330) 325-3204 (Main Fax); (330) 325-3004 (Pharmacy Fax); (330) 325-0882 (State Liquor Agency),41.105604,-81.241358,Sun-Sat: 6:00 AM - 11:00 PM,,0
Route 82 and I-77 GetGo,3088,4955 E Royalton Road,,Broadview Heights,OH,44147,United States,(440) 546-4920 (Main); (440) 546-7173 (Main Fax),41.315670,-81.653282,Sun-Sat: Open 24 hours,,0
Route 82 and I-77 Giant Eagle,4088,4343 Royalton Road,,Broadview Heights,OH,44147,United States,(440) 526-1547 (Main); (440) 526-1584 (Pharmacy); (440) 526-1884 (Main Fax); (440) 526-1695 (Pharmacy Fax); (440) 526-4486 (State Liquor Agency),41.315483,-81.655022,Sun-Sat: Open 24 hours,,0
Rowan Rd,3019,20570 Route 19,,Cranberry Twp,PA,16066,United States,(724) 776-7544 (Main); (724) 776-7590 (Main Fax),40.703635,-80.103700,Sun-Sat: Open 24 hours,,0
Salem GetGo,3664,2345 East State Street,,Salem,OH,44460,United States,(330) 332-0768 (Main),40.900843,-80.827875,Sun-Sat: 6:00 AM - 11:00 PM,,0
Salem Giant Eagle,664,2401 East State Street,,Salem,OH,44460,United States,(330) 337-6378 (Main); (330) 332-0141 (Pharmacy); (330) 337-0261 (Main Fax); (330) 332-9734 (Pharmacy Fax),40.900918,-80.827346,Sun-Sat: 7:00 AM - 10:00 PM,,0
Sarver GetGo/WetGo,3135,710 South Pike Road,,Sarver,PA,16055,United States,(724) 295-5490 (Main),40.698802,-79.720116,Sun-Sat: Open 24 hours,,0
Scalp Avenue GetGo,3661,1313 Eisenhower Blvd,,Johnstown,PA,15904,United States,(814) 262-0783 (Main),40.269962,-78.855745,Sun-Sat: 6:00 AM - 11:00 PM,,0
Seven Fields GetGo/WetGo,3668,204 Seven Fields Blvd,,Seven Fields,PA,16046,United States,(724) 779-7955 (Main); (724) 779-7968 (Main Fax),40.689438,-80.057591,Sun-Sat: 6:00 AM - 11:00 PM,,0
Seven Fields Giant Eagle,42,206 Seven Fields Blvd,,Seven Fields,PA,16046,United States,(724) 779-3030 (Main); (724) 779-3232 (Pharmacy); (724) 779-3054 (Main Fax); (724) 779-3073 (Pharmacy Fax); (724) 779-3034 (Curbside Express),40.689518,-80.057716,Sun-Sat: Open 24 hours,,0
Shadyside Market District,40,5550 Centre Avenue,,Pittsburgh,PA,15232,United States,(412) 681-1500 (Main); (412) 682-5466 (Pharmacy); (412) 681-1760 (Main Fax); (412) 682-5728 (Pharmacy Fax); (412) 491-3317 (Curbside Express),40.456948,-79.934972,Sun-Sat: 6:00 AM - 12:00 AM,,0
Shakespeare Street Giant Eagle,17,6320 Shakespeare Street,,Pittsburgh,PA,15206,United States,(412) 361-6220 (Main); (412) 361-5248 (Pharmacy); (412) 363-3073 (Main Fax); (412) 361-2006 (Pharmacy Fax),40.458996,-79.921222,Sun-Sat: 6:00 AM - 11:00 PM,,0
Shaler GetGo/WetGo,3280,1700 William Flynn Hwy,,Glenshaw,PA,15116,United States,(412) 487-3096 (Main); (412) 287-3804 (Main Fax),40.538137,-79.962392,Sun-Sat: Open 24 hours,,0
Shaler Giant Eagle,18,1671 Butler Plank Road,,Glenshaw,PA,15116,United States,(412) 492-2730 (Main); (412) 492-2737 (Pharmacy); (412) 492-8468 (Main Fax); (412) 492-2742 (Pharmacy Fax); (412) 492-2734 (Curbside Express),40.537260,-79.963781,Sun-Sat: Open 24 hours,,0
Sheffield Village GetGo,3231,4660 Abbe Road,,Sheffield Lake,OH,44054,United States,(440) 934-3170 (Main),41.427097,-82.077591,Sun-Sat: 6:00 AM - 11:00 PM,,0
Sheffield Village Giant Eagle,231,5231 Detroit Road,,Sheffield Lake,OH,44054,United States,(440) 934-5271 (Main); (440) 934-5377 (Pharmacy); (440) 934-5461 (Main Fax); (440) 934-1841 (Pharmacy Fax); (440) 934-5357 (State Liquor Agency); (440) 934-5356 (State Liquor Agency Fax),41.427097,-82.077591,Sun-Sat: 6:00 AM - 12:00 AM,,0
Shenango Valley GetGo,3114,3140 Shenango Valley Freeway,,Hermitage,PA,16148,United States,(724) 981-1050 (Main); (724) 981-1051 (Main Fax),41.228765,-80.450981,Sun-Sat: Open 24 hours,,0
Shenango Valley GetGo Cafe and Market,3014,3150 Shenango Valley Freeway,,Hermitage,PA,16148,United States,(724) 981-1399 (Main); (724) 981-1448 (Main Fax),41.228765,-80.451056,Sun-Sat: Open 24 hours,,0
Slippery Rock GetGo,3606,640 Kelly Blvd.,,Slippery Rock,PA,16057,United States,(724) 738-0024 (Main),41.070856,-80.053879,Sun-Sat: 6:00 AM - 11:00 PM,,0
Slippery Rock Giant Eagle,670,223 Grove City Rd.,,Slippery Rock,PA,16057,United States,(724) 794-5040 (Main); (724) 794-0100 (Pharmacy); (724) 794-6378 (Main Fax); (724) 794-1046 (Pharmacy Fax),41.070856,-80.053879,Sun-Sat: 7:00 AM - 10:00 PM,,0
Snow Road Giant Eagle,5844,1825 Snow Road,,Parma,OH,44134,United States,(216) 398-2980 (Main); (216) 739-4120 (Pharmacy); (216) 398-5451 (Main Fax); (216) 739-4123 (Pharmacy Fax); Sun: 7:00 AM - 10:00 PM,41.403681,-81.695301,Mon-Sat: 7:00 AM - 12:00 AM,,0
Solon GetGo,3228,6477 SOM Center Road,,Solon,OH,44139,United States,(440) 542-9916 (Main); (440) 542-9925 (Main Fax),41.383100,-81.437300,Sun-Sat: 5:00 AM - 11:00 PM,,0
Solon Market District,228,34310 Aurora Rd,,Solon,OH,44139,United States,(440) 248-4400 (Main); (440) 519-1028 (Pharmacy); (440) 248-0254 (Main Fax); (440) 519-1382 (Pharmacy Fax); (440) 248-9923 (State Liquor Agency); (440) 248-9924 (State Liquor Agency Fax); (440) 498-7192 (Curbside Express),41.382468,-81.436758,Sun-Sat: Open 24 hours,,0
Somerset GetGo/WetGo,3054,1604 North Center Avenue,,Somerset,PA,15501,United States,(814) 443-3702 (Main); (814) 443-3713 (Main Fax),40.036392,-79.074936,Sun-Sat: 6:00 AM - 11:00 PM,,0
Somerset Giant Eagle,683,4192 Glades Pike,,Somerset,PA,15501,United States,(814) 443-6558 (Main); (814) 443-3152 (Pharmacy); (814) 445-6384 (Main Fax); (814) 443-0566 (Pharmacy Fax),40.011482,-79.108037,Sun-Sat: 7:00 AM - 11:00 PM,,0
South Euclid GetGo,3440,4254 Mayfield Rd,,South Euclid,OH,44121,United States,(216) 291-7031 (Main); (216) 291-7544 (Main Fax),41.520475,-81.526805,Sun-Sat: 5:00 AM - 12:00 AM,,0
South Euclid Giant Eagle,440,4401 Mayfield Road,,South Euclid,OH,44121,United States,(216) 382-6500 (Main); (216) 297-2001 (Pharmacy); (216) 297-2000 (Main Fax); (216) 297-2003 (Pharmacy Fax),41.521318,-81.520763,Sun-Sat: Open 24 hours,,0
South Fayette Giant Eagle,24,3239 Washington Pike,,Bridgeville,PA,15017,United States,(412) 914-0830 (Main); (412) 914-0752 (Pharmacy); (412) 914-0762 (Main Fax); (412) 914-0749 (Pharmacy Fax),40.341605,-80.118269,Sun-Sat: 6:00 AM - 1:00 AM,,0
South Hills Market District,14,7000 Oxford Drive,Village Square,Bethel Park,PA,15102,United States,"Bethel Park, PA 15102; (412) 831-1480 (Main); (412) 835-8922 (Pharmacy); (412) 831-6223 (Main Fax); (412) 831-0199 (Pharmacy Fax); (412) 831-5377 (Curbside Express)",40.346806,-80.047251,Sun-Sat: Open 24 hours,,0
South Park GetGo,3128,5281 Library Road,,Bethel Park,PA,15102,United States,(412) 831-0227 (Main),40.331327,-80.022070,Sun-Sat: Open 24 hours,,0
Southgate Giant Eagle,6414,5321 Warrensville Center Road,,Maple Heights,OH,44137,United States,(216) 714-7700 (Main); (216) 714-7709 (Main Fax); (216) 332-9615 (Pharmacy Fax); (216) 714-7706 (State Liquor Agency),41.415939,-81.535977,Sun-Sat: 7:00 AM - 11:00 AM,,0
Southland Giant Eagle,217,6869 Southland Drive,,Middleburg Heights,OH,44130,United States,(440) 842-0060 (Main); (440) 885-3019 (Pharmacy); (440) 842-5641 (Main Fax); (440) 842-5187 (Pharmacy Fax); (440) 842-5078 (State Liquor Agency),41.376664,-81.787848,Sun-Sat: Open 24 hours,,0
Southside GetGo (No Fuel),3117,117 South 18th Street,,Pittsburgh,PA,15203,United States,(412) 431-2090 (Main),40.427713,-79.980532,Sun-Sat: Open 24 hours,,0
Southside Giant Eagle,61,2021 Wharton Avenue,,Pittsburgh,PA,15203,United States,(412) 488-1816 (Main); (412) 488-1802 (Pharmacy); (412) 488-0520 (Main Fax); (412) 488-1169 (Pharmacy Fax),40.430606,-79.977388,Sun-Sat: 6:00 AM - 12:00 AM,,0
Southside Works GetGo,3003,3247 East Carson Street,,Pittsburgh,PA,15203,United States,(412) 481-6430 (Main); (412) 481-6719 (Main Fax),40.423200,-79.960191,Sun-Sat: Open 24 hours,,0
Springfield GetGo,3029,1796 Canton Rd,,Akron,OH,44312,United States,(330) 733-7427 (Main); (330) 733-8421 (Main Fax),41.019417,-81.415861,Sun-Sat: 6:00 AM - 11:00 PM,,0
Springfield Giant Eagle,4029,2801 East Waterloo Road,,Akron,OH,44312,United States,(330) 475-1478 (Main); (330) 628-6067 (Pharmacy); (330) 475-1825 (Main Fax); (330) 628-6374 (Pharmacy Fax),41.032049,-81.426779,Sun-Sat: 6:00 AM - 12:00 AM,,0
Squirrel Hill GetGo,3038,5801 Forward Avenue,,Pittsburgh,PA,15217,United States,(412) 421-2742 (Main); (412) 421-2744 (Main Fax),40.430044,-79.923262,Sun-Sat: 6:00 AM - 12:00 AM,,0
Squirrel Hill Giant Eagle,38,1901 Murray Avenue,,Pittsburgh,PA,15217,United States,(412) 421-8161 (Main); (412) 421-2903 (Pharmacy); (412) 422-3128 (Main Fax); (412) 421-2961 (Pharmacy Fax),40.435529,-79.922927,Sun-Sat: 6:00 AM - 1:00 AM,,0
St Marys GetGo,3087,1109 Million Dollar Hwy,,St Marys,PA,15857,United States,(814) 834-5377 (Main); (814) 834-5382 (Main Fax),41.390236,-78.557589,Sun-Sat: 5:00 AM - 12:00 AM,,0
State Street GetGo/WetGo,3045,1901 West State Street,,New Castle,PA,16101,United States,(724) 652-5434 (Main); (724) 657-6765 (Main Fax),41.006608,-80.377357,Sun-Sat: Open 24 hours,,0
Steubenville Pike GetGo,3650,4900 Steubenville Pike,,Pittsburgh,PA,15205,United States,(412) 444-4474 (Main); (412) 444-4476 (Main Fax),40.449527,-80.106511,Sun-Sat: Open 24 hours,,0
Stow GetGo,3396,3845 Darrow Rd,,Stow,OH,44224,United States,(330) 688-3957 (Main),41.169256,-81.440095,Sun-Sat: 6:00 AM - 11:00 PM,,0
Stow Giant Eagle,4096,4300 Kent Road,State Rd. #59,Stow,OH,44224,United States,"Stow, OH 44224; (330) 686-7829 (Main); (330) 686-9121 (Pharmacy); (330) 686-0987 (Entertainment); (330) 686-9387 (Main Fax); (330) 686-9417 (Pharmacy Fax); (330) 686-5896 (State Liquor Agency)",41.153474,-81.408240,Sun-Sat: 6:00 AM - 12:00 AM,,0
Stow Towne Center Giant Eagle,4032,1700 Norton Road,,Stow,OH,44224,United States,(330) 342-9995 (Main); (330) 650-4093 (Pharmacy); (330) 342-7474 (Main Fax); (330) 650-4367 (Pharmacy Fax); (330) 342-7465 (State Liquor Agency); (330) 342-7468 (Curbside Express),41.202600,-81.440300,Sun-Sat: 6:00 AM - 12:00 AM,,0
Streetsboro GetGo,3359,9075 State Route 43,,Streetsboro,OH,44241,United States,(330) 626-8169 (Main); (330) 626-8176 (Main Fax),41.237350,-81.346067,Sun-Sat: 6:00 AM - 11:00 PM,,0
Streetsboro Giant Eagle,5863,1280 State Route 303,,Streetsboro,OH,44241,United States,(330) 626-1085 (Main); (330) 626-2407 (Pharmacy); (330) 626-1702 (Main Fax),41.239517,-81.349626,Sun-Sat: 6:00 AM - 12:00 AM,,0
Strip Giant Eagle,4060,6493 Strip Avenue N.W.,,North Canton,OH,44720,United States,(330) 497-7902 (Main); (330) 497-1385 (Pharmacy); (330) 497-0582 (Entertainment); (330) 497-2846 (Main Fax); (330) 497-2973 (Pharmacy Fax),40.876842,-81.434760,Sun-Sat: 6:00 AM - 12:00 AM,,0
Strongsville GetGo,3086,17573 Pearl Road,,Strongsville,OH,44136,United States,(440) 572-1496 (Main); (440) 572-1513 (Main Fax),41.290706,-81.834776,Sun-Sat: Open 24 hours,,0
Strongsville Market District,4086,15919 Pearl Rd,,Strongsville,OH,44136,United States,(440) 238-6367 (Main); (440) 238-4111 (Pharmacy); (440) 238-6527 (Main Fax); (440) 238-4225 (Pharmacy Fax); (440) 238-6432 (State Liquor Agency); (440) 238-6402 (State Liquor Agency Fax); (440) 238-6449 (Curbside Express),41.300685,-81.833617,Sun-Sat: Open 24 hours,,0
Tallmadge GetGo,3657,185 West Avenue,,Tallmadge,OH,44278,United States,(330) 634-1766 (Main),41.101698,-81.449346,Sun-Sat: 6:00 AM - 11:00 PM,,0
Tallmadge Giant Eagle,4030,205 West Avenue,,Tallmadge,OH,44278,United States,(330) 633-7088 (Main); (330) 634-0688 (Pharmacy); (330) 630-6653 (Main Fax); (330) 634-0691 (Pharmacy Fax),41.101140,-81.450082,Sun-Sat: 6:00 AM - 12:00 AM,,0
Tanglewood GetGo,3515,17675 Chillicothe Road,,Chagrin Falls,OH,44023,United States,(440) 708-1200 (Main),41.389350,-81.338587,Sun-Sat: 5:00 AM - 11:00 PM,,0
Tanglewood Giant Eagle,515,8515 Tanglewood Square,,Bainbridge Township,OH,44023,United States,(440) 543-5144 (Main); (440) 708-1277 (Pharmacy); (440) 543-0832 (Main Fax); (440) 708-1280 (Pharmacy Fax),41.389879,-81.337407,Sun-Sat: 6:00 AM - 1:00 AM,,0
The Bridges at Carmel Market District,6550,11505 N Illinois Street,,Carmel,IN,46032,United States,(317) 569-0171 (Main); (317) 689-6325 (Pharmacy); (317) 689-6326 (Main Fax); (317) 569-0171 (Curbside Express),39.951952,-86.162978,Sun-Sat: 6:00 AM - 10:00 AM,,0
Titusville GetGo,3288,103 S Perry St,,Titusville,PA,16354,United States,(814) 827-1812 (Main),41.626767,-79.677443,Sun-Sat: Open 24 hours,,0
Titusville Giant Eagle,88,110 S Martin Street,,Titusville,PA,16354,United States,(814) 827-6066 (Main); (814) 827-2386 (Pharmacy); (814) 827-1364 (Main Fax); (814) 827-3518 (Pharmacy Fax),41.625821,-79.670534,Sun-Sat: 7:00 AM - 10:00 PM,,0
Twinsburg GetGo/WetGo,3224,8901 Hadden Road,,Twinsburg,OH,44087,United States,(330) 405-7262 (Main),41.310721,-81.454677,Sun-Sat: 5:00 AM - 12:00 AM,,0
Twinsburg Giant Eagle,224,8960 Darrow Road,,Twinsburg,OH,44087,United States,(330) 405-1900 (Main); (330) 405-7105 (Pharmacy); (330) 405-2910 (Main Fax); (330) 405-7901 (Pharmacy Fax),41.309818,-81.440117,Sun-Sat: 6:00 AM - 12:00 AM,,0
Twp. of Pine Market District,43,155 Towne Centre Drive,,Wexford,PA,15090,United States,(724) 934-0155 (Main); (724) 934-0201 (Pharmacy); (724) 934-0297 (Main Fax); (724) 934-0226 (Pharmacy Fax); (724) 934-4367 (Curbside Express),40.631843,-80.055676,Sun-Sat: Open 24 hours,,0
Uniontown GetGo,3699,637 Pittsburgh Road,,Uniontown,PA,15401,United States,(724) 425-9624 (Main),39.923933,-79.727153,Sun-Sat: 6:00 AM - 11:00 PM,,0
Uniontown Giant Eagle,699,581 Pittsburgh Road,,Fayette Plaza,Route,51,United States,"Uniontown, PA 15401; (724) 438-4600 (Main); (724) 438-2570 (Pharmacy); (724) 438-6758 (Main Fax); (724) 437-7774 (Pharmacy Fax)",39.923933,-79.727153,Sun-Sat: 7:00 AM - 10:00 PM,,0
University Heights GetGo,3058,3744 University Town Centre Drive,,Morgantown,WV,26501,United States,(304) 599-0948 (Main); (304) 599-3019 (Main Fax),39.650316,-80.003012,Sun-Sat: 6:00 AM - 11:00 PM,,0
University Park Giant Eagle,16,1451 Scalp Avenue,University Park Center,Johnstown,PA,15904,United States,"Johnstown, PA 15904; (814) 266-9591 (Main); (814) 269-3630 (Pharmacy); (814) 269-3009 (Main Fax); (814) 269-3846 (Pharmacy Fax)",40.270250,-78.854768,Sun-Sat: 6:00 AM - 12:00 AM,,0
University Town Center Giant Eagle,58,208 Giant Street,,Morgantown,WV,26501,United States,(304) 599-2301 (Main); (304) 599-2369 (Pharmacy); (304) 599-2472 (Main Fax); (304) 599-2520 (Pharmacy Fax); (304) 598-2273 (Walk-in Care),39.649617,-80.002731,Sun-Sat: 6:00 AM - 12:00 AM,,0
Upper Arlington GetGo/WetGo,3504,2888 Bethel Road,,Columbus,OH,43220,United States,(614) 734-9415 (Main),40.065497,-83.095725,Sun-Sat: 6:00 AM - 11:00 PM,,0
Upper Arlington Giant Eagle,6504,4747 Sawmill Road,,Columbus,OH,43220,United States,(614) 923-0475 (Main); (614) 923-0481 (Pharmacy); (614) 923-0489 (Entertainment); (614) 923-0508 (Main Fax); (614) 923-0484 (Pharmacy Fax); (614) 459-5358 (State Liquor Agency); Sun-Fri: 6:00 AM - 11:00 PM,40.064066,-83.095422,Sat: 6:00 AM - 12:00 AM,,0
Vermilion GetGo,3238,1317 State Road 60 N,,Vermilion,OH,44089,United States,(440) 967-1317 (Main),41.408877,-82.365288,Sun-Sat: 6:00 AM - 11:00 PM,,0
Vermilion Giant Eagle,1238,4453 Liberty Avenue,,Vermilion,OH,44089,United States,(440) 967-2920 (Main); (440) 967-1220 (Pharmacy); (440) 967-1705 (Main Fax); (440) 967-1253 (Pharmacy Fax); (440) 967-2901 (State Liquor Agency); Sun: 7:00 AM - 9:00 PM,41.423645,-82.343116,Mon-Sat: 7:00 AM - 11:00 PM,,0
Verona GetGo,3476,800 Allegheny River Boulevard,,Verona,PA,15147,United States,(412) 828-4413 (Main); (412) 280-0261 (Main Fax),40.506854,-79.843118,Sun-Sat: Open 24 hours,,0
Verona Giant Eagle,695,200 Allegheny River Boulevard,,Verona,PA,15147,United States,(412) 828-1271 (Main); (412) 828-1256 (Pharmacy); (412) 828-0742 (Main Fax); (412) 828-6379 (Pharmacy Fax); Sun: 7:00 AM - 10:00 PM,40.499116,-79.844449,Mon-Sat: 7:00 AM - 11:00 PM,,0
Wadsworth GetGo/WetGo,3601,773 Ambassador Drive,,Wadsworth,OH,44281,United States,(330) 334-6081 (Main); (330) 334-6105 (Main Fax); (330) 334-6409 (Car Wash),41.043618,-81.696243,Sun-Sat: Open 24 hours,,0
Wadsworth Giant Eagle,4601,825 Ambassador Drive,,Wadsworth,OH,44281,United States,(330) 336-8733 (Main); (330) 336-8990 (Pharmacy); (330) 334-5795 (Main Fax); (330) 334-5673 (Pharmacy Fax); (330) 334-0274 (State Liquor Agency); (330) 334-0156 (Curbside Express),41.043618,-81.696243,Sun-Sat: Open 24 hours,,0
Wadsworth High and Park GetGo,3393,951 High Street,,Wadsworth,OH,44281,United States,(234) 217-6021 (Main); (234) 217-6022 (Main Fax),41.048729,-81.728222,Sun-Sat: Open 24 hours,,0
Warren Plaza GetGo,3219,2109 Elm Rd NE,,Warren,OH,44483,United States,(330) 469-9354 (Main); (330) 469-9747 (Main Fax),41.253613,-80.792073,Sun-Sat: 6:00 AM - 11:00 PM,,0
Warren Plaza Giant Eagle,1219,2061 Elm Road,Warren Plaza,Warren,OH,44483,United States,"Warren, OH 44483; (330) 372-6020 (Main); (330) 372-7003 (Pharmacy); (330) 372-6167 (Main Fax); (330) 372-7818 (Pharmacy Fax)",41.254496,-80.793411,Sun-Sat: 6:00 AM - 11:00 PM,,0
Warrensville Heights GetGo/WetGo,3201,25500 Miles Road,,Warrensville Heights,OH,44128,United States,(216) 593-0214 (Main),41.424685,-81.498869,Sun-Sat: Open 24 hours,,0
Washington GetGo,3039,333 Washington Road,,Washington,PA,15301,United States,(724) 229-8621 (Main); (724) 229-8623 (Main Fax),40.187649,-80.228382,Sun-Sat: 5:00 AM - 11:00 PM,,0
Washington Giant Eagle,39,331 Washington Road,,Washington,PA,15301,United States,(724) 225-2848 (Main); (724) 228-2865 (Pharmacy); (724) 228-6537 (Entertainment); (724) 225-7617 (Main Fax); (724) 228-8255 (Pharmacy Fax); (724) 228-6537 (Curbside Express),40.186485,-80.228471,Sun-Sat: Open 24 hours,,0
Washington Square Giant Eagle,6378,1955 East Maple Street,,North Canton,OH,44720,United States,(330) 966-1739 (Main); (330) 497-0963 (Pharmacy); (330) 966-4893 (Entertainment); (330) 966-3819 (Main Fax); (330) 497-1993 (Pharmacy Fax); (330) 244-9012 (State Liquor Agency); (330) 966-2781 (Curbside Express),40.875969,-81.368024,Sun-Sat: 6:00 AM - 12:00 AM,,0
Waterfront Giant Eagle,6379,420 East Waterfront Drive,,Homestead,PA,15120,United States,(412) 464-6600 (Main); (412) 462-5359 (Pharmacy); (412) 464-9975 (Main Fax); (412) 462-5389 (Pharmacy Fax); (412) 462-5026 (Curbside Express),40.411484,-79.908770,Sun-Sat: 6:00 AM - 12:00 AM,,0
Waterfront Road GetGo,3379,430 East Waterfront Drive,,Homestead,PA,15120,United States,(412) 462-9092 (Main); (412) 462-9094 (Main Fax),40.412796,-79.909039,Sun-Sat: 6:00 AM - 11:00 PM,,0
Waterloo Road GetGo,3124,488 East Waterloo Road,,Akron,OH,44319,United States,(330) 724-8865 (Main); (330) 724-8873 (Main Fax),41.028489,-81.509172,Sun-Sat: 6:00 AM - 11:00 PM,,0
Waterloo Road Giant Eagle,4124,484 East Waterloo Road,,Akron,OH,44319,United States,(330) 773-7322 (Main); (330) 773-7772 (Pharmacy); (330) 773-7361 (Main Fax); (330) 773-1440 (Pharmacy Fax); (330) 773-0088 (State Liquor Agency),41.027773,-81.509766,Sun-Sat: 6:00 AM - 12:00 AM,,0
Watertower Giant Eagle,6359,27264 Lorain Road,,North Olmsted,OH,44070,United States,(440) 777-3100 (Main); (440) 777-6148 (Pharmacy); (440) 777-6095 (Main Fax); (440) 777-8410 (Pharmacy Fax); (440) 617-5807 (State Liquor Agency); (440) 777-6007 (Curbside Express),41.416864,-81.925410,Sun-Sat: Open 24 hours,,0
Watertower Square GetGo,3360,27268 Lorain Road,,North Olmsted,OH,44070,United States,(440) 801-1393 (Main); (440) 801-1397 (Main Fax),41.416084,-81.924147,Sun-Sat: 5:00 AM - 12:00 AM,,0
Waterworks Market District,72,910 Freeport Road,Waterworks Plaza,Pittsburgh,PA,15238,United States,"Pittsburgh, PA 15238; (412) 781-6605 (Main); (412) 781-1600 (Pharmacy); (412) 781-1082 (Main Fax); (412) 781-6001 (Pharmacy Fax); (412) 449-0051 (Curbside Express)",40.487669,-79.893841,Sun-Sat: Open 24 hours,,0
Waynesburg GetGo,3673,269 E Roy Furman Highway,,Waynesburg,PA,15370,United States,(724) 852-3144 (Main),39.899348,-80.148060,Sun-Sat: 5:00 AM - 11:00 PM,,0
Waynesburg Giant Eagle,673,100 Sugar Run Road,,Waynesburg,PA,15370,United States,(724) 627-5556 (Main); (724) 627-5456 (Pharmacy); (724) 627-9964 (Main Fax); (724) 627-8462 (Pharmacy Fax),39.894993,-80.169371,Sun-Sat: 6:00 AM - 10:00 PM,,0
West Fifth Avenue GetGo,3509,1825 West Fifth Ave,,Grandview Heights,OH,43212,United States,(614) 485-1867 (Main),39.989054,-83.055556,Sun-Sat: 6:00 AM - 11:00 PM,,0
West Market GetGo,3425,3120 W Market St,,Fairlawn,OH,44333,United States,(234) 678-9137 (Main); (234) 678-5533 (Main Fax),41.129700,-81.614500,Sun-Sat: 5:00 AM - 12:00 AM,,0
West Market Street Giant Eagle,5861,3750 W Market Street,,Akron,OH,44333,United States,(330) 665-5332 (Main); (330) 668-6605 (Pharmacy); (330) 668-6083 (Pharmacy Fax),41.133426,-81.636983,Sun-Sat: 7:00 AM - 12:00 AM,,0
West Mifflin GetGo/WetGo,3188,1001 Lebanon & Noble Road,,West Mifflin,PA,15122,United States,(412) 461-2114 (Main),40.361922,-79.932162,Sun-Sat: Open 24 hours,,0
West Mifflin Giant Eagle,29,1356 Hoffman Boulevard,,West Mifflin,PA,15122,United States,(412) 461-3230 (Main); (412) 461-4295 (Pharmacy); (412) 461-3738 (Main Fax); (412) 476-0106 (Pharmacy Fax),40.383909,-79.868202,Sun-Sat: 6:00 AM - 11:00 PM,,0
West Newton Giant Eagle,660,105 Robertson Street,,West Newton,PA,15089,United States,(724) 872-5443 (Main); (724) 872-3350 (Pharmacy); (724) 872-1210 (Main Fax); (724) 872-7824 (Pharmacy Fax),40.218723,-79.763862,Sun-Sat: 8:00 AM - 9:00 PM,,0
West Patrick Street Giant Eagle,1841,1275 West Patrick Street,,Frederick,MD,21702,United States,(301) 668-8712 (Main); (301) 668-8716 (Pharmacy); (301) 668-8722 (Main Fax); (301) 360-0513 (Pharmacy Fax),39.419388,-77.447796,Sun-Sat: Open 24 hours,,0
West Seventh Street Giant Eagle,1842,1305 West 7th Street,,Frederick,MD,21702,United States,(301) 631-3822 (Main); (301) 631-3828 (Pharmacy); (301) 631-3830 (Main Fax); (301) 631-3827 (Pharmacy Fax),39.431484,-77.418458,Sun-Sat: Open 24 hours,,0
West View Giant Eagle,25,1029 West View Park Drive,West View Park SC,West View,PA,15229,United States,"West View, PA 15229; (412) 931-0148 (Main); (412) 931-0393 (Pharmacy); (412) 931-5396 (Main Fax); (412) 931-2534 (Pharmacy Fax)",40.516427,-80.036415,Sun-Sat: 6:00 AM - 1:00 AM,,0
Westerville GetGo,3507,672 North State Street,,Westerville,OH,43082,United States,(614) 895-1320 (Main); (614) 895-1410 (Main Fax),40.144348,-82.924886,Sun-Sat: 6:00 AM - 11:00 PM,,0
Westerville Giant Eagle,6507,650 North State Street,,Westerville,OH,43082,United States,(614) 865-0357 (Main); (614) 865-0487 (Pharmacy); (614) 865-0761 (Main Fax); (614) 865-0686 (Pharmacy Fax); (614) 865-0577 (Curbside Express); Sun-Thu: 6:00 AM - 11:00 PM,40.142280,-82.927223,Fri-Sat: 6:00 AM - 12:00 AM,,0
Westlake GetGo/WetGo,3316,25476 Center Ridge Rd,,Westlake,OH,44145,United States,(440) 250-8842 (Main); (440) 250-8859 (Main Fax),41.456001,-81.902241,Sun-Sat: 5:30 AM - 2:00 AM,,0
Westlake Giant Eagle,1216,30275 Detroit Road,,Westlake,OH,44145,United States,(440) 835-4880 (Main); (440) 871-5710 (Pharmacy); (440) 835-5464 (Main Fax); (440) 871-8014 (Pharmacy Fax),41.461788,-81.955589,Sun-Sat: 6:00 AM - 1:00 AM,,0
Westlake Liquor Agency,176,30664 Detroit Rd,,Westlake,OH,44145,United States,(440) 892-2110 (Main); (440) 892-7984 (Main Fax); Sun: 11:00 AM - 7:00 PM,41.462026,-81.959466,Mon-Sat: 9:00 AM - 9:00 PM,,0
Wexford Giant Eagle,45,9805 McKnight Road,,Pittsburgh,PA,15237,United States,(412) 366-6828 (Main); (412) 366-3214 (Pharmacy); (412) 366-5368 (Main Fax); (412) 366-4107 (Pharmacy Fax),40.585267,-80.037493,Sun-Sat: 6:00 AM - 1:00 AM,,0
Whipple Avenue GetGo/WetGo,3381,6215 Whipple Avenue NW,,North Canton,OH,44720,United States,(330) 244-9710 (Main); (330) 433-1028 (Main Fax),40.871427,-81.422667,Sun-Sat: 6:00 AM - 11:00 PM,,0
White Oak GetGo,3600,2811 Jacks Run Road,,McKeesport,PA,15131,United States,(412) 675-0295 (Main); (412) 675-0479 (Main Fax),40.338039,-79.807492,Sun-Sat: 6:00 AM - 11:00 PM,,0
White Oak Giant Eagle,600,2001 Lincoln Way,Oak Park Mall,White Oak,PA,15131,United States,"White Oak, PA 15131; (412) 664-3500 (Main); (412) 673-1870 (Pharmacy); (412) 664-6361 (Main Fax); (412) 673-1874 (Pharmacy Fax)",40.337317,-79.805394,Sun-Sat: 7:00 AM - 11:00 PM,,0
Wilkinsburg GetGo,3106,408 Penn Avenue,,Wilkinsburg,PA,15221,United States,(412) 243-1060 (Main); (412) 243-3543 (Main Fax),40.444971,-79.889413,Sun-Sat: 5:00 AM - 12:00 AM,,0
Willoughby Commons Giant Eagle,6381,36475 Euclid Avenue,,Willoughby,OH,44094,United States,(440) 946-1875 (Main); (440) 946-7714 (Pharmacy); (440) 946-8295 (Main Fax); (440) 946-7943 (Pharmacy Fax); (440) 527-7718 (State Liquor Agency); (440) 946-7661 (Curbside Express),41.630089,-81.427340,Sun-Sat: Open 24 hours,,0
Willoughby Hills Giant Eagle,1225,27505 Chardon Road,,Willoughby Hills,OH,44092,United States,(440) 944-9820 (Main); (440) 944-9387 (Pharmacy); (440) 944-9385 (Main Fax); (440) 944-9821 (Pharmacy Fax); Sun: 7:00 AM - 9:00 PM,41.583011,-81.486333,Mon-Sat: 7:00 AM - 10:00 PM,,0
Willowick,3216,30200 Lakeshore Boulevard,,Willowick,OH,44095,United States,(440) 516-0854 (Main),41.636966,-81.476114,Sun-Sat: 6:00 AM - 11:00 PM,,0
Willowick Giant Eagle,216,30320 Lakeshore Boulevard,,Willowick,OH,44095,United States,(440) 944-8900 (Main); (440) 944-6963 (Pharmacy); (440) 944-3013 (Main Fax); (440) 944-5098 (Pharmacy Fax),41.636450,-81.474864,Sun-Sat: 6:00 AM - 11:00 PM,,0
Wilmington Road Giant Eagle,4077,3230 Wilmington Road,,New Castle,PA,16105,United States,(724) 652-5595 (Main); (724) 652-3706 (Pharmacy); (724) 652-6586 (Main Fax); (724) 657-1214 (Pharmacy Fax),41.053454,-80.355626,Sun-Sat: 6:00 AM - 1:00 AM,,0
Yorktown Centre Giant Eagle,4093,2501 West 12th Street,,Erie,PA,16505,United States,(814) 838-6990 (Main); (814) 838-7710 (Pharmacy); (814) 838-9841 (Main Fax); (814) 835-2122 (Pharmacy Fax),42.100913,-80.135607,Sun-Sat: 6:00 AM - 1:00 AM,,0
