store_name,store_number,address,address2,city,state,zip_code,country,phone_number,latitude,longitude,store_hours,other_fields,coming_soon
Overland,141,9074 Overland Plaza,,Overland,,63114,United States,314-426-3800,38.6852,-90.358,24 hours,,0
Ladue,188,8867 Ladue,,St Louis,,63124,United States,314-725-7574,38.65404,-90.35268,"Mon-Sat 6:30am-11pm, Sun 6:30am-10pm",,0
Creve Coeur,102,10650 Olive Blvd,,Creve Coeur,,63141,United States,314-567-3838,38.6725,-90.4139,6am-10pm,,0
Regional Specialty Pharmacy,361,11550 Page Service Dr Ste 101,,St Louis,,63146,United States,314-218-3323,38.69986,-90.42302,Mon-Fri 9am-5:30pm,,0
University City,125,6920 Olive Blvd,,St. Louis,,63130,United States,314-726-2373,38.6642,-90.3135,6am-midnight,,0
Lindbergh,180,10275 Clayton Rd,,Ladue,,63124,United States,314-991-0510,38.6342,-90.4047,6:30am-10pm,,0
Brentwood Pharmacy,304,1520 South Brentwood Blvd,,St. Louis,,63144,United States,314-918-1281,38.62765,-90.3462,Mon-Fri 9am-5:30pm,,0
Richmond Center,272,6600 Clayton Rd,,Clayton,,63117,United States,314-644-0510,38.63397,-90.31474,24 hours,,0
Bridgeton ,191,11253 St. Charles Rock Road,,Bridgeton,,63044,United States,314-738-0677,38.74054,-90.401,6am-midnight,,0
Brentwood,104,8800 Manchester,,Brentwood,,63144,United States,314-961-5454,38.6117,-90.3503,6am-midnight,,0
Dorsett,117,2030 Dorsett Rd,,St. Louis,,63043,United States,314-434-3147,38.71557,-90.45591,24 hours,,0
Bellerive Plaza,116,12756 Olive Blvd,,St. Louis,,63141,United States,314-434-7323,38.6775,-90.4708,6am-midnight,,0
Kirkwood,139,10233 Manchester,,St. Louis,,63122,United States,314-965-7310,38.6011,-90.3956,6am-midnight,,0
Ferguson,233,49 Florissant Road,,St. Louis,,63135,United States,314-524-8633,38.7464,-90.3086,6am-11pm,,0
City Plaza,113,3431 Union,,St. Louis,,63115,United States,314-381-8789,38.6776,-90.2593,6am-midnight,,0
Westfall Plaza,145,8037 West Florissant Avenue,,St Louis,,63136,United States,314-679-2400,38.7274,-90.2751,6am-midnight,,0
Des Peres,209,12332 Manchester Road,,St.Louis,,63131,United States,314-965-3094,38.60333,-90.44254,24 hours,,0
Webster Groves,136,8650 Big Bend,,St. Louis,,63119,United States,314-961-0555,38.5825,-90.3578,24 hours,,0
Hampton Village,258,60 Hampton Village Plaza,,St. Louis,,63109,United States,314-353-5060,38.593,-90.2938,24 hours,,0
Arsenal,149,5055 Arsenal,,St. Louis,,63139,United States,314-771-5008,38.6056,-90.2742,6am-midnight,,0
Lindell Specialty Pharmacy,327,3960 Lindell Blvd,,St. Louis,,63108,United States,314-533-2992,38.64,-90.245,Mon-Fri 9am-5:30pm,,0
Lindell,227,4171 Lindell Blvd,,St. Louis,,63108,United States,314-533-8027,38.64,-90.245,24 hours,,0
Grandview,184,74 Grandview Plaza,,Florissant,,63033,United States,314-838-4540,38.7744,-90.3056,24 hours,,0
Florissant,101,8200 N Lindbergh,,Florissant,,63031,United States,314-921-7060,38.7892,-90.3436,6am-midnight,,0
Crestwood,266,9540 Watson Rd,,Crestwood,,63126,United States,314-849-0341,38.5572,-90.3784,6am-midnight,,0
Woods Mill,142,1060 Woods Mill Rd,,Ballwin,,63017,United States,636-227-2278,38.6233,-90.5139,5am-1am,,0
Gravois,107,7450 Hampton Ave,,St Louis,,63109,United States,314-832-3440,38.5653,-90.2933,6am-midnight,,0
South City,143,3430 S. Grand,,St. Louis,,63118,United States,314-772-5500,38.595,-90.2427,6am-midnight,,0
Affton,137,10070 Gravois,,St. Louis,,63123,United States,314-631-8220,38.55,-90.335,24 hours,,0
Shackelford,276,1160 Shackelford,,Florissant,,63031,United States,314-838-4685,38.81366,-90.34704,6am-midnight,,0
Cross Keys,198,13987 New Halls Ferry Rd,,Florissant,,63033,United States,314-831-0011,38.8056,-90.3003,24 hours,,0
Chesterfield,133,141 Hilltown Village,,Chesterfield,,63017,United States,636-532-2505,38.6589,-90.5528,6am-1am,,0
Lindenwood,176,1900 First Capitol Dr,,St. Charles,,63301,United States,636-946-0123,38.78384,-90.50249,6am-midnight,,0
Twin Oaks,173,"1393 Big Bend, Suite 1",,Ballwin,,63021,United States,636-225-3777,38.56735,-90.49685,24 hours,,0
Culinaria Downtown,301,315 North 9th Street,,St. Louis,,63101,United States,314-436-7694,38.62902,-90.1934,6am-9pm,,0
Loughborough,192,1020 LOUGHBOROUGH,,St Louis,,63111,United States,314-752-5333,38.556,-90.2634,6am-midnight,,0
Sierra Vista,216,1589 Sierra Vista Plaza,,St. Louis,,63138,United States,314-741-0282,38.7722,-90.2197,6am-midnight,,0
Concord Village,193,5434 Southfield Center,,St. Louis,,63123,United States,314-849-1815,38.5258,-90.3603,6am-midnight,,0
Zumbehl,111,1950 Zumbehl Road,,St. Charles,,63303,United States,636-947-8422,38.78066,-90.5301,6am-midnight,,0
Ballwin,106,15425 Manchester,,Ballwin,,63011,United States,636-256-0644,38.5934,-90.56215,5am-1am,,0
Kehrs Mill,174,2511 Kehrs Mill Road,,Ballwin,,63011,United States,636-207-3401,38.6202,-90.5816,6am-midnight,,0
Harvester,138,48 Plaza Ninety-Four Dr,,St. Charles,,63376,United States,636-928-1623,38.74946,-90.58952,24 hours,,0
Butler Hill,105,4333 Butler Hill,,St. Louis,,63128,United States,314-894-1227,38.4864,-90.3572,24 hours,,0
Granite City,288,3100 Madison Ave,,Granite City,,62040,United States,618-451-0517,38.71831,-90.12253,24 hours,,0
Cahokia,148,1615 Camp Jackson,,Cahokia,,62206,United States,618-332-0060,38.55443,-90.16463,6am-10pm,,0
Telegraph,118,5519 Oakville Shopping Ctr,,St. Louis,,63129,United States,314-892-6401,38.47052,-90.30497,24 hours,,0
Wildwood,121,16580 Manchester,,Wildwood,,63040,United States,636-458-5544,38.5807,-90.6199,6am-midnight,,0
Cottleville ,124,6083 Mid Rivers Mall Dr.,,St. Charles,,63304,United States,636-498-0108,38.7456,-90.6366,6am-midnight,,0
Mid Rivers,110,577 Mid Rivers Mall Drive,,St. Peters,,63376,United States,636-970-2570,38.78833,-90.62823,6am-midnight,,0
Dillon,122,#20 Gravois Dillon Plaza,,High Ridge,,63049,United States,636-677-0061,38.47865,-90.5198,6am-midnight,,0
Eureka Pointe,196,245 East 5th St.,,Eureka,,63025,United States,636-938-4102,38.5079,-90.6226,5am-1am,,0
Market Place Schnucks,244,1000 Columbia Centre Dr,,Columbia,,62236,United States,618-281-6300,38.4443,-90.2205,6am-10pm,,0
Richardson Road,127,3900 Vogel Rd,,Arnold,,63010,United States,636-282-3377,38.41451,-90.3943,24 hours,,0
Dardenne Crossing,123,3029 Highway K,,O'Fallon,,63366,United States,636-240-6868,38.75471,-90.7012,6am-midnight,,0
Godfrey,269,2712 Godfrey,,Godfrey,,62035,United States,618-466-7060,38.9233,-90.1925,24 hours,,0
O'Fallon,129,8660 Veterans Memorial Parkway,,O'Fallon,,63366,United States,636-978-3566,38.7997,-90.6994,24 hours,,0
Alton,146,2811 Homer Adams Pkwy,,Alton,,62002,United States,618-465-6673,38.91479,-90.14573,6am-1am,,0
Belleville West,115,5720 North Belt West,,Belleville,,62223,United States,618-235-6819,38.54,-90.0339,6am-midnight,,0
Collinsville,119,501 Belt Line Rd,,Collinsville,,62234,United States,618-345-7661,38.6917,-89.98,6am-12am Sun-Thu; 6am-1am Fri & Sat,,0
Fairview Heights,144,625 Lincoln Hwy,,Fairview Heights,,62208,United States,618-624-4310,38.5936,-89.9775,6am-1am,,0
Swansea,120,2665 North Illinois St,,Swansea,,62221,United States,618-236-1414,38.5419,-89.9847,6am-1am,,0
Bethalto,178,72 Airport Plz,,Bethalto,,62010,United States,618-377-0235,38.90319,-90.05861,6am-11pm,,0
Edwardsville,229,2222 Troy Rd,,Edwardsville,,62025,United States,618-659-0010,38.78486,-89.95052,5am-midnight,,0
Lake St. Louis,135,101 Civic Center Drive,,Lake St. Louis,,63367,United States,636-561-1922,38.7841,-90.796,6am-midnight,,0
Belleville East,267,110 Carlyle Plaza Dr.,,Belleville,,62221,United States,618-234-0220,38.51714,-89.9524,6am-10pm,,0
Waterloo,243,150 Waterloo Commons Drive,,Waterloo,,62298,United States,618-939-6155,38.35248,-90.15179,6am-midnight,,0
Seven Hills,177,907 East Hwy 50,,O'Fallon,,62269,United States,618-632-5525,38.58336,-89.8965,6am-midnight,,0
Wentzville Crossing,725,1960 Wentzville Parkway,,Wentzville,,63385,United States,636-332-8468,38.8124,-90.873,6am-midnight,,0
Festus,731,1181 Gannon Plaza,,Festus,,63028,United States,636-937-3339,38.21183,-90.40337,6am-11pm,,0
Washington,719,2073 Washington Crossing,,Washington,,63090,United States,636-239-3577,38.538,-91.0066,5am-1am,,0
Farmington,743,942 Valley Creek Drive,,Farmington,,63640,United States,573-664-5200,37.79368,-90.44019,"6am-10pm Sun-Thu, 6am-11pm Fri-Sat",,0
Centralia,733,1129 W. Broadway,,Centralia,,62801,United States,618-532-4449,38.5295,-89.1512,6am-10pm,,0
Montvale,717,2801 Chatham Rd,,Springfield,,62704,United States,217-698-2980,39.7676,-89.6876,24 hours,,0
Springfield Pharmacy,318,2239 East Cook St. Suite 101,,Springfield,,62703,United States,217-753-1956,39.80391,-89.64493,Mon-Fri 9am-5:30pm,,0
Sangamon,718,"1911 Sangamon Ave, E",,Springfield,,62702,United States,217-744-2012,39.8316,-89.6304,6am-midnight,,0
Carbondale,722,915 W Main,,Carbondale,,62901,United States,618-351-0463,37.7262,-89.228,24 hours,,0
Jefferson City,726,1801 Missouri Blvd,,Jefferson City,,65109,United States,573-635-4666,38.58001,-92.19969,6am-midnight,,0
Cape Girardeau,702,19 S. Kingshighway,,Cape Girardeau,,63701,United States,573-334-9191,37.30452,-89.55355,24 hours,,0
Columbia,714,1400 Forum Blvd,,Columbia,,65205,United States,573-446-2800,38.93693,-92.3588,6am-midnight,,0
Pekin,724,1001 Court St,,Pekin,,61554,United States,309-347-6757,40.56573,-89.63746,24 hours,,0
Bloomington,706,1701 East Empire St,,Bloomington,,61701,United States,309-662-9300,40.4866,-88.9497,6am-midnight,,0
Normal,729,1750 Bradford Lane,,Normal,,61761,United States,309-451-7100,40.5336,-88.9942,6am-midnight,,0
Peoria,721,4800 N University,,Peoria,,61614,United States,309-690-3242,40.74554,-89.612,24 hours,,0
Savoy,730,1301 Savoy Plaza Center,,Savoy,,61874,United States,217-373-0700,40.0704,-88.25158,6am-midnight,,0
Champaign,707,109 N. Mattis Rd,,Champaign,,61821,United States,217-351-2600,40.1162,-88.2767,6am-midnight,,0
Urbana,720,200 N Vine St,,Urbana,,61801,United States,217-337-6016,40.1134,-88.2047,24 hours,,0
Knoxville Crossing,741,10405 N Centerway Dr.,,Peoria,,61615,United States,309-621-7340,40.81689,-89.61668,6:00 am - Midnight,,0
Evansville West,705,4500 West Lloyd Expwy,,Evansville,,47712,United States,812-422-6325,37.9763,-87.6338,6am-midnight,,0
Darmstadt,742,600 E. Boonville New Harmony Rd.,,Evansville,,47725,United States,812-464-3500,38.09384,-87.55399,5am-midnight,,0
Evansville North,704,3700 First Ave,,Evansville,,47710,United States,812-464-3920,38.0119,-87.5756,6am-midnight,,0
Green River,728,3501 North Green River Road,,Evansville,,47715,United States,812-473-4510,38.0126,-87.49057,6am-midnight,,0
Lawndale,708,5000 Washington Ave,,Evansville,,47715,United States,812-473-0151,37.9623,-87.4904,6am-midnight,,0
Newburgh,744,8301 Bell Oaks Drive,,Newburgh,,47630,United States,812-853-9505,37.9758,-87.4026,6am-midnight,,0
Bettendorf,745,858 Middle Road,,Bettendorf,,52722,United States,563-355-7810,41.53882,-90.5219,6am-midnight,,0
Dekalb,749,975 South Annie Glidden Rd.,,Dekalb,,60115,United States,815-748-6200,41.92106,-88.773,6am-midnight,,0
11th Street,748,3134 11th Street,,Rockford,,61109,United States,815-398-0440,42.22783,-89.06846,6am-11pm,,0
Cherry Valley,747,2206 Barnes Blvd,,Cherry Valley,,61012,United States,815-332-7267,42.2428,-88.9781,24 hours,,0
Rockford Plaza,754,2642 Charles St,,Rockford,,61104,United States,815-484-2453,42.2602,-89.0523,6am-midnight,,0
East State,750,6410 E. State St.,,Rockford,,61108,United States,815-397-6080,42.2677,-88.9915,6am-midnight,,0
Rockton,752,3150 N. Rockton Ave.,,Rockford,,61103,United States,815-968-9627,42.305,-89.0969,6am-11pm,,0
Mulford,757,2601 N Mulford Road,,Rockford,,61114,United States,815-877-7545,42.2988,-88.9977,6am-11pm,,0
Loves Park,753,1810 Harlem,,Loves Park,,61111,United States,815-633-1481,42.33996,-89.02845,6am-midnight,,0
Roscoe,756,4860 Hononegah Road,,Roscoe,,61073,United States,815-623-7799,42.4328,-89.0207,6am-midnight,,0
Janesville,758,1501 Creston Park Dr,,Janesville,,53545,United States,608-755-5805,42.70233,-89.00505,6am-11pm,,0
