store_name,store_number,address,address2,city,state,zip_code,country,phone_number,latitude,longitude,store_hours,other_fields,coming_soon
Anna's Linens by Fallas Store # 460,460,5420 Sunset Boulevard,,Hollywood,CA,90027,United States,(323) 466-0249,34.097009,-118.307763,,,0
Anna's Linens by Fallas Store # 467,467,1713 S. Western Avenue,,Los Angeles,CA,90006,United States,(323) 735-0826,34.042321,-118.309029,,,0
Store # 472,472,12530 Day Street,,Moreno Valley,CA,92553,United States,(951) 653-2079,33.938309,-117.278018,,,0
Store # 459,459,7460 Carson Boulevard,,Long Beach,CA,90808,United States,(562) 420-9169,33.827199,-118.086124,,,0
Anna's Linens by Fallas Store # 466,466,29 Colma Boulevard,,Colma,CA,94014,United States,(650) 994-1315,37.678366,-122.469169,,,0
Anna's Linens by Fallas Store # 471,471,44436 Valley Central Way,,Lancaster,CA,93536,United States,(661) 948-2473,34.690701,-118.172272,,,0
Anna's Linens by Fallas Store # 462,462,2700 Colorado Blvd. #263,,Los Angeles,CA,90041,United States,(323) 341-5816,34.141082,-118.225112,,,0
Anna's Linens by Fallas Store # 470,470,928 N. San Fernando Road,,Burbank,CA,91504,United States,(818) 848-8713,34.187292,-118.316632,,,0
Store # 464,464,10310 Sepulveda Blvd,,Mission Hills,CA,91345,United States,(818) 361-7837,34.258913,-118.466394,,,0
Anna's Linens by Fallas Store # 476,476,3446 S. Mooney Boulevard,,Visalia,CA,93277,United States,(559) 635-1124,36.299349,-119.311369,,,0
Store # 461,461,10851 Imperial Highway,,Norwalk,CA,90650,United States,(562) 406-7505,33.918308,-118.101973,,,0
Store # 473,473,2120 S. Bristol Street,,Santa Ana,CA,92704,United States,(714) 549-2815,33.717839,-117.88631,,,0
Store # 474,474,1881 E. Ventura Boulevard,,Oxnard,CA,93036,United States,(805) 278-3909,34.223901,-119.152116,,,0
Store # 475,475,12201 Victory Blvd.,,North Hollywood,CA,91606,United States,(818) 760-7419,34.186964,-118.398997,,,0
Store # 477,477,8762 Corbin Avenue,,Northridge,CA,91324,United States,(818) 407-2637,34.229427,-118.561285,,,0
Store # 100,100,15001 S. Figueroa Street,,Gardena,CA,90248,United States,(310) 965-0379,33.895685,-118.28421,,,0
Store # 102,102,6719 Pacific Boulevard,,Huntington Park,CA,90255,United States,(323) 583-7204,33.978204,-118.225615,,,0
Store # 136,136,956 West Sepulveda Boulevard,,Harbor City,CA,90710,United States,(310) 517-0285,33.810063,-118.292174,,,0
Store # 177,177,2870 W Imperial Hwy,,Inglewood,CA,90303,United States,(310) 590-1092,33.930886,-118.325622,,,0
Store # 182,182,120 E. Compton Blvd.,,Compton,CA,90220,United States,(323) 312-0217,33.894739,-118.223291,,,0
Store # 421,421,7500 S. Alameda St.,,Walnut Park,CA,90255,United States,(323) 588-1372 ,33.971703,-118.233045,,,0
Store # 426,426,13119 Hawthorne Blvd.,,Hawthorne,CA,90250,United States,(310) 349-8082 ,33.913316,-118.353117,,,0
Store # 430,430,909 N. Avalon,,Wilmington,CA,90744,United States,(310) 830-1435,33.781485,-118.262926,,,0
Store # 633,633,3210 West Century Boulevard,,Inglewood,CA,90303,United States,(310) 674-1979,33.945457,-118.327593,,,0
Store # 636,636,3220 Anaheim Street,,Long Beach,CA,90804,United States,(562) 438-8634,33.782584,-118.154347,,,0
Store # 638,638,10801 Long Beach Boulevard,,Lynwood,CA,90262,United States,(310) 638-6802,33.9351,-118.21382,,,0
Store # 674,674,11860 South Wilmington Avenue,,Willowbrook,CA,90059,United States,(323) 567-3188,33.925054,-118.237016,,,0
Store # 159,159,5502 East Cherry Avenue,,Long Beach,CA,90805,United States,(562) 633-0038,33.856181,-118.168395,,,0
Store # 105,105,201 West 4th Street,,Santa Ana,CA,92701,United States,(714) 972-9104,33.748172,-117.86896,,,0
Store # 107,107,14027 So. Pioneer Blvd,,Norwalk,CA,90650,United States,(562) 864-6375,33.903769,-118.083329,,,0
Store # 114,114,2230 East Lincoln Avenue,,Anaheim,CA,92806,United States,(714) 956-8796,33.832094,-117.96038,,,0
Store # 118,118,9060 Firestone Boulevard,,Downey,CA,90241,United States,(562) 622-9619,33.934443,-118.123042,,,0
Store # 137,137,8610 Whittier Blvd,,Pico Rivera,CA,90660,United States,(562) 949-8440,34.001996,-118.088813,,,0
Store # 616,616,6813 Eastern Avenue,,Bell Gardens,CA,90201,United States,(323) 560-8887,33.971431,-118.165892,,,0
Store # 465,465,"Whittier Shopping Ctr, 13400 Whittier Blvd",,Whittier,CA,90605,United States,Opens 10-1-15,33.962038,-118.033284,,,0
Store # 628,628,137 Orangefair Mall,,Fullerton,CA,92832,United States,(714) 578-0882,33.8564,-117.920698,,,0
Store # 629,629,9691 Chapman Avenue,,Garden Grove,CA,92841,United States,(714 638-7967,33.789865,-117.963882,,,0
Store # 667,667,1360 West  Edinger Avenue,,Santa Ana,CA,92704,United States,(714) 437-9431,33.725806,-117.886961,,,0
Store # 101,101,449 South Broadway,,Los Angeles,CA,90013,United States,(213) 532-8900,34.048486,-118.250836,,,0
Store # 104,104,4774 Whittier Boulevard,,Los Angeles,CA,90022,United States,(323) 264-7441,34.022277,-118.165073,,,0
Store # 113,113,1837 La Cienega Boulevard,,Los Angeles,CA,90035,United States,(310) 838-4000,34.043214,-118.37832,,,0
Store # 115,115,1533 North Vermont Avenue,,Los Angeles,CA,90027,United States,(323) 953-7031,34.099413,-118.292598,,,0
Store # 122,122,5461 N. Figueroa Street,,Highland Park,CA,90270,United States,(323) 341-5918,34.108572,-118.19643,,,0
Store # 170,170,5060 Rodeo Road,,Los Angeles,CA,90016,United States,(323) 293-7317,34.020404,-118.354503,,,0
Store # 437,437, 840 S. Alvarado St. ,,Los Angeles,CA,90057,United States,(213) 632-0154,34.053432,-118.27834,,,0
Store # 468,468,2022 S. Atlantic Blvd,,Monterey Park,CA,91754,United States,(323) 728-2893,34.038568,-118.14323,,,0
Store # 637,637,1645 S. Western Avenue,,Los Angeles,CA,90006,United States,(323) 732-1398,34.043085,-118.31008,,,0
Store # 106,106,6633 Van Nuys Blvd.,,Van Nuys,CA,91411,United States,(818) 997-1011,34.191645,-118.449279,,,0
Store # 117,117,575 South Ventura Road,,Oxnard,CA,93033,United States,(805) 815-0269,34.189774,-119.194697,,,0
Store # 121,121,21035 Sherman Way,,Canoga Park,CA,91303,United States,(818) 610-7431,34.201798,-118.591874,,,0
Store # 168,168,19719 Sherman Way,,Winnetka,CA,91306,United States,(818) 705-5907,34.201471,-118.562679,,,0
Store # 406,406,2600 Vineyard at Ventura,,Oxnard,CA,93036,United States,(805) 485-8120,34.232894,-119.179765,,,0
Store # 613,613,9035 Woodman Avenue,,Arleta,CA,91331,United States,(818) 830-8149,34.233573,-118.439995,,,0
Store # 129,129,12480 Amargosa Road # A,,Victorville,CA,92392,United States,(760) 245-9487,34.47797,-117.342642,,,0
Store # 142,142,570 South Mount Vernon Avenue,,San Bernardino,CA,92410,United States,(909) 889-2744,34.090975,-117.3151,,,0
Store # 144,144,49-221 Grapefruit Boulevard,,Coachella ,CA,92236,United States,(760) 398-6740,33.688331,-116.181703,,,0
Store # 160,160,82-150 Hwy 11,,Indio,CA,92201,United States,(760) 775-6047,33.706799,-116.252151,,,0
Store # 165,165,31833 Date Palm Drive,,Cathedral City,CA,92234,United States,(760) 202-3765,33.817493,-116.459989,,,0
Store # 174,174,1735 W Florida Ave,,Hemet,CA,92545,United States,(951)765-0963,33.746906,-116.990651,,,0
Store # 184,184,23805 Sunnymead Boulevard,,Moreno Valley,CA,92553,United States,(951) 242-5565,33.937613,-117.247882,,,0
Store # 194,194,"17600 Collier Ave, Ste J195",,Lake Elsinore,CA,92530,United States,(951) 471-2369,33.702683,-117.353956,,,0
Store # 400,400,4010 Highland Ave.,,Highland,CA,92346,United States,(909) 862-2516,34.137527,-117.199221,,,0
Store # 420,420,14598 7th St.,,Victorville,CA ,92395,United States,(760) 951-9097,34.517047,-117.314442,,,0
Store # 660,660,330 West Baseline,,San Bernardino,CA,92410,United States,(909) 889-3303,34.122597,-117.290416,,,0
Store # 124,124,1661 North Hacienda Boulevard,,La Puente,CA,91744,United States,(626) 917-3019,34.050655,-117.946235,,,0
Store # 132,132,1743 East Palmdale Blvd,,Palmdale,CA,93550,United States,(661) 273-4236,34.580733,-118.097302,,,0
Store # 163,163,371 S. Lincoln Avenue,,Corona,CA,92882,United States,(951) 735-2290,33.879621,-117.582003,,,0
Store # 186,186,601 E. Holt Ave.,,Pomona ,CA,91767,United States,(909) 865-5090,34.063154,-117.738235,,,0
Store # 188,188,5391 Moreno Drive,,Montclair,CA,91763,United States,(909) 398-1507,34.087716,-117.686773,,,0
Store # 417,417,1261 N. Azusa Ave.,,Covina,CA,91722,United States,(626) 332-2890,34.10277,-117.908249,,,0
Store # 432,432,14121 E. Ramona Blvd.,,Baldwin Park,CA,91706,United States,(626) 338-1650,34.086527,-117.96612,,,0
Store # 634,634,1226 Commerce Center Drive,,Lancaster,CA,93534,United States,(661) 726-4667,34.671564,-118.153784,,,0
Store # 652,652,260 E Baseline St,,Rialto,CA,92336,United States,(909) 875-8376,34.122188,-117.366597,,,0
Store # 653,653,9040 Foothill Boulevard #101,,Rancho Cucamonga,CA,91730,United States,(909) 941-7420,34.107986,-117.607462,,,0
Store # 123,123,34 East 2nd Street,,Calexico,CA,92231,United States,(760) 768-5464,32.666663,-115.498129,,,0
Store # 133,133,1380 East Valley Parkway,,Escondido,CA,92027,United States,(760) 480-7270,33.132746,-117.063726,,,0
Store # 141,141,2320 North Imperial Avenue,,Calexico,CA,92231,United States,(760) 357-4090,32.690771,-115.498622,,,0
Store # 146,146,670 Jamacha Road ,,El Cajon,CA,92019,United States,(619) 401-6428,32.788443,-116.929829,,,0
Store # 152,152,459 College Boulevard,,Oceanside,CA,92057,United States,(760) 941-9028,33.24535,-117.293093,,,0
Store # 161,161,614 Palomar Avenue,,Chula Vista,CA,91911,United States,(619) 420-1259,32.60252,-117.07964,,,0
Store # 469,469,7044 Broadway,,Lemon Grove,CA,91945,United States,(619) 460-0256,32.743305,-117.045929,,,0
Store # 619,619,1319 Third Avenue,,Chula Vista,CA,91911,United States,(619) 422-2797,32.606088,-117.064959,,,0
Store # 622,622,1730 North  Imperial Avenue,,El Centro,CA,92243,United States,(760) 482-0154,32.808798,-115.571221,,,0
Store # 635,635,7124 Broadway Avenue,,Lemon Grove,CA,91945,United States,(619) 644-1841,32.746684,-117.017992,,,0
Store # 645,645,3470 Highland Avenue,,National City,CA,91950,United States,(619) 427-3695,32.651922,-117.092594,,,0
Store # 661,661,2949 Coronado Avenue,,San Diego,CA,92154,United States,(619) 424-9547,32.575426,-117.06965,,,0
Store # 666,666,175 Virginia Avenue,,San Ysidro,CA,92173,United States,(619) 428-5388,32.549073,-117.03655,,,0
Store # 697,697,525 Main Street,,Brawley,CA,92227,United States,(760) 344-3939,32.978792,-115.533007,,,0
Store # 167,167,6249 E. Niles Street,,Bakersfield,CA,93306,United States,(661) 363- 0360,35.374688,-118.934534,,,0
Store # 176,176,1145 Cherry Street,,Tulare,CA,93274,United States,(559) 685-9610,36.224307,-119.338887,,,0
Store # 413,413,201 Towne Center West,,Santa Maria,CA,93458,United States,(805) 922-2064,34.951255,-120.437114,,,0
Store # 503,503,"1009 North H. Street, Suite M",,Lompoc,CA,93436,United States,(805) 735-5046,34.654239,-120.458944,,,0
Store # 615,615,1503 White Lane ,,Bakersfield,CA,93307,United States,(661) 832-2191,35.316483,-119.019982,,,0
Store # 621,621,1010 Cecil Street,,Delano,CA,93215,United States,(661) 725-2013,35.775437,-119.245357,,,0
Store # 630,630,580 North 11th Street,,Hanford,CA,93230,United States,(559) 584-6080,36.330921,-119.656748,,,0
Store # 651,651,885 West Henderson Avenue,,Porterville,CA,93257,United States,(559) 784-4342,36.078556,-119.037354,,,0
Store # 654,654,1201 East Manning Avenue,,Reedley,CA,93654,United States,(559) 638-6666,36.603066,-119.43709,,,0
Store # 695,695,2300 White Lane,,Bakersfield,CA,93307,United States,(661) 831-7126,35.31771,-118.985456,,,0
Store # 173,173,6300 Mack Road ,,Sacramento,CA,95823,United States,(916) 422-6035,38.472785,-121.429172,,,0
Store # 183,183,500 N. McCarran,,Sparks,NV,89431,United States,(775) 356-3839,39.528873,-119.73943,,,0
Store # 402,402,2602 Somersville Road,,Antioch,CA,94509,United States,(925) 727-0102,38.001687,-121.843503,,,0
Store # 403,403,6895 Sierra Center Parkway,,Reno,NV,89511,United States,(775) 851-9632,39.464382,-119.778717,,,0
Store # 427,427,6045 Madison Ave.,,Carmichael,CA,95608,United States,(916) 437-0155 ,38.662185,-121.324579,,,0
Store # 463,463,9163 E. Stockton Blvd #360,,Elk Grove,CA,95624,United States,(916) 478-4414,38.426678,-121.392233,,,0
Store # 502,502,1550 Highway 99,,Gridley,CA,95948,United States,(530) 846-4423,39.361258,-121.687104,,,0
Store # 668,668,48 North American Street,,Stockton,CA,95202,United States,(209) 469-2080,37.954627,-121.283078,,,0
Store # 669,669,1010 East Hammer Lane #B,,Stockton,CA,95210,United States,(209) 957-6992,38.0196,-121.298946,,,0
Store # 675,675,860 Gray Avenue,,Yuba City,CA,95991,United States,(530) 673-2996,39.138356,-121.631403,,,0
Store # 147,147,13220 San Pablo Avenue,,San Pablo,CA,94806,United States,(510) 233-5208,37.952373,-122.331658,,,0
Store # 166,166,2011 Sebastopol Road,,Santa Rosa,CA,95407,United States,(707) 546-5746,38.42678,-122.742818,,,0
Store # 175,175,375 N. Capitol Avenue,,San Jose,CA,95133,United States,(408) 923-2596,37.370762,-121.846896,,,0
Store # 431,431,10715-1-739 MacArthur Blvd. ,,Oakland,CA,94605,United States,(510) 553-1047,37.741976,-122.151574,,,0
Store # 658,658,1022 East Alisal,,Salinas,CA,93905,United States,(831) 754-2184,36.6715,-121.626175,,,0
Store # 659,659,1502 North Main Street,,Salinas,CA,93906,United States,(831) 442-5776,36.710979,-121.652154,,,0
Store # 662,662,2664 Mission Street,,San Francisco,CA,94110,United States,(415) 642-3651,37.754302,-122.419,,,0
Store # 663,663,2816 South White Road,,San Jose,CA,95148,United States,(408) 532-7460,37.323724,-121.794859,,,0
Store # 665,665,699 Lewelling Boulevard,,San Leandro,CA,94579,United States,(510) 352-1693,37.68769,-122.137507,,,0
Store # 671,671,3435 Sonoma Boulevard,,Vallejo,CA,94590,United States,(707) 644-9414,38.1213,-122.257125,,,0
Store # 673,673,1404 Freedom Boulevard,,Watsonville,CA,95076,United States,(831) 724-0912,36.925831,-121.762574,,,0
Store # 111,111,1136 Fulton Mall,,Fresno,CA,93721,United States,(559) 441-8454,36.735688,-119.791592,,,0
Store # 134,134,4989 East Kings Canyon,,Fresno,CA,93727,United States,(559) 456-2930,36.737922,-119.728395,,,0
Store # 157,157,3011 North Cedar Avenue,,Fresno,CA,93703,United States,(559) 226-4060,36.777652,-119.755082,,,0
Store # 169,169,2405 Geer Road,,Turlock,CA,95382,United States,(209) 667-2479,37.514964,-120.850023,,,0
Store # 428,428,1467 Country Club Drive,,Madera,CA,93638,United States,(559) 664-5022,36.979196,-120.072598,,,0
Store # 429,429, 4102 N. West. Ave.,,Fresno,CA,93705,United States,(559) 221-1894,36.791501,-119.824832,,,0
Store # 433,433,1800 Prescott,,Modesto,CA,95350,United States,(209) 575-3485,37.672237,-121.030796,,,0
Store # 618,618,1450 East Hatch Road Suite # C,,Modesto,CA,95307,United States,(209) 541-0723,37.607961,-120.970585,,,0
Store # 626,626,5243 North Blackstone,,Fresno,CA,93710,United States,(559) 432-3749,36.812975,-119.79204,,,0
Store # 640,640,1240 West Main Street,,Merced,CA,95340,United States,(209) 723-8436,37.304966,-120.494985,,,0
Store # 120,120,4510 Meadows Lane,,Las Vegas,NV,89107,United States,(702) 259-8639 ,36.171714,-115.201802,,,0
Store # 128,128,480 North Nellis Boulevard,,Las Vegas,NV,89110,United States,(702) 438-0199,36.168212,-115.060471,,,0
Store # 148,148,2555 South Maryland Parkway,,Las Vegas,NV,89109,United States,(702) 696-1559,36.143756,-115.138546,,,0
Store # 149,149,2560 East Desert Inn Road,,Las Vegas,NV,89121,United States,(702) 369-1187,36.130895,-115.114491,,,0
Store # 178,178,3085 East Tropicana Ave.,,Las Vegas,NV,89121,United States,(702) 547-1636,36.099928,-115.108018,,,0
Store # 434,434,3136-B Stockton Hill Rd.,,Kingman,AZ,86401,United States,(928) 753-2105 ,35.213927,-114.035107,,,0
Store # 478,478, 9833 Eastern Road,,Las Vegas,NV,89183,United States,(702) 407-2396,36.011236,-115.118652,,,0
Store # 479,479, 574 N. Stephanie Street,,Henderson,NV,89014,United States,(702) 435-1153,36.060773,-115.043958,,,0
Store # 480,480," 1925 W. Craig Rd, Ste104",,North  Las Vegas,NV,89032,United States,(702) 646-0610,36.236995,-115.170015,,,0
Store # 681,681,1818 East Charleston Boulevard,,Las Vegas,NV,89104,United States,(702) 388-1053,36.158843,-115.124339,,,0
Store # 682,682,2025 East Lake Mead,,Las Vegas,NV,89030,United States,(702) 642-5888,36.194695,-115.118946,,,0
Store # 185,185,8837 N. 19th Ave,,Phoenix,AZ,85021,United States,(602) 944-1552,33.566259,-112.098451,,,0
Store # 187,187,"1036 E. Southern Ave., Suite 104",,Mesa,AZ,85204,United States,(480) 733-1627,33.394477,-111.809095,,,0
Store # 189,189,"Desert Sky Plaza 2020 N 75th Ave, Ste. 45",,Phoenix,AZ,85036,United States,(623) 846-8348 ,33.471068,-112.222977,,,0
Store # 329,329,4105 North 51st Avenue Suite #139,,Phoenix,AZ,85031,United States,(623) 846-4248,33.495977,-112.167255,,,0
Store # 330,330,308 East University Drive,,Mesa,AZ,85201,United States,(480) 962-0880,33.422705,-111.824725,,,0
Store # 331,331,4321 Bethany Home Road,,Glendale,AZ,85301,United States,(623) 934-3545,33.523915,-112.1522,,,0
Store # 332,332,"26 East Baseline Road,  Suite #108",,Phoenix,AZ,85040,United States,(602) 276-5038,33.379187,-112.070601,,,0
Store # 415,415,4003 N. 33rd Ave.,,Phoenix,AZ,85017,United States,(602) 277-5381,33.494056,-112.129929,,,0
Store # 600,600,1021 North Arizona Avenue,,Chandler,AZ,85224,United States,(480) 899-2209,33.3221,-111.840738,,,0
Store # 605,605,3334 West Van Buren,,Phoenix,AZ,85009,United States,(602) 455-6162,33.451391,-112.131399,,,0
Store # 606,606,5239 West Indian School Road,,Phoenix,AZ,85031,United States,(623) 247-9328,33.494966,-112.172275,,,0
Store # 192,192,10241 S. Padre Island,,Corpus Christi,TX,78418,United States,(361) 371-1231,27.667487,-97.284264,,,0
Store # 203,203,1222 South Shaver,,Pasadena,TX,77506,United States,(713) 473-5551,29.691855,-95.21218,,,0
Store # 216,216,8541 West Bellfort Street,,Houston,TX,77071,United States,(713) 771-1126,29.655469,-95.527417,,,0
Store # 222,222,5540 North Freeway,,Houston,TX,77076,United States,(713) 694-2916,29.847958,-95.391479,,,0
Store # 235,235,11703 Eastex Freeway,,Houston,TX,77039,United States,(281) 449-2337,29.892183,-95.320051,,,0
Store # 238,238,8201 Broadway,,Houston,TX,77061,United States,(713) 643-1896,29.674494,-95.276035,,,0
Store # 290,290,4959 Ayers Street ,,Corpus Christi,TX,78415,United States,(361) 857-7281,27.736818,-97.426612,,,0
Store # 298,298,"10261 North Freeway, Suite #150",,Houston,TX,77037,United States,(281) 931-6028,29.912513,-95.41656,,,0
Store # 398,398,3333 J. Telephone Road,,Houston,TX,77023,United States,(713) 923-7388,29.711427,-95.313695,,,0
Store # 687,687,5502 I-45 North,,Houston,TX,77076,United States,(713) 694-6504,29.856849,-95.400834,,,0
Store # 688,688,8006 South Gessner,,Houston,TX,77036,United States,(713) 995-7568,29.690172,-95.534254,,,0
Store # 180,180,10717 Jones Rd,,Houston,TX,77065,United States,(281) 469-0125,29.930407,-95.586366,,,0
Store # 181,181,300 FM 1960 Rd West ,,Houston,TX,77090,United States,(281) 440-0015,30.019941,-95.433836,,,0
Store # 201,201,11075  I-10 East,,Houston,TX,77015,United States,(713) 674-4552,29.774872,-95.233539,,,0
Store # 214,214,7840 Long Point,,Houston,TX,77055,United States,(713) 683-8883,29.802926,-95.483666,,,0
Store # 215,215,10 Uvalde Road,,Houston,TX,77015,United States,(713) 330-0844,29.805421,-95.184,,,0
Store # 239,239,14485 Bellaire Blvd. Suite C,,Houston,TX,77083,United States,(281) 561-9206,29.702336,-95.641702,,,0
Store # 244,244,5828 Lyons Avenue,,Houston,TX,77020,United States,(713) 676-0012,29.77618,-95.31234,,,0
Store # 265,265,1539 Little York Road,,Houston,TX,77093,United States,(281) 449-5111,29.871683,-95.361718,,,0
Store # 296,296,6433 West 43rd Street,,Houston,TX,77092,United States,(713) 683-0350,29.83248,-95.485849,,,0
Store # 323,323,3719 Avenue H,,Rosenburg,TX,77471,United States,(832) 595-1569,29.559955,-95.788869,,,0
Store # 393,393,9771 FM 1960 Bypass Road West,,Humble,TX,77338,United States,(281) 446-2576,30.005019,-95.277024,,,0
Store # 396,396,501 South Timberland Drive,,Lufkin,TX,75901,United States,(936) 634-3444,31.330464,-94.721512,,,0
Store # 220,220,5421 IH-35 North  ,,Austin,TX,78723,United States,(512) 419-0009,30.31568,-97.705424,,,0
Store # 229,229,1201 Farragut,,Laredo,TX,78040,United States,(956) 724-6587,27.505481,-99.507722,,,0
Store # 295,295,501 East 6th Street,,Del Rio,TX,78840,United States,(830) 775-0524,29.370771,-100.89959,,,0
Store # 334,334,455 South Bibb,,Eagle Pass,TX,78852,United States,(830) 758-0607,28.703421,-100.484097,,,0
Store # 361,361,296 East Main Street,,Eagle Pass,TX,78852,United States,(830) 758-0202,28.708015,-100.504219,,,0
Store # 362,362,5217 North Navarro Street,,Victoria,TX,77904,United States,(361) 576-2740,28.843377,-97.000303,,,0
Store # 482,482, 1500 Lowes Blvd,,Killeen,TX,76542,United States,(254) 539-1543,31.089144,-97.727041,,,0
Store # 689,689,4701 San Dario Avenue,,Laredo,TX,78041,United States,(956) 725-0752,27.542082,-99.501012,,,0
Store # 286,286,185 SW Military Drive,,San Antonio,TX,78221,United States,(210) 922-4862,29.356871,-98.492563,,,0
Store # 287,287,3618 South New Braunfels,,San Antonio,TX,78223,United States,(210) 532-7853,29.381985,-98.461205,,,0
Store # 288,288,4807 West Commerce Avenue,,San Antonio,TX,78237,United States,(210) 436-0072,29.432661,-98.555721,,,0
Store # 289,289,6161 Northwest Loop 410,,San Antonio,TX,78238,United States,(210) 684-4231,29.471515,-98.616868,,,0
Store # 291,291,5428 Walzem Road,,San Antonio,TX,78218,United States,(210) 651-7555,29.50977,-98.385409,,,0
Store # 293,293,4400 Fredericksburg Road Suite # 105,,San Antonio,TX,78201,United States,(210) 736-1956,29.488775,-98.548336,,,0
Store # 294,294,1800 S.W.W. White,,San Antonio,TX,78220,United States,(210) 333-2870,29.422175,-98.406619,,,0
Store # 399,399,100 South Zarzamora Street,,San Antonio,TX,78207,United States,(210) 438-0073,29.427826,-98.52595,,,0
Store # 692,692,2315 SW Military Drive,,San Antonio,TX,78224,United States,(210) 977-9221,29.358664,-98.531748,,,0
Store # 694,694,8260 Marbach Road Suite # 112,,San Antonio,TX,78227,United States,(210) 645-4487,29.416673,-98.652776,,,0
Store # 164,164,1455 E. Buckingham ,,Richardson,TX,75081,United States,(972) 744-0149,32.932803,-96.698757,,,0
Store # 179,179,11255 Garland Rd,,Dallas,TX,75218,United States,(214)321-5919,32.848717,-96.685565,,,0
Store # 213,213,6904 Camp Bowie,,Fort Worth,TX,76116,United States,(817) 377-1127,32.721656,-97.436805,,,0
Store # 226,226,626 Wynnewood Village Suite #225,,Dallas,TX,75224,United States,(214) 941-7573,32.726206,-96.833547,,,0
Store # 245,245,"2223 South Buckner Blvd, Suite #225",,Dallas,TX,75227,United States,(214) 275-9610,32.750798,-96.684268,,,0
Store # 262,262,3701 West North Hwy Suite #222,,Dallas,TX,75220,United States,(214) 350-5796,32.861281,-96.856664,,,0
Store # 276,276,2551 Epriham Drive,,Fort Worth,TX,76106,United States,(817) 624-6760,32.793837,-97.374187,,,0
Store # 394,394,1435 W. Arbrook Blvd.,,Arlington,TX,76015,United States,(817) 419-2805,32.684939,-97.134666,,,0
Store # 395,395,3554 West Airport Freeway,,Irving,TX,75062,United States,(972) 313-1379,32.835396,-96.995103,,,0
Store # 418,418,221 East I-240 Service Road,,Oklahoma City,OK,73149,United States,(405) 602-8920,35.392643,-97.507634,,,0
Store # 419,419,4613 E. Lancaster,,Ft. Worth,TX,76103,United States,(817) 413-0793,32.741452,-97.254663,,,0
Store # 438,438,2500 S. Carrier Parkway ,,Grand Prairie,TX,75052,United States,(972) 606-9081 ,32.707996,-97.016063,,,0
Store # 481,481," 4241 W Camp Wisdom Rd, Ste B",,Dallas,TX,75237,United States,(972) 296-0420,32.662586,-96.889025,,,0
Store # 501,501,1103 S. Josey Lane,,Carrollton,TX,75006,United States,(972) 416-5386,32.951694,-96.889547,,,0
Store # 686,686,4200 South Freeway,,Fort Worth,TX,76115,United States,(817) 207-9144,32.687424,-97.326598,,,0
Store # 691,691,3600 Gus Thomason Road #175,,Mesquite,TX,75150,United States,(972) 279-9221,32.81383,-96.633327,,,0
Store # 209,209,2334 Boca Chica Boulevard ,,Brownsville,TX,78521,United States,(956) 504-9527,25.921486,-97.487094,,,0
Store # 212,212,509 East Expressway 77,,Harlingen,TX,78550,United States,(956) 425-2389,26.197766,-97.720207,,,0
Store # 233,233,1015 North Texas Boulevard,,Weslaco,TX,78596,United States,(956) 973-0728,26.170168,-97.994409,,,0
Store # 234,234,421 East University Avenue,,Edinburg,TX,78539,United States,(956) 380-2155,26.301573,-98.158142,,,0
Store # 251,251,901 Dunlap Avenue,,Mission,TX,78572,United States,(956) 580-3360,26.215506,-98.327746,,,0
Store # 266,266,900 East Elizabeth Street,,Brownsville,TX,78520,United States,(956) 982-6882,25.902835,-97.500401,,,0
Store # 270,270,"1701 S Cage Blvd, Suite #116-118",,Pharr,TX,78577,United States,(956) 782-9040,26.1947962,-98.1836216,,,0
Store # 271,271,"701 North International Blvd, Suite #123",,Hidalgo ,TX,78557,United States,(956) 843-1001,26.1108,-98.26149,,,0
Store # 297,297,1700 South 23rd Street,,McAllen,TX,78503,United States,(956) 631-3395,26.19022,-98.247762,,,0
Store # 299,299,701 North 13th Street Suite #18,,Harlingen,TX,78550,United States,(956) 440-1319,26.199333,-97.68395,,,0
Store # 483,483,339 E. Trenton Road,,Edinburg,TX,78539,United States,(956) 386-1905,26.261928,-98.17231,,,0
Store # 684,684,1601 East Price Road,,Brownsville,TX,78521,United States,(956) 542-6147,25.938573,-97.497171,,,0
Store # 207,207,1800 East Palo Verde,,Yuma,AZ,85365,United States,(928) 726-0087,32.677542,-114.601692,,,0
Store # 300,300,333 Montano Road,,Albuquerque,NM,87107,United States,(505) 341-0244,35.139082,-106.640559,,,0
Store # 301,301,204 West 5th Street,,Douglas,AZ,85607,United States,(520) 805-1350,31.341239,-109.565974,,,0
Store # 321,321,5555 Zuni Road   ,,Albuquerque,NM,87108,United States,(505) 256-5180,35.074479,-106.585584,,,0
Store # 333,333,"111 Coors Boulevard N.W.,  Suite  D",,Albuquerque,NM,87121,United States,(505) 839-9336,35.081398,-106.712918,,,0
Store # 336,336,1675 West Valencia,,Tucson,AZ,85746,United States,(520) 807-1339,32.133697,-110.998972,,,0
Store # 339,339,4152 E.22nd St,,Tucson,AZ,85713,United States,(520) 514-0618,32.207191,-110.929786,,,0
Store # 404,404,1300 W. I40 Frontage,,Gallup,NM,87301,United States,(505) 863-4283,35.5313127,-108.7632585,,,0
Store # 602,602,323 West Mariposa Road,,Nogales,AZ,85621,United States,(520) 281-9139,31.366854,-110.936418,,,0
Store # 603,603,75 North Terrace Avenue,,Nogales,AZ,85621,United States,(520) 287-4650,31.334454,-110.9425,,,0
Store # 607,607,527 North Main Street,,San Luis,AZ,85349,United States,(928) 627-2205,32.490971,-114.782386,,,0
Store # 610,610,1227 West St. Marys Road,,Tucson,AZ,85745,United States,(520) 903-1571,32.228534,-110.99137,,,0
Store # 679,679,2510 Main Street,,Los Lunas,NM,87031,United States,(505) 865-8914,34.80846,-106.702225,,,0
Store # 284,284,2200 Yarbrough Drive,,El Paso,TX,79925,United States,(915) 592-2323,31.773724,-106.337652,,,0
Store # 340,340,615 N. Zaragoza Road Suite 82,,El Paso,TX,79925,United States,(915) 860-1169,31.70411,-106.321232,,,0
Store # 383,383,5511 Alameda  #1,,El Paso,TX,79905,United States,(915) 775-0168,31.771035,-106.425054,,,0
Store # 384,384,"1700 Zaragosa, Suite 134-136",,El Paso,TX,79936,United States,(915) 857-8304,31.768346,-106.423577,,,0
Store # 385,385,115 South Americas Avenue,,El Paso,TX,79907,United States,(915) 872-8790,31.680566,-106.315569,,,0
Store # 386,386,"8500 Dyer Street, Suite # 45",,El Paso,TX,79904,United States,(915) 757-3235,31.858197,-106.433955,,,0
Store # 387,387,301East San Antonio,,El Paso,TX,79901,United States,(915) 351-6655,31.758677,-106.486584,,,0
Store # 443,443,"6351 S. Desert, Bldg A, Ste 212",,El Paso,TX,79932,United States,(915) 584-5796,31.879648,-106.582362,,,0
Store # 500,500,2352 E. Lohman Ave.,,Las Cruces,NM,88001,United States,(575) 541-5046,32.31215,-106.748194,,,0
Store # 678,678,1225 El Paseo Road,,Las Cruces,NM,88001,United States,(575) 523-1484,32.298121,-106.77231,,,0
Store # 680,680,2601 North Main Street,,Roswell,NM,88201,United States,(505) 625-9235,33.42493,-104.522367,,,0
Store # 1,1,427 Fulton St.,,Brooklyn,NY,11201,United States,(718) 596-2093,40.691959,-73.987848,,,0
Store # 2,2,162-10 Jamaica Ave.,,Jamaica,NY,11432,United States,(718) 206-2053,40.704068,-73.797203,,,0
Store # 3,3,215-223 East Fordham Rd.,,Bronx,NY,10458,United States,(718) 220-9531,40.862636,-73.89601,,,0
Store # 510,510,101-116 West 116th St.,,New York,NY,10026,United States,(212) 222-5356,40.802197,-73.950849,,,0
Store # 511,511,845 White Plains Rd.,,Bronx,NY,10473,United States,(718) 863-0208,40.823154,-73.859111,,,0
Store # 514,514,5002 Church Ave.,,Brooklyn,NY,11203,United States,(718) 495-2581,40.651633,-73.937906,,,0
Store # 515,515,253-01 Rockaway Blvd.,,Rosedale,NY,11422,United States,(516) 295-2510,40.640702,-73.743306,,,0
Store # 516,516,31-08 Steinway St.,,New York,NY,11103,United States,(718) 721-2494,40.765237,-73.913922,,,0
Store # 517,517,5622 Broadway,,Bronx,NY,10463,United States,(718) 796-3053,40.879943,-73.903411,,,0
Store # 518,518,66-26 Metropolitan Ave.,,Middle Village,NY,11379,United States,(347) 881-9049,40.711503,-73.891828,,,0
Store # 492,492,624 W. Southside Plaza Street,,Richmond ,VA,23224,United States,(804) 231-1125,37.503364,-77.476566,,,0
Store # 555,555,5486 Baltimore National Pike Hwy,,Catonsville,MD,21228,United States,(410) 744-5761,39.287282,-76.735155,,,0
Store # 558,558,46 Broad St.,,Elizabeth,NJ,07201,United States,(908) 436-0514,40.663744,-74.214911,,,0
Store # 559,559,122 East Olney Ave.,,Philadelphia,PA,19120,United States,(215) 224-3248,40.035144,-75.120488,,,0
Store # 562,562,2385 West Cheltenham Ave.,,Philadelphia,PA,19105,United States,(215) 376-0150,40.075284,-75.153972,,,0
Store # 563,563,1575 N 52nd St.,,Philadelphia,PA,19131,United States,(215) 871-8403,39.979546,-75.224838,,,0
Store # 565,565,1000 Easton Rd.,,Wyncote,PA,19095,United States,(215) 881-6893,40.082413,-75.167934,,,0
Store # 589,589,5900 E. Virginia Beach,,Norfolk,VA,23502,United States,(757) 466-4420,36.866976,-76.213691,,,0
Store # 590,590,14250 Smoketown Rd.,,Woodbridge,VA,22192,United States,(703) 491-3160,38.638835,-77.30097,,,0
Store # 591,591,4023 W. Mercury Blvd.,,Hampton,VA,23666,United States,(757) 262-2059,37.02797,-76.423869,,,0
Store # 542,542,1410 Berlin Turnpike,,Wethersfield,CT,06109,United States,(860) 956-0002,41.713148,-72.697851,,,0
Store # 543,543,156 Boston Ave.,,Bridgeport,CT,06610,United States,(203) 333-2270,41.200884,-73.1881,,,0
Store # 544,544,1245 Dixwell Ave.,,Hamden,CT,06514,United States,(203) 230-0011,41.346597,-72.931883,,,0
Store # 545,545,901 Boston Post Rd.,,West Haven,CT,06516,United States,(203) 933-7652,41.285964,-72.977151,,,0
Store # 546,546,500 Geneva Ave.,,Dorchester,MA,02122,United States,(617) 265-1209,42.299134,-71.062787,,,0
Store # 547,547,180 Haverhill St.,,Methuen,MA,01844,United States,(978) 681-9048,42.705052,-71.200239,,,0
Store # 549,549,176 Somerville Ave.,,Somerville,MA,02143,United States,(617) 776-0712,42.376445,-71.089773,,,0
Store # 548,548,899 Grafton St.,,Worcester,MA,01604,United States,(508) 793-1984,42.247572,-71.761175,,,0
Store # 550,550,54 Broadway ,,Malden,MA,02148,United States,(781) 338-9057,42.424821,-71.04228,,,0
Store # 551,551,200 West Gate Mall,,Brokton,MA,02301,United States,(508) 584-1028,42.083991,-71.012718,,,0
Store # 552,552,1024 Kings Highway,,New Bedford,MA,02745,United States,(508) 995-2023,41.676119,-70.940653,,,0
Store # 553,553,1522 Boston Rd.,,Springfield,MA,01129,United States,(413) 543-2068,42.142734,-72.492014,,,0
Store # 566,566,2255 E. Ridge Rd.,,Irondequoit,NY,14622,United States,(585) 266-5413,43.202792,-77.558763,,,0
Store # 567,567,2638 Delaware Ave.,,Buffalo,NY,14216,United States,(716) 447-0120,42.955353,-78.870961,,,0
Store # 568,568,2195 Harlem Rd.,,Cheektowaga,NY,14225,United States,(716) 893-2198,42.905062,-78.782195,,,0
Store # 569,569,3500 Main St.,,Amherst,NY,14226,United States,(716) 838-5256,42.959259,-78.817743,,,0
Store # 570,570,139 Shop City Plaza,,Syracuse,NY,13206,United States,(315) 414-0108,43.073564,-76.121224,,,0
Store # 572,572,1154 Mohawk St.,,Utica,NY,13501,United States,(315) 266-0108,43.091901,-75.222253,,,0
Store # 573,573,4671 Onondaga Blvd,,Syracuse,NY,13219,United States,(315) 466-5248,43.033028,-76.192966,,,0
Store # 574,574,1400 Altamont Ave,,Schenectady,NY,12303,United States,(518) 355-3025,42.785551,-73.941656,,,0
Store # 493,493, 1215 Silas Creek Parkway,,Winsten Salem,NC,27127,United States,(336) 748-9939,36.067626,-80.254766,,,0
Store # 494,494, 349 Copperfield Blvd NE,,Concord,NC,28025,United States,(704) 785-2101,35.447893,-80.59953,,,0
Store # 495,495, 2108 Highway 70 SE,,Hickory,NC,28602,United States,(828) 324-0206,35.704932,-81.30111,,,0
Store # 496,496," 3054 E. Franklin Blvd, Ste 1",,Gastonia,NC,28056,United States,(704) 854-5310,35.260258,-81.122132,,,0
Store # 497,497, 5700 University Pointe Drive,,Charlotte,NC,29303,United States,(704) 548-9177,35.296872,-80.756849,,,0
Store # 498,498, 1000 N. Pine Street,,Spartanburg,SC,29150,United States,(864) 591-4500,34.970117,-81.933709,,,0
Store # 499,499,"Sesmark Plaza, 1121 Broad Street",,Sumter,SC,28262,United States,(803) 418-0860,35.330153,-80.732529,,,0
Store # 581,581,2801 Candler Rd.,,Decatur,GA,30034,United States,(404) 243-9022,33.708668,-84.275028,,,0
Store # 582,582,1968 Mt. Zion Rd. Ste#203,,Morrow,GA,30260,United States,(770) 478-4484,33.566263,-84.324503,,,0
Store # 583,583,2841 Greenbriar Pkwy,,Atlanta,GA,30331,United States,(404) 346-6516,33.698581,-84.543349,,,0
Store # 584,584,971 N. Hairston Rd.,,Stone Mountain,GA,30083,United States,(770) 498-8665,33.805252,-84.191923,,,0
Store # 585,585,3435 Memorial Dr.,,Decatur,GA,30032,United States,(404) 288-9353,33.75265,-84.271319,,,0
Store # 586,586,3665 New Bern Ave.,,Raleigh,NC,27610,United States,(919) 231-4559,35.798513,-78.579753,,,0
Store # 587,587,6029 South Boulevard,,Charlotte,NC,28273,United States,(704) 556-1445,35.153915,-80.875186,,,0
Store # 588,588,5422 Forest Dr.,,Columbia,SC,29206,United States,(803) 790-8335,34.020119,-80.951582,,,0
Store # 537,537,1102 28th St.,,Grand Rapids,MI,49509,United States,(616) 261-1036,42.913385,-85.694146,,,0
Store # 538,538,14255 Eureka Rd.,,Southgate,MI,48195,United States,(734) 282-0803,42.198366,-83.196759,,,0
Store # 539,539,9313 Telegraph Rd.,,Redford,MI,48239,United States,(313) 535-1890,42.362447,-83.275577,,,0
Store # 540,540,26100 Greenfield Rd.,,Oak Park,MI,48237,United States,(248) 423-1758,42.48227,-83.201994,,,0
Store # 541,541,29411 John R. Rd.,,Madison Heights,MI,48071,United States,(248) 336-0014,42.508091,-83.105918,,,0
Store # 576,576,3478 Mayfield Rd. Unit S-7,,Cleveland,OH,44118,United States,(216) 291-0043,41.519155,-81.548694,,,0
Store # 578,578,5375 Ridge Road,,Cincinnati,OH,45213,United States,(513) 351-5456,39.170468,-84.425763,,,0
Store # 579,579,256 Crafton Ingram Shop Center,,Pittsburgh,PA,15205,United States,(412) 922-5298,40.441813,-80.071012,,,0
Store # 580,580,1763 S. Braddock Ave.,,Pittsburgh,PA,15218,United States,(412) 241-6040,40.427641,-79.887926,,,0
Store # 405,405,7601 S. Cicero Ave. 1935,,Ford City Chicago,IL,60652,United States,(773) 735-7010,41.757494,-87.737183,,,0
Store # 411,411,1230-1296 N. Lake St.,,Aurora,IL,60506,United States,(630) 801-1363,41.782968,-88.321058,,,0
Store # 412,412,490 River Oaks West,,Calumet City,IL,60409,United States,(708) 832-3121,41.598959,-87.562092,,,0
Store # 435,435,7630 N. Barrington Rd.,,"Hanover Park, IL",IL,60133,United States,(630) 372-6096,42.008912,-88.147936,,,0
Store # 439,439,16809 S. Torrence Ave.,,Lansing,IL,60438,United States,(708) 418-0128,41.590077,-87.558704,,,0
Store # 525,525,4601 West Cermak Rd.,,Cicero,IL,60804,United States,(708) 222-3744,41.850935,-87.74042,,,0
Store # 526,526,7501 West Cermak Rd. ,,North Riverside,IL,60546,United States,(708) 443-5719,41.847208,-87.810752,,,0
Store # 527,527,3031 S. Cicero Ave.,,Cicero,IL,60804,United States,(708) 656-1830,41.838265,-87.741202,,,0
Store # 529,529,6560 Fullerton Ave.,,Chicago,IL,60707,United States,(773) 622-6876,41.925216,-87.787247,,,0
Store # 531,531,4939 West North St.,,Chicago,IL,60630,United States,(773) 384-7534,41.909511,-87.749604,,,0
Store # 532,532,709 E. Capitol Dr.,,Milwaukee,WI,53212,United States,(414) 963-2137,43.087756,-87.90183,,,0
Store # 533,533,8315 Indianapolis Blvd.,,Highland,IN,46322,United States,(219) 923-2334,41.558524,-87.471182,,,0
Store # 534,534,2959 W. 159th St.,,Markham,IL,60428,United States,(708) 331-3487,41.599415,-87.691646,,,0
Store # 535,535,3925 N. Cicero Ave.,, Chicago,IL,60641,United States,(773) 283-4042,41.952446,-87.747106,,,0
Store # 710,710,"Plaza Victoria Shopping Center, PR 2KM 129.5",,Aguadilla,PR,00603,United States,(787) 931-7001,18.427445,-67.15407,,,0
Store # 711,711,Arecibo II-CARR #2 KM 6 HM 17 Llorens Torres,,Arecibo,PR,00612,United States,(787) 680-7565,18.459605,-66.744172,,,0
Store # 712,712,Cabo Rojo Plaza CARR #100,,Cabo Rojo,PR,00623,United States,(787) 255-2411,18.070783,-67.154477,,,0
Store # 713,713,Coamo Plaza PR 153 KM 13.7,,Coamo,PR,00769,United States,(787) 803-3194,18.078736,-66.358706,,,0
Store # 719,719,Plaza San Sebastian PR 111 KM 17.6,,San Sebastian,PR,00685,United States,(787) 589-8023,18.316188,-66.974973,,,0
Store # 721,721,Plaza Atenas PR 2 KM 50.0,,Manati,PR,00674,United States,(787) 921-7890,18.430676,-66.493137,,,0
Store # 725,725,PR-116 Int PR-121,,Yauco,PR,00698,United States,(787) 992-4002,18.036825,-66.859584,,,0
Store # 726,726,"Espinosa Shopping Ctr, Carr #2 KM 30.2 Bo Espinosa",,Vega Alta,PR,692,United States,(787) 970-4300,18.41217,-66.33128,,,0
Store # 727,727,Carr 155 Int. Carr 2,,Vega Baja,PR,693,United States,(787) 807-7040,18.449272,-66.386135,,,0
Store # 714,714,Coroal Plaza PR 891 KM 0.1,,Pueblo Corozal,PR,00783,United States,(787) 859-6772,18.341062,-66.316836,,,0
Store # 715,715,Humacao Plaza PR-3 K 82.5,,Humacao,PR,00791,United States,(787) 719-7000,18.1426524,-65.8065947,,,0
Store # 716,716,Iturregui Bldg-BO Sabana Abajo Carr 190,,Carolina,PR,00979,United States,(787) 710-7005,18.411086,-65.982022,,,0
Store # 717,717,Norte Shopping Ctr Baldorioty De Castro Ave Int.Arcoiris,,San Juan,PR,00908,United States,(787) 919-0442,18.45,-66.08,,,0
Store # 718,718,Plaza Carmen Mall PR 172 int PR-1,,Cauguas,PR,00725,United States,(787) 961-9006,18.238799,-66.035249,,,0
Store # 720,720,Plaza Aquarium Mall-PR 159 Int PR-165 ,,Tao Alta,PR,00953,United States,(787) 870-1996,0,0,,,0
Store # 722,722,Fajardo Market Sq. Carr #3 KM 45.0,,Fajardo,PR,00738,United States,(787) 988-7001,18.325787,-65.652384,,,0
Store # 723,723,"Ave Los Dominicos, Levittown Blvd. Calle 430",,Toa Baja,PR,00949,United States,(787) 230-7001,18.444471,-66.254329,,,0
Store # 724,724,Carr #203 Exp. Chayanne,,San Lorenzo,PR,00754,United States, (787) 736-7815 ,18.142369,-65.974986,,,0
Store # 410,410,3831 W. Vine. St.,,Kissimmee,FL,34741,United States,(407) 518-4996,28.306979,-81.441973,,,0
Store # 423,423,6400 Lake Worth Road,,Lake Worth ,FL,33463,United States,(561) 642-7545,26.618184,-80.144101,,,0
Store # 424,424,7407 W. Colonial Dr.  ,,Orlando,FL,32818,United States,(407) 578-1433 ,28.552135,-81.482713,,,0
Store # 436,436,12351 Orange Blossom Trail,,Orlando,FL,32837,United States,(407) 856-1565,28.386064,-81.402245,,,0
Store # 485,485,3201 N. State Rd #7,,Lauderdale Lakes,FL,33319,United States,(954) 717-4413,26.165684,-80.204784,,,0
Store # 490,490, 997 E Commerce Blvd,,Oakland Park,FL,33334,United States,(954) 958-1498,26.168808,-80.252688,,,0
Store # 491,491,5385 W Atlantic Blvd,,Margate,FL,33063,United States,(954) 970-7193,26.235428,-80.199515,,,0
Store # 407,407,"CA Club 850 Ives Diary Rd., Suite T-2",,Miami,FL,33179,United States,(305) 770-0159,25.950247,-80.193086,,,0
Store # 408,408,20841 South Dixie Hwy,,Cutler Bay,FL,33189,United States,(305) 233-9447,25.572838,-80.375119,,,0
Store # 484,484, 11397 SW 40th Street,,Miami,FL,33165,United States,(305) 220-2233,25.734251,-80.378269,,,0
Store # 486,486, 3791 Oakwood Blvd,,Hollywood ,FL,33020,United States,(954) 927-7646,26.046528,-80.159988,,,0
Store # 487,487, 8354 Pines Blvd,,Pembroke Pines,FL,33024,United States,(954) 322-2738,26.008962,-80.251708,,,0
Store # 488,488, 515 W 49th Street,,Hialeah,FL,33012,United States,(305) 817-7816,25.868468,-80.293359,,,0
Store # 489,489, 1371 NE 163rd St #1114,,North Miami,FL,33162,United States,(305) 944-1928,25.927,-80.172625,,,0
Store # 728,728,20 Felipe de Plana Street,,San Juan,PR,00965,United States,(787) 790-2050,18.3875999,-66.1070328,,,0
Store # 442,442,131 Market Street,,Newark,NJ,07102,United States,973-792-9310,40.7361393,-74.1739482,,,0
Store # 422,422,16805 Valley Blvd,,Fontana,CA,92335,United States,909-357-1840,34.06879,-117.437141,,,0
