store_name,store_number,address,address2,city,state,zip_code,country,phone_number,latitude,longitude,store_hours,other_fields,coming_soon
"Morrisburg Shopping Plaza, 5 Main Str. Box 737, Morrisburg",2650,"Morrisburg Shopping Plaza, 5 Main Str. Box 737 ",,Morrisburg,ON,K0C 1X0,Canada,Contact,44.90065,-75.1837,Friday: 8:00 AM - 9:00 PMSaturday: 8:00 AM - 7:00 PMSunday: 8:00 AM - 7:00 PMMonday: 8:00 AM - 9:00 PMTuesday: 8:00 AM - 9:00 PMWednesday: 8:00 AM - 9:00 PMThursday: 8:00 AM - 9:00 PM,,0
Aylmer valu-mart,0856,125 John Street  North ,,Aylmer,ON,N5H 2A7,Canada,Contact,42.77439,-80.98219,Friday: 8:00 AM - 8:00 PMSaturday: 8:00 AM - 6:00 PMSunday: 10:00 AM - 5:00 PMMonday: 8:00 AM - 8:00 PMTuesday: 8:00 AM - 8:00 PMWednesday: 8:00 AM - 8:00 PMThursday: 8:00 AM - 8:00 PM,,0
Maurices valu-mart,0465,277 King Street ,,Midland,ON,L4R 3M4,Canada,Contact,44.750009,-79.884973,Friday: 7:00 AM - 9:00 PMSaturday: 8:00 AM - 7:00 PMSunday: 9:00 AM - 7:00 PMMonday: 7:00 AM - 9:00 PMTuesday: 7:00 AM - 9:00 PMWednesday: 7:00 AM - 9:00 PMThursday: 7:00 AM - 9:00 PM,,0
"13 Beech Street, Chapleau",0413,13 Beech Street ,,Chapleau,ON,P0M 1K0,Canada,Contact,47.84217,-83.40313,Friday: 8:30 AM - 8:00 PMSaturday: 8:30 AM - 5:30 PMSunday: 11:00 AM - 4:00 PMMonday: 8:30 AM - 6:00 PMTuesday: 8:30 AM - 6:00 PMWednesday: 8:30 AM - 6:00 PMThursday: 8:30 AM - 6:00 PM,,0
Todd's valu-mart,0851,52 Bridge Street ,,Hastings,ON,K0L 1Y0,Canada,Contact,44.31081,-77.95721,Friday: 8:00 AM - 9:00 PMSaturday: 8:00 AM - 8:00 PMSunday: 8:00 AM - 8:00 PMMonday: 8:00 AM - 8:00 PMTuesday: 8:00 AM - 8:00 PMWednesday: 8:00 AM - 8:00 PMThursday: 8:00 AM - 8:00 PM,,0
Deans valu-mart,0455,55 Josephine St. ,,Wingham,ON,N0G 2W0,Canada,Contact,43.88142,-81.31513,Friday: 8:00 AM - 9:00 PMSaturday: 8:00 AM - 6:00 PMSunday: 9:00 AM - 5:00 PMMonday: 8:00 AM - 9:00 PMTuesday: 8:00 AM - 9:00 PMWednesday: 8:00 AM - 9:00 PMThursday: 8:00 AM - 9:00 PM,,0
valu-mart On Bayview,0449,3259 Bayview Avenue ,,Toronto,ON,M2K 1G4,Canada,Contact,43.7919,-79.3929,Friday: 8:00 AM - 9:00 PMSaturday: 7:00 AM - 8:00 PMSunday: 9:00 AM - 8:00 PMMonday: 8:00 AM - 9:00 PMTuesday: 8:00 AM - 9:00 PMWednesday: 8:00 AM - 9:00 PMThursday: 8:00 AM - 9:00 PM,,0
Rousselles valu-mart,2680,3 Huron Walk  Unit #1 ,,Manitouwadge,ON,P0T 2C0,Canada,Contact,49.134798,-85.825538,Friday: 9:00 AM - 7:00 PMSaturday: 9:00 AM - 6:00 PMSunday: 11:00 AM - 6:00 PMMonday: 9:00 AM - 6:00 PMTuesday: 9:00 AM - 6:00 PMWednesday: 9:00 AM - 6:00 PMThursday: 9:00 AM - 7:00 PM,,0
Huttons valu-mart,0833,105 Causley St.  PO Box 1358 ,,Blind River,ON,P0R 1B0,Canada,Contact,46.18406,-82.94957,Friday: 9:00 AM - 8:00 PMSaturday: 8:30 AM - 5:30 PMSunday: 11:00 AM - 5:00 PMMonday: 9:00 AM - 6:00 PMTuesday: 9:00 AM - 6:00 PMWednesday: 9:00 AM - 6:00 PMThursday: 9:00 AM - 6:00 PM,,0
Johns valu-mart,2649,186 Mission Road PO Box 360 ,,Wawa,ON,P0S 1K0,Canada,Contact,47.990046,-84.775076,Friday: 8:30 AM - 7:00 PMSaturday: 8:30 AM - 6:00 PMSunday: 10:00 AM - 5:00 PMMonday: 8:30 AM - 6:00 PMTuesday: 8:30 AM - 6:00 PMWednesday: 8:30 AM - 6:00 PMThursday: 8:30 AM - 6:00 PM,,0
Coniston VM Coniston,0874,24 Amanda Street ,,Coniston,ON,P0M 1M0,Canada,Contact,46.49409,-80.84606,Friday: 8:00 AM - 9:00 PMSaturday: 8:00 AM - 5:30 PMSunday: 9:00 AM - 5:00 PMMonday: 8:00 AM - 7:00 PMTuesday: 8:00 AM - 7:00 PMWednesday: 8:00 AM - 7:00 PMThursday: 8:00 AM - 9:00 PM,,0
Davidson's valu-mart,2679,985 Woodbine Ave ,,Toronto,ON,M4C 4B8,Canada,Contact,43.68609,-79.31279,Friday: 6:00 AM - 11:00 PMSaturday: 6:00 AM - 11:00 PMSunday: 6:00 AM - 11:00 PMMonday: 6:00 AM - 11:00 PMTuesday: 6:00 AM - 11:00 PMWednesday: 6:00 AM - 11:00 PMThursday: 6:00 AM - 11:00 PM,,0
Applewood valu-mart,0442,1125 Bloor St. East ,,Mississauga,ON,L4Y 2N6,Canada,Contact,43.611012,-79.601193,Friday: 8:00 AM - 9:00 PMSaturday: 8:00 AM - 8:00 PMSunday: 9:00 AM - 8:00 PMMonday: 8:00 AM - 9:00 PMTuesday: 8:00 AM - 9:00 PMWednesday: 8:00 AM - 9:00 PMThursday: 8:00 AM - 9:00 PM,,0
"512 St. Philippe Street, Alfred",2621,512 St. Philippe Street ,,Alfred,ON,K0B 1A0,Canada,Contact,45.557036,-74.886767,Friday: 8:00 AM - 8:00 PMSaturday: 8:00 AM - 6:00 PMSunday: 8:00 AM - 6:00 PMMonday: 8:00 AM - 8:00 PMTuesday: 8:00 AM - 8:00 PMWednesday: 8:00 AM - 8:00 PMThursday: 8:00 AM - 8:00 PM,,0
Dean's Valu-mart Gore Bay,2635,40 Meredith Street ,,Gore Bay,ON,P0P 1H0,Canada,Contact,45.915961,-82.464042,Friday: 8:00 AM - 9:00 PMSaturday: 8:00 AM - 6:00 PMSunday: 9:00 AM - 6:00 PMMonday: 8:00 AM - 8:00 PMTuesday: 8:00 AM - 8:00 PMWednesday: 8:00 AM - 8:00 PMThursday: 8:00 AM - 9:00 PM,,0
Johns valu-mart,0481,179 Wortley Rd ,,London,ON,N6C 3P6,Canada,Contact,42.970446,-81.252527,Friday: 8:00 AM - 9:00 PMSaturday: 8:00 AM - 9:00 PMSunday: 9:00 AM - 7:00 PMMonday: 8:00 AM - 9:00 PMTuesday: 8:00 AM - 9:00 PMWednesday: 8:00 AM - 9:00 PMThursday: 8:00 AM - 9:00 PM,,0
Bowles valu-mart,0401,Bridgenorth Plaza  871 Ward St. ,,Bridgenorth,ON,K0L 1H0,Canada,Contact,44.374043,-78.383569,Friday: 8:00 AM - 8:00 PMSaturday: 8:00 AM - 6:00 PMSunday: 8:00 AM - 6:00 PMMonday: 8:00 AM - 8:00 PMTuesday: 8:00 AM - 8:00 PMWednesday: 8:00 AM - 8:00 PMThursday: 8:00 AM - 8:00 PM,,0
Reids valu-mart,0440,42 Russell St. W ,,Lindsay,ON,K9V 2W9,Canada,Contact,44.354218,-78.738136,Friday: 7:30 AM - 9:00 PMSaturday: 7:30 AM - 6:00 PMSunday: 7:30 AM - 6:00 PMMonday: 7:30 AM - 9:00 PMTuesday: 7:30 AM - 9:00 PMWednesday: 7:30 AM - 9:00 PMThursday: 7:30 AM - 9:00 PM,,0
"42 Matthew Street PO Box 457, Marmora",2662,42 Matthew Street PO Box 457 ,,Marmora,ON,K0K 2M0,Canada,Contact,44.483834,-77.678842,Friday: 8:00 AM - 9:00 PMSaturday: 8:00 AM - 8:00 PMSunday: 8:00 AM - 8:00 PMMonday: 8:00 AM - 8:00 PMTuesday: 8:00 AM - 8:00 PMWednesday: 8:00 AM - 8:00 PMThursday: 8:00 AM - 8:00 PM,,0
Joe's valu-mart,0445,311 Gorham Road ,,Ridgeway,ON,L0S 1N0,Canada,Contact,42.883533,-79.06004,Friday: 8:00 AM - 8:00 PMSaturday: 8:00 AM - 7:00 PMSunday: 8:00 AM - 7:00 PMMonday: 8:00 AM - 8:00 PMTuesday: 8:00 AM - 8:00 PMWednesday: 8:00 AM - 8:00 PMThursday: 8:00 AM - 8:00 PM,,0
Eastons valu-mart,0859,South Water St. & Hwy #35 ,,Minden,ON,K0M 2K0,Canada,Contact,44.93141,-78.71333,Friday: 8:00 AM - 9:00 PMSaturday: 8:00 AM - 8:00 PMSunday: 8:00 AM - 7:00 PMMonday: 8:00 AM - 8:00 PMTuesday: 8:00 AM - 8:00 PMWednesday: 8:00 AM - 8:00 PMThursday: 8:00 AM - 8:00 PM,,0
Waterloo Square valu-mart,0841,75 King Street ,,Waterloo,ON,N2J 1P2,Canada,Contact,43.463025,-80.52292,Friday: 8:00 AM - 10:00 PMSaturday: 8:00 AM - 10:00 PMSunday: 8:00 AM - 10:00 PMMonday: 8:00 AM - 10:00 PMTuesday: 8:00 AM - 10:00 PMWednesday: 8:00 AM - 10:00 PMThursday: 8:00 AM - 10:00 PM,,0
"31-1 Highway 11 West PO Box 1480, Cochrane",2678,31-1 Highway 11 West PO Box 1480 ,,Cochrane,ON,P0L 1C0,Canada,Contact,49.070221,-81.032692,Friday: 8:00 AM - 9:00 PMSaturday: 8:00 AM - 5:30 PMSunday: 9:00 AM - 5:00 PMMonday: 8:00 AM - 7:00 PMTuesday: 8:00 AM - 7:00 PMWednesday: 8:00 AM - 7:00 PMThursday: 8:00 AM - 9:00 PM,,0
"215 Main Street, Thessalon",2658,215 Main Street ,,Thessalon,ON,P0R 1L0,Canada,Contact,46.257393,-83.556946,Friday: 9:00 AM - 8:00 PMSaturday: 9:00 AM - 6:00 PMSunday: 12:00 PM - 4:00 PMMonday: 9:00 AM - 6:00 PMTuesday: 9:00 AM - 6:00 PMWednesday: 9:00 AM - 6:00 PMThursday: 9:00 AM - 6:00 PM,,0
Kaufman's valu-mart,2676,1200 Yonge Street P.O. Box 567,,Walkerton,ON,N0G 2V0,Canada,Contact,44.127293,-81.147021,Friday: 8:00 AM - 9:00 PMSaturday: 8:00 AM - 7:00 PMSunday: 9:00 AM - 6:00 PMMonday: 8:00 AM - 9:00 PMTuesday: 8:00 AM - 9:00 PMWednesday: 8:00 AM - 9:00 PMThursday: 8:00 AM - 9:00 PM,,0
Tweed valu-mart,0802,56 Victoria Street PO Box 310 ,,Tweed,ON,K0K 3J0,Canada,Contact,44.475784,-77.31025,Friday: 8:00 AM - 9:00 PMSaturday: 8:00 AM - 6:00 PMSunday: 9:00 AM - 6:00 PMMonday: 8:00 AM - 7:00 PMTuesday: 8:00 AM - 7:00 PMWednesday: 8:00 AM - 7:00 PMThursday: 8:00 AM - 7:00 PM,,0
Tetreaults valu-mart,0456,345 Notre Dame St. ,,Belle River,ON,N0R 1A0,Canada,Contact,42.29327,-82.70052,Friday: 8:00 AM - 9:00 PMSaturday: 8:00 AM - 8:00 PMSunday: 9:00 AM - 6:00 PMMonday: 8:00 AM - 9:00 PMTuesday: 8:00 AM - 9:00 PMWednesday: 8:00 AM - 9:00 PMThursday: 8:00 AM - 9:00 PM,,0
Marc's valu-mart,0879,134 Main Street ,,Erin,ON,N0B 1T0,Canada,Contact,43.772537,-80.069077,Friday: 8:30 AM - 9:00 PMSaturday: 8:30 AM - 9:00 PMSunday: 8:30 AM - 6:00 PMMonday: 8:30 AM - 9:00 PMTuesday: 8:30 AM - 9:00 PMWednesday: 8:30 AM - 9:00 PMThursday: 8:30 AM - 9:00 PM,,0
Bennetts valu-mart,0471,235 Gore Road ,,Kingston,ON,K7L 2L6,Canada,Contact,44.258833,-76.455972,Friday: 8:00 AM - 9:00 PMSaturday: 8:00 AM - 8:00 PMSunday: 9:00 AM - 6:00 PMMonday: 8:00 AM - 9:00 PMTuesday: 8:00 AM - 9:00 PMWednesday: 8:00 AM - 9:00 PMThursday: 8:00 AM - 9:00 PM,,0
Bills valu-mart,0438,Hwy #26 East ,,Meaford,ON,N4L 1W7,Canada,Contact,44.59618,-80.582089,Friday: 8:00 AM - 9:00 PMSaturday: 8:00 AM - 7:00 PMSunday: 9:00 AM - 7:00 PMMonday: 8:00 AM - 9:00 PMTuesday: 8:00 AM - 9:00 PMWednesday: 8:00 AM - 9:00 PMThursday: 8:00 AM - 9:00 PM,,0
"512 St. Philippe Street, Alfred",2672,512 St. Philippe Street ,,Alfred,ON,K0B 1A0,Canada,Contact,45.557036,-74.886767,Friday: 8:00 AM - 8:00 PMSaturday: 8:00 AM - 6:00 PMSunday: 8:00 AM - 6:00 PMMonday: 8:00 AM - 8:00 PMTuesday: 8:00 AM - 8:00 PMWednesday: 8:00 AM - 8:00 PMThursday: 8:00 AM - 8:00 PM,,0
Brunoâ€™s valu-mart,0417,83 Underhill ,,Don Mills,ON,M3A 2P5,Canada,Contact,43.746306,-79.325287,Friday: 8:00 AM - 9:00 PMSaturday: 8:00 AM - 9:00 PMSunday: 8:00 AM - 9:00 PMMonday: 8:00 AM - 9:00 PMTuesday: 8:00 AM - 9:00 PMWednesday: 8:00 AM - 9:00 PMThursday: 8:00 AM - 9:00 PM,,0
Hendriks valu-mart,0848,130 Queen Street ,,Niagara On The Lake,ON,L0S 1J0,Canada,Contact,43.25646,-79.075191,Friday: 8:00 AM - 9:00 PMSaturday: 8:00 AM - 9:00 PMSunday: 8:00 AM - 9:00 PMMonday: 8:00 AM - 9:00 PMTuesday: 8:00 AM - 9:00 PMWednesday: 8:00 AM - 9:00 PMThursday: 8:00 AM - 9:00 PM,,0
Chris' valu-mart,0837,Po Box 250   Hwy #144 ,,Dowling,ON,P0M 1R0,Canada,Contact,46.58653,-81.33996,Friday: 8:00 AM - 9:00 PMSaturday: 8:00 AM - 6:00 PMSunday: 8:00 AM - 6:00 PMMonday: 8:00 AM - 9:00 PMTuesday: 8:00 AM - 9:00 PMWednesday: 8:00 AM - 9:00 PMThursday: 8:00 AM - 9:00 PM,,0
Beach valu-mart,0842,2266 Queen St. East ,,Toronto,ON,M4E 1G4,Canada,Contact,43.67367,-79.286161,Friday: 8:00 AM - 9:00 PMSaturday: 8:00 AM - 9:00 PMSunday: 8:00 AM - 9:00 PMMonday: 8:00 AM - 9:00 PMTuesday: 8:00 AM - 9:00 PMWednesday: 8:00 AM - 9:00 PMThursday: 8:00 AM - 9:00 PM,,0
Joanne's Valu-mart Shawville,2684,323 Main Street ,,Shawville,QC,J0X 2Y0,Canada,Contact,45.6038,-76.4901,Friday: 8:00 AM - 9:00 PMSaturday: 8:00 AM - 7:00 PMSunday: 8:00 AM - 7:00 PMMonday: 8:00 AM - 9:00 PMTuesday: 8:00 AM - 9:00 PMWednesday: 8:00 AM - 9:00 PMThursday: 8:00 AM - 9:00 PM,,0
Fretz's valu-mart,2634,612 Main Street  RR # 1 ,,Sauble Beach,ON,N0H 2G0,Canada,Contact,44.629395,-81.262692,Friday: 8:00 AM - 9:00 PMSaturday: 8:00 AM - 7:00 PMSunday: 8:00 AM - 6:00 PMMonday: 8:00 AM - 8:00 PMTuesday: 8:00 AM - 8:00 PMWednesday: 8:00 AM - 8:00 PMThursday: 8:00 AM - 8:00 PM,,0
Mikes valu-mart,2651,70 Hope Street West ,,Tavistock,ON,N0B 2R0,Canada,Contact,43.320456,-80.838559,Friday: 8:00 AM - 9:00 PMSaturday: 8:00 AM - 6:00 PMSunday: 10:00 AM - 6:00 PMMonday: 8:00 AM - 9:00 PMTuesday: 8:00 AM - 9:00 PMWednesday: 8:00 AM - 9:00 PMThursday: 8:00 AM - 9:00 PM,,0
Ken's valu-mart,0107,710 Kemsley Drive ,,Sarnia,ON,N7V 2M2,Canada,Contact,43.00404,-82.387759,Friday: 8:00 AM - 9:00 PMSaturday: 8:00 AM - 9:00 PMSunday: 8:00 AM - 9:00 PMMonday: 8:00 AM - 9:00 PMTuesday: 8:00 AM - 9:00 PMWednesday: 8:00 AM - 9:00 PMThursday: 8:00 AM - 9:00 PM,,0
Oshells valu-mart,2631,519 Main Street ,,Powassan,ON,P0H 1Z0,Canada,Contact,46.080091,-79.360789,Friday: 8:30 AM - 9:00 PMSaturday: 8:30 AM - 6:00 PMSunday: 10:00 AM - 4:00 PMMonday: 8:30 AM - 6:00 PMTuesday: 8:30 AM - 6:00 PMWednesday: 8:30 AM - 8:00 PMThursday: 8:30 AM - 9:00 PM,,0
"234 Oxford Street, London",2661,234 Oxford Street ,,London,ON,N6A 1T7,Canada,Contact,42.996208,-81.252901,Friday: 8:00 AM - 9:00 PMSaturday: 8:00 AM - 9:00 PMSunday: 8:00 AM - 9:00 PMMonday: 8:00 AM - 9:00 PMTuesday: 8:00 AM - 9:00 PMWednesday: 8:00 AM - 9:00 PMThursday: 8:00 AM - 9:00 PM,,0
"66 Fourth Ave, Englehart",2697,66 Fourth Ave ,,Englehart,ON,P0J 1H0,Canada,Contact,47.82527,-79.87376,Friday: 8:00 AM - 8:00 PMSaturday: 8:00 AM - 6:00 PMSunday: 10:00 AM - 6:00 PMMonday: 8:00 AM - 6:00 PMTuesday: 8:00 AM - 6:00 PMWednesday: 8:00 AM - 6:00 PMThursday: 8:00 AM - 8:00 PM,,0
"1500 Bayview Avenue, Toronto",2667,1500 Bayview Avenue ,,Toronto,ON,M4G 3B4,Canada,Contact,43.703476,-79.37565,Friday: 12:00 AM - 12:00 AMSaturday: 12:00 AM - 12:00 AMSunday: 12:00 AM - 12:00 AMMonday: 12:00 AM - 12:00 AMTuesday: 12:00 AM - 12:00 AMWednesday: 12:00 AM - 12:00 AMThursday: 12:00 AM - 12:00 AM,,0
Orr's Valumart,2602,40 Meredith Street East ,,Little Current,ON,P0P 1K0,Canada,Contact,45.978724,-81.925325,Friday: 8:00 AM - 8:00 PMSaturday: 9:00 AM - 6:00 PMSunday: 10:00 AM - 5:00 PMMonday: 9:00 AM - 7:00 PMTuesday: 9:00 AM - 7:00 PMWednesday: 9:00 AM - 7:00 PMThursday: 8:00 AM - 8:00 PM,,0
Strangs valu-mart,0453,101 East Street South ,,Bobcaygeon,ON,K0M 1A0,Canada,Contact,44.53753,-78.53956,Friday: 7:00 AM - 9:00 PMSaturday: 7:00 AM - 6:00 PMSunday: 7:00 AM - 6:00 PMMonday: 7:00 AM - 9:00 PMTuesday: 7:00 AM - 9:00 PMWednesday: 7:00 AM - 9:00 PMThursday: 7:00 AM - 9:00 PM,,0
Lakeshore valu-mart,2652,2399 Lakeshore Blvd. ,,Etobicoke,ON,M8V 1C5,Canada,Contact,43.614714,-79.487935,Friday: 8:00 AM - 9:00 PMSaturday: 8:00 AM - 8:00 PMSunday: 8:00 AM - 8:00 PMMonday: 8:00 AM - 9:00 PMTuesday: 8:00 AM - 9:00 PMWednesday: 8:00 AM - 9:00 PMThursday: 8:00 AM - 9:00 PM,,0
Phil's valu-mart,0489,1551 Hwy 55 ,,Virgil,ON,L0S 1T0,Canada,Contact,43.22318,-79.119871,Friday: 8:00 AM - 9:00 PMSaturday: 8:00 AM - 8:00 PMSunday: 9:00 AM - 6:00 PMMonday: 8:00 AM - 9:00 PMTuesday: 8:00 AM - 9:00 PMWednesday: 8:00 AM - 9:00 PMThursday: 8:00 AM - 9:00 PM,,0
Walkoms VM Mitchell,0836,120 ONTARIO ROAD ,,Mitchell,ON,N0K 1N0,Canada,Contact,43.46731,-81.19499,Friday: 8:00 AM - 9:00 PMSaturday: 8:00 AM - 6:00 PMSunday: 8:00 AM - 6:00 PMMonday: 8:00 AM - 9:00 PMTuesday: 8:00 AM - 9:00 PMWednesday: 8:00 AM - 9:00 PMThursday: 8:00 AM - 9:00 PM,,0
"320 Main Street, Iroquois Falls",2625,320 Main Street ,,Iroquois Falls,ON,P0K 1G0,Canada,Contact,48.75896,-80.68767,Friday: 8:00 AM - 9:00 PMSaturday: 8:00 AM - 6:00 PMSunday: 8:00 AM - 6:00 PMMonday: 8:00 AM - 9:00 PMTuesday: 8:00 AM - 9:00 PMWednesday: 8:00 AM - 9:00 PMThursday: 8:00 AM - 9:00 PM,,0
"125 John Street  North, Aylmer",2666,125 John Street  North ,,Aylmer,ON,N5H 2A7,Canada,Contact,42.77439,-80.98219,Friday: 8:00 AM - 8:00 PMSaturday: 8:00 AM - 8:00 PMSunday: 8:00 AM - 8:00 PMMonday: 8:00 AM - 8:00 PMTuesday: 8:00 AM - 8:00 PMWednesday: 8:00 AM - 8:00 PMThursday: 8:00 AM - 8:00 PM,,0
Bullock's valu-mart,2694,123 Guildwood Parkway ,,Scarborough,ON,M1E 4V2,Canada,Contact,43.746523,-79.20017,Friday: 7:00 AM - 10:00 PMSaturday: 7:00 AM - 10:00 PMSunday: 7:00 AM - 10:00 PMMonday: 7:00 AM - 10:00 PMTuesday: 7:00 AM - 10:00 PMWednesday: 7:00 AM - 10:00 PMThursday: 7:00 AM - 10:00 PM,,0
Collins valu-mart,0832,24 Commercial Drive ,,Burks Falls,ON,P0A 1C0,Canada,Contact,45.621449,-79.414398,Friday: 8:00 AM - 9:00 PMSaturday: 8:00 AM - 6:00 PMSunday: 9:30 AM - 5:00 PMMonday: 8:00 AM - 8:00 PMTuesday: 8:00 AM - 8:00 PMWednesday: 8:00 AM - 8:00 PMThursday: 8:00 AM - 8:00 PM,,0
"42 Matthew Street PO Box 457, Marmora",2669,42 Matthew Street PO Box 457 ,,Marmora,ON,K0K 2M0,Canada,Contact,44.483834,-77.678842,Friday: 8:00 AM - 9:00 PMSaturday: 8:00 AM - 8:00 PMSunday: 8:00 AM - 8:00 PMMonday: 8:00 AM - 8:00 PMTuesday: 8:00 AM - 8:00 PMWednesday: 8:00 AM - 8:00 PMThursday: 8:00 AM - 8:00 PM,,0
"4512 Saint Catherine St, St Isidore",0416,4512 Saint Catherine St ,,St Isidore,ON,K0C 2B0,Canada,Contact,45.387132,-74.907189,Friday: 8:00 AM - 8:00 PMSaturday: 8:00 AM - 5:00 PMSunday: 8:00 AM - 5:00 PMMonday: 8:00 AM - 8:00 PMTuesday: 8:00 AM - 8:00 PMWednesday: 8:00 AM - 8:00 PMThursday: 8:00 AM - 8:00 PM,,0
Belfiores valu-mart,0824,385 Frederick Street ,,Kitchener,ON,N2H 2P2,Canada,Contact,43.45739,-80.4731,Friday: 8:00 AM - 10:00 PMSaturday: 8:00 AM - 10:00 PMSunday: 8:00 AM - 10:00 PMMonday: 8:00 AM - 10:00 PMTuesday: 8:00 AM - 10:00 PMWednesday: 8:00 AM - 10:00 PMThursday: 8:00 AM - 10:00 PM,,0
Yuill's valu-mart,2632,"P.O.Box 460, Hwy 60 ",,Barry's Bay,ON,K0J 1B0,Canada,Contact,45.488267,-77.678983,Friday: 8:00 AM - 9:00 PMSaturday: 8:00 AM - 9:00 PMSunday: 8:00 AM - 9:00 PMMonday: 8:00 AM - 9:00 PMTuesday: 8:00 AM - 9:00 PMWednesday: 8:00 AM - 9:00 PMThursday: 8:00 AM - 9:00 PM,,0
"75 Deep River Road, Deep River",2665,75 Deep River Road ,,Deep River,ON,K0J 1P0,Canada,Contact,46.10039,-77.487,Friday: 8:00 AM - 9:00 PMSaturday: 8:00 AM - 6:00 PMSunday: 8:00 AM - 6:00 PMMonday: 8:00 AM - 9:00 PMTuesday: 8:00 AM - 9:00 PMWednesday: 8:00 AM - 9:00 PMThursday: 8:00 AM - 9:00 PM,,0
