store_name,store_number,address,address2,city,state,zip_code,country,phone_number,latitude,longitude,store_hours,other_fields,coming_soon
Lafayette Pkwy & S Davis Rd,13612-107466,1470 Lafayette Pkwy,Suite 200,LaGrange,Georgia,30241,US,706-882-5205,33.041637,-84.982692,Today: 05:30 to 10:00; Tomorrow: 05:30 to 11:00; Saturday: 05:30 to 11:00; Sunday: 06:00 to 10:00; Monday: 05:30 to 10:00; Tuesday: 05:30 to 10:00; Wednesday: 05:30 to 10:00,Amenities,0
Kroger @ Opelika #631,25201-233569,2460 Enterprise Dr,,Opelika,Alabama,36801,US,334-737-2643,32.620594,-85.411445,Today: 06:00 to 08:00; Tomorrow: 06:00 to 08:00; Saturday: 06:00 to 08:00; Sunday: 06:00 to 08:00; Monday: 06:00 to 08:00; Tuesday: 06:00 to 08:00; Wednesday: 06:00 to 08:00,Amenities,0
"Kroger-Auburn, AL #260",47255-121766,300 Dean Rd,,Auburn,Alabama,36830,US,334-821-1325,32.6119,-85.4643,Today: 06:00 to 10:00; Tomorrow: 06:00 to 10:00; Saturday: 06:00 to 10:00; Sunday: 06:00 to 10:00; Monday: 06:00 to 10:00; Tuesday: 06:00 to 10:00; Wednesday: 06:00 to 10:00,Amenities,0
I-20 & Hwy 21,9738-97528,1011 Hwy 21 South,,Oxford,Alabama,36203,US,256-832-3820,33.607493,-85.828186,Today: 04:30 to 10:00; Tomorrow: 04:30 to 11:00; Saturday: 05:00 to 11:00; Sunday: 05:00 to 10:00; Monday: 04:30 to 10:00; Tuesday: 04:30 to 10:00; Wednesday: 04:30 to 10:00,Amenities,0
Target Opelika T-1499,76396-80263,2640 Enterprise Dr,,Opelika,Alabama,36801,US,334-705-0152,32.617486,-85.410808,Today: 08:00 to 09:00; Tomorrow: 08:00 to 09:00; Saturday: 08:00 to 09:00; Sunday: 08:00 to 08:00; Monday: 08:00 to 09:00; Tuesday: 08:00 to 09:00; Wednesday: 08:00 to 09:00,Amenities,0
Target Oxford T-2153,76606-101463,400 Oxford Exchange Blvd,,Oxford,Alabama,36207,US,256-231-2900,33.608802,-85.784932,Today: 08:00 to 09:00; Tomorrow: 08:00 to 09:00; Saturday: 08:00 to 09:00; Sunday: 08:00 to 08:00; Monday: 08:00 to 09:00; Tuesday: 08:00 to 09:00; Wednesday: 08:00 to 09:00,Amenities,0
I-85 @ Hwy 280,9544-97240,2056 Interstate Drive,,Opelika,Alabama,36801,US,334-745-0885,32.617886,-85.403916,Today: 04:00 to 11:00; Tomorrow: 04:00 to 12:00; Saturday: 05:00 to 12:00; Sunday: 05:00 to 11:00; Monday: 04:00 to 11:00; Tuesday: 04:00 to 11:00; Wednesday: 04:00 to 11:00,Amenities,0
"Columbus, MS",23043-220726,1908 Hwy 45 North,Suite 3,Columbus,Mississippi,39705,US,662-327-5374,33.518628,-88.434406,Today: 05:30 to 09:00; Tomorrow: 05:30 to 10:00; Saturday: 06:00 to 10:00; Sunday: 06:00 to 10:00; Monday: 05:30 to 09:00; Tuesday: 05:30 to 09:00; Wednesday: 05:30 to 09:00,Amenities,0
TCA @ Gadsden,23672-230991,1724 W Grand Ave,,Gadsden,Alabama,35906,US,256-413-7135,33.994679,-86.079602,Today: 06:00 to 09:00; Tomorrow: 06:00 to 09:00; Saturday: 06:00 to 09:00; Sunday: 06:00 to 09:00; Monday: 06:00 to 09:00; Tuesday: 06:00 to 09:00; Wednesday: 06:00 to 09:00,Amenities,0
Auburn University Lowder Lounge,22803-218127,Magnolia Street,,Auburn,Alabama,36849,US,,32.6058,-85.488746,Today: 07:00 to 12:00; Tomorrow: 07:00 to 05:00; Saturday: 09:00 to 05:00; Sunday: 09:00 to 09:00; Monday: 07:00 to 12:00; Tuesday: 07:00 to 12:00; Wednesday: 07:00 to 12:00,Amenities,0
Hwy 69 and Skyland,47023-256271,804 Skyland Boulevard,,Tuscaloosa,Alabama,35405,US,2056500671,33.165856,-87.549457,Today: 05:00 to 10:00; Tomorrow: 05:00 to 11:00; Saturday: 06:00 to 11:00; Sunday: 06:00 to 10:00; Monday: 05:00 to 10:00; Tuesday: 05:00 to 10:00; Wednesday: 05:00 to 10:00,Amenities,0
Super Target Trussville ST-1773,72615-22327,1654 Gadsden Hwy,,Trussville,Alabama,35235,US,205-655-6950,33.602864,-86.637799,Today: 08:00 to 09:00; Tomorrow: 08:00 to 09:00; Saturday: 08:00 to 10:00; Sunday: 08:00 to 09:00; Monday: 08:00 to 09:00; Tuesday: 08:00 to 09:00; Wednesday: 08:00 to 09:00,Amenities,0
Auburn University - Auburn AL - stu,78065-105597,"Quad Center, 255 Duncan Dr",,Auburn,Alabama,36849,US,(334) 844-1200,32.601,-85.4881,Today: 07:00 to 11:00; Tomorrow: 07:00 to 05:00; Saturday: 10:00 to 06:00; Sunday: 10:00 to 08:00; Monday: 07:00 to 11:00; Tuesday: 07:00 to 11:00; Wednesday: 07:00 to 11:00,Amenities,0
Target Dothan T-1468,76742-95745,4601 Montgomery Hwy,Suite 300,,Alabama,36303,US,334-340-1112,31.267295,-85.4487,Today: 07:00 to 09:00; Tomorrow: 07:00 to 09:00; Saturday: 08:00 to 09:00; Sunday: 08:00 to 08:00; Monday: 07:00 to 09:00; Tuesday: 07:00 to 09:00; Wednesday: 07:00 to 09:00,Amenities,0
Aramark @ U of Alabama Paul W Bryan,48066-207044,807 Paul W Bryant Dr,,Tuscaloosa,Alabama,35401,US,2053489842,33.206002,-87.547585,Today: 07:00 to 10:00; Tomorrow: 07:00 to 10:00; Saturday: 07:00 to 10:00; Sunday: 07:00 to 10:00; Monday: 07:00 to 10:00; Tuesday: 07:00 to 10:00; Wednesday: 07:00 to 10:00,Amenities,0
Hwy 69 & Olive Street - Cullman,17221-169985,"1879 Cherokee Avenue, SW",,,Alabama,35055,US,2567365687,34.1521,-86.842494,Today: 05:30 to 09:30; Tomorrow: 05:00 to 10:30; Saturday: 06:00 to 10:00; Sunday: 06:30 to 09:30; Monday: 05:30 to 09:30; Tuesday: 05:30 to 09:30; Wednesday: 05:30 to 09:30,Amenities,0
Atlanta Hwy & McLemore,10772-101748,6501 Atlanta Hwy,,Montgomery,Alabama,36117,US,334-396-3036,32.383071,-86.184056,Today: 05:00 to 10:00; Tomorrow: 05:00 to 11:00; Saturday: 05:00 to 11:00; Sunday: 05:30 to 10:00; Monday: 05:00 to 10:00; Tuesday: 05:00 to 10:00; Wednesday: 05:00 to 10:00,Amenities,0
Super Target Huntsville ST-1367,72653-48479,2750 Carl T Jones Dr SE,7,,Alabama,35802,US,256-650-3491,34.67782,-86.548188,Today: 08:00 to 09:00; Tomorrow: 08:00 to 09:00; Saturday: 08:00 to 10:00; Sunday: 08:00 to 09:00; Monday: 08:00 to 09:00; Tuesday: 08:00 to 09:00; Wednesday: 08:00 to 09:00,Amenities,0
Target Alabaster T-2276,76795-96265,250 S Colonial Dr,,Alabaster,Alabama,35007,US,205-564-2608,33.228,-86.8139,Today: 08:00 to 09:00; Tomorrow: 08:00 to 09:00; Saturday: 08:00 to 09:00; Sunday: 08:00 to 08:00; Monday: 08:00 to 09:00; Tuesday: 08:00 to 09:00; Wednesday: 08:00 to 09:00,Amenities,0
Magnolia City Place,23630-227625,659 Fieldstown Rd,,Gardendale,Alabama,35071,US,2055523732,33.650232,-86.823416,Today: 05:30 to 10:00; Tomorrow: 05:30 to 10:30; Saturday: 05:30 to 10:00; Sunday: 06:00 to 10:00; Monday: 05:30 to 10:00; Tuesday: 05:30 to 10:00; Wednesday: 05:30 to 10:00,Amenities,0
US Hwy 11 & I-459,3453-93234,1420 Gadsden Hwy,,Trussville,Alabama,35235,US,205-661-3201,33.596417,-86.645189,Today: 05:00 to 10:00; Tomorrow: 05:00 to 11:00; Saturday: 05:30 to 11:00; Sunday: 06:00 to 10:00; Monday: 05:00 to 10:00; Tuesday: 05:00 to 10:00; Wednesday: 05:00 to 10:00,Amenities,0
U of AL - Ferguson Cntr,72121-3608,1000 McCorvey Dr.,UoA-Ferguson Center,Tuscaloosa,Alabama,35487,US,205-348-9143,33.214493,-87.545864,Today: 07:00 to 11:00; Tomorrow: 07:00 to 08:00; Saturday: 10:00 to 09:00; Sunday: 10:00 to 09:00; Monday: 07:00 to 11:00; Tuesday: 07:00 to 11:00; Wednesday: 07:00 to 11:00,Amenities,0
University of West Georgia Library,15460-115166,1601 Maple Street,,Carrollton,Georgia,30117,US,678-839-6346,33.570015,-85.099396,Today: 07:00 to 11:00; Tomorrow: 07:00 to 05:00; Saturday: 10:00 to 05:00; Sunday: 02:00 to 08:00; Monday: 07:00 to 11:00; Tuesday: 07:00 to 11:00; Wednesday: 07:00 to 11:00,Amenities,0
Kroger Carrollton #367,19653-173525,1355 S Park St,,Carrollton,Georgia,30118,US,770-832-8932,33.552966,-85.073262,Today: 06:00 to 10:00; Tomorrow: 06:00 to 10:00; Saturday: 06:00 to 10:00; Sunday: 06:00 to 10:00; Monday: 06:00 to 10:00; Tuesday: 06:00 to 10:00; Wednesday: 06:00 to 10:00,Amenities,0
Super Target Tuscaloosa ST-1787,72668-65003,1901 13th Ave E,,Tuscaloosa,Alabama,35404,US,205-462-1064,33.192491,-87.51856,Today: 08:00 to 09:00; Tomorrow: 08:00 to 09:00; Saturday: 08:00 to 09:00; Sunday: 08:00 to 09:00; Monday: 08:00 to 09:00; Tuesday: 08:00 to 09:00; Wednesday: 08:00 to 09:00,Amenities,0
Beltline & Spring,13704-107959,902 Wimberly Drive SW,,,Alabama,35601,US,256-308-9842,34.559434,-87.000904,Today: 05:30 to 09:30; Tomorrow: 05:00 to 10:00; Saturday: 05:30 to 10:00; Sunday: 06:00 to 10:00; Monday: 05:30 to 09:30; Tuesday: 05:30 to 09:30; Wednesday: 05:30 to 09:30,Amenities,0
Target Montgomery T-1825,21849-215404,2576 Berryhill Rd,,Montgomery,Alabama,36117,US,334-356-6265,32.360529,-86.16297,Today: 08:00 to 09:00; Tomorrow: 08:00 to 09:00; Saturday: 08:00 to 09:00; Sunday: 08:00 to 08:00; Monday: 08:00 to 09:00; Tuesday: 08:00 to 09:00; Wednesday: 08:00 to 09:00,Amenities,0
Airport Rd & Chateau Dr,9543-97230,800 Airport Rd,Suite A,,Alabama,35801,US,256-881-1240,34.691553,-86.574532,Today: 05:00 to 09:30; Tomorrow: 05:00 to 10:30; Saturday: 05:30 to 09:30; Sunday: 05:30 to 09:30; Monday: 05:00 to 09:30; Tuesday: 05:00 to 09:30; Wednesday: 05:00 to 09:30,Amenities,0
Hwy 119 & Kent Dairy,10796-102254,2171 Kent Dairy Rd,,Alabaster,Alabama,35007,US,205-685-9705,33.214926,-86.826014,Today: 05:30 to 09:00; Tomorrow: 05:30 to 10:00; Saturday: 06:00 to 10:00; Sunday: 06:30 to 09:00; Monday: 05:30 to 09:00; Tuesday: 05:30 to 09:00; Wednesday: 05:30 to 09:00,Amenities,0
Target Fultondale T-2355,76843-111224,3489 Lowery Pkwy,,Fultondale,Alabama,35068,US,205-453-6032,33.607155,-86.806764,Today: 08:00 to 09:00; Tomorrow: 08:00 to 09:00; Saturday: 08:00 to 09:00; Sunday: 08:00 to 08:00; Monday: 08:00 to 09:00; Tuesday: 08:00 to 09:00; Wednesday: 08:00 to 09:00,Amenities,0
BHM - F7,18675-189964,5900 Messer Airport Way,,Birmingham,Alabama,35212,US,205-592-4362,33.562098,-86.750911,Today: 04:15 to 06:00; Tomorrow: 04:15 to 06:00; Saturday: 04:15 to 05:30; Sunday: 04:15 to 06:00; Monday: 04:15 to 06:00; Tuesday: 04:15 to 06:00; Wednesday: 04:15 to 06:00,Amenities,0
15th & McFarland,13482-249086,816 Veterans Memorial Parkway,,Tuscaloosa,Alabama,35404,US,2053432468,33.197359,-87.524518,Today: 05:00 to 11:00; Tomorrow: 05:00 to 11:00; Saturday: 05:00 to 11:00; Sunday: 06:00 to 10:00; Monday: 05:00 to 11:00; Tuesday: 05:00 to 11:00; Wednesday: 05:00 to 11:00,Amenities,0
Kroger - Newnan #647,79467-101092,1100 Lower Fayetteville Road,,Newnan,Georgia,30265,US,678-423-5841,33.376903,-84.751903,Today: 06:00 to 08:00; Tomorrow: 06:00 to 08:00; Saturday: 07:30 to 08:00; Sunday: 07:30 to 08:00; Monday: 06:00 to 08:00; Tuesday: 06:00 to 08:00; Wednesday: 06:00 to 08:00,Amenities,0
BHM F-13,22706-222686,5900 Messer Airport Wy,,Birmingham,Alabama,35212,US,2055924362,33.5583,-86.7483,Today: 04:15 to 07:00; Tomorrow: 04:15 to 07:00; Saturday: 04:15 to 05:30; Sunday: 04:15 to 07:00; Monday: 04:15 to 07:00; Tuesday: 04:15 to 07:00; Wednesday: 04:15 to 07:00,Amenities,0
SR 85 & Redstone Ave,14328-112944,2520 S. Ferdon Blvd.,,Crestview,Florida,32536,US,850-682-0496,30.734072,-86.566542,Today: 05:00 to 10:00; Tomorrow: 05:00 to 11:00; Saturday: 05:00 to 11:00; Sunday: 05:00 to 10:00; Monday: 05:00 to 10:00; Tuesday: 05:00 to 10:00; Wednesday: 05:00 to 10:00,Amenities,0
Hwy 72 & Braly,10248-100069,1286 Hwy 72 East,,Athens,Alabama,35611,US,256-230-9385,34.784046,-86.94581,Today: 05:00 to 10:00; Tomorrow: 05:00 to 10:00; Saturday: 05:30 to 10:00; Sunday: 06:00 to 10:00; Monday: 05:00 to 10:00; Tuesday: 05:00 to 10:00; Wednesday: 05:00 to 10:00,Amenities,0
Whitesburg Dr at Governors Dr,9507-96863,2003 Whitesburg Drive,Suite D,Huntsville,Alabama,35801,US,256-534-2991,34.719739,-86.578767,Today: 05:00 to 08:30; Tomorrow: 05:00 to 08:30; Saturday: 05:30 to 08:30; Sunday: 06:00 to 08:00; Monday: 05:00 to 08:30; Tuesday: 05:00 to 08:30; Wednesday: 05:00 to 08:30,Amenities,0
Target Madison T-2816,16910-165028,8207 Highway 72 W,,Madison,Alabama,35758,US,256-690-5890,34.751055,-86.755426,Today: 08:00 to 09:00; Tomorrow: 08:00 to 09:00; Saturday: 08:00 to 09:00; Sunday: 08:00 to 08:00; Monday: 08:00 to 09:00; Tuesday: 08:00 to 09:00; Wednesday: 08:00 to 09:00,Amenities,0
Montclair & Elder,13779-108621,1658 Montclair Rd,Suite 100,Birmingham,Alabama,35210,US,205-951-1907,33.526757,-86.719465,Today: 05:00 to 09:30; Tomorrow: 05:00 to 09:30; Saturday: 05:30 to 09:30; Sunday: 06:00 to 09:30; Monday: 05:00 to 09:30; Tuesday: 05:00 to 09:30; Wednesday: 05:00 to 09:30,Amenities,0
Target Decatur T-2084,76832-97609,2141 Point Mallard Pkwy,,,Alabama,35601,US,256-898-3036,34.593277,-86.956764,Today: 08:00 to 09:00; Tomorrow: 08:00 to 09:00; Saturday: 08:00 to 09:00; Sunday: 08:00 to 08:00; Monday: 08:00 to 09:00; Tuesday: 08:00 to 09:00; Wednesday: 08:00 to 09:00,Amenities,0
I-85 & Taylor Rd,2960-85962,6911 East Chase Parkway,,Montgomery,Alabama,36117,US,334-260-0538,32.357936,-86.169713,Today: 05:00 to 11:00; Tomorrow: 05:00 to 12:00; Saturday: 05:00 to 12:00; Sunday: 05:30 to 11:00; Monday: 05:00 to 11:00; Tuesday: 05:00 to 11:00; Wednesday: 05:00 to 11:00,Amenities,0
Memorial Pkwy & Hwy 72,10062-99521,1015 North Memorial Pkwy,,,Alabama,35801,US,256 539-3466,34.741708,-86.601421,Today: 05:00 to 10:00; Tomorrow: 05:00 to 10:00; Saturday: 05:30 to 10:00; Sunday: 05:30 to 10:00; Monday: 05:00 to 10:00; Tuesday: 05:00 to 10:00; Wednesday: 05:00 to 10:00,Amenities,0
I-65 & US HWY 31,13210-95453,345 South Colonial Dr,,,Alabama,35007,US,205-664-3797,33.223889,-86.802226,Today: 05:00 to 10:00; Tomorrow: 05:00 to 11:00; Saturday: 06:00 to 11:00; Sunday: 06:00 to 10:00; Monday: 05:00 to 10:00; Tuesday: 05:00 to 10:00; Wednesday: 05:00 to 10:00,Amenities,0
20th Street and 3rd Ave.,23642-225124,308 20th St South,Suite 100,Birmingham,Alabama,35222,US,205-568-3510,33.509609,-86.802771,Today: 05:30 to 09:30; Tomorrow: 05:30 to 09:30; Saturday: 06:00 to 09:30; Sunday: 06:30 to 08:30; Monday: 05:30 to 09:30; Tuesday: 05:30 to 09:30; Wednesday: 05:30 to 09:30,Amenities,0
Morrison @ Saint Vincents Hospital,75268-97436,810 Saint Vincents Dr,,Birmingham,Alabama,35205,US,205-939-7010,33.509586,-86.788765,Today: 06:00 to 06:00; Tomorrow: 06:00 to 06:00; Saturday: 07:00 to 01:00; Sunday: 07:00 to 01:00; Monday: 06:00 to 06:00; Tuesday: 06:00 to 06:00; Wednesday: 06:00 to 06:00,Amenities,0
Missisippi State University,78066-105596,Darden St.,,,Mississippi,39762,US,,33.4537,-88.7944,Today: 07:00 to 08:00; Tomorrow: 07:00 to 04:00; Saturday: 07:00 to 03:00; Sunday: 07:00 to 03:00; Monday: 07:00 to 08:00; Tuesday: 07:00 to 08:00; Wednesday: 07:00 to 08:00,Amenities,0
Target Newnan T-1223,15100-181047,555 Bullsboro Dr,,Newnan,Georgia,30277,US,770-502-0294,33.392968,-84.758104,Today: 08:00 to 09:00; Tomorrow: 08:00 to 09:00; Saturday: 08:00 to 09:00; Sunday: 08:00 to 08:00; Monday: 08:00 to 09:00; Tuesday: 08:00 to 09:00; Wednesday: 08:00 to 09:00,Amenities,0
UAB Hospital,24427-237908,615 18th Street,,Birmingham,Alabama,35212,US,205-933-3186,33.506672,-86.803452,Today: 05:00 to 11:00; Tomorrow: 05:00 to 11:00; Saturday: 06:00 to 08:00; Sunday: 06:00 to 08:00; Monday: 05:00 to 11:00; Tuesday: 05:00 to 11:00; Wednesday: 05:00 to 11:00,Amenities,0
"Florence, AL",20271-202065,357 Cox Creek Parkway,,Florence,Alabama,35630,US,256-764-8218,34.839286,-87.635958,Today: 05:30 to 10:00; Tomorrow: 05:30 to 11:00; Saturday: 06:00 to 11:00; Sunday: 06:30 to 10:00; Monday: 05:30 to 10:00; Tuesday: 05:30 to 10:00; Wednesday: 05:30 to 10:00,Amenities,0
Kroger Madison 605,48885-260445,4579 Wall Triana Hwy,,Madison,Alabama,35758,US,256-461-0914,34.707688,-86.749616,Today: 06:00 to 09:00; Tomorrow: 06:00 to 09:00; Saturday: 06:00 to 09:00; Sunday: 06:00 to 09:00; Monday: 06:00 to 09:00; Tuesday: 06:00 to 09:00; Wednesday: 06:00 to 09:00,Amenities,0
Hwy 72 & Hughes,11428-104120,7779 Highway 72 West,,Madison,Alabama,35758,US,256-430-2393,34.753649,-86.740188,Today: 05:00 to 10:00; Tomorrow: 05:00 to 10:00; Saturday: 05:30 to 10:00; Sunday: 05:30 to 10:00; Monday: 05:00 to 10:00; Tuesday: 05:00 to 10:00; Wednesday: 05:00 to 10:00,Amenities,0
Cahaba Heights & Dolly Ridge Rd,9587-97243,3130 Cahaba Heights Rd,,Vestavia Hills,Alabama,35243,US,205-298-7946,33.456268,-86.735658,Today: 05:00 to 09:30; Tomorrow: 05:00 to 09:30; Saturday: 05:30 to 09:30; Sunday: 05:30 to 09:30; Monday: 05:00 to 09:30; Tuesday: 05:00 to 09:30; Wednesday: 05:00 to 09:30,Amenities,0
Kroger - Huntsville #677,12493-152666,7090 University Dr,,,Alabama,35806,US,256-726-0600,34.754792,-86.712058,Today: 06:00 to 09:00; Tomorrow: 06:00 to 09:00; Saturday: 06:00 to 09:00; Sunday: 06:00 to 09:00; Monday: 06:00 to 09:00; Tuesday: 06:00 to 09:00; Wednesday: 06:00 to 09:00,Amenities,0
Cobbs Ford Road,20585-202066,2588 Cobbs Ford Road,,Prattville,Alabama,36066,US,334-285-9413,32.459319,-86.391077,Today: 05:00 to 11:00; Tomorrow: 05:00 to 12:00; Saturday: 05:00 to 12:00; Sunday: 05:30 to 11:00; Monday: 05:00 to 11:00; Tuesday: 05:00 to 11:00; Wednesday: 05:00 to 11:00,Amenities,0
Memorial & Mastin Lake,10127-99686,3421 Memorial Drive NW,,,Alabama,35759,US,256-851-1463,34.770702,-86.586661,Today: 05:30 to 09:00; Tomorrow: 05:30 to 09:00; Saturday: 05:30 to 09:00; Sunday: 06:00 to 09:00; Monday: 05:30 to 09:00; Tuesday: 05:30 to 09:00; Wednesday: 05:30 to 09:00,Amenities,0
The Crossings of Hoover,24032-228009,5180 Medford Rd,Suite 108,Hoover,Alabama,35244,US,2055044196,33.356448,-86.854793,Today: 05:00 to 10:00; Tomorrow: 05:00 to 10:00; Saturday: 05:30 to 10:00; Sunday: 06:00 to 09:00; Monday: 05:00 to 10:00; Tuesday: 05:00 to 10:00; Wednesday: 05:00 to 10:00,Amenities,0
UAB Birmingham Hill University Cent,25845-235684,1400 University Blvd,,Birmingham,Alabama,35233,US,2059348009,33.5018,-86.807794,Today: 07:00 to 08:00; Tomorrow: 07:00 to 05:00; Saturday: Closed; Sunday: Closed; Monday: 07:00 to 08:00; Tuesday: 07:00 to 08:00; Wednesday: 07:00 to 08:00,Amenities,0
Munger Bldg,8396-28812,1927 11th Avenue South,,Birmingham,Alabama,35205,US,205-930-0802,33.499974,-86.796999,Today: 05:30 to 08:00; Tomorrow: 05:30 to 08:00; Saturday: 07:00 to 08:00; Sunday: 07:00 to 08:00; Monday: 05:30 to 08:00; Tuesday: 05:30 to 08:00; Wednesday: 05:30 to 08:00,Amenities,0
"University Village, Starkville",21546-207106,600-1 Highway 12 E,,Starkville,Mississippi,39759,US,662-323-7174,33.454104,-88.806976,Today: 05:30 to 09:00; Tomorrow: 05:30 to 09:00; Saturday: 05:30 to 09:00; Sunday: 06:30 to 09:00; Monday: 05:30 to 09:00; Tuesday: 05:30 to 09:00; Wednesday: 05:30 to 09:00,Amenities,0
Hwy 34 @ I-85,8569-70963,733 Bullsboro Road,,,Georgia,30265,US,678-423-9233,33.396109,-84.753486,Today: 05:00 to 10:00; Tomorrow: 05:00 to 11:30; Saturday: 05:30 to 11:30; Sunday: 06:00 to 10:00; Monday: 05:00 to 10:00; Tuesday: 05:00 to 10:00; Wednesday: 05:00 to 10:00,Amenities,0
Univ of AL Birmingham/Library,70067-133044,917 13th St,,Birmingham,Alabama,35205,US,2059348009,33.498159,-86.806889,Today: 07:00 to 01:00; Tomorrow: 07:00 to 05:00; Saturday: 09:00 to 05:00; Sunday: 01:00 to 01:00; Monday: 07:00 to 01:00; Tuesday: 07:00 to 01:00; Wednesday: 07:00 to 01:00,Amenities,0
Cahaba & Hollywood,8418-41260,2738 Cahaba Rd,,,Alabama,35209,US,205-868-9130,33.483781,-86.774087,Today: 05:00 to 09:30; Tomorrow: 05:00 to 10:00; Saturday: 06:00 to 10:00; Sunday: 06:30 to 09:30; Monday: 05:00 to 09:30; Tuesday: 05:00 to 09:30; Wednesday: 05:00 to 09:30,Amenities,0
University of North Alabama,17646-153585,1 Harrison Plz,,Florence,Alabama,35630,US,2567655479,34.801806,-87.675288,Today: 07:00 to 10:00; Tomorrow: 07:00 to 10:00; Saturday: 07:00 to 05:00; Sunday: 07:00 to 05:00; Monday: 07:00 to 10:00; Tuesday: 07:00 to 10:00; Wednesday: 07:00 to 10:00,Amenities,0
Super Target Huntsville ST-1346,72635-32262,6275 University Dr,,,Alabama,35806,US,256-922-0189,34.741401,-86.6784,Today: 08:00 to 09:00; Tomorrow: 08:00 to 09:00; Saturday: 08:00 to 09:00; Sunday: 08:00 to 09:00; Monday: 08:00 to 09:00; Tuesday: 08:00 to 09:00; Wednesday: 08:00 to 09:00,Amenities,0
Kroger Columbia #507,25983-237524,1202 S James Campbell Blvd,,Columbia,Tennessee,38401,US,,35.601067,-87.061385,Today: 06:00 to 09:00; Tomorrow: 06:00 to 09:00; Saturday: 06:00 to 09:00; Sunday: 06:00 to 09:00; Monday: 06:00 to 09:00; Tuesday: 06:00 to 09:00; Wednesday: 06:00 to 09:00,Amenities,0
Hwy 280 & Hwy 119,3478-92800,5405 US-280 East,,,Alabama,35242,US,205-995-1408,33.418973,-86.669846,Today: 05:00 to 09:30; Tomorrow: 05:00 to 10:30; Saturday: 06:00 to 10:30; Sunday: 06:00 to 09:30; Monday: 05:00 to 09:30; Tuesday: 05:00 to 09:30; Wednesday: 05:00 to 09:30,Amenities,0
Target Prattville T-2274,76796-108570,2754 Legends Pkwy,,Prattville,Alabama,36066,US,334-290-6000,32.4735,-86.4258,Today: 08:00 to 09:00; Tomorrow: 08:00 to 09:00; Saturday: 08:00 to 09:00; Sunday: 08:00 to 08:00; Monday: 08:00 to 09:00; Tuesday: 08:00 to 09:00; Wednesday: 08:00 to 09:00,Amenities,0
Target Bessemer T-2375,76912-128666,4889 Promenade Pkwy,,Bessemer,Alabama,35022,US,(205) 565-3760,33.3302,-86.9308,Today: 08:00 to 09:00; Tomorrow: 08:00 to 09:00; Saturday: 08:00 to 09:00; Sunday: 08:00 to 08:00; Monday: 08:00 to 09:00; Tuesday: 08:00 to 09:00; Wednesday: 08:00 to 09:00,Amenities,0
State Farm & Lakeshore,11083-104088,231 State Farm Pkwy,,Homewood,Alabama,35209,US,205-945-2512,33.446326,-86.826919,Today: 05:30 to 09:00; Tomorrow: 05:30 to 09:00; Saturday: 06:00 to 09:00; Sunday: 06:30 to 09:00; Monday: 05:30 to 09:00; Tuesday: 05:30 to 09:00; Wednesday: 05:30 to 09:00,Amenities,0
Target Homewood T-2796,18944-175726,531 Brookwood Village,,,Alabama,35223,US,205-994-7531,33.470668,-86.771293,Today: 08:00 to 10:00; Tomorrow: 08:00 to 10:00; Saturday: 08:00 to 10:00; Sunday: 08:00 to 09:00; Monday: 08:00 to 10:00; Tuesday: 08:00 to 10:00; Wednesday: 08:00 to 10:00,Amenities,0
Kroger - Starkville #381,25999-221948,826 Hwy 12 W,,Starkville,Mississippi,39759,US,662-324-8032,33.449018,-88.838848,Today: 06:00 to 09:00; Tomorrow: 06:00 to 09:00; Saturday: 06:00 to 09:00; Sunday: 06:00 to 09:00; Monday: 06:00 to 09:00; Tuesday: 06:00 to 09:00; Wednesday: 06:00 to 09:00,Amenities,0
Brookwood Medical Center / Birmingh,78059-106248,2010 Brookwood Medical Center Drive,,Homewood,Alabama,35209,US,(205) 877-2110,33.463414,-86.776933,Today: 06:00 to 07:00; Tomorrow: 06:00 to 07:00; Saturday: Closed; Sunday: Closed; Monday: 06:00 to 07:00; Tuesday: 06:00 to 06:00; Wednesday: 07:00 to 07:00,Amenities,0
Super Target Birmingham ST-1772,72614-22325,4616 Highway 280,,Birmingham,Alabama,35242,US,205-408-7687,33.43177,-86.713087,Today: 08:00 to 08:00; Tomorrow: 08:00 to 08:00; Saturday: 08:00 to 09:00; Sunday: 08:00 to 08:00; Monday: 08:00 to 08:00; Tuesday: 08:00 to 08:00; Wednesday: 08:00 to 08:00,Amenities,0
Hwy 280 & Inverness Ctr Dr,6965-85181,4710 Hwy 280 east,,,Alabama,35242,US,205-980-2359,33.422339,-86.699581,Today: 05:00 to 10:00; Tomorrow: 05:00 to 10:30; Saturday: 06:00 to 10:30; Sunday: 06:00 to 10:00; Monday: 05:00 to 10:00; Tuesday: 05:00 to 10:00; Wednesday: 05:00 to 10:00,Amenities,0
1601 East Blvd,3426-240988,1601 Eastern Blvd,,Montgomery,Alabama,36117,US,3342712515,32.35543,-86.216851,Today: 05:00 to 10:00; Tomorrow: 05:00 to 11:00; Saturday: 05:00 to 11:00; Sunday: 05:30 to 10:00; Monday: 05:00 to 10:00; Tuesday: 05:00 to 10:00; Wednesday: 05:00 to 10:00,Amenities,0
Hwy 150 & I-459 FLY,6964-86620,3032 John Hawkins Pkwy,,Hoover,Alabama,35244,US,205-985-0622,33.372813,-86.811345,Today: 05:00 to 10:00; Tomorrow: 05:00 to 11:00; Saturday: 05:30 to 11:00; Sunday: 06:00 to 10:00; Monday: 05:00 to 10:00; Tuesday: 05:00 to 10:00; Wednesday: 05:00 to 10:00,Amenities,0
Montgomery Hwy & Canyon Dr,8560-79440,700 Montgomery Hwy,Suite 100,Vestavia Hills,Alabama,35216,US,205-978-2892,33.446058,-86.791451,Today: 05:30 to 09:00; Tomorrow: 05:30 to 09:00; Saturday: 06:00 to 09:00; Sunday: 06:00 to 09:00; Monday: 05:30 to 09:00; Tuesday: 05:30 to 09:00; Wednesday: 05:30 to 09:00,Amenities,0
Montgomery Hwy & Braddock,13703-107628,1584 Montgomery Hwy,,Hoover,Alabama,35226,US,205-822-3848,33.40374,-86.806824,Today: 05:30 to 09:00; Tomorrow: 05:30 to 10:00; Saturday: 06:00 to 10:00; Sunday: 06:00 to 09:00; Monday: 05:30 to 09:00; Tuesday: 05:30 to 09:00; Wednesday: 05:30 to 09:00,Amenities,0
Target Hoover West T-2503,5108-145307,5561 Grove Blvd,,Hoover,Alabama,35226,US,205-747-1654,33.4022,-86.832,Today: 08:00 to 09:00; Tomorrow: 08:00 to 09:00; Saturday: 08:00 to 09:00; Sunday: 08:00 to 09:00; Monday: 08:00 to 09:00; Tuesday: 08:00 to 09:00; Wednesday: 08:00 to 09:00,Amenities,0
River Chase Galleria,8488-38759,3000 Riverchase Galleria,124,Hoover,Alabama,35244,US,205-987-4867,33.3789,-86.8085,Today: 07:00 to 09:00; Tomorrow: 07:00 to 09:00; Saturday: 09:00 to 09:00; Sunday: 10:00 to 06:30; Monday: 07:00 to 09:00; Tuesday: 07:00 to 09:00; Wednesday: 07:00 to 09:00,Amenities,0
Taylor & Vaughn,10771-102253,7790 Vaughn,,Montgomery,Alabama,36064,US,334-277-2360,32.338357,-86.182264,Today: 05:00 to 10:00; Tomorrow: 05:00 to 11:00; Saturday: 05:00 to 11:00; Sunday: 05:30 to 10:00; Monday: 05:00 to 10:00; Tuesday: 05:00 to 10:00; Wednesday: 05:00 to 10:00,Amenities,0
Zelda Rd at Carter Hill Rd,9809-97244,3110 Zelda Road,,Montgomery,Alabama,36106,US,334-213-5491,32.354456,-86.264203,Today: 05:00 to 10:00; Tomorrow: 05:00 to 11:00; Saturday: 05:00 to 11:00; Sunday: 05:30 to 10:00; Monday: 05:00 to 10:00; Tuesday: 05:00 to 10:00; Wednesday: 05:00 to 10:00,Amenities,0
Bradley Park & Belfast,14564-122030,1522 Bradley Park Dr,,Columbus,Georgia,31904,US,706-327-5120,32.531662,-84.969452,Today: 05:00 to 11:00; Tomorrow: 05:00 to 12:00; Saturday: 05:00 to 12:00; Sunday: 05:30 to 11:00; Monday: 05:00 to 11:00; Tuesday: 05:00 to 11:00; Wednesday: 05:00 to 11:00,Amenities,0
US 80 & Veterans Pkwy,10067-98363,6783 Veterans Parkway,,Columbus,Georgia,31909,US,706-653-5520,32.544933,-84.953368,Today: 05:00 to 11:00; Tomorrow: 05:00 to 12:00; Saturday: 05:00 to 12:00; Sunday: 05:30 to 11:00; Monday: 05:00 to 11:00; Tuesday: 05:00 to 11:00; Wednesday: 05:00 to 11:00,Amenities,0
SR 85 & Woodruff St,13431-106912,4519 Woodruff Rd,,Columbus,Georgia,31904,US,706-324-0214,32.50742,-84.96323,Today: 05:00 to 10:00; Tomorrow: 05:00 to 11:00; Saturday: 05:00 to 11:00; Sunday: 05:30 to 10:00; Monday: 05:00 to 10:00; Tuesday: 05:00 to 10:00; Wednesday: 05:00 to 10:00,Amenities,0
Manchester Expy & Beaver Run,26123-230224,7026 Ruffie Way,,Columbus,Georgia,31820,US,706-566-3044,32.539316,-84.867785,Today: 05:00 to 10:00; Tomorrow: 05:00 to 11:00; Saturday: 05:00 to 11:00; Sunday: 05:30 to 10:00; Monday: 05:00 to 10:00; Tuesday: 05:00 to 10:00; Wednesday: 05:00 to 10:00,Amenities,0
Martin Army Community Hospital,26634-239365,"6600 Van Aalst Blvd, Bldg 9250",,Cusseta-Chattahoochee County,Georgia,31905,US,706-689-0712,32.368872,-84.92565,Today: 06:00 to 07:00; Tomorrow: 06:00 to 07:00; Saturday: Closed; Sunday: Closed; Monday: 06:00 to 07:00; Tuesday: 06:00 to 07:00; Wednesday: 06:00 to 07:00,Amenities,0
I-10 & Hwy 181,10249-96359,30350 State Hwy 181,Suite A,,Alabama,36527,US,251-626-3180,30.667173,-87.851533,Today: 05:00 to 09:30; Tomorrow: 05:00 to 10:00; Saturday: 05:00 to 10:00; Sunday: 05:30 to 09:30; Monday: 05:00 to 09:30; Tuesday: 05:00 to 09:30; Wednesday: 05:00 to 09:30,Amenities,0
"Kroger-Rome, GA #667",72552-121747,1476 Turner McCall Blvd NE,,Rome,Georgia,30161,US,706-290-8039,34.248717,-85.1635,Today: 06:00 to 08:00; Tomorrow: 06:00 to 08:00; Saturday: 07:00 to 08:00; Sunday: 07:00 to 08:00; Monday: 06:00 to 08:00; Tuesday: 06:00 to 08:00; Wednesday: 06:00 to 08:00,Amenities,0
I-10 & Jubilee Square Shopping Ctr,13211-104121,6830 Highway 90,,Daphne,Alabama,36526,US,251-626-7635,30.654776,-87.906651,Today: 05:00 to 09:00; Tomorrow: 05:00 to 09:00; Saturday: 05:30 to 09:00; Sunday: 05:30 to 09:00; Monday: 05:00 to 09:00; Tuesday: 05:00 to 09:00; Wednesday: 05:00 to 09:00,Amenities,0
Turner McCall & Riverside,11487-104441,795 Turner McCall Blvd,,Rome,Georgia,30161,US,706-232-0318,34.261319,-85.169629,Today: 05:00 to 11:00; Tomorrow: 05:00 to 11:30; Saturday: 05:00 to 11:30; Sunday: 05:30 to 11:00; Monday: 05:00 to 11:00; Tuesday: 05:00 to 11:00; Wednesday: 05:00 to 11:00,Amenities,0
Nine Mile & Pine Forest,13876-108432,2200 W. Nine Mile Rd.,Unit B,,Florida,32534,US,850-474-5236,30.534836,-87.313626,Today: 04:30 to 10:00; Tomorrow: 04:30 to 10:00; Saturday: 05:00 to 10:00; Sunday: 05:00 to 10:00; Monday: 04:30 to 10:00; Tuesday: 04:30 to 10:00; Wednesday: 04:30 to 10:00,Amenities,0
Government & Catherine,11324-104129,1510 Government St,,Mobile,Alabama,36606,US,251-470-0227,30.680694,-88.073381,Today: 05:30 to 08:00; Tomorrow: 05:30 to 08:00; Saturday: 06:00 to 08:00; Sunday: 06:00 to 08:00; Monday: 05:30 to 08:00; Tuesday: 05:30 to 08:00; Wednesday: 05:30 to 08:00,Amenities,0
Hillcrest & Greelot,10537-96355,1363 Hillcrest Rd,,Mobile,Alabama,36695,US,251-776-1161,30.661586,-88.190289,Today: 04:30 to 09:30; Tomorrow: 04:30 to 09:30; Saturday: 05:30 to 09:30; Sunday: 05:30 to 09:30; Monday: 04:30 to 09:30; Tuesday: 04:30 to 09:30; Wednesday: 04:30 to 09:30,Amenities,0
I 65 & Spring Hill,10538-101306,3451 Spring Hill Ave,,Mobile,Alabama,36608,US,251-344-3419,30.703434,-88.125139,Today: 05:00 to 09:00; Tomorrow: 05:00 to 10:00; Saturday: 05:30 to 10:00; Sunday: 05:30 to 09:00; Monday: 05:00 to 09:00; Tuesday: 05:00 to 09:00; Wednesday: 05:00 to 09:00,Amenities,0
Target Pace (Milton) T-2279,76804-108134,4727 US-90,,,Florida,32571,US,850-995-7820,30.601324,-87.126945,Today: 08:00 to 09:00; Tomorrow: 08:00 to 09:00; Saturday: 08:00 to 09:00; Sunday: 08:00 to 08:00; Monday: 08:00 to 09:00; Tuesday: 08:00 to 09:00; Wednesday: 08:00 to 09:00,Amenities,0
I-65 at Airport Blvd,9970-97273,3255 Airport Blvd,,Mobile,Alabama,36606,US,251-473-6204,30.675957,-88.122975,Today: 05:00 to 09:00; Tomorrow: 05:00 to 09:00; Saturday: 05:30 to 09:00; Sunday: 05:30 to 09:00; Monday: 05:00 to 09:00; Tuesday: 05:00 to 09:00; Wednesday: 05:00 to 09:00,Amenities,0
Super Target Mobile ST-1376,72658-64920,790 Shillinger Rd S,,,Alabama,36695,US,251-607-2065,30.674076,-88.228448,Today: 08:00 to 09:00; Tomorrow: 08:00 to 09:00; Saturday: 08:00 to 10:00; Sunday: 08:00 to 09:00; Monday: 08:00 to 09:00; Tuesday: 08:00 to 09:00; Wednesday: 08:00 to 09:00,Amenities,0
University of South Alabama,19891-192724,5901 USA Dr N,,Mobile,Alabama,36688,US,251-461-1640,30.697467,-88.178802,Today: 07:45 to 12:00; Tomorrow: 07:45 to 06:00; Saturday: 10:00 to 06:00; Sunday: 01:00 to 12:00; Monday: 07:45 to 12:00; Tuesday: 07:45 to 12:00; Wednesday: 07:45 to 12:00,Amenities,0
Nine Mile Rd & Hillview Drive,13466-106745,1701 E. Nine Mile Rd.,,,Florida,32514,US,850-476-6540,30.531711,-87.226522,Today: 05:30 to 10:00; Tomorrow: 05:30 to 10:00; Saturday: 05:30 to 10:00; Sunday: 06:00 to 10:00; Monday: 05:30 to 10:00; Tuesday: 05:30 to 10:00; Wednesday: 05:30 to 10:00,Amenities,0
N. Gloster and Barnes Crossing,28760-250826,3360 North Gloster Street,,,Mississippi,38804,US,662-260-9628,34.303371,-88.706417,Today: 05:30 to 10:00; Tomorrow: 05:30 to 11:00; Saturday: 06:00 to 11:00; Sunday: 06:30 to 10:00; Monday: 05:30 to 10:00; Tuesday: 05:30 to 10:00; Wednesday: 05:30 to 10:00,Amenities,0
Government & I-65,25695-236913,3075 Government Blvd,Suite B100,Mobile,Alabama,36609,US,251-421-3831,30.654526,-88.117739,Today: 05:30 to 09:00; Tomorrow: 05:30 to 09:00; Saturday: 05:30 to 09:00; Sunday: 05:30 to 09:00; Monday: 05:30 to 09:00; Tuesday: 05:30 to 09:00; Wednesday: 05:30 to 09:00,Amenities,0
Bel Air Mall - First Level,11673-105401,3494 BEL AIR MALL,G7,Mobile,Alabama,36606,US,251-473-3064,30.673886,-88.121627,Today: 09:00 to 09:00; Tomorrow: 09:00 to 09:00; Saturday: 09:00 to 09:00; Sunday: 11:00 to 06:00; Monday: 09:00 to 09:00; Tuesday: 09:00 to 09:00; Wednesday: 09:00 to 09:00,Amenities,0
Airport Blvd & Schillinger,8724-93235,390 Schillinger Road,,,Alabama,36695,US,251-633-7087,30.681701,-88.225839,Today: 05:30 to 09:30; Tomorrow: 05:30 to 10:30; Saturday: 05:30 to 10:30; Sunday: 05:30 to 09:30; Monday: 05:30 to 09:30; Tuesday: 05:30 to 09:30; Wednesday: 05:30 to 09:30,Amenities,0
Airport Blvd & Downtowner,8581-86640,3901 Airport Blvd,,Mobile,Alabama,36609,US,251-341-5672,30.675623,-88.144815,Today: 05:30 to 09:30; Tomorrow: 05:30 to 09:30; Saturday: 05:30 to 09:30; Sunday: 06:00 to 09:00; Monday: 05:30 to 09:30; Tuesday: 05:30 to 09:30; Wednesday: 05:30 to 09:30,Amenities,0
Chartwells @ University of West Flo,25842-238006,10015 N Davis Hwy,100,,Florida,32514,US,8504770500,30.5397,-87.197681,Today: 06:00 to 08:00; Tomorrow: 06:00 to 08:00; Saturday: 07:00 to 08:00; Sunday: 07:00 to 08:00; Monday: 06:00 to 08:00; Tuesday: 06:00 to 08:00; Wednesday: 06:00 to 08:00,Amenities,0
Thomas Rd & West Main St,8809-92201,2433 West Main St,,Tupelo,Mississippi,38801,US,662-407-0293,34.255287,-88.744651,Today: 05:30 to 10:00; Tomorrow: 05:30 to 10:00; Saturday: 05:30 to 10:00; Sunday: 06:00 to 10:00; Monday: 05:30 to 10:00; Tuesday: 05:30 to 10:00; Wednesday: 05:30 to 10:00,Amenities,0
Hwy 59 at Riviera Center,9971-96354,2601 S. McKenzie Road,900,Foley,Alabama,36535,US,251-971-6536,30.376105,-87.682023,Today: 05:30 to 09:30; Tomorrow: 05:30 to 09:30; Saturday: 05:30 to 09:30; Sunday: 06:00 to 07:00; Monday: 05:30 to 09:30; Tuesday: 05:30 to 09:30; Wednesday: 05:30 to 09:30,Amenities,0
Target Gulf Shores T-2154,76584-99835,3820 Gulf Shores Pkwy,,Gulf Shores,Alabama,36542,US,251-967-7001,30.303182,-87.682965,Today: 08:00 to 09:00; Tomorrow: 08:00 to 09:00; Saturday: 08:00 to 09:00; Sunday: 08:00 to 08:00; Monday: 08:00 to 09:00; Tuesday: 08:00 to 09:00; Wednesday: 08:00 to 09:00,Amenities,0
Ocean Springs,28190-248939,3158 Bienville Boulevard,,Ocean Springs,Mississippi,39564,US,228-355-3386,30.412389,-88.781456,Today: 05:00 to 09:00; Tomorrow: 05:00 to 09:00; Saturday: 05:30 to 09:00; Sunday: 06:00 to 09:00; Monday: 05:00 to 09:00; Tuesday: 05:00 to 09:00; Wednesday: 05:00 to 09:00,Amenities,0
Target Pensacola NE T-1273,18179-182665,1749 E Nine Mile Rd.,,,Florida,32514,US,850-473-8647,30.529506,-87.224294,Today: 08:00 to 09:00; Tomorrow: 08:00 to 09:00; Saturday: 08:00 to 09:00; Sunday: 08:00 to 08:00; Monday: 08:00 to 09:00; Tuesday: 08:00 to 09:00; Wednesday: 08:00 to 09:00,Amenities,0
Perdido Beach & Orange Beach,24727-236464,25773 Perdido Beach Blvd,,Orange Beach,Alabama,36561,US,251-597-2033,30.269692,-87.587782,Today: 05:30 to 09:00; Tomorrow: 05:30 to 09:00; Saturday: 05:30 to 09:00; Sunday: 05:30 to 09:00; Monday: 05:30 to 09:00; Tuesday: 05:30 to 09:00; Wednesday: 05:30 to 09:00,Amenities,0
Target Pensacola West T-2445,70333-138008,2950 South Blue Angel Parkway,,,Florida,32507,US,(850) 454-3000,30.362578,-87.359367,Today: 08:00 to 09:00; Tomorrow: 08:00 to 09:00; Saturday: 08:00 to 09:00; Sunday: 08:00 to 08:00; Monday: 08:00 to 09:00; Tuesday: 08:00 to 09:00; Wednesday: 08:00 to 09:00,Amenities,0
Golden Nugget Biloxi,75395-99472,151 Beach Blvd,,Biloxi,Mississippi,39530,US,228-436-7894,30.391985,-88.860223,Today: 06:00 to 10:00; Tomorrow: 06:00 to 11:45; Saturday: 06:00 to 11:45; Sunday: 06:00 to 10:00; Monday: 06:00 to 10:00; Tuesday: 06:00 to 10:00; Wednesday: 06:00 to 10:00,Amenities,0
Bayou Blvd & Rave Access Dr,11615-104850,5145 Bayou Blvd.,,Pensacola,Florida,32503,US,850-484-2473,30.474212,-87.2158,Today: 05:00 to 10:00; Tomorrow: 05:00 to 10:00; Saturday: 05:00 to 08:30; Sunday: 05:00 to 10:00; Monday: 05:00 to 10:00; Tuesday: 05:00 to 10:00; Wednesday: 05:00 to 10:00,Amenities,0
Target D'Iberville T-2485,5103-137985,3867 Promenade Pkwy,,D'Iberville,Mississippi,39532,US,228-233-3301,30.4446,-88.8846,Today: 08:00 to 09:00; Tomorrow: 08:00 to 09:00; Saturday: 08:00 to 10:00; Sunday: 08:00 to 09:00; Monday: 08:00 to 09:00; Tuesday: 08:00 to 09:00; Wednesday: 08:00 to 09:00,Amenities,0
Bayou Blvd & 9th Ave.,8542-71640,5040 Bayou Blvd.,,Pensacola,Florida,32503,US,850-484-8547,30.472671,-87.209548,Today: 05:00 to 10:30; Tomorrow: 05:00 to 11:30; Saturday: 05:30 to 11:30; Sunday: 05:30 to 10:30; Monday: 05:00 to 10:30; Tuesday: 05:00 to 10:30; Wednesday: 05:00 to 10:30,Amenities,0
Hard Rock Hotel and Casino - Biloxi,18832-185884,777 Beach Blvd,,Biloxi,Mississippi,39530,US,228-432-8454,30.392326,-88.88754,Today: 06:00 to 11:00; Tomorrow: 06:00 to 12:00; Saturday: 06:00 to 12:00; Sunday: 06:00 to 11:00; Monday: 06:00 to 11:00; Tuesday: 06:00 to 11:00; Wednesday: 06:00 to 11:00,Amenities,0
Cordova Mall - First Level,11043-91782,5100 North 9th Avenue,H818,Pensacola,Florida,11122,US,850-473-8861,30.474931,-87.207207,Today: 08:30 to 09:30; Tomorrow: 08:30 to 09:30; Saturday: 08:30 to 09:30; Sunday: 10:00 to 07:00; Monday: 08:30 to 09:30; Tuesday: 08:30 to 09:30; Wednesday: 08:30 to 09:30,Amenities,0
Promenade Parkway & I-110,18567-172165,3868 Promenade Pkwy,Suite A,D'Iberville,Mississippi,39540,US,2283962291,30.455961,-88.902552,Today: 05:30 to 10:00; Tomorrow: 05:30 to 11:00; Saturday: 05:30 to 11:00; Sunday: 05:30 to 09:00; Monday: 05:30 to 10:00; Tuesday: 05:30 to 10:00; Wednesday: 05:30 to 10:00,Amenities,0
Aviation Plaza-   Food Court,75388-103765,250 SauFley Street - Building 630,,,Florida,32559,US,850-458-1578,30.350192,-87.272524,Today: 07:00 to 07:00; Tomorrow: 07:00 to 07:00; Saturday: 10:00 to 06:00; Sunday: 09:00 to 06:00; Monday: 07:00 to 07:00; Tuesday: 07:00 to 07:00; Wednesday: 07:00 to 07:00,Amenities,0
Keesler AFB - BX,70309-118965,"506 Larcher Blvd, Bldg 2306",,Biloxi,Mississippi,39530,US,2284353661,30.406062,-88.910857,Today: 06:00 to 07:00; Tomorrow: 06:00 to 07:00; Saturday: 08:00 to 07:00; Sunday: 09:30 to 06:00; Monday: 06:00 to 07:00; Tuesday: 06:00 to 07:00; Wednesday: 06:00 to 07:00,Amenities,0
Sodexho/government services/mwr/pen,75399-103763,123 Fred Bauer St.,Bldg. 630,,Florida,32508,US,850-453-6770,30.3469,-87.2764,Today: 06:00 to 01:00; Tomorrow: 06:00 to 01:00; Saturday: 07:00 to 01:00; Sunday: Closed; Monday: 06:00 to 01:00; Tuesday: 06:00 to 01:00; Wednesday: 06:00 to 01:00,Amenities,0
Popps & Pass,13447-106922,2404 Pass Rd,,Biloxi,Mississippi,39531,US,228-388-8460,30.40204,-88.976614,Today: 05:00 to 09:00; Tomorrow: 05:00 to 09:30; Saturday: 05:30 to 09:30; Sunday: 06:00 to 09:00; Monday: 05:00 to 09:00; Tuesday: 05:00 to 09:00; Wednesday: 05:00 to 09:00,Amenities,0
I 10 & Hwy 49,13498-103959,15299 Crossroads Pkwy,Suite 100,Gulfport,Mississippi,39503,US,228-831-1289,30.437321,-89.096521,Today: 05:00 to 10:00; Tomorrow: 05:00 to 10:30; Saturday: 05:00 to 10:30; Sunday: 05:00 to 10:00; Monday: 05:00 to 10:00; Tuesday: 05:00 to 10:00; Wednesday: 05:00 to 10:00,Amenities,0
Hwy 98 & Oakhill,21597-213264,3703 Gulf Breeze Pkwy,,,Florida,32563,US,8509324701,30.389116,-87.068709,Today: 05:00 to 10:00; Tomorrow: 05:00 to 10:30; Saturday: 05:00 to 10:30; Sunday: 05:00 to 10:00; Monday: 05:00 to 10:00; Tuesday: 05:00 to 10:00; Wednesday: 05:00 to 10:00,Amenities,0
Hwy 53 E & Richardson Rd,13430-107460,605 Highway 53,,Calhoun,Georgia,30701,US,706-624-1083,34.473497,-84.925244,Today: 05:30 to 10:30; Tomorrow: 05:30 to 11:00; Saturday: 06:00 to 11:00; Sunday: 06:00 to 10:00; Monday: 05:30 to 10:30; Tuesday: 05:30 to 10:30; Wednesday: 05:30 to 10:30,Amenities,0
Ingles-Cartersville #476,17925-103735,825 West Avenue,,Cartersville,Georgia,30120,US,770-607-7325,34.159164,-84.8107,Today: 06:00 to 09:00; Tomorrow: 06:00 to 09:00; Saturday: 06:00 to 09:00; Sunday: 07:00 to 09:00; Monday: 06:00 to 09:00; Tuesday: 06:00 to 09:00; Wednesday: 06:00 to 09:00,Amenities,0
Ingles Cartersville #76,22872-220007,879 Joe Frank Harris Pkwy SE,,Cartersville,Georgia,30121,US,770-607-4784,34.198392,-84.79247,Today: 06:00 to 09:00; Tomorrow: 06:00 to 09:00; Saturday: 06:00 to 09:00; Sunday: 07:00 to 09:00; Monday: 06:00 to 09:00; Tuesday: 06:00 to 09:00; Wednesday: 06:00 to 09:00,Amenities,0
346 Gulf Breeze Pkwy,3428-93236,346 Gulf Breeze Pkwy,,,Florida,32561,US,850-934-1649,30.364664,-87.169224,Today: 05:00 to 10:00; Tomorrow: 05:00 to 10:00; Saturday: 05:00 to 10:00; Sunday: 05:00 to 10:00; Monday: 05:00 to 10:00; Tuesday: 05:00 to 10:00; Wednesday: 05:00 to 10:00,Amenities,0
Historic Read House Inn & Suites,75646-87982,827 Broad St,,Chattanooga,Tennessee,37402,US,,35.046107,-85.310724,Today: 06:00 to 09:00; Tomorrow: 06:00 to 09:30; Saturday: 07:00 to 09:30; Sunday: 07:00 to 09:00; Monday: 06:00 to 09:00; Tuesday: 06:00 to 09:00; Wednesday: 06:00 to 09:00,Amenities,0
University of Tennessee at Chattano,3839-147944,615 McCallie Ave,,Chattanooga,Tennessee,37403,US,423-425-1640,35.045856,-85.30094,Today: 07:00 to 08:00; Tomorrow: 07:00 to 04:00; Saturday: 08:00 to 02:00; Sunday: 10:00 to 06:00; Monday: 07:00 to 08:00; Tuesday: 07:00 to 08:00; Wednesday: 07:00 to 08:00,Amenities,0
Erlanger Hospital,75182-82497,975 East 3rd Street,,Chattanooga,Tennessee,37403,US,423 778-7762,35.048103,-85.290907,Today: 07:00 to 05:00; Tomorrow: 07:00 to 05:00; Saturday: Closed; Sunday: Closed; Monday: 07:00 to 05:00; Tuesday: 07:00 to 05:00; Wednesday: 07:00 to 05:00,Amenities,0
Kroger Dallas #673,47957-259865,455 Nathan Dean Blvd,,Dallas,Georgia,30157,US,770-443-0811,33.910521,-84.822866,Today: 06:00 to 09:00; Tomorrow: 06:00 to 09:00; Saturday: 06:00 to 09:00; Sunday: 06:00 to 09:00; Monday: 06:00 to 09:00; Tuesday: 06:00 to 09:00; Wednesday: 06:00 to 09:00,Amenities,0
Brainerd & Belaire,11069-103668,5610 Brainerd Rd,,Chattanooga,Tennessee,37411,US,423-499-9042,35.011076,-85.214949,Today: 05:30 to 09:30; Tomorrow: 05:30 to 10:30; Saturday: 06:00 to 10:30; Sunday: 06:30 to 09:30; Monday: 05:30 to 09:30; Tuesday: 05:30 to 09:30; Wednesday: 05:30 to 09:30,Amenities,0
Super Target Hiram ST-1400,72665-64999,5220 Jimmy Lee Smith Pkwy,,,Georgia,30132,US,678-567-0142,33.902737,-84.78955,Today: 08:00 to 09:00; Tomorrow: 08:00 to 09:00; Saturday: 08:00 to 09:00; Sunday: 08:00 to 08:00; Monday: 08:00 to 09:00; Tuesday: 08:00 to 09:00; Wednesday: 08:00 to 09:00,Amenities,0
Hwy 278 @ Hwy 92,8575-70961,4910 Jimmy Lee Smith Parkway,,,Georgia,30141,US,770-222-3411,33.888684,-84.746475,Today: 05:00 to 10:00; Tomorrow: 05:00 to 11:00; Saturday: 06:00 to 11:00; Sunday: 06:30 to 10:00; Monday: 05:00 to 10:00; Tuesday: 05:00 to 10:00; Wednesday: 05:00 to 10:00,Amenities,0
Chapel Hill Rd @ I-20,9703-97484,2736 Chapel Hill Rd,Bldg C,Douglasville,Georgia,30135,US,678-838-7725,33.73141,-84.73703,Today: 05:00 to 11:00; Tomorrow: 05:00 to 11:30; Saturday: 05:30 to 11:30; Sunday: 06:00 to 10:30; Monday: 05:00 to 11:00; Tuesday: 05:00 to 11:00; Wednesday: 05:00 to 11:00,Amenities,0
Hwy 381 & Hwy 92,14637-113173,8655 Hiram Acworth Hwy,,,Georgia,30157,US,678-574-0556,34.009878,-84.754392,Today: 05:00 to 10:00; Tomorrow: 05:00 to 10:30; Saturday: 05:30 to 10:30; Sunday: 06:00 to 10:00; Monday: 05:00 to 10:00; Tuesday: 05:00 to 10:00; Wednesday: 05:00 to 10:00,Amenities,0
"Kroger-Douglasville, GA #485",73733-108007,3875 Chapel Hill Road,,,Georgia,30135,US,770-947-7144,33.699817,-84.718406,Today: 06:00 to 08:00; Tomorrow: 06:00 to 08:00; Saturday: 06:00 to 08:00; Sunday: 06:00 to 08:00; Monday: 06:00 to 08:00; Tuesday: 06:00 to 08:00; Wednesday: 06:00 to 08:00,Amenities,0
Hwy 113 & Hwy 41 - Cartersville,11871-104445,605 Main Street,,Cartersville,Georgia,30121,US,770-607-3306,34.172121,-84.781199,Today: 04:30 to 10:00; Tomorrow: 04:30 to 11:00; Saturday: 05:00 to 11:00; Sunday: 06:00 to 10:00; Monday: 04:30 to 10:00; Tuesday: 04:30 to 10:00; Wednesday: 04:30 to 10:00,Amenities,0
Kroger Cartersville #629,48905-250893,125 Main St Market Place,,Cartersville,Georgia,30121,US,,34.173241,-84.777824,Today: 05:30 to 09:00; Tomorrow: 05:30 to 09:00; Saturday: 06:00 to 09:00; Sunday: 06:00 to 09:00; Monday: 05:30 to 09:00; Tuesday: 05:30 to 09:00; Wednesday: 05:30 to 09:00,Amenities,0
Hwy 41 & Mars Hill Rd,11045-98613,3622 Cobb Parkway,,Acworth,Georgia,30101,US,770-966-9262,34.0445,-84.695646,Today: 05:00 to 10:30; Tomorrow: 05:00 to 11:00; Saturday: 06:00 to 11:00; Sunday: 06:00 to 10:00; Monday: 05:00 to 10:30; Tuesday: 05:00 to 10:30; Wednesday: 05:00 to 10:30,Amenities,0
Super Target Acworth ST-2091,76600-101462,3352 Cobb Pkwy,,Acworth,Georgia,30101,US,678-202-0996,34.039812,-84.683957,Today: 08:00 to 09:00; Tomorrow: 08:00 to 09:00; Saturday: 08:00 to 09:00; Sunday: 08:00 to 08:00; Monday: 08:00 to 09:00; Tuesday: 08:00 to 09:00; Wednesday: 08:00 to 09:00,Amenities,0
U.S. 41 @ Acworth,8530-44019,3103 Cobb Parkway NW,,Acworth,Georgia,30101,US,770-974-3779,34.029852,-84.655456,Today: 05:30 to 10:00; Tomorrow: 05:30 to 10:30; Saturday: 05:30 to 10:30; Sunday: 06:30 to 10:00; Monday: 05:30 to 10:00; Tuesday: 05:30 to 10:00; Wednesday: 05:30 to 10:00,Amenities,0
Dallas Hwy. & Villarica Rd.,8293-4170,2535 Dallas Highway,Suite B,,Georgia,30127,US,678-354-5666,33.945853,-84.62706,Today: 04:30 to 10:00; Tomorrow: 04:30 to 11:00; Saturday: 05:30 to 11:00; Sunday: 06:00 to 10:00; Monday: 04:30 to 10:00; Tuesday: 04:30 to 10:00; Wednesday: 04:30 to 10:00,Amenities,0
Target West Marietta T-1165,19560-198986,2535 Dallas Hwy SW,,,Georgia,30127,US,770-792-7933,33.946199,-84.62611,Today: 08:00 to 08:00; Tomorrow: 08:00 to 08:00; Saturday: 08:00 to 09:00; Sunday: 08:00 to 08:00; Monday: 08:00 to 08:00; Tuesday: 08:00 to 08:00; Wednesday: 08:00 to 08:00,Amenities,0
Powder Springs Rd @ Macland,8469-47984,1721 Powder Springs Rd,,,Georgia,30008,US,770-499-1251,33.905944,-84.602606,Today: 05:00 to 10:00; Tomorrow: 05:00 to 11:00; Saturday: 06:00 to 11:00; Sunday: 06:30 to 10:00; Monday: 05:00 to 10:00; Tuesday: 05:00 to 10:00; Wednesday: 05:00 to 10:00,Amenities,0
Highway 34 & Sharpsburg Road,28771-247391,3151 East Hwy 34,,,Georgia,30265,US,6786734060,33.406816,-84.681573,Today: 05:00 to 10:00; Tomorrow: 05:00 to 10:00; Saturday: 05:30 to 10:00; Sunday: 06:00 to 09:30; Monday: 05:00 to 10:00; Tuesday: 05:00 to 10:00; Wednesday: 05:00 to 10:00,Amenities,0
Kroger -Newnan #420,73865-100234,3150 East Hwy 134,,,Georgia,30277,US,770-254-3030,33.409641,-84.679775,Today: 06:00 to 08:00; Tomorrow: 06:00 to 08:00; Saturday: 08:00 to 08:00; Sunday: 08:00 to 08:00; Monday: 06:00 to 08:00; Tuesday: 06:00 to 08:00; Wednesday: 06:00 to 08:00,Amenities,0
Main Store Food Court,72113-5604,1757 Memorial Trail,Bldg. 1757,,Florida,32542,US,850-651-1698,30.466453,-86.529802,Today: 07:00 to 06:00; Tomorrow: 07:00 to 06:00; Saturday: 07:00 to 06:00; Sunday: 09:00 to 05:00; Monday: 07:00 to 06:00; Tuesday: 07:00 to 06:00; Wednesday: 07:00 to 06:00,Amenities,0
Destin Commons,8558-75466,4140 LEGANDARY DR,Suite B105,,Florida,32541,US,850-650-0333,30.392012,-86.424179,Today: 06:00 to 10:00; Tomorrow: 06:00 to 11:00; Saturday: 06:00 to 11:00; Sunday: 06:00 to 10:00; Monday: 06:00 to 10:00; Tuesday: 06:00 to 10:00; Wednesday: 06:00 to 10:00,Amenities,0
Cleveland Hwy & North By-Pass,13407-106853,1305 N Glenwood Ave,,,Georgia,30721,US,706-428-0380,34.797001,-84.96268,Today: 05:30 to 10:30; Tomorrow: 05:30 to 11:00; Saturday: 05:30 to 11:00; Sunday: 05:30 to 10:00; Monday: 05:30 to 10:30; Tuesday: 05:30 to 10:30; Wednesday: 05:30 to 10:30,Amenities,0
Peachtree City,8386-13006,316 City Cir,1300,Peachtree City,Georgia,30269,US,770-631-1904,33.3964,-84.590752,Today: 05:00 to 10:00; Tomorrow: 05:00 to 11:00; Saturday: 06:00 to 11:00; Sunday: 06:00 to 10:00; Monday: 05:00 to 10:00; Tuesday: 05:00 to 10:00; Wednesday: 05:00 to 10:00,Amenities,0
E-W Connector & Floyd Rd,2968-88420,1025 East-West Connector SW,Suite 510,,Georgia,30081,US,678-842-9143,33.856211,-84.583397,Today: 05:00 to 10:00; Tomorrow: 05:00 to 11:00; Saturday: 05:30 to 11:00; Sunday: 06:00 to 10:00; Monday: 05:00 to 10:00; Tuesday: 05:00 to 10:00; Wednesday: 05:00 to 10:00,Amenities,0
Gunbarrel Rd at Jarnigan Rd,2870-92742,1951 Gunbarrel Rd,,Chattanooga,Tennessee,37421,US,423-499-2670,35.029994,-85.156068,Today: 05:30 to 10:00; Tomorrow: 05:30 to 11:00; Saturday: 06:00 to 11:00; Sunday: 06:00 to 10:00; Monday: 05:30 to 10:00; Tuesday: 05:30 to 10:00; Wednesday: 05:30 to 10:00,Amenities,0
Shallowford & Napier,11818-105040,2217 Hamilton Place Blvd,,Chattanooga,Tennessee,37421,US,423-553-6961,35.040321,-85.155778,Today: 05:00 to 11:00; Tomorrow: 05:00 to 11:30; Saturday: 05:30 to 11:30; Sunday: 05:30 to 10:00; Monday: 05:00 to 11:00; Tuesday: 05:00 to 11:00; Wednesday: 05:00 to 11:00,Amenities,0
Target Peachtree City T-2129,76595-95739,1209 Peachtree Pkwy N,,Peachtree City,Georgia,30290,US,770-282-2165,33.441149,-84.590649,Today: 08:00 to 09:00; Tomorrow: 08:00 to 09:00; Saturday: 08:00 to 09:00; Sunday: 08:00 to 08:00; Monday: 08:00 to 09:00; Tuesday: 08:00 to 09:00; Wednesday: 08:00 to 09:00,Amenities,0
Kroger-Peachtree City #422,72891-90748,1101 Peachtree Parkway,,Peachtree City,Georgia,30290,US,770-486-7200,33.44076,-84.588643,Today: 06:00 to 08:00; Tomorrow: 06:00 to 08:00; Saturday: 07:30 to 08:00; Sunday: 07:30 to 08:00; Monday: 06:00 to 08:00; Tuesday: 06:00 to 08:00; Wednesday: 06:00 to 08:00,Amenities,0
I-85 & Senoia Road,25215-229708,7920 Senoia Road,100,Fairburn,Georgia,30213,US,404-450-7266,33.538957,-84.575827,Today: 05:00 to 10:00; Tomorrow: 05:00 to 10:30; Saturday: 06:00 to 10:30; Sunday: 06:30 to 09:30; Monday: 05:00 to 10:00; Tuesday: 05:00 to 10:00; Wednesday: 05:00 to 10:00,Amenities,0
Hwy 54 & Broken Bow Ct,13369-106887,130 Peachtree East,Suite 200,,Georgia,30269,US,770-486-5447,33.422726,-84.557947,Today: 05:00 to 10:30; Tomorrow: 05:00 to 10:30; Saturday: 05:30 to 10:30; Sunday: 06:00 to 10:00; Monday: 05:00 to 10:30; Tuesday: 05:00 to 10:30; Wednesday: 05:00 to 10:30,Amenities,0
Kroger Peachtree City #388,26226-243764,564 Crosstown Drive,,Peachtree City,Georgia,30269,US,770-487-3602,33.376544,-84.56209,Today: 06:00 to 09:00; Tomorrow: 06:00 to 09:00; Saturday: 07:00 to 09:00; Sunday: 07:00 to 09:00; Monday: 06:00 to 09:00; Tuesday: 06:00 to 09:00; Wednesday: 06:00 to 09:00,Amenities,0
I-285 & Camp Creek Pkwy,14494-104451,3507 Camp Creek Parkway,Suite 20,East Point,Georgia,30344,US,404-346-7612,33.654433,-84.503222,Today: 05:00 to 10:30; Tomorrow: 05:00 to 11:30; Saturday: 05:30 to 11:30; Sunday: 06:00 to 10:30; Monday: 05:00 to 10:30; Tuesday: 05:00 to 10:30; Wednesday: 05:00 to 10:30,Amenities,0
Target East Point T-1546,17527-181565,3660 Marketplace Blvd,,East Point,Georgia,30272,US,404-267-0063,33.659046,-84.499494,Today: 08:00 to 09:00; Tomorrow: 08:00 to 09:00; Saturday: 08:00 to 09:00; Sunday: 08:00 to 09:00; Monday: 08:00 to 09:00; Tuesday: 08:00 to 09:00; Wednesday: 08:00 to 09:00,Amenities,0
Hwy 153 at Hamill Rd,9892-97271,5238 Highway 153,,Chattanooga,Tennessee,37415,US,423 875-8313,35.124929,-85.240122,Today: 05:00 to 10:30; Tomorrow: 05:00 to 11:00; Saturday: 05:30 to 11:00; Sunday: 06:00 to 10:30; Monday: 05:00 to 10:30; Tuesday: 05:00 to 10:30; Wednesday: 05:00 to 10:30,Amenities,0
Target Hixon/Chattanooga T-2053,76462-90903,5579 Hwy 153,,Chattanooga,Tennessee,37343,US,423-870-4768,35.14815,-85.250384,Today: 08:00 to 09:00; Tomorrow: 08:00 to 09:00; Saturday: 08:00 to 10:00; Sunday: 08:00 to 09:00; Monday: 08:00 to 09:00; Tuesday: 08:00 to 09:00; Wednesday: 08:00 to 09:00,Amenities,0
I-24 & Hillsboro Hwy,10574-101089,84 Campground,,Manchester,Tennessee,37355,US,9317287051,35.457373,-86.049141,Today: 05:00 to 10:00; Tomorrow: 05:00 to 10:30; Saturday: 05:30 to 10:30; Sunday: 05:30 to 10:00; Monday: 05:00 to 10:00; Tuesday: 05:00 to 10:00; Wednesday: 05:00 to 10:00,Amenities,0
Ingles Chatsworth 86,51704-278726,962 GI Maddox Pkwy.,,,Georgia,30705,US,7066955705,34.782735,-84.791968,Today: 06:00 to 09:00; Tomorrow: 06:00 to 09:00; Saturday: 06:00 to 09:00; Sunday: 07:00 to 09:00; Monday: 06:00 to 09:00; Tuesday: 06:00 to 09:00; Wednesday: 06:00 to 09:00,Amenities,0
Target Destin T-2085,76435-95413,853 Harbor Blvd,,Destin,Florida,32541,US,850-650-7525,30.389387,-86.48185,Today: 07:00 to 09:00; Tomorrow: 07:00 to 09:00; Saturday: 08:00 to 09:00; Sunday: 08:00 to 09:00; Monday: 07:00 to 09:00; Tuesday: 07:00 to 09:00; Wednesday: 07:00 to 09:00,Amenities,0
Beal Pkwy at Mary Esther,9906-96348,575 North Beal Parkway,,,Florida,32548,US,850-863-7827,30.429833,-86.638848,Today: 05:00 to 10:00; Tomorrow: 05:00 to 10:30; Saturday: 05:30 to 10:30; Sunday: 05:30 to 09:00; Monday: 05:00 to 10:00; Tuesday: 05:00 to 10:00; Wednesday: 05:00 to 10:00,Amenities,0
Silvers Sands Outlet Mall & Hwy 98,11250-103920,10410 US Hwy 98 West,,,Florida,32550,US,850-650-2340,30.377419,-86.349045,Today: 05:00 to 10:00; Tomorrow: 05:00 to 10:00; Saturday: 05:30 to 10:00; Sunday: 05:30 to 09:00; Monday: 05:00 to 10:00; Tuesday: 05:00 to 10:00; Wednesday: 05:00 to 10:00,Amenities,0
Eglin Pkwy & Walter Martin,10589-101445,95 Eglin Parkway NE,,Fort Walton Beach,Florida,32548,US,850-243-2107,30.417564,-86.607782,Today: 05:00 to 10:30; Tomorrow: 05:00 to 10:30; Saturday: 05:30 to 10:30; Sunday: 05:30 to 10:00; Monday: 05:00 to 10:30; Tuesday: 05:00 to 10:30; Wednesday: 05:00 to 10:30,Amenities,0
Mary Esther Blvd & Hollywood,10503-99771,340 Mary Esther Blvd,,,Florida,32569,US,850-243-2197,30.417418,-86.653998,Today: 05:00 to 10:30; Tomorrow: 05:00 to 11:00; Saturday: 06:00 to 11:00; Sunday: 06:00 to 10:00; Monday: 05:00 to 10:30; Tuesday: 05:00 to 10:30; Wednesday: 05:00 to 10:30,Amenities,0
Target Mary Esther T-740,76540-99838,250 Miracle Strip Pkwy,,,Florida,32569,US,850-243-4188,30.4119,-86.718895,Today: 08:00 to 09:00; Tomorrow: 08:00 to 09:00; Saturday: 08:00 to 09:00; Sunday: 08:00 to 08:00; Monday: 08:00 to 09:00; Tuesday: 08:00 to 09:00; Wednesday: 08:00 to 09:00,Amenities,0
Cascade Road,8291-4172,3660 Cascade Road SW,,,Georgia,30331,US,4046991093,33.722762,-84.507068,Today: 06:00 to 10:00; Tomorrow: 06:00 to 10:30; Saturday: 06:30 to 10:30; Sunday: 07:00 to 10:00; Monday: 06:00 to 10:00; Tuesday: 06:00 to 10:00; Wednesday: 06:00 to 10:00,Amenities,0
Safeway-Kodiak #1090,74474-94708,2685 Mill Bay Rd,,Kodiak,Alaska,99615,US,907-481-1500,57.810493,-152.367255,Today: 06:00 to 07:00; Tomorrow: 06:00 to 07:00; Saturday: 06:00 to 07:00; Sunday: 06:00 to 07:00; Monday: 06:00 to 07:00; Tuesday: 06:00 to 07:00; Wednesday: 06:00 to 07:00,Amenities,0
Safeway-Anchorage #1817,74266-52019,7731 E Northern Lights Blvd,,,Alaska,99504,US,907-331-1700,61.195401,-149.737236,Today: 06:00 to 07:30; Tomorrow: 06:00 to 07:30; Saturday: 06:00 to 07:30; Sunday: 06:00 to 07:30; Monday: 06:00 to 07:30; Tuesday: 06:00 to 07:30; Wednesday: 06:00 to 07:30,Amenities,0
Fred Meyer-Anchorage East #18,20349-108249,7701 Debarr Road,,,Alaska,99504,US,907-269-1700,61.211128,-149.736846,Today: 06:00 to 07:00; Tomorrow: 06:00 to 07:00; Saturday: 06:00 to 07:00; Sunday: 06:00 to 07:00; Monday: 06:00 to 07:00; Tuesday: 06:00 to 07:00; Wednesday: 06:00 to 07:00,Amenities,0
Safeway-Homer #1832,74917-98110,90 Sterling Hwy,,Homer,Alaska,99603,US,,59.642343,-151.536481,Today: 06:00 to 07:00; Tomorrow: 06:00 to 07:00; Saturday: 06:00 to 07:00; Sunday: 06:00 to 07:00; Monday: 06:00 to 07:00; Tuesday: 06:00 to 07:00; Wednesday: 06:00 to 07:00,Amenities,0
Tikahtnu Commons - Anchorage,17941-159568,1142 N. Muldoon Road,110,,Alaska,99504,US,907-338-1035,61.228718,-149.742496,Today: 05:00 to 09:00; Tomorrow: 05:00 to 10:00; Saturday: 05:30 to 10:00; Sunday: 05:30 to 09:00; Monday: 05:00 to 09:00; Tuesday: 05:00 to 09:00; Wednesday: 05:00 to 09:00,Amenities,0
Safeway-North Pole #1821,25843-94709,301 N Santa Claus Lane,,North Pole,Alaska,99705,US,907-490-2700,64.757555,-147.353936,Today: 05:30 to 08:00; Tomorrow: 05:30 to 08:00; Saturday: 05:30 to 08:00; Sunday: 05:30 to 08:00; Monday: 05:30 to 08:00; Tuesday: 05:30 to 08:00; Wednesday: 05:30 to 08:00,Amenities,0
Safeway-Seward #2728,74706-97007,1907 Seward Hwy,,Seward,Alaska,99664,US,,60.128956,-149.43355,Today: 06:00 to 06:00; Tomorrow: 06:00 to 06:00; Saturday: 06:00 to 06:00; Sunday: 06:00 to 06:00; Monday: 06:00 to 06:00; Tuesday: 06:00 to 06:00; Wednesday: 06:00 to 06:00,Amenities,0
"ANC Anchorage S Dom, Term, Conc C",75697-94324,5000 W Intl Airport Rd,,Anchorage,Alaska,99502,US,,61.174354,-149.983001,Today: 12:00 to 12:00; Tomorrow: 12:00 to 12:00; Saturday: 12:00 to 12:00; Sunday: 12:00 to 12:00; Monday: 12:00 to 12:00; Tuesday: 12:00 to 12:00; Wednesday: 12:00 to 12:00,Amenities,0
Target Anchorage NE T-2371,76943-129964,1200 N Muldoon Rd,Suite F,,Alaska,99504,US,,61.231143,-149.741517,Today: 08:00 to 10:00; Tomorrow: 08:00 to 10:00; Saturday: 08:00 to 10:00; Sunday: 08:00 to 10:00; Monday: 08:00 to 10:00; Tuesday: 08:00 to 10:00; Wednesday: 08:00 to 10:00,Amenities,0
Fort Wainwright,70386-135644,Bldg # 3703B,,Fort Wainright,Alaska,99703,US,,64.831479,-147.652518,Today: 06:00 to 07:30; Tomorrow: 06:00 to 07:30; Saturday: 08:00 to 07:30; Sunday: 10:00 to 05:00; Monday: 06:00 to 07:30; Tuesday: 06:00 to 07:30; Wednesday: 06:00 to 07:30,Amenities,0
ANC Main Terminal Ticketing,75988-107245,"HMSHost, 500 West International Airport",,Anchorage,Alaska,99502,US,,61.17558,-149.980399,Today: 12:00 to 12:00; Tomorrow: 12:00 to 12:00; Saturday: 12:00 to 12:00; Sunday: 12:00 to 12:00; Monday: 12:00 to 12:00; Tuesday: 12:00 to 12:00; Wednesday: 12:00 to 12:00,Amenities,0
Fort Richardson Frontier Theater,75471-106357,"Frontier Theater, Building 2",,Fort Richardson,Alaska,99505,US,(907) 428-1173,61.2621,-149.6772,Today: 06:00 to 04:30; Tomorrow: 06:00 to 04:30; Saturday: Closed; Sunday: Closed; Monday: 06:00 to 04:30; Tuesday: 06:00 to 04:30; Wednesday: 06:00 to 04:30,Amenities,0
Fred Meyer - Fairbanks #224,72975-95761,930 Old Steese Hwy,A,Fort Wainright,Alaska,99701,US,907-459-4629,64.854451,-147.690057,Today: 07:00 to 09:00; Tomorrow: 07:00 to 09:00; Saturday: 07:00 to 09:00; Sunday: 07:00 to 09:00; Monday: 07:00 to 09:00; Tuesday: 07:00 to 09:00; Wednesday: 07:00 to 09:00,Amenities,0
Safeway-Anchorage #1812,79664-81037,4000 W Dimond Blvd,,Anchorage,Alaska,99502,US,,61.137251,-149.956031,Today: 05:30 to 07:00; Tomorrow: 05:30 to 07:00; Saturday: 06:00 to 07:00; Sunday: 06:00 to 07:00; Monday: 05:30 to 07:00; Tuesday: 05:30 to 07:00; Wednesday: 05:30 to 07:00,Amenities,0
Safeway-Anchorage #1809,3513-125945,5600 Debarr Rd Ste 9,,,Alaska,99504,US,907-339-0900,61.208839,-149.778077,Today: 06:00 to 07:30; Tomorrow: 06:00 to 07:30; Saturday: 06:00 to 07:30; Sunday: 06:00 to 07:30; Monday: 06:00 to 07:30; Tuesday: 06:00 to 07:30; Wednesday: 06:00 to 07:30,Amenities,0
Safeway - Wasilla #1811,4146-104969,595 E Parks Hwy,,Wasilla,Alaska,99654,US,907-352-1100,61.58106,-149.43562,Today: 06:00 to 08:00; Tomorrow: 06:00 to 08:00; Saturday: 06:00 to 08:00; Sunday: 06:00 to 08:00; Monday: 06:00 to 08:00; Tuesday: 06:00 to 08:00; Wednesday: 06:00 to 08:00,Amenities,0
Safeway-Fairbanks #3410,74452-94707,30 College Rd,,Fort Wainright,Alaska,99701,US,907-374-4100,64.851434,-147.700123,Today: 06:00 to 08:00; Tomorrow: 06:00 to 08:00; Saturday: 06:00 to 08:00; Sunday: 06:00 to 08:00; Monday: 06:00 to 08:00; Tuesday: 06:00 to 08:00; Wednesday: 06:00 to 08:00,Amenities,0
ANC - Baggage Claim,28028-249124,5000 West International Rd,,Anchorage,Alaska,99502,US,907-248-1801,61.150167,-149.951191,Today: 05:00 to 02:00; Tomorrow: 05:00 to 02:00; Saturday: 05:00 to 02:00; Sunday: 05:00 to 02:00; Monday: 05:00 to 02:00; Tuesday: 05:00 to 02:00; Wednesday: 05:00 to 02:00,Amenities,0
Elmendorf AFB,75323-100264,Bldg 5800 Westover Avenue,,,Alaska,99506,US,907-753-4420,61.2272,-149.7534,Today: 07:00 to 07:30; Tomorrow: 07:00 to 07:30; Saturday: 07:00 to 07:30; Sunday: 07:00 to 07:30; Monday: 07:00 to 07:30; Tuesday: 07:00 to 07:30; Wednesday: 07:00 to 07:30,Amenities,0
Fred Meyer - Wasilla #653,72773-82040,1501 East Parks Highway,,Wasilla,Alaska,99654,US,907-352-5000,61.579469,-149.408955,Today: 07:00 to 09:00; Tomorrow: 07:00 to 09:00; Saturday: 07:00 to 09:00; Sunday: 07:00 to 09:00; Monday: 07:00 to 09:00; Tuesday: 07:00 to 09:00; Wednesday: 07:00 to 09:00,Amenities,0
Safeway - Fairbanks #2754,79719-100712,3627 Airport Way (405R),,Fort Wainright,Alaska,99701,US,907-374-4000,64.835473,-147.808659,Today: 05:30 to 07:00; Tomorrow: 05:30 to 07:00; Saturday: 05:30 to 07:00; Sunday: 05:30 to 07:00; Monday: 05:30 to 07:00; Tuesday: 05:30 to 07:00; Wednesday: 05:30 to 07:00,Amenities,0
Fred Meyer - Anchorage (Dimond) #71,72784-33081,2000 W Dimond Blvd,,Anchorage,Alaska,99502,US,907-267-6700,61.136188,-149.919695,Today: 07:00 to 09:00; Tomorrow: 07:00 to 09:00; Saturday: 07:00 to 09:00; Sunday: 07:00 to 09:00; Monday: 07:00 to 09:00; Tuesday: 07:00 to 09:00; Wednesday: 07:00 to 09:00,Amenities,0
Fred Meyer - Anchorage #656,72727-61659,2300 Abbott Road,,Anchorage,Alaska,99507,US,907-365-2000,61.136019,-149.838012,Today: 07:00 to 09:00; Tomorrow: 07:00 to 09:00; Saturday: 07:00 to 09:00; Sunday: 07:00 to 09:00; Monday: 07:00 to 09:00; Tuesday: 07:00 to 09:00; Wednesday: 07:00 to 09:00,Amenities,0
Parks Hwy & Palmer Wasilla Hwy,17912-136436,1771 East Parks Hwy,Unit #4,Wasilla,Alaska,99654,US,907-376-6055,61.576466,-149.40542,Today: 05:00 to 09:00; Tomorrow: 05:00 to 09:00; Saturday: 06:00 to 09:00; Sunday: 06:00 to 09:00; Monday: 05:00 to 09:00; Tuesday: 05:00 to 09:00; Wednesday: 05:00 to 09:00,Amenities,0
Fred Meyer-Fairbanks #485,72709-33079,3755 Airport Way,,,Alaska,99709,US,907-474-1403,64.835542,-147.818177,Today: 07:00 to 09:00; Tomorrow: 07:00 to 09:00; Saturday: 07:00 to 09:00; Sunday: 07:00 to 09:00; Monday: 07:00 to 09:00; Tuesday: 07:00 to 09:00; Wednesday: 07:00 to 09:00,Amenities,0
Carrs-Anchorage #1805,74430-51979,1650 W Northern Lights Blvd,,Anchorage,Alaska,99517,US,907-339-0500,61.194274,-149.915872,Today: 05:30 to 08:00; Tomorrow: 05:30 to 08:00; Saturday: 05:30 to 08:00; Sunday: 05:30 to 08:00; Monday: 05:30 to 08:00; Tuesday: 05:30 to 08:00; Wednesday: 05:30 to 08:00,Amenities,0
Safeway-Anchorage #2628,74352-84449,1725 Abbott Rd,,Anchorage,Alaska,99507,US,907-339-2800,61.142214,-149.844636,Today: 06:00 to 07:00; Tomorrow: 06:00 to 07:00; Saturday: 06:00 to 07:00; Sunday: 06:00 to 07:00; Monday: 06:00 to 07:00; Tuesday: 06:00 to 07:00; Wednesday: 06:00 to 07:00,Amenities,0
Target Wasilla T-2339,76916-131305,1801 E Parks Hwy,,Wasilla,Alaska,99654,US,907-631-7200,61.577923,-149.402975,Today: 08:00 to 09:00; Tomorrow: 08:00 to 09:00; Saturday: 08:00 to 09:00; Sunday: 08:00 to 08:00; Monday: 08:00 to 09:00; Tuesday: 08:00 to 09:00; Wednesday: 08:00 to 09:00,Amenities,0
FAI - Main Terminal,27150-246609,6450 Airport Way,,,Alaska,99709,US,907-457-1801,64.818117,-147.867497,Today: 04:30 to 10:30; Tomorrow: 04:30 to 10:30; Saturday: 04:30 to 10:30; Sunday: 04:30 to 10:30; Monday: 04:30 to 10:30; Tuesday: 04:30 to 10:30; Wednesday: 04:30 to 10:30,Amenities,0
5th Avenue Mall - Level 2,19819-178265,320 West 5th Avenue,224,Anchorage,Alaska,99501,US,9072782251,61.217106,-149.888105,Today: 07:30 to 09:00; Tomorrow: 07:30 to 09:00; Saturday: 07:30 to 09:00; Sunday: 09:30 to 06:00; Monday: 07:30 to 09:00; Tuesday: 07:30 to 09:00; Wednesday: 07:30 to 09:00,Amenities,0
Safeway - Anchorage #1813,12449-152385,1501 Huffman Rd,,Anchorage,Alaska,99515,US,907-339-1300,61.10862,-149.854519,Today: 06:00 to 07:30; Tomorrow: 06:00 to 07:30; Saturday: 06:00 to 07:30; Sunday: 06:00 to 07:30; Monday: 06:00 to 07:30; Tuesday: 06:00 to 07:30; Wednesday: 06:00 to 07:30,Amenities,0
Fred Meyer-Eagle River #668,72772-78880,13401 Old Glenn Hwy,,Eagle River,Alaska,99577,US,,61.34592,-149.55249,Today: 07:00 to 09:00; Tomorrow: 07:00 to 09:00; Saturday: 07:00 to 09:00; Sunday: 07:00 to 09:00; Monday: 07:00 to 09:00; Tuesday: 07:00 to 09:00; Wednesday: 07:00 to 09:00,Amenities,0
Tudor Rd and C Street,11426-99254,110 W. Tudor Rd,E,Anchorage,Alaska,99503,US,907-561-3141,61.180256,-149.883519,Today: 04:30 to 09:00; Tomorrow: 04:30 to 09:00; Saturday: 06:00 to 08:30; Sunday: 06:00 to 08:30; Monday: 04:30 to 09:00; Tuesday: 04:30 to 09:00; Wednesday: 04:30 to 09:00,Amenities,0
Tudor & Lake Otis- Anchorage,9622-85633,2421 East Tudor Road,Suite 8,Anchorage,Alaska,99507,US,907-561-1644,61.181266,-149.835734,Today: 05:00 to 09:00; Tomorrow: 05:00 to 09:00; Saturday: 06:00 to 08:00; Sunday: 06:00 to 08:00; Monday: 05:00 to 09:00; Tuesday: 05:00 to 09:00; Wednesday: 05:00 to 09:00,Amenities,0
Safeway-Palmer #1739,15313-159926,664 W Evergreen Ave,,Palmer,Alaska,99645,US,907-761-1400,61.598008,-149.126866,Today: 05:00 to 07:00; Tomorrow: 05:00 to 07:00; Saturday: 05:00 to 07:00; Sunday: 05:00 to 07:00; Monday: 05:00 to 07:00; Tuesday: 05:00 to 07:00; Wednesday: 05:00 to 07:00,Amenities,0
Eagle River,10126-97747,16707 Coronado Road,100,Eagle River,Alaska,99577,US,907-696-6055,61.325462,-149.570782,Today: 05:00 to 09:00; Tomorrow: 05:00 to 09:00; Saturday: 05:30 to 09:00; Sunday: 05:30 to 09:00; Monday: 05:00 to 09:00; Tuesday: 05:00 to 09:00; Wednesday: 05:00 to 09:00,Amenities,0
100th & C St - Anchorage,24936-233524,320 W. 100th Ave,100,Anchorage,Alaska,99515,US,(907) 227-9631,61.128204,-149.885022,Today: 05:00 to 08:00; Tomorrow: 05:00 to 08:00; Saturday: 06:00 to 08:00; Sunday: 06:00 to 07:30; Monday: 05:00 to 08:00; Tuesday: 05:00 to 08:00; Wednesday: 05:00 to 08:00,Amenities,0
Old Seward & Diamond,8973-85630,1005 E Dimond Blvd,,Anchorage,Alaska,99515,US,907-344-4160,61.144874,-149.86312,Today: 05:00 to 10:00; Tomorrow: 05:00 to 10:00; Saturday: 06:00 to 09:00; Sunday: 06:00 to 09:00; Monday: 05:00 to 10:00; Tuesday: 05:00 to 10:00; Wednesday: 05:00 to 10:00,Amenities,0
Safeway-Eagle River #1807,74265-64199,11409 Business Blvd,,Eagle River,Alaska,99577,US,907-696-6400,61.323613,-149.571479,Today: 06:00 to 07:00; Tomorrow: 06:00 to 07:00; Saturday: 06:00 to 07:00; Sunday: 06:00 to 07:00; Monday: 06:00 to 07:00; Tuesday: 06:00 to 07:00; Wednesday: 06:00 to 07:00,Amenities,0
Safeway - Anchorage #520,79549-106150,3101 PENLAND PKWY.,,Anchorage,Alaska,99501,US,907-339-5200,61.216416,-149.820857,Today: 06:00 to 08:00; Tomorrow: 06:00 to 08:00; Saturday: 06:00 to 08:00; Sunday: 06:00 to 08:00; Monday: 06:00 to 08:00; Tuesday: 06:00 to 08:00; Wednesday: 06:00 to 08:00,Amenities,0
Target Anchorage South T-2372,3774-145044,150 W 100th Ave Suite A,,Anchorage,Alaska,99515,US,907-267-7500,61.12948,-149.880492,Today: 06:30 to 09:00; Tomorrow: 08:00 to 09:00; Saturday: 06:30 to 09:00; Sunday: 06:30 to 09:00; Monday: 06:30 to 09:00; Tuesday: 06:30 to 09:00; Wednesday: 06:30 to 09:00,Amenities,0
Fred Meyer - Anchorage #11,72788-84447,1000 E Northern Lights Blvd,,Anchorage,Alaska,99504,US,907-264-9600,61.194269,-149.865203,Today: 07:00 to 09:00; Tomorrow: 07:00 to 09:00; Saturday: 07:00 to 09:00; Sunday: 07:00 to 09:00; Monday: 07:00 to 09:00; Tuesday: 07:00 to 09:00; Wednesday: 07:00 to 09:00,Amenities,0
Fred Meyer-Soldotna #17,72946-94692,43843 Sterling Hwy,,Soldotna,Alaska,99669,US,907-260-2200,60.48982,-151.049933,Today: 06:00 to 07:00; Tomorrow: 06:00 to 07:00; Saturday: 06:00 to 07:00; Sunday: 06:00 to 07:00; Monday: 06:00 to 07:00; Tuesday: 06:00 to 07:00; Wednesday: 06:00 to 07:00,Amenities,0
Safeway-Soldotna #548,74695-94706,44282 Sterling Hwy S,,Soldotna,Alaska,99669,US,907-714-5400,60.483985,-151.070792,Today: 06:00 to 07:00; Tomorrow: 06:00 to 07:00; Saturday: 06:00 to 07:00; Sunday: 06:00 to 07:00; Monday: 06:00 to 07:00; Tuesday: 06:00 to 07:00; Wednesday: 06:00 to 07:00,Amenities,0
Fred Meyer-Juneau #158,79324-94693,8181 Old Glacier Hwy,,,Alaska,99801,US,907-789-6500,58.359962,-134.561725,Today: 07:00 to 09:00; Tomorrow: 07:00 to 09:00; Saturday: 07:00 to 09:00; Sunday: 07:00 to 09:00; Monday: 07:00 to 09:00; Tuesday: 07:00 to 09:00; Wednesday: 07:00 to 09:00,Amenities,0
Safeway-Juneau #1820,74283-69901,303 Vintage Blvd,,,Alaska,99801,US,907-523-2000,58.359115,-134.548276,Today: 06:00 to 08:00; Tomorrow: 06:00 to 08:00; Saturday: 06:00 to 08:00; Sunday: 06:00 to 08:00; Monday: 06:00 to 08:00; Tuesday: 06:00 to 08:00; Wednesday: 06:00 to 08:00,Amenities,0
Carrs-Ketchikan #1818,74640-93401,2417 Tongass Ave,,Ketchikan,Alaska,99901,US,907-228-1900,55.349446,-131.673821,Today: 05:00 to 07:00; Tomorrow: 05:00 to 07:00; Saturday: 05:00 to 07:00; Sunday: 05:00 to 07:00; Monday: 05:00 to 07:00; Tuesday: 05:00 to 07:00; Wednesday: 05:00 to 07:00,Amenities,0
Safeway - Wickenburg #1584,74916-100980,1999 W Wickenburg Way,,Wickenburg,Arizona,85390,US,928-684-2999,33.96097,-112.770814,Today: 05:00 to 07:00; Tomorrow: 05:00 to 07:00; Saturday: 05:00 to 07:00; Sunday: 05:00 to 07:00; Monday: 05:00 to 07:00; Tuesday: 05:00 to 07:00; Wednesday: 05:00 to 07:00,Amenities,0
Safeway-Surprise #1997,74864-97730,17049 W Bell Rd,,Surprise,Arizona,85374,US,623-518-1059,33.637516,-112.425319,Today: 05:00 to 07:00; Tomorrow: 05:00 to 07:00; Saturday: 05:00 to 07:00; Sunday: 05:00 to 07:00; Monday: 05:00 to 07:00; Tuesday: 05:00 to 07:00; Wednesday: 05:00 to 07:00,Amenities,0
Fry's #689 Marana,73868-106710,12100 North Thorneydale Road,,,Arizona,85653,US,520-572-6040,32.4066,-111.296,Today: 05:00 to 08:00; Tomorrow: 05:00 to 08:00; Saturday: 05:00 to 08:00; Sunday: 05:00 to 08:00; Monday: 05:00 to 08:00; Tuesday: 05:00 to 08:00; Wednesday: 05:00 to 08:00,Amenities,0
Bashas Maricopa #109,72589-103446,21044 N John Wayne Parkway,,Maricopa,Arizona,85138,US,520-836-4400,33.070282,-112.046321,Today: 06:00 to 07:00; Tomorrow: 06:00 to 07:00; Saturday: 06:00 to 07:00; Sunday: 07:00 to 06:00; Monday: 06:00 to 07:00; Tuesday: 06:00 to 07:00; Wednesday: 06:00 to 07:00,Amenities,0
Fry's #680 Surprise,3199-106038,15215 N Cotton Lane,,Surprise,Arizona,85355,US,623-455-7900,33.622454,-112.426908,Today: 05:00 to 08:00; Tomorrow: 05:00 to 07:30; Saturday: 05:00 to 08:00; Sunday: 05:00 to 08:00; Monday: 05:00 to 08:00; Tuesday: 05:00 to 08:00; Wednesday: 05:00 to 08:00,Amenities,0
"Florence & Peart, Casa Grande",11217-103791,1485 E. Florence Blvd.,#6,Casa Grande,Arizona,85122,US,520-836-0351,32.879023,-111.723234,Today: 04:00 to 10:00; Tomorrow: 04:00 to 10:00; Saturday: 04:00 to 10:00; Sunday: 04:00 to 10:00; Monday: 04:00 to 10:00; Tuesday: 04:00 to 10:00; Wednesday: 04:00 to 10:00,Amenities,0
Smith Enke & SR 347,23560-206847,21423 N. John Wayne Pkwy,Suite 101,Maricopa,Arizona,85138,US,480-320-9248,33.0736,-112.042895,Today: 04:00 to 10:00; Tomorrow: 04:00 to 10:00; Saturday: 04:00 to 10:00; Sunday: 04:00 to 10:00; Monday: 04:00 to 10:00; Tuesday: 04:00 to 10:00; Wednesday: 04:00 to 10:00,Amenities,0
Safeway - Kingman 1887,20215-200588,3970 Stockton Hill Rd,,Kingman,Arizona,86409,US,928-681-4900,35.238344,-114.037655,Today: 05:00 to 08:00; Tomorrow: 05:00 to 08:00; Saturday: 05:00 to 08:00; Sunday: 05:00 to 08:00; Monday: 05:00 to 08:00; Tuesday: 05:00 to 08:00; Wednesday: 05:00 to 08:00,Amenities,0
Safeway - Parker #2075,74999-101170,121 W Riverside Rd,,,Arizona,85344,US,928-669-2243,34.154332,-114.279874,Today: 06:00 to 07:00; Tomorrow: 06:00 to 07:00; Saturday: 06:00 to 07:00; Sunday: 06:00 to 07:00; Monday: 06:00 to 07:00; Tuesday: 06:00 to 07:00; Wednesday: 06:00 to 07:00,Amenities,0
Sol Casino - Hotel,16501-160704,5655 W Valencia Rd,,,Arizona,85746,US,520-429-7579,32.133068,-111.085429,Today: 06:00 to 12:00; Tomorrow: 06:00 to 12:00; Saturday: 06:00 to 12:00; Sunday: 06:00 to 10:00; Monday: 06:00 to 10:00; Tuesday: 06:00 to 10:00; Wednesday: 06:00 to 10:00,Amenities,0
Safeway-Green Valley #2044,74403-83394,260 West Continental,,,Arizona,85622,US,520-625-7283,31.852207,-110.9988,Today: 05:00 to 08:00; Tomorrow: 05:00 to 08:00; Saturday: 05:00 to 08:00; Sunday: 05:00 to 08:00; Monday: 05:00 to 08:00; Tuesday: 05:00 to 08:00; Wednesday: 05:00 to 08:00,Amenities,0
Safeway-Casa Grande #1706,74398-83385,1637 N Trekel Rd,,Casa Grande,Arizona,85222,US,520-421-7447,32.895422,-111.741144,Today: 05:00 to 08:00; Tomorrow: 05:00 to 08:00; Saturday: 06:00 to 08:00; Sunday: 06:00 to 08:00; Monday: 05:00 to 08:00; Tuesday: 05:00 to 08:00; Wednesday: 05:00 to 08:00,Amenities,0
Safeway-Sahuarita #1771,74331-82241,1301 W Duval Mine Rd,,,Arizona,85614,US,520-648-2847,31.901216,-110.992601,Today: 05:00 to 08:00; Tomorrow: 05:00 to 08:00; Saturday: 05:00 to 08:00; Sunday: 05:00 to 08:00; Monday: 05:00 to 08:00; Tuesday: 05:00 to 08:00; Wednesday: 05:00 to 08:00,Amenities,0
Fry's #61 Surprise,73762-106026,15510 W. Bell Road,,Surprise,Arizona,85374,US,623-546-2522,33.639878,-112.395113,Today: 05:00 to 08:00; Tomorrow: 05:00 to 08:00; Saturday: 05:00 to 08:00; Sunday: 05:30 to 08:00; Monday: 05:00 to 08:00; Tuesday: 05:00 to 08:00; Wednesday: 05:00 to 08:00,Amenities,0
Fry's #669 Casa Grande,73946-106028,2858 North Pinal Avenue,,Casa Grande,Arizona,85222,US,520-426-4700,32.92876,-111.756753,Today: 05:00 to 08:00; Tomorrow: 05:00 to 08:00; Saturday: 05:00 to 08:00; Sunday: 05:00 to 08:00; Monday: 05:00 to 08:00; Tuesday: 05:00 to 08:00; Wednesday: 05:00 to 08:00,Amenities,0
Frys-Maricopa #672,21997-97584,20797 N John Wayne Pkwy,,,Arizona,85329,US,520-568-6200,33.072004,-112.202112,Today: 05:00 to 08:00; Tomorrow: 05:00 to 08:00; Saturday: 05:00 to 08:00; Sunday: 05:00 to 08:00; Monday: 05:00 to 08:00; Tuesday: 05:00 to 08:00; Wednesday: 05:00 to 08:00,Amenities,0
"Stockton Hill & Kino, Kingman",11218-102230,3765 Stockton Hill Road,,Kingman,Arizona,86401,US,928-757-5056,35.232506,-114.03761,Today: 04:30 to 10:30; Tomorrow: 04:30 to 10:30; Saturday: 05:00 to 10:30; Sunday: 05:00 to 10:30; Monday: 04:30 to 10:30; Tuesday: 04:30 to 10:30; Wednesday: 04:30 to 10:30,Amenities,0
Bashas' Lake Havasu #116,73707-106060,"3269 Maricopa Ave, Suite 120",,Lake Havasu City,Arizona,86406,US,928-854-9550,34.458077,-114.278313,Today: 06:00 to 07:00; Tomorrow: 06:00 to 07:00; Saturday: 06:00 to 07:00; Sunday: 06:00 to 07:00; Monday: 06:00 to 07:00; Tuesday: 06:00 to 07:00; Wednesday: 06:00 to 07:00,Amenities,0
Fry's #679 Suahrita,73867-106707,15950 South Rancho Sahuarita,,Sahuarita,Arizona,85629,US,520-648-7700,31.960369,-110.986286,Today: 05:00 to 08:00; Tomorrow: 05:00 to 08:00; Saturday: 05:00 to 08:00; Sunday: 05:00 to 08:00; Monday: 05:00 to 08:00; Tuesday: 05:00 to 08:00; Wednesday: 05:00 to 08:00,Amenities,0
"Mariposa Rd & 1-19, Nogales",25578-240453,330 W Mariposa Road,,Nogales,Arizona,85621,US,520-860-0786,31.367336,-110.936896,Today: 05:00 to 11:00; Tomorrow: 05:00 to 11:00; Saturday: 05:00 to 11:00; Sunday: 05:00 to 11:00; Monday: 05:00 to 11:00; Tuesday: 05:00 to 11:00; Wednesday: 05:00 to 11:00,Amenities,0
Fry's Tucson #83,49733-245843,Valencia & Indian Agency,,,Arizona,85746,US,5203487125,32.137583,-111.025768,Today: 05:00 to 08:00; Tomorrow: 05:00 to 08:00; Saturday: 05:00 to 08:00; Sunday: 05:00 to 08:00; Monday: 05:00 to 08:00; Tuesday: 05:00 to 08:00; Wednesday: 05:00 to 08:00,Amenities,0
"Bell & Brookside, Surprise",11219-104336,15332 W. Bell Road,#135,Surprise,Arizona,85374,US,623-584-6593,33.639046,-112.390835,Today: 05:00 to 08:00; Tomorrow: 05:00 to 08:00; Saturday: 05:30 to 08:00; Sunday: 06:00 to 08:00; Monday: 05:00 to 08:00; Tuesday: 05:00 to 08:00; Wednesday: 05:00 to 08:00,Amenities,0
Fry's #78 Anthem,21989-106025,39508 N. Daisy Mountain Drive,,,Arizona,85086,US,623-551-7220,33.844465,-112.133749,Today: 05:00 to 08:00; Tomorrow: 05:00 to 08:00; Saturday: 05:00 to 08:00; Sunday: 05:00 to 08:00; Monday: 05:00 to 08:00; Tuesday: 05:00 to 08:00; Wednesday: 05:00 to 08:00,Amenities,0
"Fry's-Apache Junction, AZ #65",3765-148824,185 W Apache Tr,,Apache Junction,Arizona,85120,US,480-288-2140,33.412183,-111.549339,Today: 05:00 to 09:00; Tomorrow: 05:00 to 09:00; Saturday: 05:00 to 09:00; Sunday: 05:00 to 09:00; Monday: 05:00 to 08:00; Tuesday: 05:00 to 09:00; Wednesday: 05:00 to 09:00,Amenities,0
Safeway - Nogales #1229,79669-113973,465 W Mariposa Rd,,Nogales,Arizona,85621,US,520-481-4929,31.365947,-110.940959,Today: 05:00 to 08:00; Tomorrow: 05:00 to 08:00; Saturday: 05:00 to 08:00; Sunday: 05:00 to 08:00; Monday: 05:00 to 08:00; Tuesday: 05:00 to 08:00; Wednesday: 05:00 to 08:00,Amenities,0
Safeway - Tucson #267,74922-101015,2940 W Valencia Rd,,,Arizona,85746,US,520-578-0144,32.133793,-111.008696,Today: 06:00 to 08:30; Tomorrow: 06:00 to 08:30; Saturday: 06:00 to 08:30; Sunday: 06:00 to 08:30; Monday: 06:00 to 08:30; Tuesday: 06:00 to 08:30; Wednesday: 06:00 to 08:30,Amenities,0
Safeway-Coolidge #1732,70318-136608,1449 N Arizona Blvd,,Coolidge,Arizona,85228,US,,32.993976,-111.522292,Today: 06:00 to 08:00; Tomorrow: 06:00 to 08:00; Saturday: 06:00 to 08:00; Sunday: 06:00 to 08:00; Monday: 06:00 to 08:00; Tuesday: 06:00 to 08:00; Wednesday: 06:00 to 08:00,Amenities,0
Safeway - Fort Mohave #1474,74975-101172,4823 S Hwy 95,,,Arizona,86427,US,928-704-4433,35.017027,-114.599123,Today: 05:00 to 08:00; Tomorrow: 05:00 to 08:00; Saturday: 05:00 to 08:00; Sunday: 05:00 to 08:00; Monday: 05:00 to 08:00; Tuesday: 05:00 to 08:00; Wednesday: 05:00 to 08:00,Amenities,0
Frys-Buckeye #675,21316-211384,1300 S. Watson Rd.,,Buckeye,Arizona,85396,US,623-691-6600,33.434164,-112.558253,Today: 05:00 to 08:00; Tomorrow: 05:00 to 08:00; Saturday: 05:00 to 08:00; Sunday: 05:00 to 08:00; Monday: 05:00 to 08:00; Tuesday: 05:00 to 08:00; Wednesday: 05:00 to 08:00,Amenities,0
Safeway - Williams #1639,79522-101000,637 W Route 66,,Williams,Arizona,86046,US,928-635-0500,35.24876,-112.19318,Today: 05:30 to 07:30; Tomorrow: 05:30 to 07:30; Saturday: 05:30 to 07:30; Sunday: 05:30 to 07:30; Monday: 05:30 to 07:30; Tuesday: 05:30 to 07:30; Wednesday: 05:30 to 07:30,Amenities,0
Safeway-Chandler #1566,74493-96793,4970 S Alma School Rd,,Chandler,Arizona,85248,US,480-883-0255,33.233717,-111.859845,Today: 05:00 to 08:00; Tomorrow: 05:00 to 08:00; Saturday: 05:00 to 08:00; Sunday: 05:00 to 08:00; Monday: 05:00 to 08:00; Tuesday: 05:00 to 08:00; Wednesday: 05:00 to 08:00,Amenities,0
Safeway - Kingman #2017,79580-105116,3125 Stockton Hill Rd,,Kingman,Arizona,86401,US,928-753-2943,35.214819,-114.036388,Today: 05:00 to 08:00; Tomorrow: 05:00 to 08:00; Saturday: 05:00 to 08:00; Sunday: 05:00 to 08:00; Monday: 05:00 to 08:00; Tuesday: 05:00 to 08:00; Wednesday: 05:00 to 08:00,Amenities,0
Smiths - Lake Havasu #188,21400-212347,80 Acoma Blvd N,,Lake Havasu City,Arizona,86403,US,928-680-7277,34.477297,-114.324594,Today: 05:00 to 08:00; Tomorrow: 05:00 to 08:00; Saturday: 05:00 to 08:00; Sunday: 05:00 to 08:00; Monday: 05:00 to 08:00; Tuesday: 05:00 to 08:00; Wednesday: 05:00 to 08:00,Amenities,0
Starr Pass Marriott Resort & Spa,75733-95241,3800 W Starr Pass Blvd,,Tucson,Arizona,85745,US,520-792-3500,32.214697,-111.046269,Today: 05:00 to 05:00; Tomorrow: 05:00 to 05:00; Saturday: 05:00 to 05:00; Sunday: 05:00 to 05:00; Monday: 05:00 to 05:00; Tuesday: 05:00 to 05:00; Wednesday: 05:00 to 05:00,Amenities,0
Safeway-Marana #1749,74379-83392,9100 North Silver Bell,,Marana,Arizona,85743,US,520-579-8365,32.372705,-111.136807,Today: 06:00 to 07:30; Tomorrow: 06:00 to 07:30; Saturday: 06:00 to 07:30; Sunday: 06:00 to 07:30; Monday: 06:00 to 07:30; Tuesday: 06:00 to 07:30; Wednesday: 06:00 to 07:30,Amenities,0
"Grand & Reems, Surprise",11326-103704,18885 Reems Road,#105,Surprise,Arizona,85374,US,623-584-5015,33.655788,-112.374097,Today: 04:00 to 09:00; Tomorrow: 04:00 to 09:30; Saturday: 04:00 to 09:30; Sunday: 04:00 to 09:30; Monday: 04:00 to 09:00; Tuesday: 04:00 to 09:00; Wednesday: 04:00 to 09:00,Amenities,0
Daisy Mountain & Gavilan Peak,14177-106635,39504 N. Daisy Mountain Drive,#118,,Arizona,85086,US,623-551-0977,33.843337,-112.134407,Today: 05:00 to 08:00; Tomorrow: 05:00 to 09:00; Saturday: 05:00 to 09:00; Sunday: 05:00 to 08:00; Monday: 05:00 to 08:00; Tuesday: 05:00 to 08:00; Wednesday: 05:00 to 08:00,Amenities,0
Apache Trail & Delaware,9862-97880,2580 W. Apache Trail,,Apache Junction,Arizona,85120,US,480-982-2346,33.415955,-111.574131,Today: 04:30 to 09:00; Tomorrow: 04:30 to 10:00; Saturday: 04:30 to 10:00; Sunday: 05:30 to 09:00; Monday: 04:30 to 09:00; Tuesday: 04:30 to 09:00; Wednesday: 04:30 to 09:00,Amenities,0
Target Tuscon T-1316,25206-237608,1225 W Irvington Road,,Tucson,Arizona,85713,US,520-295-1277,32.161572,-110.99051,Today: 08:00 to 09:00; Tomorrow: 08:00 to 09:00; Saturday: 08:00 to 09:00; Sunday: 08:00 to 09:00; Monday: 08:00 to 09:00; Tuesday: 08:00 to 09:00; Wednesday: 08:00 to 09:00,Amenities,0
"Irvington & I-19, Tucson",8783-93239,1209 W. Irvington Road,#150,Tucson,Arizona,85714,US,520-295-3920,32.16245,-110.990087,Today: 04:00 to 12:00; Tomorrow: 04:00 to 12:00; Saturday: 04:00 to 12:00; Sunday: 05:00 to 11:00; Monday: 04:00 to 12:00; Tuesday: 04:00 to 12:00; Wednesday: 04:00 to 12:00,Amenities,0
Safeway - Florence #2835,79659-107241,3325 North Hunt Highway,,Florence,Arizona,85242,US,520-723-0179,33.062007,-111.485843,Today: 06:00 to 09:00; Tomorrow: 06:00 to 09:00; Saturday: 06:00 to 09:00; Sunday: 06:00 to 08:00; Monday: 06:00 to 09:00; Tuesday: 06:00 to 09:00; Wednesday: 06:00 to 09:00,Amenities,0
Smiths Fort Mohave #473,25967-242726,4747 Highway 95,,Bullhead City,Arizona,86426,US,9283303700,35.018751,-114.598024,Today: 05:00 to 08:00; Tomorrow: 05:00 to 08:00; Saturday: 05:00 to 08:00; Sunday: 05:00 to 08:00; Monday: 05:00 to 08:00; Tuesday: 05:00 to 08:00; Wednesday: 05:00 to 08:00,Amenities,0
Safeway-Goodyear/Estrella #3151,12930-155424,9890 S Estrella Pkwy,,Goodyear,Arizona,85338,US,623-691-6147,33.357624,-112.42498,Today: 05:00 to 08:00; Tomorrow: 05:00 to 08:00; Saturday: 05:00 to 08:00; Sunday: 05:00 to 08:00; Monday: 05:00 to 08:00; Tuesday: 05:00 to 08:00; Wednesday: 05:00 to 08:00,Amenities,0
Safeway-Chino Valley #1747,74416-88963,1031 N US Hwy 89,,Chino Valley,Arizona,86323,US,928-636-8358,34.7611,-112.452059,Today: 05:30 to 07:00; Tomorrow: 05:30 to 07:00; Saturday: 05:30 to 07:00; Sunday: 05:30 to 07:00; Monday: 05:30 to 07:00; Tuesday: 05:30 to 07:00; Wednesday: 05:30 to 07:00,Amenities,0
Safeway - Phoenix #1980,74940-101009,1334 East Chandler Blvd,,Phoenix,Arizona,85048,US,480-283-0032,33.306853,-112.053759,Today: 05:00 to 08:00; Tomorrow: 05:00 to 08:00; Saturday: 05:00 to 08:00; Sunday: 05:00 to 08:00; Monday: 05:00 to 08:00; Tuesday: 05:00 to 08:00; Wednesday: 05:00 to 08:00,Amenities,0
Golden Nugget - Laughlin,75544-52860,2300 S Casino Dr,,,Nevada,89029,US,702-298-7230,35.154448,-114.573546,Today: 06:00 to 08:00; Tomorrow: 06:00 to 09:00; Saturday: 06:00 to 09:00; Sunday: 06:00 to 08:00; Monday: 06:00 to 08:00; Tuesday: 06:00 to 08:00; Wednesday: 06:00 to 08:00,Amenities,0
Swanson & So. Lake Havasu,8853-95105,55 Lake Havasu Avenue South,#A,Lake Havasu City,Arizona,86403,US,928-854-5444,34.472497,-114.342959,Today: 04:30 to 10:00; Tomorrow: 04:30 to 10:00; Saturday: 04:30 to 10:00; Sunday: 04:30 to 10:00; Monday: 04:30 to 10:00; Tuesday: 04:30 to 10:00; Wednesday: 04:30 to 10:00,Amenities,0
Safeway-Sun City West #1520,74743-98887,14505 W Grand Ave,,,Arizona,85374,US,623-975-4022,33.655095,-112.373207,Today: 06:00 to 06:30; Tomorrow: 06:00 to 06:30; Saturday: 06:00 to 06:30; Sunday: 06:00 to 06:30; Monday: 06:00 to 06:30; Tuesday: 06:00 to 06:30; Wednesday: 06:00 to 06:30,Amenities,0
Albertsons-Yuma #931,73600-80604,2378 W 24th St,,Yuma,Arizona,85364,US,928-343-2330,32.684972,-114.648461,Today: 05:00 to 09:00; Tomorrow: 05:00 to 09:00; Saturday: 05:00 to 09:00; Sunday: 05:00 to 09:00; Monday: 05:00 to 09:00; Tuesday: 05:00 to 09:00; Wednesday: 05:00 to 09:00,Amenities,0
"115th Ave. & Buckeye, Avondale",9415-96478,11435 W. Buckeye Road,A101,Avondale,Arizona,85323,US,623-936-0591,33.434209,-112.30519,Today: 04:30 to 08:00; Tomorrow: 04:30 to 09:00; Saturday: 05:00 to 09:00; Sunday: 05:00 to 08:30; Monday: 04:30 to 08:00; Tuesday: 04:30 to 08:00; Wednesday: 04:30 to 08:00,Amenities,0
"Anthem & I-17, Anthem",6581-67540,3640 W. Anthem Way,,,Arizona,85086,US,623-551-5407,33.866674,-112.136896,Today: 04:30 to 09:00; Tomorrow: 04:30 to 10:00; Saturday: 04:30 to 10:00; Sunday: 05:00 to 09:00; Monday: 04:30 to 09:00; Tuesday: 04:30 to 09:00; Wednesday: 04:30 to 09:00,Amenities,0
Bashas-Gold Canyon,27678-241729,5310 S Superstition Mountain Drive,,San Tan Valley,Arizona,85118,US,480-474-9401,33.368924,-111.474678,Today: 06:00 to 08:00; Tomorrow: 06:00 to 08:00; Saturday: 06:00 to 08:00; Sunday: 06:00 to 08:00; Monday: 06:00 to 08:00; Tuesday: 06:00 to 08:00; Wednesday: 06:00 to 08:00,Amenities,0
"Kino & I-10, Tucson Marketplace",24410-234704,1580 E. Tucson Marketplace Blvd,#100,Tucson,Arizona,85713,US,(520) 260-9386,32.182912,-110.947882,Today: 04:00 to 11:00; Tomorrow: 04:00 to 11:00; Saturday: 05:00 to 11:00; Sunday: 05:00 to 11:00; Monday: 04:00 to 11:00; Tuesday: 04:00 to 11:00; Wednesday: 04:00 to 11:00,Amenities,0
Safeway-Tucson #1986,74957-98895,9050 E Valencia Rd,,Tucson,Arizona,85747,US,520-663-0009,32.118067,-110.798452,Today: 05:00 to 08:00; Tomorrow: 05:00 to 08:00; Saturday: 05:00 to 08:00; Sunday: 05:00 to 08:00; Monday: 05:00 to 08:00; Tuesday: 05:00 to 08:00; Wednesday: 05:00 to 08:00,Amenities,0
Fry's #84 Queen Creek,73702-106030,542 E. Hunt Highway,,San Tan Valley,Arizona,85143,US,480-888-1778,33.16032,-111.562254,Today: 05:00 to 08:00; Tomorrow: 05:00 to 08:00; Saturday: 05:00 to 08:00; Sunday: 05:00 to 08:00; Monday: 05:00 to 08:00; Tuesday: 05:00 to 08:00; Wednesday: 05:00 to 08:00,Amenities,0
Target Bullhead City T-2368,76879-121628,3699 Hwy 95,,Bullhead City,Arizona,86442,US,928-704-5026,35.051738,-114.591519,Today: 07:00 to 08:00; Tomorrow: 07:00 to 08:00; Saturday: 08:00 to 09:00; Sunday: 08:00 to 08:00; Monday: 07:00 to 08:00; Tuesday: 07:00 to 08:00; Wednesday: 07:00 to 08:00,Amenities,0
"Fry's-Goodyear, AZ #676",8188-150412,16380 W Yuma Rd,,Goodyear,Arizona,85338,US,(623) 925-4440,33.43574,-112.411285,Today: 05:00 to 08:00; Tomorrow: 05:00 to 08:00; Saturday: 05:00 to 08:00; Sunday: 05:00 to 08:00; Monday: 05:00 to 08:00; Tuesday: 05:00 to 08:00; Wednesday: 05:00 to 08:00,Amenities,0
Fry's-Prescott # 77,17467-176604,3198 Willow Creek Rd,,,Arizona,86301,US,928-778-3717,34.601826,-112.455985,Today: 05:00 to 08:00; Tomorrow: 05:00 to 08:00; Saturday: 05:00 to 08:00; Sunday: 05:00 to 08:00; Monday: 05:00 to 08:00; Tuesday: 05:00 to 08:00; Wednesday: 05:00 to 08:00,Amenities,0
Safeway-Phoenix #1201,74101-22842,4005 East Chandler Boulevard,,Phoenix,Arizona,85048,US,,33.303283,-111.996408,Today: 05:00 to 08:00; Tomorrow: 05:00 to 08:30; Saturday: 05:00 to 08:00; Sunday: 05:00 to 08:00; Monday: 05:00 to 08:00; Tuesday: 05:00 to 08:00; Wednesday: 05:00 to 08:00,Amenities,0
Harrahs Laughlin Club Cappucino,75225-79983,2900 S Casino Dr,,,Nevada,89029,US,702-298-6811,35.144478,-114.577065,Today: 06:00 to 08:00; Tomorrow: 06:00 to 10:00; Saturday: 06:00 to 10:00; Sunday: 06:00 to 08:00; Monday: 06:00 to 08:00; Tuesday: 06:00 to 08:00; Wednesday: 06:00 to 08:00,Amenities,0
Safeway - Lake Havasu City #216,74229-59079,1650 McCulloch,,Lake Havasu City,Arizona,86403,US,520-855-7760,34.474947,-114.342997,Today: 05:00 to 08:00; Tomorrow: 05:00 to 08:00; Saturday: 05:00 to 08:00; Sunday: 05:00 to 08:00; Monday: 05:00 to 08:00; Tuesday: 05:00 to 08:00; Wednesday: 05:00 to 08:00,Amenities,0
"24th & Avenue B, Yuma",10658-101045,2383 W. 24th Street,,Yuma,Arizona,85364,US,928-344-0563,32.683675,-114.648852,Today: 04:30 to 10:30; Tomorrow: 04:30 to 11:00; Saturday: 04:30 to 11:00; Sunday: 05:30 to 10:30; Monday: 04:30 to 10:30; Tuesday: 04:30 to 10:30; Wednesday: 04:30 to 10:30,Amenities,0
Target Phoenix SW T-2149,76596-96304,9830 W Lower Buckeye,,Phoenix,Arizona,85353,US,623-687-2136,33.421368,-112.270618,Today: 08:00 to 08:00; Tomorrow: 08:00 to 08:00; Saturday: 08:00 to 08:00; Sunday: 08:00 to 08:00; Monday: 08:00 to 08:00; Tuesday: 08:00 to 08:00; Wednesday: 08:00 to 08:00,Amenities,0
Tucson Premium Outlets,25943-230605,6401 W. Marana Center Blvd.,Suite 806,Marana,Arizona,85742,US,520-268-3116,32.374348,-111.102163,Today: 07:00 to 09:00; Tomorrow: 07:00 to 09:00; Saturday: 07:00 to 09:00; Sunday: 07:00 to 07:00; Monday: 07:00 to 09:00; Tuesday: 07:00 to 09:00; Wednesday: 07:00 to 09:00,Amenities,0
Safeway - Anthem #3334,50214-271891,3655 W ANTHEM WAY,,,Arizona,85086,US,,33.866236,-112.137716,Today: 05:00 to 08:00; Tomorrow: 05:00 to 08:00; Saturday: 05:00 to 08:00; Sunday: 05:00 to 08:00; Monday: 05:00 to 08:00; Tuesday: 05:00 to 08:00; Wednesday: 05:00 to 08:00,Amenities,0
Bashas' Mesa #155,72565-103444,9925 E Baseline Rd,,Mesa,Arizona,85209,US,480-354-2798,33.378662,-111.59927,Today: 06:00 to 06:30; Tomorrow: 06:00 to 06:30; Saturday: 06:00 to 06:30; Sunday: 06:00 to 06:30; Monday: 06:00 to 06:30; Tuesday: 06:00 to 06:30; Wednesday: 06:00 to 06:30,Amenities,0
Fry's #90 Tucson,73703-106062,8080 S Houghton Rd,,Tucson,Arizona,85747,US,520-663-1960,32.105059,-110.772755,Today: 05:00 to 09:00; Tomorrow: 05:00 to 09:00; Saturday: 05:00 to 09:00; Sunday: 05:00 to 09:00; Monday: 05:00 to 09:00; Tuesday: 05:00 to 09:00; Wednesday: 05:00 to 09:00,Amenities,0
Safeway - Tucson #1874,79671-113975,6360 E Golf Links,,Tucson,Arizona,85711,US,520-514-2008,32.190058,-110.856967,Today: 05:00 to 08:00; Tomorrow: 05:00 to 08:00; Saturday: 05:00 to 08:00; Sunday: 05:00 to 08:00; Monday: 05:00 to 08:00; Tuesday: 05:00 to 08:00; Wednesday: 05:00 to 08:00,Amenities,0
"Hunt & Gary, Queen Creek",14225-108521,1757 West Hunt Hwy,Bldg D,San Tan Valley,Arizona,85243,US,480-987-0321,33.179177,-111.584939,Today: 04:00 to 10:00; Tomorrow: 04:00 to 10:30; Saturday: 04:30 to 10:30; Sunday: 04:30 to 10:00; Monday: 04:00 to 10:00; Tuesday: 04:00 to 10:00; Wednesday: 04:00 to 10:00,Amenities,0
Safeway-Bullhead City #248,74292-74769,1751 Highway 95,,Bullhead City,Arizona,86442,US,928-763-3555,35.121517,-114.58852,Today: 05:00 to 08:00; Tomorrow: 05:00 to 08:00; Saturday: 05:00 to 08:00; Sunday: 05:00 to 08:00; Monday: 05:00 to 08:00; Tuesday: 05:00 to 08:00; Wednesday: 05:00 to 08:00,Amenities,0
Safeway-Goodyear #2618,74446-86460,440 N Estrella Pkwy,,Goodyear,Arizona,85338,US,623-476-1708,33.451508,-112.394057,Today: 05:00 to 08:00; Tomorrow: 05:00 to 08:00; Saturday: 05:00 to 08:00; Sunday: 05:00 to 08:00; Monday: 05:00 to 08:00; Tuesday: 05:00 to 08:00; Wednesday: 05:00 to 08:00,Amenities,0
Safeway-Cottonwood #2052,74411-82504,1635 Cottonwood St,,Cottonwood,Arizona,86326,US,928-634-3711,34.727542,-112.010171,Today: 05:00 to 08:00; Tomorrow: 05:00 to 08:00; Saturday: 05:00 to 08:00; Sunday: 05:00 to 08:00; Monday: 05:00 to 08:00; Tuesday: 05:00 to 08:00; Wednesday: 05:00 to 08:00,Amenities,0
46th Street & Chandler,6966-85340,4605 E. Chandler Blvd.,A,Phoenix,Arizona,85048,US,480-785-7795,33.304414,-111.983595,Today: 04:00 to 10:00; Tomorrow: 04:00 to 10:00; Saturday: 04:00 to 10:00; Sunday: 04:00 to 10:00; Monday: 04:00 to 10:00; Tuesday: 04:00 to 10:00; Wednesday: 04:00 to 10:00,Amenities,0
Target Yuma T-2083,76467-97575,1450 S Yuma Palms Pkwy,,Yuma,Arizona,85364,US,928-343-7470,32.704895,-114.605905,Today: 08:00 to 09:00; Tomorrow: 08:00 to 09:00; Saturday: 08:00 to 10:00; Sunday: 08:00 to 09:00; Monday: 08:00 to 09:00; Tuesday: 08:00 to 09:00; Wednesday: 08:00 to 09:00,Amenities,0
99th Ave & Lower Buckeye,10931-95287,2735 S. 99th Avenue,#101,Phoenix,Arizona,85353,US,623-936-3136,33.422636,-112.271941,Today: 04:30 to 10:30; Tomorrow: 04:00 to 11:00; Saturday: 04:30 to 11:00; Sunday: 05:00 to 10:00; Monday: 04:30 to 10:30; Tuesday: 04:30 to 10:30; Wednesday: 04:30 to 10:30,Amenities,0
"Cortaro & I-10, Tucson",2838-92782,5970 W. Arizona Pavilions Dr,,Marana,Arizona,85743,US,520-744-3418,32.355421,-111.092411,Today: 04:00 to 10:30; Tomorrow: 04:00 to 10:30; Saturday: 04:30 to 10:30; Sunday: 04:30 to 10:30; Monday: 04:00 to 10:30; Tuesday: 04:00 to 10:30; Wednesday: 04:00 to 10:30,Amenities,0
Albertsons-Phoenix #1004,73583-79483,3130 W Carefree Hwy,,Phoenix,Arizona,85086,US,623-582-4985,33.799713,-112.127161,Today: 05:00 to 08:00; Tomorrow: 05:00 to 08:00; Saturday: 05:00 to 08:00; Sunday: 05:00 to 08:00; Monday: 05:00 to 08:00; Tuesday: 05:00 to 08:00; Wednesday: 05:00 to 08:00,Amenities,0
"Signal Butte & Hwy 60, Mesa",11891-103701,1923 S. Signal Butte Road,#101,Mesa,Arizona,85209,US,480-986-9134,33.380628,-111.600772,Today: 04:00 to 10:00; Tomorrow: 04:00 to 10:30; Saturday: 04:30 to 10:30; Sunday: 04:30 to 09:30; Monday: 04:00 to 10:00; Tuesday: 04:00 to 10:00; Wednesday: 04:00 to 10:00,Amenities,0
Safeway - Tucson #255,13150-138191,1551 W St Marys Blvd,,Tucson,Arizona,85745,US,520-624-8442,32.227594,-110.997209,Today: 06:00 to 08:00; Tomorrow: 06:00 to 08:00; Saturday: 06:00 to 08:00; Sunday: 06:00 to 08:00; Monday: 06:00 to 08:00; Tuesday: 06:00 to 08:00; Wednesday: 06:00 to 08:00,Amenities,0
Safeway - Tucson #1684,79578-103457,1940 EAST BROADWAY ROAD,,Tucson,Arizona,85719,US,520-206-9047,32.220449,-110.943044,Today: 05:00 to 09:00; Tomorrow: 05:00 to 09:00; Saturday: 05:00 to 09:00; Sunday: 05:00 to 09:00; Monday: 05:00 to 09:00; Tuesday: 05:00 to 09:00; Wednesday: 05:00 to 09:00,Amenities,0
Fry's #668 Chandler,73701-106036,985 E. Riggs Road,,Gilbert,Arizona,85297,US,480-883-6500,33.2192,-111.7303,Today: 05:00 to 08:00; Tomorrow: 05:00 to 08:00; Saturday: 05:00 to 08:00; Sunday: 05:00 to 08:00; Monday: 05:00 to 08:00; Tuesday: 05:00 to 08:00; Wednesday: 05:00 to 08:00,Amenities,0
SuperTarget Goodyear West ST-2400,76968-129328,995 South Cotton Lane,,Goodyear,Arizona,85338,US,480-627-3275,33.45894,-112.395464,Today: 08:00 to 09:00; Tomorrow: 08:00 to 09:00; Saturday: 08:00 to 09:00; Sunday: 08:00 to 08:00; Monday: 08:00 to 09:00; Tuesday: 08:00 to 09:00; Wednesday: 08:00 to 09:00,Amenities,0
Glassford Hill Rd & Sundogs,29026-251944,3322 North Glassford Hill Road,A101,Prescott Valley,Arizona,86314,US,928-642-7505,34.591072,-112.339747,Today: 04:30 to 10:00; Tomorrow: 04:30 to 11:00; Saturday: 04:30 to 11:00; Sunday: 04:30 to 10:00; Monday: 04:30 to 10:00; Tuesday: 04:30 to 10:00; Wednesday: 04:30 to 10:00,Amenities,0
Frys-Phoenix #628,21438-97176,3949 E Chandler Blvd,,Phoenix,Arizona,85048,US,480-706-7340,33.305414,-111.974135,Today: 05:00 to 08:00; Tomorrow: 05:00 to 08:00; Saturday: 05:00 to 08:00; Sunday: 05:00 to 08:00; Monday: 05:00 to 08:00; Tuesday: 05:00 to 08:00; Wednesday: 05:00 to 08:00,Amenities,0
"16th & Pacific, Yuma",14665-123164,1630 S. Pacific Avenue,#101,Yuma,Arizona,85366,US,928-782-0970,32.698071,-114.599353,Today: 04:00 to 10:30; Tomorrow: 04:00 to 10:30; Saturday: 05:00 to 10:30; Sunday: 05:00 to 10:30; Monday: 04:00 to 10:30; Tuesday: 04:00 to 10:30; Wednesday: 04:00 to 10:30,Amenities,0
Frys - Avondale #112,47792-257948,1575 N Dysart Rd,,Avondale,Arizona,85374,US,623-925-0267,33.463288,-112.340849,Today: 05:00 to 08:00; Tomorrow: 05:00 to 08:00; Saturday: 05:00 to 08:00; Sunday: 05:00 to 08:00; Monday: 05:00 to 08:00; Tuesday: 05:00 to 08:00; Wednesday: 05:00 to 08:00,Amenities,0
"Ina & Thornydale, Tucson",8854-95070,3951 W. Ina Road,#101,Marana,Arizona,85741,US,520-572-7457,32.337193,-111.049968,Today: 04:00 to 10:00; Tomorrow: 04:00 to 10:00; Saturday: 04:30 to 10:00; Sunday: 04:30 to 10:00; Monday: 04:00 to 10:00; Tuesday: 04:00 to 10:00; Wednesday: 04:00 to 10:00,Amenities,0
Fry's Phoenix #694,51259-245842,2800 W. Dove Valley Rd,,Phoenix,Arizona,85027,US,4809946230,33.783764,-112.1175,Today: 05:30 to 11:00; Tomorrow: 05:00 to 08:00; Saturday: 05:00 to 08:00; Sunday: 05:00 to 08:00; Monday: 05:00 to 08:00; Tuesday: 05:00 to 08:00; Wednesday: 05:00 to 08:00,Amenities,0
Frys Mesa #115,25984-239415,435 South Ellsworth Rd,,,Arizona,85208,US,480-380-1005,33.406813,-111.630856,Today: 05:00 to 08:00; Tomorrow: 05:00 to 08:00; Saturday: 05:00 to 08:00; Sunday: 05:00 to 08:00; Monday: 05:00 to 08:00; Tuesday: 05:00 to 08:00; Wednesday: 05:00 to 08:00,Amenities,0
Albertsons - Tucson #3203,47589-258970,1350 N Silverbell Rd,,Tucson,Arizona,85745,US,520-623-7449,32.238161,-111.00399,Today: 05:00 to 09:00; Tomorrow: 05:00 to 09:00; Saturday: 05:00 to 09:00; Sunday: 05:00 to 09:00; Monday: 05:00 to 09:00; Tuesday: 05:00 to 09:00; Wednesday: 05:00 to 09:00,Amenities,0
"Broadway & Campbell, Tucson",10095-97333,1821 E. Broadway Blvd.,,Tucson,Arizona,85719,US,520-622-8116,32.221651,-110.944384,Today: 04:30 to 11:00; Tomorrow: 04:30 to 11:00; Saturday: 04:30 to 11:00; Sunday: 04:30 to 11:00; Monday: 04:30 to 11:00; Tuesday: 04:30 to 11:00; Wednesday: 04:30 to 11:00,Amenities,0
Fry's-Queen Creek #682,73965-138186,155 West Combs Road,,San Tan Valley,Arizona,85140,US,480-474-6600,33.219933,-111.568744,Today: 05:00 to 08:00; Tomorrow: 05:00 to 08:00; Saturday: 05:00 to 08:00; Sunday: 05:00 to 08:00; Monday: 05:00 to 08:00; Tuesday: 05:00 to 08:00; Wednesday: 05:00 to 08:00,Amenities,0
"Litchfield & McDowell, Goodyear",5923-37479,1375 North Litchfield Road,100,Goodyear,Arizona,85338,US,623-536-3256,33.462213,-112.355766,Today: 04:00 to 10:30; Tomorrow: 04:00 to 11:00; Saturday: 04:30 to 11:00; Sunday: 05:00 to 10:30; Monday: 04:00 to 10:30; Tuesday: 04:00 to 10:30; Wednesday: 04:00 to 10:30,Amenities,0
Frys-Prescott Valley #63,6067-145466,3100 N Glassford Hill Rd,,Prescott Valley,Arizona,86314,US,928-445-3010,34.58659,-112.34069,Today: 05:00 to 08:00; Tomorrow: 05:00 to 08:00; Saturday: 05:00 to 08:00; Sunday: 05:00 to 08:00; Monday: 05:00 to 08:00; Tuesday: 05:00 to 08:00; Wednesday: 05:00 to 08:00,Amenities,0
"Fry's-Phoenix, AZ #27",70315-140365,3616 E Ray Rd,,Phoenix,Arizona,85044,US,480-706-0601,33.316675,-112.005424,Today: 05:00 to 08:00; Tomorrow: 05:00 to 08:00; Saturday: 05:00 to 08:00; Sunday: 05:00 to 08:00; Monday: 05:00 to 08:00; Tuesday: 05:00 to 08:00; Wednesday: 05:00 to 08:00,Amenities,0
"4th & Catalina, Yuma",13732-108188,3115 South 4th Avenue,,Yuma,Arizona,85364,US,928-344-2937,32.672038,-114.623753,Today: 04:30 to 10:00; Tomorrow: 04:30 to 10:30; Saturday: 04:30 to 10:30; Sunday: 05:00 to 10:00; Monday: 04:30 to 10:00; Tuesday: 04:30 to 10:00; Wednesday: 04:30 to 10:00,Amenities,0
"Dysart & McDowell, Goodyear",11890-95688,1690 N. Dysart Road,,Avondale,Arizona,85374,US,623-547-2505,33.465323,-112.341658,Today: 04:00 to 09:30; Tomorrow: 03:30 to 10:30; Saturday: 04:00 to 10:30; Sunday: 04:30 to 09:30; Monday: 04:00 to 09:30; Tuesday: 04:00 to 09:30; Wednesday: 04:00 to 09:30,Amenities,0
Target Tucson T-854,76402-97186,3901 W Ina Rd,,Marana,Arizona,85741,US,520-744-3553,32.336081,-111.048862,Today: 08:00 to 09:00; Tomorrow: 08:00 to 09:00; Saturday: 08:00 to 09:00; Sunday: 08:00 to 08:00; Monday: 08:00 to 09:00; Tuesday: 08:00 to 09:00; Wednesday: 08:00 to 09:00,Amenities,0
Fry's #67 Cave Creek,73847-106042,4815 E. Carfree highway,,Phoenix,Arizona,85331,US,480-575-0693,33.79741,-111.976914,Today: 05:00 to 08:00; Tomorrow: 05:00 to 08:00; Saturday: 05:00 to 08:00; Sunday: 05:00 to 08:00; Monday: 05:00 to 08:00; Tuesday: 05:00 to 08:00; Wednesday: 05:00 to 08:00,Amenities,0
Fry's Mesa # 686,47254-247326,2724 S Signal Butte Rd,,,Arizona,85208,US,480-481-7200,33.404274,-111.63602,Today: 05:00 to 08:00; Tomorrow: 05:00 to 08:00; Saturday: 05:00 to 08:00; Sunday: 05:00 to 08:00; Monday: 05:00 to 08:00; Tuesday: 05:00 to 08:00; Wednesday: 05:00 to 08:00,Amenities,0
U of A at University & Euclid,5505-1630,802-804 E. University Blvd.,,Tucson,Arizona,85719,US,(520) 620-9344,32.23154,-110.959063,Today: 05:00 to 11:30; Tomorrow: 05:00 to 11:30; Saturday: 05:30 to 11:30; Sunday: 05:30 to 11:30; Monday: 05:00 to 11:30; Tuesday: 05:00 to 11:30; Wednesday: 05:00 to 11:30,Amenities,0
"Broadway & Randolph, Tucson",9814-94810,3421 E. Broadway Blvd,#191,Tucson,Arizona,85716,US,520-323-4512,32.222029,-110.918352,Today: 04:30 to 10:30; Tomorrow: 04:30 to 10:30; Saturday: 05:00 to 11:00; Sunday: 05:00 to 10:30; Monday: 04:30 to 10:30; Tuesday: 04:30 to 10:30; Wednesday: 04:30 to 10:30,Amenities,0
Albertsons-Chandler #1021,73578-74774,2935 E Riggs Road,,Chandler,Arizona,85249,US,480-802-1970,33.217768,-111.790911,Today: 05:00 to 08:00; Tomorrow: 05:00 to 08:00; Saturday: 05:00 to 08:00; Sunday: 05:00 to 08:00; Monday: 05:00 to 08:00; Tuesday: 05:00 to 08:00; Wednesday: 05:00 to 08:00,Amenities,0
Safeway-Goodyear #1511,74198-34460,14175 W Indian Sch R,,Goodyear,Arizona,85340,US,623-935-3228,33.485717,-112.364077,Today: 05:00 to 08:00; Tomorrow: 05:00 to 08:00; Saturday: 05:00 to 08:00; Sunday: 05:00 to 08:00; Monday: 05:00 to 08:00; Tuesday: 05:00 to 08:00; Wednesday: 05:00 to 08:00,Amenities,0
Safeway-Prescott Valley #1055,74400-83386,7720 E Hwy 69,,Prescott Valley,Arizona,86314,US,928-772-6125,34.587125,-112.329858,Today: 05:00 to 08:00; Tomorrow: 05:00 to 08:00; Saturday: 05:00 to 08:00; Sunday: 05:00 to 08:00; Monday: 05:00 to 08:00; Tuesday: 05:00 to 08:00; Wednesday: 05:00 to 08:00,Amenities,0
"Queen Creek & Alma School, Chandler",6560-64619,1085 W Queen Creek Rd,B,Chandler,Arizona,85248,US,480-899-9295,33.261105,-111.860328,Today: 04:30 to 09:00; Tomorrow: 04:30 to 09:00; Saturday: 04:30 to 09:00; Sunday: 05:00 to 08:00; Monday: 04:30 to 09:00; Tuesday: 04:30 to 09:00; Wednesday: 04:30 to 09:00,Amenities,0
Arizona Western College,3044-141386,2020 South Ave 8E,,Yuma,Arizona,85366,US,9283447575,32.6298,-114.494896,Today: 06:45 to 08:00; Tomorrow: 07:00 to 03:00; Saturday: Closed; Sunday: Closed; Monday: 06:45 to 08:00; Tuesday: 06:45 to 08:00; Wednesday: 06:45 to 08:00,Amenities,0
McDowell & 99th Avenue,6779-78100,"10030 W  McDowell Rd, Ste 160",,Avondale,Arizona,85392,US,623-907-0917,33.464935,-112.2762,Today: 04:30 to 10:00; Tomorrow: 04:30 to 11:00; Saturday: 04:30 to 11:00; Sunday: 05:00 to 10:00; Monday: 04:30 to 10:00; Tuesday: 04:30 to 10:00; Wednesday: 04:30 to 10:00,Amenities,0
Fry's-Marana #36,15605-151604,3770 W Ina Rd,,Marana,Arizona,85741,US,520-744-2472,32.337603,-111.045801,Today: 05:00 to 08:00; Tomorrow: 05:00 to 08:00; Saturday: 05:00 to 08:00; Sunday: 05:00 to 08:00; Monday: 05:00 to 08:00; Tuesday: 05:00 to 08:00; Wednesday: 05:00 to 08:00,Amenities,0
Carefree Hwy & Cave Creek Rd,6582-243618,5310 E Carefree Hwy,,Cave Creek,Arizona,85331,US,480-575-7125,33.799678,-111.966977,Today: 05:00 to 08:30; Tomorrow: 05:00 to 08:30; Saturday: 05:00 to 08:30; Sunday: 05:00 to 07:30; Monday: 05:00 to 08:30; Tuesday: 05:00 to 08:30; Wednesday: 05:00 to 08:30,Amenities,0
"Ellsworth & Baseline, Mesa",6756-70860,2043 S. Ellsworth Road,Suite 101,Mesa,Arizona,85207; 85208,US,480-984-6497,33.377407,-111.635548,Today: 04:00 to 10:00; Tomorrow: 04:00 to 10:30; Saturday: 04:30 to 10:30; Sunday: 04:30 to 10:00; Monday: 04:00 to 10:00; Tuesday: 04:00 to 10:00; Wednesday: 04:00 to 10:00,Amenities,0
University of Arizona Library,21359-197874,1510 E University Blvd,,Tucson,Arizona,85719,US,(520) 626-8658,32.23104,-110.948705,Today: 07:00 to 10:00; Tomorrow: 07:00 to 10:00; Saturday: 07:00 to 10:00; Sunday: 07:00 to 10:00; Monday: 07:00 to 10:00; Tuesday: 07:00 to 10:00; Wednesday: 07:00 to 10:00,Amenities,0
Target Tucson El Con Mall T-1439,76195-92081,3699 E Broadway Blvd,,Tucson,Arizona,85716-5400,US,520-917-0116,32.223066,-110.914642,Today: 08:00 to 09:00; Tomorrow: 08:00 to 09:00; Saturday: 08:00 to 10:00; Sunday: 08:00 to 09:00; Monday: 08:00 to 09:00; Tuesday: 08:00 to 09:00; Wednesday: 08:00 to 09:00,Amenities,0
Bashas' Queen Creek #46,72564-102069,23760 S Power Rd,,Queen Creek,Arizona,85297,US,480-279-5700,33.232365,-111.685861,Today: 06:00 to 07:00; Tomorrow: 06:00 to 07:00; Saturday: 06:00 to 07:00; Sunday: 06:00 to 07:00; Monday: 06:00 to 07:00; Tuesday: 06:00 to 07:00; Wednesday: 06:00 to 07:00,Amenities,0
Fry's Litchfield # 667,48884-245840,13710 W Camelback Rd,,Litchfield Park,Arizona,85340,US,623-334-7735,33.507164,-112.374988,Today: 05:00 to 08:00; Tomorrow: 05:00 to 08:00; Saturday: 05:00 to 08:00; Sunday: 05:00 to 08:00; Monday: 05:00 to 08:00; Tuesday: 05:00 to 08:00; Wednesday: 05:00 to 08:00,Amenities,0
Iron Springs & Gail Gardner Way,10799-101144,1220 Gail Gardner Way,#103,Prescott,Arizona,86305,US,928-445-7023,34.56348,-112.48778,Today: 05:00 to 07:30; Tomorrow: 05:00 to 08:30; Saturday: 05:00 to 08:30; Sunday: 05:00 to 07:30; Monday: 05:00 to 07:30; Tuesday: 05:00 to 07:30; Wednesday: 05:00 to 07:30,Amenities,0
Target Chandler South T-2747,15775-153907,3777 S Arizona Ave,,,Arizona,85248,US,480-612-6101,33.250311,-111.841334,Today: 08:00 to 09:00; Tomorrow: 08:00 to 09:00; Saturday: 08:00 to 09:00; Sunday: 08:00 to 09:00; Monday: 08:00 to 09:00; Tuesday: 08:00 to 09:00; Wednesday: 08:00 to 09:00,Amenities,0
Fortuna & I-8,18819-184204,11211 East Commercial Centre Loop,,,Arizona,AZ 85367,US,9283453564,32.671876,-114.441666,Today: 04:30 to 10:00; Tomorrow: 04:30 to 11:00; Saturday: 04:30 to 11:00; Sunday: 05:00 to 10:00; Monday: 04:30 to 10:00; Tuesday: 04:30 to 10:00; Wednesday: 04:30 to 10:00,Amenities,0
"91st. Avenue & Thomas, Phoenix",10309-98945,2815 N. 91st Avenue,#103,Phoenix,Arizona,85037,US,623-474-7163,33.478739,-112.254624,Today: 04:30 to 10:00; Tomorrow: 04:00 to 11:00; Saturday: 04:30 to 11:00; Sunday: 05:00 to 10:30; Monday: 04:30 to 10:00; Tuesday: 04:30 to 10:00; Wednesday: 04:30 to 10:00,Amenities,0
"La Cholla & Ina, Tucson",6844-82581,7555 N. La Cholla Blvd.,,,Arizona,85704,US,520-219-9338,32.343601,-111.013074,Today: 05:00 to 09:00; Tomorrow: 05:00 to 09:00; Saturday: 05:00 to 09:00; Sunday: 05:00 to 09:00; Monday: 05:00 to 09:00; Tuesday: 05:00 to 09:00; Wednesday: 05:00 to 09:00,Amenities,0
USAA Phoenix Campus,9065-113971,1 Norterra Dr,,Phoenix,Arizona,85027,US,632-715-7174,33.7142,-112.1087,Today: 06:30 to 04:30; Tomorrow: 06:30 to 03:30; Saturday: Closed; Sunday: Closed; Monday: 06:30 to 04:30; Tuesday: 06:30 to 04:30; Wednesday: 06:30 to 04:30,Amenities,0
Bashas - Mesa #110,12504-146044,1133 N Ellsworth Rd,,Mesa,Arizona,85207,US,480-357-3300,33.436134,-111.63253,Today: 05:00 to 08:00; Tomorrow: 05:00 to 08:00; Saturday: 05:00 to 08:00; Sunday: 05:00 to 08:00; Monday: 05:00 to 08:00; Tuesday: 05:00 to 08:00; Wednesday: 05:00 to 08:00,Amenities,0
The University of Arizona Bookstore,70053-117804,1303 E University Blvd,Ste 149,Tucson,Arizona,85719,US,,32.233106,-110.952393,Today: 07:30 to 07:00; Tomorrow: 07:30 to 07:00; Saturday: 10:00 to 05:00; Sunday: 10:00 to 05:00; Monday: 07:30 to 07:00; Tuesday: 07:30 to 07:00; Wednesday: 07:30 to 07:00,Amenities,0
"22nd Street & Kolb, Tucson",8104-95249,6970 E. 22nd Street,#112,Tucson,Arizona,85710,US,520-584-1384,32.205515,-110.843378,Today: 04:30 to 08:00; Tomorrow: 04:30 to 08:00; Saturday: 05:30 to 08:00; Sunday: 05:30 to 08:00; Monday: 04:30 to 08:00; Tuesday: 04:30 to 08:00; Wednesday: 04:30 to 08:00,Amenities,0
Fry's Chandler #681,48890-245841,Gilbert & Ocotillo,,Chandler,Arizona,85249,US,14805668875,33.223404,-111.798219,Today: 05:00 to 08:00; Tomorrow: 05:00 to 08:00; Saturday: 05:00 to 08:00; Sunday: 05:00 to 08:00; Monday: 05:00 to 08:00; Tuesday: 05:00 to 08:00; Wednesday: 05:00 to 08:00,Amenities,0
Camelback & Litchfield,47582-257024,13840 W. Camelback Rd,#20,,Arizona,85340,US,(480) 285-8886,33.508818,-112.357115,Today: 04:00 to 10:00; Tomorrow: 04:00 to 10:30; Saturday: 04:30 to 10:30; Sunday: 04:30 to 10:00; Monday: 04:00 to 10:00; Tuesday: 04:00 to 10:00; Wednesday: 04:00 to 10:00,Amenities,0
Safeway-Prescott #245,74290-74771,1044 Willow Creek Road,,Prescott,Arizona,86304,US,928-445-4550,34.561591,-112.484257,Today: 06:00 to 07:00; Tomorrow: 06:00 to 07:00; Saturday: 06:00 to 07:00; Sunday: 06:00 to 07:00; Monday: 06:00 to 07:00; Tuesday: 06:00 to 07:00; Wednesday: 06:00 to 07:00,Amenities,0
"Chandler & Kyrene, Chandler",6722-71281,6140 West Chandler Blvd,#8,Chandler,Arizona,85226,US,480-893-1923,33.305878,-111.947432,Today: 04:00 to 07:30; Tomorrow: 04:00 to 07:30; Saturday: 05:00 to 07:00; Sunday: 05:00 to 07:00; Monday: 04:00 to 07:30; Tuesday: 04:00 to 07:30; Wednesday: 04:00 to 07:30,Amenities,0
"Fry's-Yuma, AZ #699",15958-155606,11203 S Frontage Rd,,Fortuna Foothills,Arizona,85367,US,928-305-1922,32.658019,-114.409444,Today: 05:00 to 08:00; Tomorrow: 05:00 to 08:00; Saturday: 05:00 to 08:00; Sunday: 05:00 to 08:00; Monday: 05:00 to 08:00; Tuesday: 05:00 to 08:00; Wednesday: 05:00 to 08:00,Amenities,0
"Indian School & 107 Ave, Avondale",6690-75361,10585 W. Indian School Rd,,,Arizona,85392,US,623-872-1602,33.493358,-112.286652,Today: 04:30 to 09:00; Tomorrow: 04:30 to 09:00; Saturday: 05:00 to 09:00; Sunday: 05:00 to 09:00; Monday: 04:30 to 09:00; Tuesday: 04:30 to 09:00; Wednesday: 04:30 to 09:00,Amenities,0
Frys-Oro Valley #117,20278-176064,10450 N LA Canada Dr,,,Arizona,85737,US,520-877-9207,32.396401,-110.995669,Today: 05:00 to 08:00; Tomorrow: 05:00 to 08:00; Saturday: 05:00 to 08:00; Sunday: 05:00 to 08:00; Monday: 05:00 to 08:00; Tuesday: 05:00 to 08:00; Wednesday: 05:00 to 08:00,Amenities,0
Safeway-Phoenix #1543,74209-26810,29834 N Cave Creek Rd,,Phoenix,Arizona,85311,US,480-563-9335,33.757726,-111.9915,Today: 05:00 to 08:00; Tomorrow: 05:00 to 08:00; Saturday: 05:00 to 08:00; Sunday: 05:00 to 08:00; Monday: 05:00 to 08:00; Tuesday: 05:00 to 08:00; Wednesday: 05:00 to 08:00,Amenities,0
Safeway-Mesa #2676,74443-94941,9101 E Baseline Rd,,Mesa,Arizona,85207; 85208,US,480-281-0161,33.377539,-111.637973,Today: 05:30 to 07:00; Tomorrow: 05:30 to 07:00; Saturday: 06:00 to 07:00; Sunday: 06:00 to 07:00; Monday: 05:30 to 07:00; Tuesday: 05:30 to 07:00; Wednesday: 05:30 to 07:00,Amenities,0
Safeway - Tucson #1989,79702-113972,9460 E Golf Links Rd,,Tucson,Arizona,85730,US,520-296-0042,32.190392,-110.790915,Today: 05:00 to 08:00; Tomorrow: 05:00 to 08:00; Saturday: 05:00 to 08:00; Sunday: 05:00 to 08:00; Monday: 05:00 to 08:00; Tuesday: 05:00 to 08:00; Wednesday: 05:00 to 08:00,Amenities,0
Bashas' - Chandler #161,72536-102068,4940 S Gilbert Rd,,Chandler,Arizona,85249,US,480-833-2240,33.234343,-111.790837,Today: 06:00 to 07:00; Tomorrow: 06:00 to 07:00; Saturday: 06:00 to 07:00; Sunday: 06:00 to 07:00; Monday: 06:00 to 07:00; Tuesday: 06:00 to 07:00; Wednesday: 06:00 to 07:00,Amenities,0
"Dysart & Camelback, Phoenix",11892-105919,5104 N. Dysart Road,#400,,Arizona,85374,US,623-935-2845,33.508969,-112.341495,Today: 04:30 to 09:00; Tomorrow: 04:30 to 09:30; Saturday: 04:30 to 09:30; Sunday: 05:00 to 09:00; Monday: 04:30 to 09:00; Tuesday: 04:30 to 09:00; Wednesday: 04:30 to 09:00,Amenities,0
"Fry's-Prescott, AZ #116",5008-153924,950 Fair St,,Prescott,Arizona,86305,US,928-778-6494,34.553223,-112.482006,Today: 05:00 to 08:00; Tomorrow: 05:00 to 08:00; Saturday: 05:00 to 08:00; Sunday: 05:00 to 08:00; Monday: 05:00 to 08:00; Tuesday: 05:00 to 08:00; Wednesday: 05:00 to 08:00,Amenities,0
"Arizona Ave & Ocotillo, Chandler",17721-165444,3731 S Arizona Avenue,,Chandler,Arizona,85248,US,4808831896,33.250973,-111.840782,Today: 04:30 to 09:00; Tomorrow: 04:30 to 09:00; Saturday: 05:00 to 09:00; Sunday: 05:00 to 09:00; Monday: 04:30 to 09:00; Tuesday: 04:30 to 09:00; Wednesday: 04:30 to 09:00,Amenities,0
"75th Ave. & McDowell, Phoenix",9997-97957,1610 N. 75th Avenue,#100,Phoenix,Arizona,85035,US,623-247-0774,33.466038,-112.221309,Today: 04:00 to 11:30; Tomorrow: 03:30 to 11:30; Saturday: 04:00 to 11:30; Sunday: 04:00 to 11:30; Monday: 04:00 to 11:30; Tuesday: 04:00 to 11:30; Wednesday: 04:00 to 11:30,Amenities,0
Bashas' W River Rd Tucson  #160,72591-103461,2000 W River Rd,,,Arizona,85704,US,520-690-3680,32.30673,-111.01027,Today: 06:00 to 07:00; Tomorrow: 06:00 to 07:00; Saturday: 06:00 to 07:00; Sunday: 06:00 to 05:30; Monday: 06:00 to 07:00; Tuesday: 06:00 to 07:00; Wednesday: 06:00 to 07:00,Amenities,0
Happy Valley & 39th Ave,6539-155146,3860 W. Happy Valley Road,100,Phoenix,Arizona,85310,US,6238698906,33.713307,-112.141939,Today: 04:00 to 09:00; Tomorrow: 04:00 to 09:00; Saturday: 04:30 to 09:00; Sunday: 04:30 to 09:00; Monday: 04:00 to 09:00; Tuesday: 04:00 to 09:00; Wednesday: 04:00 to 09:00,Amenities,0
Target Mesa T-639,20665-204611,1525 S Power Rd,,Mesa,Arizona,85205,US,480-396-0403,33.388903,-111.684678,Today: 08:00 to 09:00; Tomorrow: 08:00 to 09:00; Saturday: 08:00 to 09:00; Sunday: 08:00 to 08:00; Monday: 08:00 to 09:00; Tuesday: 08:00 to 09:00; Wednesday: 08:00 to 09:00,Amenities,0
Davis Monthan AFB,75360-99029,"5405 E Granite St, Bldg 2527",,Tucson,Arizona,85748,US,520-747-2728,32.219423,-110.863429,Today: 06:00 to 07:00; Tomorrow: 06:00 to 07:00; Saturday: 07:30 to 06:00; Sunday: 08:30 to 05:00; Monday: 06:00 to 07:00; Tuesday: 06:00 to 07:00; Wednesday: 06:00 to 07:00,Amenities,0
Chandler Heights & Gilbert,11889-105156,4970 S. Gilbert Road,#3,Chandler,Arizona,85249,US,480-895-0034,33.234498,-111.790893,Today: 04:00 to 09:30; Tomorrow: 04:00 to 09:30; Saturday: 04:30 to 09:30; Sunday: 05:00 to 09:00; Monday: 04:00 to 09:30; Tuesday: 04:00 to 09:30; Wednesday: 04:00 to 09:30,Amenities,0
Bashas' Litchfield Park #130,72593-102521,5115 N Dysart Rd Ste 150,,,Arizona,85340,US,623-547-4580,33.509948,-112.340901,Today: 06:00 to 06:00; Tomorrow: 06:00 to 06:00; Saturday: 06:00 to 06:00; Sunday: 06:00 to 06:00; Monday: 06:00 to 06:00; Tuesday: 06:00 to 06:00; Wednesday: 06:00 to 06:00,Amenities,0
Hwy 69 & Hwy 89,19168-178224,1861 East Highway 69,,,Arizona,86301,US,928-445-4265,34.550248,-112.43395,Today: 04:30 to 10:30; Tomorrow: 04:30 to 11:00; Saturday: 04:30 to 11:00; Sunday: 05:00 to 10:30; Monday: 04:30 to 10:30; Tuesday: 04:30 to 10:30; Wednesday: 04:30 to 10:30,Amenities,0
"54th St. & Ray Rd., Chandler",5898-35199,885 N. 54th Street,1,Chandler,Arizona,85226,US,480-496-0147,33.317381,-111.968225,Today: 04:00 to 09:00; Tomorrow: 04:00 to 09:00; Saturday: 05:00 to 09:00; Sunday: 05:00 to 09:00; Monday: 04:00 to 09:00; Tuesday: 04:00 to 09:00; Wednesday: 04:00 to 09:00,Amenities,0
"Baseline & 51st. Avenue, Laveen",9995-99040,5150 W. Baseline Road,#101,Phoenix,Arizona,85339,US,602-237-7763,33.377934,-112.170832,Today: 04:30 to 09:00; Tomorrow: 04:30 to 10:00; Saturday: 04:30 to 10:00; Sunday: 05:00 to 09:00; Monday: 04:30 to 09:00; Tuesday: 04:30 to 09:00; Wednesday: 04:30 to 09:00,Amenities,0
Albertsons-Tucson #988,73176-21705,5085 N La Canada Drive,,,Arizona,85704,US,520-696-0325,32.29794,-110.995785,Today: 05:00 to 09:00; Tomorrow: 05:00 to 09:00; Saturday: 05:00 to 09:00; Sunday: 05:00 to 09:00; Monday: 05:00 to 09:00; Tuesday: 05:00 to 09:00; Wednesday: 05:00 to 09:00,Amenities,0
"Happy Valley & I-17, Phoenix",8974-95021,2501 West Happy Valley Road,#50-1200,Phoenix,Arizona,85027,US,623-587-6499,33.711073,-112.111442,Today: 04:00 to 09:00; Tomorrow: 04:00 to 10:00; Saturday: 05:00 to 10:00; Sunday: 05:00 to 09:00; Monday: 04:00 to 09:00; Tuesday: 04:00 to 09:00; Wednesday: 04:00 to 09:00,Amenities,0
"Power & Broadway, Mesa",14378-111373,344 S. Power Road,#101,Mesa,Arizona,85206,US,480-807-5782,33.409058,-111.685123,Today: 04:30 to 09:00; Tomorrow: 04:30 to 09:00; Saturday: 04:30 to 09:00; Sunday: 05:00 to 09:00; Monday: 04:30 to 09:00; Tuesday: 04:30 to 09:00; Wednesday: 04:30 to 09:00,Amenities,0
Park Place - Tucson,5927-37539,5870 East Broadway Blvd.,160,Tucson,Arizona,85748,US,520-514-1945,32.22044,-110.866669,Today: 05:30 to 09:00; Tomorrow: 05:30 to 10:00; Saturday: 06:00 to 10:00; Sunday: 06:00 to 08:00; Monday: 05:30 to 09:00; Tuesday: 05:30 to 09:00; Wednesday: 05:30 to 09:00,Amenities,0
Gilbert & Ocotillo,29379-251913,"4095 S. Gilbert Road, Suite 1",,Chandler,Arizona,85249,US,480-440-7359,33.24666,-111.789098,Today: 04:00 to 10:30; Tomorrow: 04:00 to 10:30; Saturday: 04:30 to 10:30; Sunday: 05:00 to 09:30; Monday: 04:00 to 10:30; Tuesday: 04:00 to 10:30; Wednesday: 04:00 to 10:30,Amenities,0
Main Exchange Mall,72123-3569,7123 N. 138th Ave.,Building 1540,,Arizona,85307,US,623-536-1219,33.539368,-112.356751,Today: 06:30 to 06:30; Tomorrow: 06:30 to 06:30; Saturday: 08:00 to 06:00; Sunday: 09:00 to 05:00; Monday: 06:30 to 06:30; Tuesday: 06:30 to 06:30; Wednesday: 06:30 to 06:30,Amenities,0
Safeway-Sedona #1207,74434-90567,2300 SR-89A,,Sedona,Arizona,86336,US,928-282-0118,34.864681,-111.800287,Today: 05:00 to 08:00; Tomorrow: 05:00 to 08:00; Saturday: 05:00 to 08:00; Sunday: 05:00 to 08:00; Monday: 05:00 to 08:00; Tuesday: 05:00 to 08:00; Wednesday: 05:00 to 08:00,Amenities,0
Phoenix Premium Outlets,22183-214187,4976 Premium Outlets Wy K1,,Chandler,Arizona,85226,US,480-639-1927,33.304855,-111.929664,Today: 09:00 to 09:00; Tomorrow: 09:00 to 09:00; Saturday: 09:00 to 09:00; Sunday: 09:00 to 07:00; Monday: 09:00 to 09:00; Tuesday: 09:00 to 09:00; Wednesday: 09:00 to 09:00,Amenities,0
Frys-Laveen #87,17800-181285,5140 W Baseline Rd,,Phoenix,Arizona,85339,US,602-237-7000,33.377623,-112.169453,Today: 05:00 to 08:00; Tomorrow: 05:00 to 08:00; Saturday: 05:00 to 08:00; Sunday: 05:00 to 08:00; Monday: 05:00 to 08:00; Tuesday: 05:00 to 08:00; Wednesday: 05:00 to 08:00,Amenities,0
Ina & Oracle Casa Adobes,5509-189026,639 West Ina Road,,,Arizona,85704,US,5202194880,32.336746,-110.979019,Today: 04:30 to 09:30; Tomorrow: 04:30 to 10:00; Saturday: 05:00 to 10:00; Sunday: 05:00 to 09:30; Monday: 04:30 to 09:30; Tuesday: 04:30 to 09:30; Wednesday: 04:30 to 09:30,Amenities,0
Safeway - Glendale #2821,20216-195245,3800 W Happy Valley Rd #107,,Phoenix,Arizona,85083,US,623-518-1946,33.712764,-112.141529,Today: 05:00 to 08:00; Tomorrow: 05:00 to 08:00; Saturday: 05:00 to 08:00; Sunday: 05:00 to 08:00; Monday: 05:00 to 08:00; Tuesday: 05:00 to 08:00; Wednesday: 05:00 to 08:00,Amenities,0
Power Rd & Baseline Rd,5610-244258,6807 E Baseline Rd #102,,Mesa,Arizona,85206,US,4802180300,33.378952,-111.68739,Today: 04:00 to 10:00; Tomorrow: 04:00 to 10:30; Saturday: 04:00 to 10:30; Sunday: 04:30 to 10:00; Monday: 04:00 to 10:00; Tuesday: 04:00 to 10:00; Wednesday: 04:00 to 10:00,Amenities,0
"Speedway & Country Club, Tucson",6920-87200,3025 E. Speedway Blvd.,,Tucson,Arizona,85716,US,520-320-1760,32.236398,-110.927214,Today: 05:00 to 09:00; Tomorrow: 05:00 to 09:00; Saturday: 05:00 to 09:00; Sunday: 05:00 to 09:00; Monday: 05:00 to 09:00; Tuesday: 05:00 to 09:00; Wednesday: 05:00 to 09:00,Amenities,0
Ellsworth Rd & Rittenhouse Rd,25812-241707,21135 South Ellsworth Loop Road,,,Arizona,85240,US,480-708-8493,33.256719,-111.637435,Today: 04:00 to 10:00; Tomorrow: 04:00 to 11:00; Saturday: 04:30 to 11:00; Sunday: 04:30 to 09:00; Monday: 04:00 to 10:00; Tuesday: 04:00 to 10:00; Wednesday: 04:00 to 10:00,Amenities,0
Bashas - Surprise #137,73838-113969,15367 W Waddell Rd,,Surprise,Arizona,85379,US,623-214-6460,33.609583,-112.391672,Today: 06:00 to 07:00; Tomorrow: 06:00 to 07:00; Saturday: 06:00 to 07:00; Sunday: 06:00 to 07:00; Monday: 06:00 to 07:00; Tuesday: 06:00 to 07:00; Wednesday: 06:00 to 07:00,Amenities,0
"Montezuma & Sheldon, Prescott",5828-25528,351 N. Montezuma St.,Suite A,Prescott,Arizona,86301,US,928-776-9797,34.546641,-112.469459,Today: 05:00 to 09:00; Tomorrow: 05:00 to 09:00; Saturday: 05:00 to 09:00; Sunday: 05:00 to 08:00; Monday: 05:00 to 09:00; Tuesday: 05:00 to 09:00; Wednesday: 05:00 to 09:00,Amenities,0
Target Chandler T-1838,20336-204609,3425 W Frye Rd,,Chandler,Arizona,85226,US,480-281-0007,33.297732,-111.900184,Today: 08:00 to 09:00; Tomorrow: 08:00 to 09:00; Saturday: 08:00 to 10:00; Sunday: 08:00 to 09:00; Monday: 08:00 to 09:00; Tuesday: 08:00 to 09:00; Wednesday: 08:00 to 09:00,Amenities,0
Target Phoenix T-851,76360-97181,7409 W Virginia Ave,,Phoenix,Arizona,85035,US,623-245-1800,33.475703,-112.218588,Today: 08:00 to 09:00; Tomorrow: 08:00 to 09:00; Saturday: 08:00 to 10:00; Sunday: 08:00 to 09:00; Monday: 08:00 to 09:00; Tuesday: 08:00 to 09:00; Wednesday: 08:00 to 09:00,Amenities,0
Safeway-Tucson #1255,74742-97732,7110 N Oracle Rd,,,Arizona,85704,US,520-575-0949,32.335973,-110.974911,Today: 05:00 to 08:00; Tomorrow: 05:00 to 08:00; Saturday: 06:00 to 08:00; Sunday: 06:00 to 08:00; Monday: 05:00 to 08:00; Tuesday: 05:00 to 08:00; Wednesday: 05:00 to 08:00,Amenities,0
Fry's #474 Phoenix,22006-106706,29455 N Cave Creek Rd,,Phoenix,Arizona,85024:85331,US,480-538-7130,33.7525,-111.990556,Today: 05:00 to 08:00; Tomorrow: 05:00 to 08:00; Saturday: 05:00 to 08:00; Sunday: 05:00 to 08:00; Monday: 05:00 to 08:00; Tuesday: 05:00 to 08:00; Wednesday: 05:00 to 08:00,Amenities,0
Safeway-Mesa #2644,74810-91320,2151 N Power Rd,,Mesa,Arizona,85215,US,480-281-2972,33.45514,-111.68394,Today: 06:00 to 07:00; Tomorrow: 06:00 to 07:00; Saturday: 06:00 to 07:00; Sunday: 06:00 to 07:00; Monday: 06:00 to 07:00; Tuesday: 06:00 to 07:00; Wednesday: 06:00 to 07:00,Amenities,0
Frys - Tucson #21,48882-257947,555 E. Grant Rd.,,Tucson,Arizona,85705,US,520-622-1976,32.250418,-110.962542,Today: 06:00 to 08:00; Tomorrow: 06:00 to 08:00; Saturday: 06:00 to 08:00; Sunday: 06:00 to 08:00; Monday: 06:00 to 08:00; Tuesday: 06:00 to 08:00; Wednesday: 06:00 to 08:00,Amenities,0
Safeway-Queen Creek #1819,74360-83382,18495 E Queen Creek Rd,,,Arizona,85230,US,480-279-2733,33.264854,-111.683741,Today: 05:00 to 08:00; Tomorrow: 05:00 to 08:00; Saturday: 05:00 to 08:00; Sunday: 05:30 to 08:00; Monday: 05:00 to 08:00; Tuesday: 05:00 to 08:00; Wednesday: 05:00 to 08:00,Amenities,0
Frys Store #674,22018-214825,13982 W. Waddell,,Surprise,Arizona,85379,US,623-537-9630,33.609246,-112.36098,Today: 05:00 to 08:00; Tomorrow: 05:00 to 08:00; Saturday: 05:00 to 08:00; Sunday: 05:00 to 08:00; Monday: 05:00 to 08:00; Tuesday: 05:00 to 08:00; Wednesday: 05:00 to 08:00,Amenities,0
Bashas - Sedona #28,25699-103429,160 Coffee Pot Drive,,Sedona,Arizona,86336,US,928-282-5351,34.865913,-111.795235,Today: 06:00 to 07:00; Tomorrow: 06:00 to 07:00; Saturday: 06:00 to 07:00; Sunday: 06:00 to 07:00; Monday: 06:00 to 07:00; Tuesday: 06:00 to 07:00; Wednesday: 06:00 to 07:00,Amenities,0
Fry's - Chandler #69,22030-214184,2010 S  Alma School Rd,,Chandler,Arizona,85286,US,480-917-7596,33.27572,-111.858751,Today: 05:00 to 08:00; Tomorrow: 05:00 to 08:00; Saturday: 05:00 to 08:00; Sunday: 05:00 to 08:00; Monday: 05:00 to 08:00; Tuesday: 05:00 to 08:00; Wednesday: 05:00 to 08:00,Amenities,0
Safeway - Phoenix #2709,79775-110404,5035 W Baseline Rd,,Phoenix,Arizona,AZ 85339,US,602-567-7561,33.376296,-112.166309,Today: 06:00 to 08:00; Tomorrow: 06:00 to 08:00; Saturday: 06:00 to 08:00; Sunday: 06:00 to 08:00; Monday: 06:00 to 08:00; Tuesday: 06:00 to 08:00; Wednesday: 06:00 to 08:00,Amenities,0
Safeway-Oro Valley #1521,74414-91321,12122 N Rancho Vistoso Blvd,,Oro Valley,Arizona,85737,US,520-297-4344,32.426944,-110.959336,Today: 05:00 to 08:00; Tomorrow: 05:00 to 08:00; Saturday: 05:00 to 08:00; Sunday: 05:00 to 08:00; Monday: 05:00 to 08:00; Tuesday: 05:00 to 08:00; Wednesday: 05:00 to 08:00,Amenities,0
"Fry's-Phoenix, AZ #73",7074-149408,6625 W Happy Valley Rd,,Phoenix,Arizona,85310,US,,33.71206,-112.20165,Today: 05:00 to 08:00; Tomorrow: 05:00 to 08:00; Saturday: 05:00 to 08:00; Sunday: 05:00 to 08:00; Monday: 05:00 to 08:00; Tuesday: 05:00 to 08:00; Wednesday: 05:00 to 08:00,Amenities,0
Bashas - Mesa #73,49004-256165,2864 N Power Rd,,Mesa,Arizona,85215,US,480-830-7900,33.467799,-111.684071,Today: 05:00 to 08:00; Tomorrow: 05:00 to 08:00; Saturday: 05:00 to 08:00; Sunday: 05:00 to 08:00; Monday: 05:00 to 08:00; Tuesday: 05:00 to 08:00; Wednesday: 05:00 to 08:00,Amenities,0
"Broadway Bl & Kolb Rd, Tucson",8744-94658,7288 E. Broadway Blvd.,#150,Tucson,Arizona,85748,US,520-721-7136,32.220491,-110.838479,Today: 04:00 to 11:00; Tomorrow: 04:00 to 11:30; Saturday: 04:00 to 11:00; Sunday: 04:00 to 11:00; Monday: 04:00 to 11:00; Tuesday: 04:00 to 11:00; Wednesday: 04:00 to 11:00,Amenities,0
Albertsons-Gilbert AZ #929,73601-83370,8454 S Power Rd,,Gilbert,Arizona,85236,US,480-988-7280,33.265357,-111.687646,Today: 05:00 to 08:00; Tomorrow: 05:00 to 08:00; Saturday: 05:00 to 08:00; Sunday: 05:00 to 08:00; Monday: 05:00 to 08:00; Tuesday: 05:00 to 08:00; Wednesday: 05:00 to 08:00,Amenities,0
Safeway-Surprise #2699,74733-97179,13828 W Waddell Rd,,Surprise,Arizona,85379,US,623-476-1810,33.610561,-112.357462,Today: 05:00 to 07:00; Tomorrow: 05:00 to 07:00; Saturday: 05:00 to 07:00; Sunday: 05:00 to 07:00; Monday: 05:00 to 07:00; Tuesday: 05:00 to 07:00; Wednesday: 05:00 to 07:00,Amenities,0
"Hwy 89A & Kallof Pl, Sedona",24425-237910,1885 West State Route 89A,,Sedona,Arizona,86336,US,928-300-5842,34.863489,-111.793011,Today: 05:00 to 09:00; Tomorrow: 05:00 to 09:00; Saturday: 05:00 to 09:00; Sunday: 05:00 to 09:00; Monday: 05:00 to 09:00; Tuesday: 05:00 to 09:00; Wednesday: 05:00 to 09:00,Amenities,0
"Chandler & Price Road, Phoenix",5974-40479,3161 W Chandler Blvd,,Chandler,Arizona,85226,US,480-917-1963,33.2999,-111.899,Today: 06:00 to 10:00; Tomorrow: 06:00 to 10:00; Saturday: 07:00 to 10:00; Sunday: 07:00 to 09:00; Monday: 06:00 to 10:00; Tuesday: 06:00 to 10:00; Wednesday: 06:00 to 10:00,Amenities,0
"99th Avenue & Camelback, Phoenix",9450-95709,9925 W. Camelback Road,#115,Phoenix,Arizona,85037,US,623-872-6172,33.508023,-112.275625,Today: 04:00 to 10:30; Tomorrow: 04:00 to 10:30; Saturday: 04:00 to 10:30; Sunday: 04:30 to 10:00; Monday: 04:00 to 10:00; Tuesday: 04:00 to 10:00; Wednesday: 04:00 to 10:00,Amenities,0
"Oracle & Rudasill-Tucson, AZ",14809-123285,6001 North Oracle Rd,,,Arizona,85704,US,520-575-0241,32.315818,-110.977208,Today: 04:30 to 08:00; Tomorrow: 04:30 to 08:00; Saturday: 05:00 to 08:00; Sunday: 05:00 to 08:00; Monday: 04:30 to 08:00; Tuesday: 04:30 to 08:00; Wednesday: 04:30 to 08:00,Amenities,0
Bashas 66 Carefree,47139-256164,36889 TOM DARLINGTON,,Carefree,Arizona,85377,US,4804881797,33.824732,-111.921927,Today: 06:00 to 07:00; Tomorrow: 06:00 to 07:00; Saturday: 06:00 to 07:00; Sunday: 06:00 to 07:00; Monday: 06:00 to 07:00; Tuesday: 06:00 to 07:00; Wednesday: 06:00 to 07:00,Amenities,0
"Power & McDowell, Mesa",6498-54080,2832 North Power Road,#101,Mesa,Arizona,85215,US,480-830-2876,33.467083,-111.684526,Today: 04:00 to 10:00; Tomorrow: 04:00 to 10:30; Saturday: 04:30 to 10:30; Sunday: 05:00 to 09:30; Monday: 04:00 to 10:00; Tuesday: 04:00 to 10:00; Wednesday: 04:00 to 10:00,Amenities,0
"22nd & Harrison, Tucson",8901-95251,9525 E. Old Spanish Trail,#113,Tucson,Arizona,85748,US,520-721-7221,32.20824,-110.788975,Today: 04:30 to 10:00; Tomorrow: 04:30 to 11:00; Saturday: 04:30 to 11:00; Sunday: 04:30 to 10:00; Monday: 04:30 to 10:00; Tuesday: 04:30 to 10:00; Wednesday: 04:30 to 10:00,Amenities,0
Super Target Queen Creek ST-2365,76874-121625,21398 S Ellsworth Loop Rd,,Queen Creek,Arizona,85242,US,480-214-4810,33.2778,-111.6756,Today: 08:00 to 09:00; Tomorrow: 08:00 to 09:00; Saturday: 08:00 to 09:00; Sunday: 08:00 to 08:00; Monday: 08:00 to 09:00; Tuesday: 08:00 to 09:00; Wednesday: 08:00 to 09:00,Amenities,0
"Bell & Grand, Surprise",6622-65580,13706 W. Bell Road,20,Surprise,Arizona,85374,US,623-584-6354,33.639456,-112.352307,Today: 04:30 to 10:00; Tomorrow: 04:30 to 10:30; Saturday: 04:30 to 10:30; Sunday: 05:00 to 10:00; Monday: 04:30 to 10:00; Tuesday: 04:30 to 10:00; Wednesday: 04:30 to 10:00,Amenities,0
Bashas Flagstaff #18,25697-103428,2700 S Woodlands Village Blvd,,Flagstaff,Arizona,86001,US,927-774-3882,35.177025,-111.66856,Today: 06:00 to 07:00; Tomorrow: 06:00 to 07:00; Saturday: 06:00 to 07:00; Sunday: 06:00 to 07:00; Monday: 06:00 to 07:00; Tuesday: 06:00 to 07:00; Wednesday: 06:00 to 07:00,Amenities,0
Bashas 11,48028-256724,4855 E Warner Rd,,Phoenix,Arizona,85044,US,480-496-8191,33.330398,-111.978586,Today: 06:00 to 08:00; Tomorrow: 06:00 to 08:00; Saturday: 06:00 to 08:00; Sunday: 06:00 to 08:00; Monday: 06:00 to 08:00; Tuesday: 06:00 to 08:00; Wednesday: 06:00 to 08:00,Amenities,0
Safeway-Phoenix #1654,70322-136611,4811 N 83rd Ave,,Phoenix,Arizona,85340,US,,33.507393,-112.236068,Today: 06:00 to 08:00; Tomorrow: 06:00 to 08:00; Saturday: 06:00 to 08:00; Sunday: 06:00 to 08:00; Monday: 06:00 to 08:00; Tuesday: 06:00 to 08:00; Wednesday: 06:00 to 08:00,Amenities,0
"Fry's-Oro Valley, AZ #18",70314-140366,10661 N Oracle Rd,,Oro Valley,Arizona,85704:85737:85739,US,520-742-6663,32.400941,-110.957444,Today: 05:00 to 08:00; Tomorrow: 05:00 to 08:00; Saturday: 05:00 to 08:00; Sunday: 05:00 to 08:00; Monday: 05:00 to 08:00; Tuesday: 05:00 to 08:00; Wednesday: 05:00 to 08:00,Amenities,0
Safeway - Scottsdale #1849,79691-120705,32551 N Scottsdale Rd,,Scottsdale,Arizona,85266,US,,33.781138,-111.922534,Today: 06:00 to 07:00; Tomorrow: 06:00 to 07:00; Saturday: 06:00 to 07:00; Sunday: 06:00 to 07:00; Monday: 06:00 to 07:00; Tuesday: 06:00 to 07:00; Wednesday: 06:00 to 07:00,Amenities,0
"Power & Loop 202, Gilbert",9588-96089,4972 S. Power Road,#101,Gilbert,Arizona,85205,US,480-988-4173,33.325735,-111.68718,Today: 04:00 to 09:30; Tomorrow: 04:00 to 10:00; Saturday: 04:30 to 10:00; Sunday: 05:00 to 09:30; Monday: 04:00 to 09:30; Tuesday: 04:00 to 09:30; Wednesday: 04:00 to 09:30,Amenities,0
Target Tucson T-1863,76190-88967,9615 E Old Spanish Trail,,Tucson,Arizona,85748,US,520-296-4290,32.207117,-110.786057,Today: 08:00 to 09:00; Tomorrow: 08:00 to 09:00; Saturday: 08:00 to 10:00; Sunday: 08:00 to 09:00; Monday: 08:00 to 09:00; Tuesday: 08:00 to 09:00; Wednesday: 08:00 to 09:00,Amenities,0
"Fry's-Gilbert, AZ #670",7137-150410,6470 S Higley Rd,,Gilbert,Arizona,85236,US,480-840-9560,33.285608,-111.720868,Today: 05:00 to 08:00; Tomorrow: 05:00 to 08:00; Saturday: 05:00 to 08:00; Sunday: 05:00 to 08:00; Monday: 05:00 to 08:00; Tuesday: 05:00 to 08:00; Wednesday: 05:00 to 08:00,Amenities,0
Safeway-Peoria #1662,74401-83387,10641 W Olive Ave,,,Arizona,85355,US,623-583-7227,33.564162,-112.288447,Today: 06:00 to 08:00; Tomorrow: 06:00 to 08:00; Saturday: 06:00 to 08:00; Sunday: 06:00 to 08:00; Monday: 06:00 to 08:00; Tuesday: 06:00 to 08:00; Wednesday: 06:00 to 08:00,Amenities,0
Safeway - Flagstaff #2028,74227-59039,1201 S Plaza Way,,Flagstaff,Arizona,86001,US,520-779-3401,35.189766,-111.663065,Today: 05:30 to 08:00; Tomorrow: 05:30 to 08:00; Saturday: 05:30 to 08:00; Sunday: 05:30 to 08:00; Monday: 05:30 to 08:00; Tuesday: 05:30 to 08:00; Wednesday: 05:30 to 08:00,Amenities,0
Rural & Ray,15746-160304,4985 W. Ray Rd,,Chandler,Arizona,85226,US,4807855888,33.319416,-111.927216,Today: 04:30 to 09:00; Tomorrow: 04:30 to 09:00; Saturday: 04:30 to 09:00; Sunday: 05:00 to 09:00; Monday: 04:30 to 09:00; Tuesday: 04:30 to 09:00; Wednesday: 04:30 to 09:00,Amenities,0
"19th Ave. & Baseline, Phoenix",14593-112345,2020 W. Baseline Rd,#174,Phoenix,Arizona,85041,US,602-268-0811,33.37897,-112.101766,Today: 04:30 to 10:00; Tomorrow: 04:30 to 10:00; Saturday: 04:30 to 10:00; Sunday: 05:00 to 10:00; Monday: 04:30 to 10:00; Tuesday: 04:30 to 10:00; Wednesday: 04:30 to 10:00,Amenities,0
"1st & Oracle, Oro Valley",6683-74641,10785 N. Oracle Road,135,Oro Valley,Arizona,85737,US,520-229-1979,32.401694,-110.95618,Today: 04:30 to 09:00; Tomorrow: 04:30 to 09:00; Saturday: 05:00 to 08:30; Sunday: 05:00 to 08:30; Monday: 04:30 to 09:00; Tuesday: 04:30 to 09:00; Wednesday: 04:30 to 09:00,Amenities,0
Scottsdale & Ashler Hills,5979-39299,32421 N Scottsdale Road,"Bldg 4, #K",Scottsdale,Arizona,85266,US,480-575-0360,33.779967,-111.923124,Today: 05:00 to 08:00; Tomorrow: 05:00 to 08:00; Saturday: 05:00 to 08:00; Sunday: 05:00 to 07:00; Monday: 05:00 to 08:00; Tuesday: 05:00 to 08:00; Wednesday: 05:00 to 08:00,Amenities,0
Frys - Mesa #23,3972-146748,5941 East McKellips Rd,,Mesa,Arizona,85205,US,480-830-8949,33.450945,-111.702818,Today: 05:00 to 08:00; Tomorrow: 05:00 to 08:00; Saturday: 05:00 to 08:00; Sunday: 05:00 to 08:00; Monday: 05:00 to 08:00; Tuesday: 05:00 to 08:00; Wednesday: 05:00 to 08:00,Amenities,0
"Speedway & Wilmot, Tucson",8745-94406,6291 E. Speedway Blvd,,Tucson,Arizona,85712,US,520-546-7771,32.236375,-110.858401,Today: 04:00 to 11:00; Tomorrow: 04:00 to 11:00; Saturday: 04:00 to 11:00; Sunday: 04:00 to 11:00; Monday: 04:00 to 11:00; Tuesday: 04:00 to 11:00; Wednesday: 04:00 to 11:00,Amenities,0
Super Target Gilbert ST-1960,76302-96624,3931 S Gilbert Rd,,Chandler,Arizona,85297,US,480-281-0201,33.278624,-111.785779,Today: 08:00 to 09:00; Tomorrow: 08:00 to 09:00; Saturday: 08:00 to 10:00; Sunday: 08:00 to 09:00; Monday: 08:00 to 09:00; Tuesday: 08:00 to 09:00; Wednesday: 08:00 to 09:00,Amenities,0
Safeway - Sun City West #2054,79551-101012,13503 Camino Del Sol,,,Arizona,85375,US,623-975-2304,33.655026,-112.350031,Today: 06:00 to 06:00; Tomorrow: 06:00 to 06:00; Saturday: 06:00 to 06:00; Sunday: 06:00 to 06:00; Monday: 06:00 to 06:00; Tuesday: 06:00 to 06:00; Wednesday: 06:00 to 06:00,Amenities,0
"1307 S. Milton Rd., Flagstaff",9624-96090,1307 S. Milton Road,,Flagstaff,Arizona,86001,US,928-774-0602,35.1874,-111.661842,Today: 04:30 to 10:30; Tomorrow: 04:30 to 11:30; Saturday: 04:30 to 11:30; Sunday: 04:30 to 10:30; Monday: 04:30 to 10:30; Tuesday: 04:30 to 10:30; Wednesday: 04:30 to 10:30,Amenities,0
"Dobson & Frye, Chandler",5448-238024,350 S. Dobson Road,,Chandler,Arizona,85224,US,4808577233,33.297603,-111.877018,Today: 04:30 to 09:00; Tomorrow: 04:30 to 09:00; Saturday: 05:00 to 09:00; Sunday: 05:00 to 09:00; Monday: 04:30 to 09:00; Tuesday: 04:30 to 09:00; Wednesday: 04:30 to 09:00,Amenities,0
"I-17 & Thomas, Phoenix",10930-103560,2441 W Thomas Rd,,Phoenix,Arizona,85033,US,602-252-0946,33.48045,-112.11168,Today: 04:00 to 09:00; Tomorrow: 04:00 to 10:00; Saturday: 04:30 to 10:00; Sunday: 05:30 to 10:00; Monday: 04:00 to 09:00; Tuesday: 04:00 to 09:00; Wednesday: 04:00 to 09:00,Amenities,0
Safeway - Tucson #1983,79579-101021,2140 West Grant Rd,,Tucson,Arizona,85704,US,520-792-0083,32.297241,-110.973359,Today: 05:00 to 08:00; Tomorrow: 05:00 to 08:00; Saturday: 05:00 to 08:00; Sunday: 05:00 to 08:00; Monday: 05:00 to 08:00; Tuesday: 05:00 to 08:00; Wednesday: 05:00 to 08:00,Amenities,0
Target Scottsdale T-1327,16033-159212,32351 N Scottsdale Rd,,Scottsdale,Arizona,85266,US,,33.779451,-111.922724,Today: 08:00 to 08:00; Tomorrow: 08:00 to 08:00; Saturday: 08:00 to 08:00; Sunday: 08:00 to 08:00; Monday: 08:00 to 08:00; Tuesday: 08:00 to 08:00; Wednesday: 08:00 to 08:00,Amenities,0
Super Target Gilbert ST-1959,76301-96596,5110 S Power Rd,,Gilbert,Arizona,85212,US,480-281-0268,33.323053,-111.689574,Today: 08:00 to 09:00; Tomorrow: 08:00 to 09:00; Saturday: 08:00 to 09:00; Sunday: 08:00 to 09:00; Monday: 08:00 to 09:00; Tuesday: 08:00 to 09:00; Wednesday: 08:00 to 09:00,Amenities,0
Grant & Swan,5529-1217,4811 E Grant,,Tucson,Arizona,85712,US,(520) 325-8669,32.251698,-110.891381,Today: 04:00 to 10:00; Tomorrow: 04:00 to 10:00; Saturday: 04:00 to 10:00; Sunday: 04:00 to 10:00; Monday: 04:00 to 10:00; Tuesday: 04:00 to 10:00; Wednesday: 04:00 to 10:00,Amenities,0
"Gilbert & Loop 202, Phoenix",9413-95026,3765 S. Gilbert Rd,#107,Chandler,Arizona,85297,US,480-899-3867,33.281391,-111.788928,Today: 04:30 to 10:00; Tomorrow: 04:30 to 10:30; Saturday: 05:00 to 10:30; Sunday: 05:00 to 10:00; Monday: 04:30 to 10:00; Tuesday: 04:30 to 10:00; Wednesday: 04:30 to 10:00,Amenities,0
Frys - Sun City West #86,22414-217349,19403 N RH Johnson Blvd,,,Arizona,85375,US,623-930-5025,33.66984,-112.356031,Today: 05:00 to 08:00; Tomorrow: 05:00 to 08:00; Saturday: 05:00 to 08:00; Sunday: 05:00 to 08:00; Monday: 05:00 to 08:00; Tuesday: 05:00 to 08:00; Wednesday: 05:00 to 08:00,Amenities,0
Target Flagstaff T-935,76430-97574,1650 S Milton Rd,,Flagstaff,Arizona,86001,US,928-774-3500,35.184341,-111.661426,Today: 08:00 to 10:00; Tomorrow: 08:00 to 10:00; Saturday: 08:00 to 10:00; Sunday: 08:00 to 09:00; Monday: 08:00 to 10:00; Tuesday: 08:00 to 10:00; Wednesday: 08:00 to 10:00,Amenities,0
Frys-Tempe #627,20279-173852,9900 S Rural Rd,,,Arizona,85283,US,480-783-6200,33.322003,-111.928164,Today: 05:00 to 08:00; Tomorrow: 05:00 to 08:00; Saturday: 05:00 to 08:00; Sunday: 05:00 to 08:00; Monday: 05:00 to 08:00; Tuesday: 05:00 to 08:00; Wednesday: 05:00 to 08:00,Amenities,0
"35th Ave & Bethany Home, Phoenix",7971-95229,3320 W. Bethany Home Road,#100,Phoenix,Arizona,85017,US,602-841-2163,33.524409,-112.131039,Today: 04:00 to 11:00; Tomorrow: 04:00 to 11:00; Saturday: 04:00 to 11:00; Sunday: 05:00 to 11:00; Monday: 04:00 to 11:00; Tuesday: 04:00 to 11:00; Wednesday: 04:00 to 11:00,Amenities,0
River Road & Stoneloop,5398-1178,98 West River Road,,Tucson,Arizona,85704,US,(520) 408-2292,32.297168,-110.973004,Today: 04:30 to 07:30; Tomorrow: 04:30 to 08:30; Saturday: 05:00 to 08:30; Sunday: 05:30 to 07:30; Monday: 04:30 to 07:30; Tuesday: 04:30 to 07:30; Wednesday: 04:30 to 07:30,Amenities,0
Safeway - Peoria #2799,79707-101342,28455 N Vistancia Blvd.,,Peoria,Arizona,85382,US,623-243-9204,33.7233,-112.261,Today: 05:00 to 07:00; Tomorrow: 05:00 to 07:00; Saturday: 05:00 to 07:00; Sunday: 05:00 to 07:00; Monday: 05:00 to 07:00; Tuesday: 05:00 to 07:00; Wednesday: 05:00 to 07:00,Amenities,0
ASU Polytechnic Campus,48693-105418,7001 E. Williams Field Road,,Mesa,Arizona,85212,US,4807271439,33.306523,-111.677921,Today: 07:00 to 10:00; Tomorrow: 07:00 to 10:00; Saturday: 09:00 to 07:00; Sunday: 09:00 to 07:00; Monday: 07:00 to 10:00; Tuesday: 07:00 to 10:00; Wednesday: 07:00 to 10:00,Amenities,0
Frys - Tucson #131,48881-257949,2480 N. Swan Rd.,,Tucson,Arizona,85718,US,520-325-4802,32.25264,-110.892629,Today: 05:00 to 08:00; Tomorrow: 05:00 to 08:00; Saturday: 05:00 to 08:00; Sunday: 05:00 to 08:00; Monday: 05:00 to 08:00; Tuesday: 05:00 to 08:00; Wednesday: 05:00 to 08:00,Amenities,0
Frys - Gilbert #75,23573-230686,3261 E Pecos Rd,,Gilbert,Arizona,85298,US,480-988-6300,33.292431,-111.719406,Today: 05:00 to 08:00; Tomorrow: 05:00 to 08:00; Saturday: 05:00 to 08:00; Sunday: 05:00 to 08:00; Monday: 05:00 to 08:00; Tuesday: 05:00 to 08:00; Wednesday: 05:00 to 08:00,Amenities,0
107th Ave & Grand,29155-251665,10701 W. Grand Ave,,El Mirage,Arizona,85351,US,480-273-1380,33.602448,-112.290158,Today: 04:00 to 09:00; Tomorrow: 04:00 to 09:00; Saturday: 04:00 to 09:30; Sunday: 04:30 to 09:00; Monday: 04:00 to 09:00; Tuesday: 04:00 to 09:00; Wednesday: 04:00 to 09:00,Amenities,0
Safeway - Prescott #274,79642-111047,450 WHITE SPAR RD,,Prescott,Arizona,86303,US,9287783086,34.53092,-112.474909,Today: 06:00 to 07:00; Tomorrow: 06:00 to 07:00; Saturday: 06:00 to 07:00; Sunday: 06:00 to 07:00; Monday: 06:00 to 07:00; Tuesday: 06:00 to 07:00; Wednesday: 06:00 to 07:00,Amenities,0
"McClintock & Ray, Chandler",6635-63359,4030 W. Ray Road,#3,Chandler,Arizona,85226,US,480-752-8522,33.321329,-111.911613,Today: 04:30 to 09:30; Tomorrow: 04:30 to 09:30; Saturday: 04:30 to 09:30; Sunday: 04:30 to 08:30; Monday: 04:30 to 09:30; Tuesday: 04:30 to 09:30; Wednesday: 04:30 to 09:30,Amenities,0
"701 W. McDowell, Phx",10798-101370,701 West McDowell Road,#100,Phoenix,Arizona,85007,US,602-252-3477,33.465448,-112.082988,Today: 04:30 to 09:30; Tomorrow: 04:30 to 09:30; Saturday: 05:00 to 08:30; Sunday: 05:00 to 08:30; Monday: 04:30 to 09:30; Tuesday: 04:30 to 09:30; Wednesday: 04:30 to 09:30,Amenities,0
Tucson Mall L1 Center Court,21886-206145,4500 North Oracle Rd,K005,,Arizona,85705,US,520-887-5199,32.288765,-110.974562,Today: 07:30 to 09:00; Tomorrow: 07:30 to 09:00; Saturday: 07:30 to 09:00; Sunday: 09:00 to 06:30; Monday: 07:30 to 09:00; Tuesday: 07:30 to 09:00; Wednesday: 07:30 to 09:00,Amenities,0
27th Avenue & Loop 101 Phoenix,24426-237911,20216 N 27th Avenue,,Phoenix,Arizona,85027,US,480-433-9168,33.67076,-112.117874,Today: 04:00 to 09:00; Tomorrow: 04:00 to 09:00; Saturday: 04:00 to 09:00; Sunday: 05:00 to 08:30; Monday: 04:00 to 09:00; Tuesday: 04:00 to 09:00; Wednesday: 04:00 to 09:00,Amenities,0
Safeway - Gilbert #1748,74792-94835,5137 E Baseline Rd,,Gilbert,Arizona,85206,US,480-325-5870,33.377933,-111.723588,Today: 06:00 to 08:00; Tomorrow: 06:00 to 08:00; Saturday: 06:00 to 08:00; Sunday: 06:00 to 08:00; Monday: 06:00 to 08:00; Tuesday: 06:00 to 08:00; Wednesday: 06:00 to 08:00,Amenities,0
Fry's - Tucson #34,72597-108208,7812 E Speedway Blvd.,,Tucson,Arizona,85748,US,520-885-3547,32.234306,-110.825727,Today: 05:00 to 09:00; Tomorrow: 05:00 to 09:00; Saturday: 05:00 to 09:00; Sunday: 05:00 to 09:00; Monday: 05:00 to 09:00; Tuesday: 05:00 to 09:00; Wednesday: 05:00 to 09:00,Amenities,0
Santan Village Pkwy & Loop 202,19282-181688,2882 South San Tan Village,,Gilbert,Arizona,85249,US,480-917-0965,33.297564,-111.743728,Today: 04:00 to 10:00; Tomorrow: 04:00 to 10:30; Saturday: 04:30 to 10:30; Sunday: 04:30 to 10:00; Monday: 04:00 to 10:00; Tuesday: 04:00 to 10:00; Wednesday: 04:00 to 10:00,Amenities,0
"Fry's-Sun City, AZ #122",22005-138187,10660 W Grand Ave,,El Mirage,Arizona,85351,US,623-876-8222,33.60098,-112.288302,Today: 05:00 to 08:00; Tomorrow: 05:00 to 08:00; Saturday: 05:00 to 08:00; Sunday: 05:00 to 08:00; Monday: 05:00 to 08:00; Tuesday: 05:00 to 08:00; Wednesday: 05:00 to 08:00,Amenities,0
NAU Student Union Building,70023-117805,Building 30,,Flagstaff,Arizona,86011,US,,35.189464,-111.655898,Today: 07:00 to 12:00; Tomorrow: 07:00 to 12:00; Saturday: 07:00 to 12:00; Sunday: 07:00 to 12:00; Monday: 07:00 to 12:00; Tuesday: 07:00 to 12:00; Wednesday: 07:00 to 12:00,Amenities,0
"Arizona Ave & Loop 202, Chandler",8975-95098,1395 S. Arizona Avenue,#1,Chandler,Arizona,85286,US,480-857-2410,33.285277,-111.840998,Today: 04:00 to 10:30; Tomorrow: 04:00 to 10:30; Saturday: 05:00 to 10:30; Sunday: 05:00 to 09:30; Monday: 04:00 to 10:30; Tuesday: 04:00 to 10:30; Wednesday: 04:00 to 10:30,Amenities,0
1st & Washington - Cityscape,5534-170944,50 W. Jefferson Street,#170,Phoenix,Arizona,83003,US,602-340-0455,33.447774,-112.074784,Today: 05:00 to 08:30; Tomorrow: 05:00 to 08:30; Saturday: 05:30 to 08:30; Sunday: 05:30 to 07:30; Monday: 05:00 to 08:30; Tuesday: 05:00 to 08:30; Wednesday: 05:00 to 08:30,Amenities,0
Target Tucson North T-2140,5090-144826,4040 N Oracle Rd,,Tucson,Arizona,85705,US,520-202-1501,32.280174,-110.97792,Today: 06:30 to 09:00; Tomorrow: 08:00 to 09:00; Saturday: 06:30 to 09:00; Sunday: 06:30 to 09:00; Monday: 06:30 to 09:00; Tuesday: 06:30 to 09:00; Wednesday: 06:30 to 09:00,Amenities,0
Target Phoenix T-1141,27544-245014,2727 W Agua Fria Fwy,,Phoenix,Arizona,85027:85308,US,623-869-8070,33.667883,-112.118782,Today: 08:00 to 09:00; Tomorrow: 08:00 to 09:00; Saturday: 08:00 to 09:00; Sunday: 08:00 to 09:00; Monday: 08:00 to 09:00; Tuesday: 08:00 to 09:00; Wednesday: 08:00 to 09:00,Amenities,0
Bashas - Gilbert/Higley Rd #172,73849-118684,99 S Higley Rd,,Gilbert,Arizona,85298,US,480-926-5220,33.348574,-111.720097,Today: 06:00 to 08:00; Tomorrow: 06:00 to 08:00; Saturday: 06:00 to 08:00; Sunday: 06:00 to 08:00; Monday: 06:00 to 08:00; Tuesday: 06:00 to 08:00; Wednesday: 06:00 to 08:00,Amenities,0
Speedway & Pantano,19981-181344,7890 E Speedway Blvd,,Tucson,Arizona,85715,US,520-296-1813,32.235188,-110.824204,Today: 04:30 to 10:00; Tomorrow: 04:30 to 10:00; Saturday: 04:30 to 10:00; Sunday: 04:30 to 10:00; Monday: 04:30 to 10:00; Tuesday: 04:30 to 10:00; Wednesday: 04:30 to 10:00,Amenities,0
Fry's-Gilbert #72,22387-167244,87 E Williams Field Rd,,Gilbert,Arizona,85296,US,480-726-3720,33.304883,-111.78792,Today: 05:00 to 08:00; Tomorrow: 05:00 to 08:00; Saturday: 05:00 to 08:00; Sunday: 05:00 to 08:00; Monday: 05:00 to 08:00; Tuesday: 05:00 to 08:00; Wednesday: 05:00 to 08:00,Amenities,0
Safeway-Phoenix #236,79767-136609,10926 W Bell Rd,,El Mirage,Arizona,85351,US,623-972-1350,33.638766,-112.292002,Today: 06:00 to 06:00; Tomorrow: 06:00 to 06:00; Saturday: 06:00 to 06:00; Sunday: 06:00 to 06:00; Monday: 06:00 to 06:00; Tuesday: 06:00 to 06:00; Wednesday: 06:00 to 06:00,Amenities,0
Northern Arizona University - South,17806-185724,300 E McConnell Dr,,Flagstaff,Arizona,86001,US,(928) 607-8944,35.181906,-111.653005,Today: 07:00 to 08:00; Tomorrow: 07:00 to 08:00; Saturday: 07:00 to 08:00; Sunday: 07:00 to 08:00; Monday: 07:00 to 08:00; Tuesday: 07:00 to 08:00; Wednesday: 07:00 to 08:00,Amenities,0
Safeway-Phoenix #752,74722-65080,4747 E Elliot Rd,,Phoenix,Arizona,85044,US,480-496-0076,33.348072,-111.981878,Today: 05:00 to 08:00; Tomorrow: 05:00 to 08:00; Saturday: 05:00 to 08:00; Sunday: 05:00 to 08:00; Monday: 05:00 to 08:00; Tuesday: 05:00 to 08:00; Wednesday: 05:00 to 08:00,Amenities,0
1st & Adams - Renaissance Downtown,50047-260706,100 North 1st Street,,Phoenix,Arizona,85004,US,6023330000,33.449417,-112.072688,Today: 05:30 to 09:00; Tomorrow: 05:30 to 09:00; Saturday: 05:30 to 09:00; Sunday: 05:30 to 09:00; Monday: 05:30 to 09:00; Tuesday: 05:30 to 09:00; Wednesday: 05:30 to 09:00,Amenities,0
First & Wetmore Rd,10708-251064,715 E. Wetmore Road,,Tucson,Arizona,85719,US,,32.28681,-110.960699,Today: 04:30 to 10:00; Tomorrow: 04:30 to 10:00; Saturday: 05:00 to 10:00; Sunday: 05:00 to 10:00; Monday: 04:30 to 10:00; Tuesday: 04:30 to 10:00; Wednesday: 04:30 to 10:00,Amenities,0
Loop 101 & Beardsley,5451-1387,3049 West Agua Fria Freeway,#1,Phoenix,Arizona,85027:85308,US,623-869-9744,33.666702,-112.124334,Today: 04:00 to 10:00; Tomorrow: 04:00 to 11:00; Saturday: 04:30 to 11:00; Sunday: 05:00 to 10:00; Monday: 04:00 to 10:00; Tuesday: 04:00 to 10:00; Wednesday: 04:00 to 10:00,Amenities,0
Frys - Mesa #611,19863-200586,4440 E Main St,,Mesa,Arizona,85220,US,480-218-8540,33.415563,-111.734572,Today: 05:00 to 08:00; Tomorrow: 05:00 to 08:00; Saturday: 05:00 to 08:00; Sunday: 05:00 to 08:00; Monday: 05:00 to 08:00; Tuesday: 05:00 to 08:00; Wednesday: 05:00 to 08:00,Amenities,0
"Broadway & Houghton, Tucson",6612-63459,50 South Houghton Road,#126,Tucson,Arizona,85748,US,520-298-0408,32.220442,-110.773956,Today: 04:30 to 08:00; Tomorrow: 04:30 to 08:00; Saturday: 05:00 to 08:00; Sunday: 05:00 to 08:00; Monday: 04:30 to 08:00; Tuesday: 04:30 to 08:00; Wednesday: 04:30 to 08:00,Amenities,0
Safeway - Chandler #1604,79796-111048,1159 W Chandler Blvd,,Chandler,Arizona,85224,US,480-726-7776,33.304236,-111.863162,Today: 06:00 to 07:00; Tomorrow: 06:00 to 07:00; Saturday: 06:00 to 07:00; Sunday: 06:00 to 07:00; Monday: 06:00 to 07:00; Tuesday: 06:00 to 07:00; Wednesday: 06:00 to 07:00,Amenities,0
"99th Ave. & Bell, Sun City",10094-99046,10001 W. Bell Road,#101,Sun City,Arizona,85374,US,623-583-1459,33.637847,-112.276692,Today: 03:30 to 07:00; Tomorrow: 03:30 to 07:00; Saturday: 04:30 to 07:00; Sunday: 05:00 to 06:00; Monday: 03:30 to 07:00; Tuesday: 03:30 to 07:00; Wednesday: 03:30 to 07:00,Amenities,0
Hyatt Sedona-Shoppes@Pinon Point,4133-147484,101 N SR 89A unit F28,,Sedona,Arizona,86326:86336,US,(928) 204-5951,34.866783,-111.762844,Today: 06:00 to 07:00; Tomorrow: 06:00 to 06:30; Saturday: 06:00 to 06:30; Sunday: 06:00 to 06:30; Monday: 06:00 to 07:00; Tuesday: 06:00 to 07:00; Wednesday: 06:00 to 07:00,Amenities,0
Chandler & W Parklane,20381-204925,"1245 W. CHANDLER BLVD, #1",,Chandler,Arizona,85224,US,602-622-9044,33.305188,-111.86312,Today: 04:30 to 09:00; Tomorrow: 04:30 to 09:00; Saturday: 05:00 to 09:00; Sunday: 05:00 to 09:00; Monday: 04:30 to 09:00; Tuesday: 04:30 to 09:00; Wednesday: 04:30 to 09:00,Amenities,0
Aramark - ASU Taylor Place,70064-138184,120 E Taylor Street,,Phoenix,Arizona,85004,US,602.496.6726,33.453529,-112.072734,Today: 06:00 to 10:00; Tomorrow: 06:00 to 08:00; Saturday: 08:00 to 08:00; Sunday: 08:00 to 10:00; Monday: 06:00 to 10:00; Tuesday: 06:00 to 10:00; Wednesday: 06:00 to 10:00,Amenities,0
Frys - Tucson #138,50852-270846,4036 N. 1st Ave,,Tucson,Arizona,85719,US,520 2938997,32.280497,-110.959448,Today: 05:00 to 08:00; Tomorrow: 05:00 to 08:00; Saturday: 05:00 to 08:00; Sunday: 05:00 to 08:00; Monday: 05:00 to 08:00; Tuesday: 05:00 to 08:00; Wednesday: 05:00 to 08:00,Amenities,0
Frys Peoria #657,49342-266924,25401 N. Lake Pleasant Pkwy,,Peoria,Arizona,85383,US,6232352350,33.71385,-112.271226,Today: 05:00 to 08:00; Tomorrow: 05:00 to 08:00; Saturday: 05:00 to 08:00; Sunday: 05:00 to 08:00; Monday: 05:00 to 08:00; Tuesday: 05:00 to 08:00; Wednesday: 05:00 to 08:00,Amenities,0
"Greenfield & Inverness, Mesa",13484-107641,1705 S. Greenfield Road,#101,Mesa,Arizona,85234,US,480-892-2497,33.384059,-111.736972,Today: 04:00 to 10:00; Tomorrow: 04:00 to 10:30; Saturday: 04:30 to 10:30; Sunday: 04:30 to 09:30; Monday: 04:00 to 10:00; Tuesday: 04:00 to 10:00; Wednesday: 04:00 to 10:00,Amenities,0
Safeway - Tucson #3322,47599-258965,10380 E Broadway Blvd,,Tucson,Arizona,85748,US,520-885-7777,32.219915,-110.771213,Today: 05:00 to 08:00; Tomorrow: 05:00 to 08:00; Saturday: 05:00 to 08:00; Sunday: 05:00 to 08:00; Monday: 05:00 to 08:00; Tuesday: 05:00 to 08:00; Wednesday: 05:00 to 08:00,Amenities,0
Safeway-Chandler #1605,74805-98888,1060 E Ray Rd,,Chandler,Arizona,85225,US,480-855-5005,33.321756,-111.822602,Today: 05:30 to 07:00; Tomorrow: 05:30 to 07:00; Saturday: 05:30 to 07:00; Sunday: 05:30 to 07:00; Monday: 05:30 to 07:00; Tuesday: 05:30 to 07:00; Wednesday: 05:30 to 07:00,Amenities,0
Bashas' Peoria #102,72590-102066,20351 N Lake Pleasant Rd,,Peoria,Arizona,85373,US,623-537-2320,33.668669,-112.278624,Today: 06:00 to 06:00; Tomorrow: 06:00 to 06:00; Saturday: 06:00 to 06:00; Sunday: 06:00 to 06:00; Monday: 06:00 to 06:00; Tuesday: 06:00 to 06:00; Wednesday: 06:00 to 06:00,Amenities,0
Frys - Flagstaff #104,23523-230691,201 N Switzer Canyon Dr,,,Arizona,86004,US,928-774-2719,35.19374,-111.634244,Today: 05:00 to 08:00; Tomorrow: 05:00 to 08:00; Saturday: 05:00 to 08:00; Sunday: 05:00 to 08:00; Monday: 05:00 to 08:00; Tuesday: 05:00 to 08:00; Wednesday: 05:00 to 08:00,Amenities,0
"Ray Road & Loop 101, Chandler",11984-104952,2885 W. Ray Road,#1,Chandler,Arizona,85226,US,480-963-2032,33.319833,-111.891429,Today: 04:00 to 09:00; Tomorrow: 04:00 to 09:00; Saturday: 04:30 to 09:00; Sunday: 05:00 to 08:00; Monday: 04:00 to 09:00; Tuesday: 04:00 to 09:00; Wednesday: 04:00 to 09:00,Amenities,0
Phoenix Convention Center,75382-102494,111 NW 3rd Street,,Phoenix,Arizona,85004,US,602-534-8901,33.449508,-112.071117,Today: 06:30 to 04:00; Tomorrow: 06:30 to 04:00; Saturday: Closed; Sunday: Closed; Monday: 06:30 to 04:00; Tuesday: 06:30 to 04:00; Wednesday: 06:30 to 04:00,Amenities,0
Bashas-Tucson #52,13122-152324,15310 N Oracle Rd,,,Arizona,85739,US,520-575-7300,32.484,-110.92228,Today: 06:00 to 07:00; Tomorrow: 06:00 to 07:00; Saturday: 06:00 to 07:00; Sunday: 06:00 to 06:00; Monday: 06:00 to 07:00; Tuesday: 06:00 to 07:00; Wednesday: 06:00 to 07:00,Amenities,0
"Fry's-Glendale, AZ #60",73971-138188,20220 N 59th Ave,,,Arizona,85027,US,623-825-3111,33.669608,-112.188458,Today: 05:00 to 07:00; Tomorrow: 05:00 to 07:00; Saturday: 05:00 to 07:00; Sunday: 05:00 to 07:00; Monday: 05:00 to 07:00; Tuesday: 05:00 to 07:00; Wednesday: 05:00 to 07:00,Amenities,0
"Greenfield & McKellips, Mesa",14520-119804,4409 E. McKellips Road,,Mesa,Arizona,85215,US,480-985-4520,33.450897,-111.734883,Today: 04:30 to 09:30; Tomorrow: 04:30 to 10:00; Saturday: 05:00 to 10:00; Sunday: 05:30 to 09:00; Monday: 04:30 to 09:30; Tuesday: 04:30 to 09:30; Wednesday: 04:30 to 09:30,Amenities,0
Safeway - Tucson #2060,3498-101171,1767 East Prince Rd,,Tucson,Arizona,85719,US,,32.273727,-110.945329,Today: 06:00 to 08:00; Tomorrow: 06:00 to 08:00; Saturday: 06:00 to 08:00; Sunday: 06:00 to 08:00; Monday: 06:00 to 08:00; Tuesday: 06:00 to 08:00; Wednesday: 06:00 to 08:00,Amenities,0
Macy's - San Tan Village,70372-127124,SR-202 Loop & William Fields Rd,,Gilbert,Arizona,85296,US,480 7926333,33.3344,-111.7464,Today: 09:30 to 08:30; Tomorrow: 09:30 to 08:30; Saturday: 09:30 to 08:30; Sunday: 10:30 to 06:30; Monday: 09:30 to 08:30; Tuesday: 09:30 to 08:30; Wednesday: 09:30 to 08:30,Amenities,0
"67th Ave. & Peoria, Glendale",10259-99925,6649 W. Peoria Avenue,1,,Arizona,85302,US,623-979-3190,33.581363,-112.202398,Today: 04:00 to 10:00; Tomorrow: 03:30 to 11:00; Saturday: 04:30 to 11:00; Sunday: 04:30 to 10:00; Monday: 04:00 to 10:00; Tuesday: 04:00 to 10:00; Wednesday: 04:00 to 10:00,Amenities,0
Route 66 & Ponderosa Pkwy,5988-211704,1688 East Route 66,,,Arizona,86001,US,9282146461,35.195466,-111.628175,Today: 04:30 to 10:30; Tomorrow: 04:30 to 10:30; Saturday: 04:30 to 10:30; Sunday: 04:30 to 10:30; Monday: 04:30 to 10:30; Tuesday: 04:30 to 10:30; Wednesday: 04:30 to 10:30,Amenities,0
"Elliot & Priest, Tempe",8103-95836,1620 W. Elliot Road,#106,,Arizona,85284,US,480-756-8750,33.349562,-111.964658,Today: 04:00 to 09:00; Tomorrow: 04:00 to 09:00; Saturday: 04:30 to 09:00; Sunday: 05:30 to 09:00; Monday: 04:00 to 09:00; Tuesday: 04:00 to 09:00; Wednesday: 04:00 to 09:00,Amenities,0
"3rd & Van Buren St., Phoenix",5837-27007,455 N. 3rd Street,100,Phoenix,Arizona,85004,US,602-258-8472,33.452089,-112.069294,Today: 05:00 to 08:00; Tomorrow: 05:00 to 09:00; Saturday: 06:00 to 09:30; Sunday: 06:00 to 07:30; Monday: 05:00 to 08:00; Tuesday: 05:00 to 08:00; Wednesday: 05:00 to 08:00,Amenities,0
"River & Campbell, Tucson",6944-89364,"1825 E. River Road, Suite 119",,Tucson,Arizona,85718,US,520-232-0105,32.287917,-110.944902,Today: 05:00 to 07:00; Tomorrow: 05:00 to 07:00; Saturday: 05:30 to 07:00; Sunday: 05:30 to 07:00; Monday: 05:00 to 07:00; Tuesday: 05:00 to 07:00; Wednesday: 05:00 to 07:00,Amenities,0
Super Target Peoria T-2227,76731-97576,24890 N Lake Pleasant Rd,,Peoria,Arizona,85383,US,623-376-7300,33.70992,-112.27267,Today: 07:00 to 09:00; Tomorrow: 07:00 to 09:00; Saturday: 07:00 to 09:00; Sunday: 08:00 to 08:00; Monday: 07:00 to 09:00; Tuesday: 07:00 to 09:00; Wednesday: 07:00 to 09:00,Amenities,0
Safeway - Mesa #1637,74801-99596,3622 E Southern Ave,,Mesa,Arizona,85206,US,480-807-0447,33.394836,-111.752311,Today: 06:00 to 06:00; Tomorrow: 06:00 to 06:00; Saturday: 06:00 to 06:00; Sunday: 06:00 to 06:00; Monday: 06:00 to 06:00; Tuesday: 06:00 to 06:00; Wednesday: 06:00 to 06:00,Amenities,0
Bashas N Swan Rd Tucson #100,73720-103459,3275 N Swan Rd,,Tucson,Arizona,85712,US,520-323-5820,32.266484,-110.893952,Today: 06:00 to 07:00; Tomorrow: 06:00 to 07:00; Saturday: 06:00 to 07:00; Sunday: 06:00 to 06:00; Monday: 06:00 to 07:00; Tuesday: 06:00 to 07:00; Wednesday: 06:00 to 07:00,Amenities,0
"Val Vista & Warner, Gilbert",5966-42259,1505 E. Warner Road,100,Gilbert,Arizona,85236,US,480-539-1984,33.334501,-111.758303,Today: 05:00 to 10:00; Tomorrow: 05:00 to 10:00; Saturday: 05:00 to 10:00; Sunday: 05:30 to 09:30; Monday: 05:00 to 10:00; Tuesday: 05:00 to 10:00; Wednesday: 05:00 to 10:00,Amenities,0
"75th Avenue & Thurderbird, Peoria",6733-77520,7518 W. Thunderbird Road,#4,Peoria,Arizona,85381;85351,US,623-979-5479,33.610435,-112.220375,Today: 04:30 to 09:30; Tomorrow: 04:30 to 10:00; Saturday: 05:00 to 10:00; Sunday: 05:30 to 09:00; Monday: 04:30 to 09:30; Tuesday: 04:30 to 09:30; Wednesday: 04:30 to 09:30,Amenities,0
Safeway - Flagstaff #1225,79536-101003,1500 East Cedar Ave,,Flagstaff,Arizona,86004,US,928-774-3774,35.219759,-111.621974,Today: 06:00 to 07:30; Tomorrow: 06:00 to 07:30; Saturday: 06:00 to 07:30; Sunday: 06:00 to 07:30; Monday: 06:00 to 07:30; Tuesday: 06:00 to 07:30; Wednesday: 06:00 to 07:30,Amenities,0
McClintock & Warner,21646-209784,1741 E. Warner Road,,,Arizona,85284,US,480-730-3077,33.334188,-111.912827,Today: 04:30 to 10:00; Tomorrow: 04:30 to 10:00; Saturday: 04:30 to 10:00; Sunday: 05:00 to 09:00; Monday: 04:30 to 10:00; Tuesday: 04:30 to 10:00; Wednesday: 04:30 to 10:00,Amenities,0
St Joseph Hospital,75274-80037,350 W. Thomas Rd.,,Phoenix,Arizona,85013-4408,US,602-406-4079,33.480333,-112.078782,Today: 05:30 to 08:30; Tomorrow: 05:30 to 08:30; Saturday: 06:00 to 12:00; Sunday: 06:00 to 12:00; Monday: 05:30 to 08:30; Tuesday: 05:30 to 08:30; Wednesday: 05:30 to 08:30,Amenities,0
"Skyline & Campbell, Tucson",8976-95252,6370 N. Campbell Avenue,#100,,Arizona,85718,US,520-529-9211,32.321848,-110.928719,Today: 04:30 to 07:30; Tomorrow: 04:30 to 07:30; Saturday: 04:30 to 07:30; Sunday: 04:30 to 07:30; Monday: 04:30 to 07:30; Tuesday: 04:30 to 07:30; Wednesday: 04:30 to 07:30,Amenities,0
67th Avenue & Beardsley,5376-1128,20249 N. 67th Ave.,# B,,Arizona,85308,US,(623) 362-9288,33.671724,-112.20241,Today: 04:30 to 09:00; Tomorrow: 04:30 to 09:00; Saturday: 04:30 to 09:00; Sunday: 04:30 to 09:00; Monday: 04:30 to 09:00; Tuesday: 04:30 to 09:00; Wednesday: 04:30 to 09:00,Amenities,0
"Val Vista & Southern, Mesa",10539-98366,3550 E. Southern Avenue,#104,Mesa,Arizona,85204,US,480-830-0152,33.394024,-111.754182,Today: 04:00 to 10:00; Tomorrow: 04:00 to 10:00; Saturday: 04:30 to 10:00; Sunday: 05:00 to 09:00; Monday: 04:00 to 10:00; Tuesday: 04:00 to 10:00; Wednesday: 04:00 to 10:00,Amenities,0
Safeway - Tucson #1984,74964-101016,9125 East Tanque Verde,,Tucson,Arizona,85715,US,520-760-6087,32.25185,-110.839193,Today: 05:00 to 08:00; Tomorrow: 05:00 to 08:00; Saturday: 05:00 to 08:00; Sunday: 05:00 to 08:00; Monday: 05:00 to 08:00; Tuesday: 05:00 to 08:00; Wednesday: 05:00 to 08:00,Amenities,0
"Fry's - Gilbert, AZ #52",25972-237346,855 W Warner Rd,,Gilbert,Arizona,85233,US,480-813-7388,33.334189,-111.807823,Today: 05:00 to 08:00; Tomorrow: 05:00 to 08:00; Saturday: 05:00 to 08:00; Sunday: 05:00 to 08:00; Monday: 05:00 to 08:00; Tuesday: 05:00 to 08:00; Wednesday: 05:00 to 08:00,Amenities,0
"Bell & 83rd, Peoria",5622-224206,8225 W Bell Road,,Peoria,Arizona,85382,US,623-878-1717,33.637716,-112.232619,Today: 04:30 to 11:00; Tomorrow: 04:00 to 12:00; Saturday: 04:00 to 12:00; Sunday: 04:00 to 11:00; Monday: 04:30 to 11:00; Tuesday: 04:30 to 11:00; Wednesday: 04:30 to 11:00,Amenities,0
Safeway-Tempe #1535,74486-96937,1515 E Elliott Rd,,,Arizona,85284,US,480-755-1844,33.348315,-111.913103,Today: 05:00 to 08:00; Tomorrow: 05:00 to 08:00; Saturday: 05:00 to 08:00; Sunday: 05:00 to 08:00; Monday: 05:00 to 08:00; Tuesday: 05:00 to 08:00; Wednesday: 05:00 to 08:00,Amenities,0
Safeway-Phoenix #174,74439-82503,520 W Osborn,,Phoenix,Arizona,85013,US,602-274-7422,33.488398,-112.081871,Today: 05:00 to 08:00; Tomorrow: 05:00 to 08:00; Saturday: 05:00 to 08:00; Sunday: 05:00 to 08:00; Monday: 05:00 to 08:00; Tuesday: 05:00 to 08:00; Wednesday: 05:00 to 08:00,Amenities,0
Safeway-Tucson #250,74847-98372,4752 E Sunrise Dr,,,Arizona,85718,US,520-299-3534,32.308266,-110.891495,Today: 06:00 to 08:00; Tomorrow: 06:00 to 08:00; Saturday: 06:00 to 08:00; Sunday: 06:00 to 08:00; Monday: 06:00 to 08:00; Tuesday: 06:00 to 08:00; Wednesday: 06:00 to 08:00,Amenities,0
Lake Pleasant & Happy Valley,11433-104335,24654 N. Lake Pleasant Parkway,#101,Peoria,Arizona,85383,US,623-561-0231,33.707654,-112.273234,Today: 04:30 to 09:00; Tomorrow: 04:30 to 09:30; Saturday: 04:30 to 09:30; Sunday: 04:30 to 09:00; Monday: 04:30 to 09:00; Tuesday: 04:30 to 09:00; Wednesday: 04:30 to 09:00,Amenities,0
"Val Vista & Baseline, Mesa",5672-2704,1939 S Val Vista Dr,#D,Mesa,Arizona,85204,US,480-892-3018,33.380781,-111.753422,Today: 04:30 to 10:00; Tomorrow: 04:30 to 10:00; Saturday: 04:30 to 10:00; Sunday: 05:30 to 09:00; Monday: 04:30 to 10:00; Tuesday: 04:30 to 10:00; Wednesday: 04:30 to 10:00,Amenities,0
Safeway - Tanque Verde #1988,74914-101169,7177 E Tanque Verde,,Tucson,Arizona,85715,US,520-731-0117,32.251925,-110.838721,Today: 05:00 to 08:00; Tomorrow: 05:00 to 08:00; Saturday: 05:00 to 08:00; Sunday: 05:00 to 08:00; Monday: 05:00 to 08:00; Tuesday: 05:00 to 08:00; Wednesday: 05:00 to 08:00,Amenities,0
Cooper & Warner,5377-239765,830 W Warner Rd,Suite 104,Gilbert,Arizona,85236,US,480-497-1504,33.336031,-111.807577,Today: 04:00 to 09:30; Tomorrow: 04:00 to 09:30; Saturday: 04:30 to 09:30; Sunday: 05:00 to 09:00; Monday: 04:00 to 09:30; Tuesday: 04:00 to 09:30; Wednesday: 04:00 to 09:30,Amenities,0
Target Peoria T-825,25205-237525,8055 W Bell Road,,Peoria,Arizona,85382,US,623-979-4484,33.638054,-112.230755,Today: 08:00 to 09:00; Tomorrow: 08:00 to 09:00; Saturday: 08:00 to 09:00; Sunday: 08:00 to 09:00; Monday: 08:00 to 09:00; Tuesday: 08:00 to 09:00; Wednesday: 08:00 to 09:00,Amenities,0
"Dobson & Warner, Chandler",6885-82582,"2050 N. Dobson Road, Suite 5",,Chandler,Arizona,85224;85225,US,480-782-9307,33.335483,-111.877792,Today: 04:30 to 08:00; Tomorrow: 04:30 to 08:00; Saturday: 04:30 to 08:00; Sunday: 05:30 to 08:00; Monday: 04:30 to 08:00; Tuesday: 04:30 to 08:00; Wednesday: 04:30 to 08:00,Amenities,0
Safeway-Phoenix #1591,79515-96792,6202 S 16th St,,Phoenix,Arizona,85040,US,602-268-0022,33.390497,-112.049142,Today: 05:00 to 08:00; Tomorrow: 05:00 to 08:00; Saturday: 05:00 to 08:00; Sunday: 05:00 to 08:00; Monday: 06:00 to 08:00; Tuesday: 06:00 to 08:00; Wednesday: 05:00 to 08:00,Amenities,0
Bashas' Tucson #71,73908-102067,6900 E Sunrise,,,Arizona,86718,US,520-299-0623,32.306419,-110.892082,Today: 06:00 to 07:00; Tomorrow: 06:00 to 07:00; Saturday: 06:00 to 07:00; Sunday: 06:00 to 06:00; Monday: 06:00 to 07:00; Tuesday: 06:00 to 07:00; Wednesday: 06:00 to 07:00,Amenities,0
Safeway-Glendale #1510,74450-94951,20205 N 67th Ave,100,,Arizona,85027,US,623-572-8814,33.668655,-112.202736,Today: 05:30 to 07:00; Tomorrow: 05:30 to 07:00; Saturday: 05:30 to 07:00; Sunday: 05:30 to 07:00; Monday: 05:30 to 07:00; Tuesday: 05:30 to 07:00; Wednesday: 05:30 to 07:00,Amenities,0
Safeway-Gilbert #1534,74237-64179,90 S Val Vista Dr,,Gilbert,Arizona,85296,US,480-545-7555,33.348892,-111.756804,Today: 05:30 to 08:00; Tomorrow: 05:30 to 08:00; Saturday: 06:00 to 08:00; Sunday: 06:00 to 08:00; Monday: 05:30 to 08:00; Tuesday: 05:30 to 08:00; Wednesday: 05:30 to 08:00,Amenities,0
"24th St & Baseline, Phoenix",9414-95702,2340 E. Baseline Road,#166,Phoenix,Arizona,85042,US,602-304-0263,33.37867,-112.030686,Today: 04:00 to 11:00; Tomorrow: 04:00 to 11:00; Saturday: 04:00 to 11:00; Sunday: 05:00 to 11:00; Monday: 04:00 to 11:00; Tuesday: 04:00 to 11:00; Wednesday: 04:00 to 11:00,Amenities,0
Safeway - Phoenix #2651,74998-101007,340 East McDowell Rd,,Phoenix,Arizona,85004,US,602-252-4538,33.466177,-112.067236,Today: 05:00 to 08:00; Tomorrow: 05:00 to 08:00; Saturday: 05:00 to 08:00; Sunday: 05:00 to 08:00; Monday: 05:00 to 08:00; Tuesday: 05:00 to 08:00; Wednesday: 05:00 to 08:00,Amenities,0
Sunrise & Swan - Tucson,5691-1945,4700 East Sunrise Drive,,,Arizona,86718,US,520-615-0881,32.306651,-110.891908,Today: 04:00 to 08:00; Tomorrow: 04:00 to 08:00; Saturday: 04:00 to 08:00; Sunday: 04:00 to 08:00; Monday: 04:00 to 08:00; Tuesday: 04:00 to 08:00; Wednesday: 04:00 to 08:00,Amenities,0
Albertsons-Peoria #991,73125-21397,8240 W Deer Valley Rd,,Peoria,Arizona,85382,US,6235725744,33.6817,-112.23607,Today: 05:30 to 08:00; Tomorrow: 05:30 to 08:00; Saturday: 05:30 to 08:00; Sunday: 05:30 to 08:00; Monday: 05:30 to 08:00; Tuesday: 05:30 to 08:00; Wednesday: 05:30 to 08:00,Amenities,0
Safeway - Mesa #1567,74802-99056,2740 E University Dr,,Mesa,Arizona,85213,US,480-833-8338,33.423986,-111.772175,Today: 05:00 to 07:00; Tomorrow: 05:00 to 07:00; Saturday: 05:00 to 07:00; Sunday: 05:00 to 07:00; Monday: 05:00 to 07:00; Tuesday: 05:00 to 07:00; Wednesday: 05:00 to 07:00,Amenities,0
Target S. Mountain Phoenix T-1905,76262-90568,2140 E Baseline,,Phoenix,Arizona,85042,US,602-281-1119,33.379091,-112.034174,Today: 08:00 to 10:00; Tomorrow: 08:00 to 10:00; Saturday: 08:00 to 10:00; Sunday: 08:00 to 09:00; Monday: 08:00 to 10:00; Tuesday: 08:00 to 10:00; Wednesday: 08:00 to 10:00,Amenities,0
"7th St & Willetta, Phoenix",5326-232507,550 E Willetta St,,Phoenix,Arizona,85006,US,6022579602,33.464165,-112.065384,Today: 04:30 to 09:00; Tomorrow: 04:30 to 09:00; Saturday: 05:00 to 08:00; Sunday: 05:00 to 08:00; Monday: 04:30 to 09:00; Tuesday: 04:30 to 09:00; Wednesday: 04:30 to 09:00,Amenities,0
Fry-s-Peoria #74,16389-164466,8375 W Deer Valley Rd,,Peoria,Arizona,85382,US,6235615504,33.681569,-112.241076,Today: 05:00 to 08:00; Tomorrow: 05:00 to 08:00; Saturday: 05:00 to 08:00; Sunday: 05:00 to 08:00; Monday: 05:00 to 08:00; Tuesday: 05:00 to 08:00; Wednesday: 05:00 to 08:00,Amenities,0
Baseline & Gilbert,5415-1160,2048 E. Baseline,Suite C-10,Mesa,Arizona,85204,US,(480) 497-8544,33.381335,-111.787151,Today: 04:30 to 09:00; Tomorrow: 04:30 to 09:00; Saturday: 05:30 to 09:00; Sunday: 05:30 to 09:00; Monday: 04:30 to 09:00; Tuesday: 04:30 to 09:00; Wednesday: 04:30 to 09:00,Amenities,0
Albertsons-Tempe AZ #940,73409-23371,750 E Guadalupe Rd,,,Arizona,85283,US,480-820-8166,33.364583,-111.929732,Today: 05:00 to 07:00; Tomorrow: 05:00 to 07:00; Saturday: 05:00 to 07:00; Sunday: 05:00 to 07:00; Monday: 05:00 to 07:00; Tuesday: 05:00 to 07:00; Wednesday: 05:00 to 07:00,Amenities,0
Park Central Mall - Phoenix,5480-1569,3110 North Central,Suite 185,Phoenix,Arizona,85012-3114,US,(602) 631-4409,33.4833,-112.075042,Today: 05:00 to 08:00; Tomorrow: 05:00 to 08:00; Saturday: 05:00 to 08:00; Sunday: 06:00 to 07:00; Monday: 05:00 to 08:00; Tuesday: 05:00 to 08:00; Wednesday: 05:00 to 08:00,Amenities,0
"75th Ave & Loop 101, Glendale",25584-240129,7510 W. Aspera Blvd. Suite #101,,,Arizona,85308,US,602-622-9043,33.670966,-112.220917,Today: 04:30 to 09:30; Tomorrow: 04:30 to 09:30; Saturday: 04:30 to 09:30; Sunday: 04:30 to 09:00; Monday: 04:30 to 09:30; Tuesday: 04:30 to 09:30; Wednesday: 04:30 to 09:30,Amenities,0
Frys - Gilbert #624,19229-199644,1845 E Baseline Rd,,Mesa,Arizona,85204,US,480-539-3700,33.379052,-111.791828,Today: 05:00 to 08:00; Tomorrow: 05:00 to 08:00; Saturday: 05:00 to 08:00; Sunday: 05:00 to 08:00; Monday: 05:00 to 08:00; Tuesday: 05:00 to 08:00; Wednesday: 05:00 to 08:00,Amenities,0
Safeway - Phoenix #257,79754-111084,8021 N 35th Avenue,,Phoenix,Arizona,85051,US,602-841-0117,33.553916,-112.132132,Today: 06:00 to 07:30; Tomorrow: 06:00 to 07:30; Saturday: 06:00 to 07:30; Sunday: 06:00 to 07:30; Monday: 06:00 to 07:30; Tuesday: